{
  "type": "FeatureCollection",
  "name": "no_app_jingzhang_constraints_data_gap",
  "metadata": {
    "coordinate_reference_system": "EPSG:4326",
    "area_calculation_crs": "EPSG:4548",
    "design_status": "concept_proposal_subject_to_professional_review",
    "data_gap_id": "DATA-GAP-001",
    "known_missing": [
      "official boundary and key-area polygons",
      "regulatory planning controls",
      "road redlines and sections",
      "existing buildings and ownership",
      "heritage protection boundaries",
      "municipal, fire, drainage and flood conditions",
      "public service facility baseline"
    ],
    "rule": "No constraint geometry is fabricated. Add official or cleared constraints before professional engineering use."
  },
  "features": []
}
