{
  "type": "FeatureCollection",
  "name": "no_app_jingzhang_land_use",
  "metadata": {
    "coordinate_reference_system": "EPSG:4326",
    "area_calculation_crs": "EPSG:4548",
    "design_status": "concept_proposal_subject_to_professional_review",
    "topology": "complete non-overlapping partition of provisional boundary"
  },
  "features": [
    {
      "type": "Feature",
      "id": "LU-001",
      "properties": {
        "id": "LU-001",
        "layer": "LAND_USE",
        "source_type": "agent_generated_design",
        "confidence": "medium",
        "geometry_role": "design_proposal",
        "land_use_code": "1401",
        "name_zh": "京张遗址公园与无门槛公共脊",
        "concept_note": "连续通行、绿地、文化与公共服务界面",
        "planning_status": "concept_only_not_approved_land_use",
        "area_sqm_declared": 2238652.689
      },
      "geometry": {
        "type": "Polygon",
        "coordinates": [
          [
            [
              116.34675916744735,
              39.93900022318688
            ],
            [
              116.34660521015257,
              39.94258506184221
            ],
            [
              116.34655433391575,
              39.94624515470012
            ],
            [
              116.34650361050747,
              39.949893672095584
            ],
            [
              116.34645287906964,
              39.95354218713721
            ],
            [
              116.34640213960049,
              39.95719069982489
            ],
            [
              116.34635139209826,
              39.9608392101586
            ],
            [
              116.34630083022232,
              39.964473798114746
            ],
            [
              116.34612333380751,
              39.968105676404946
            ],
            [
              116.34592671637863,
              39.97175337278035
            ],
            [
              116.34574764804597,
              39.97541952449293
            ],
            [
              116.34571926967016,
              39.97908451800352
            ],
            [
              116.34569101237197,
              39.98273314122929
            ],
            [
              116.34566274532224,
              39.98638229165421
            ],
            [
              116.34563915507078,
              39.990057761092174
            ],
            [
              116.34585835426721,
              39.993734032148524
            ],
            [
              116.34607600791192,
              39.997384034033765
            ],
            [
              116.34629368209707,
              40.00103403340597
            ],
            [
              116.34651126162491,
              40.004682098782666
            ],
            [
              116.34671104270535,
              40.00832886062384
            ],
            [
              116.34689991549823,
              40.01197748949086
            ],
            [
              116.34727783787353,
              40.0192771412983
            ],
            [
              116.34745724091229,
              40.02274187285089
            ],
            [
              116.34599311456105,
              40.026205785380235
            ],
            [
              116.34717145528701,
              40.02650015683657
            ],
            [
              116.3487016979391,
              40.02650017088029
            ],
            [
              116.35016848232671,
              40.02302962607488
            ],
            [
              116.34996975983321,
              40.01919471649532
            ],
            [
              116.34959155086638,
              40.01189507107353
            ],
            [
              116.34940241046675,
              40.00824404401346
            ],
            [
              116.34920214286504,
              40.00459102086214
            ],
            [
              116.34898418973636,
              40.00093909637209
            ],
            [
              116.34876637245972,
              39.997289100847766
            ],
            [
              116.34854857574945,
              39.99363910280911
            ],
            [
              116.34833236671592,
              39.990015368886795
            ],
            [
              116.34835547040772,
              39.98639354470878
            ],
            [
              116.34838358605165,
              39.9827454515232
            ],
            [
              116.3484117001537,
              39.97909682649862
            ],
            [
              116.34843968254974,
              39.975464567127396
            ],
            [
              116.34861681428814,
              39.971835150007195
            ],
            [
              116.34881328735139,
              39.96818748001113
            ],
            [
              116.34899219532468,
              39.964523780146756
            ],
            [
              116.3490430009477,
              39.96086134982096
            ],
            [
              116.34909360544644,
              39.95721283717372
            ],
            [
              116.34914420193813,
              39.9535643221728
            ],
            [
              116.34919479042456,
              39.94991580481825
            ],
            [
              116.34924537090747,
              39.94626728511015
            ],
            [
              116.34929578298531,
              39.94263033616447
            ],
            [
              116.34945154244969,
              39.93900022074019
            ],
            [
              116.34675916744735,
              39.93900022318688
            ]
          ]
        ]
      }
    },
    {
      "type": "Feature",
      "id": "LU-002",
      "properties": {
        "id": "LU-002",
        "layer": "LAND_USE",
        "source_type": "agent_generated_design",
        "confidence": "medium",
        "geometry_role": "design_proposal",
        "land_use_code": "05",
        "name_zh": "城市型智能服务与商业",
        "concept_note": "大钟寺日常服务发布室",
        "planning_status": "concept_only_not_approved_land_use",
        "area_sqm_declared": 1672495.006
      },
      "geometry": {
        "type": "Polygon",
        "coordinates": [
          [
            [
              116.3553,
              39.939
            ],
            [
              116.34070000000001,
              39.93899999999999
            ],
            [
              116.34029707989795,
              39.953510817352914
            ],
            [
              116.3464528304453,
              39.95354568383687
            ],
            [
              116.34645287906964,
              39.95354218713721
            ],
            [
              116.34650361050747,
              39.949893672095584
            ],
            [
              116.34655433391575,
              39.94624515470012
            ],
            [
              116.34660521015257,
              39.94258506184221
            ],
            [
              116.34675916744735,
              39.93900022318688
            ],
            [
              116.34945154244969,
              39.93900022074019
            ],
            [
              116.34929578298531,
              39.94263033616447
            ],
            [
              116.34924537090747,
              39.94626728511015
            ],
            [
              116.34919479042456,
              39.94991580481825
            ],
            [
              116.34914425042547,
              39.95356082547091
            ],
            [
              116.35530001628042,
              39.95359522222922
            ],
            [
              116.3553,
              39.939
            ]
          ]
        ]
      }
    },
    {
      "type": "Feature",
      "id": "LU-003",
      "properties": {
        "id": "LU-003",
        "layer": "LAND_USE",
        "source_type": "agent_generated_design",
        "confidence": "medium",
        "geometry_role": "design_proposal",
        "land_use_code": "07",
        "name_zh": "职住生活与社区服务",
        "concept_note": "基本服务与居住生活并置",
        "planning_status": "concept_only_not_approved_land_use",
        "area_sqm_declared": 1728966.583
      },
      "geometry": {
        "type": "MultiPolygon",
        "coordinates": [
          [
            [
              [
                116.3461215378809,
                39.96813899687974
              ],
              [
                116.34612333380751,
                39.968105676404946
              ],
              [
                116.34630083022232,
                39.964473798114746
              ],
              [
                116.34635139209826,
                39.9608392101586
              ],
              [
                116.34640213960049,
                39.95719069982489
              ],
              [
                116.3464528304453,
                39.95354568383687
              ],
              [
                116.34029707989795,
                39.953510817352914
              ],
              [
                116.33989166606412,
                39.968103687635235
              ],
              [
                116.3461215378809,
                39.96813899687974
              ]
            ]
          ],
          [
            [
              [
                116.35530001628042,
                39.95359522222922
              ],
              [
                116.34914425042547,
                39.95356082547091
              ],
              [
                116.34914420193813,
                39.9535643221728
              ],
              [
                116.34909360544644,
                39.95721283717372
              ],
              [
                116.3490430009477,
                39.96086134982096
              ],
              [
                116.34899219532468,
                39.964523780146756
              ],
              [
                116.34881491462372,
                39.96815415854433
              ],
              [
                116.3550449694261,
                39.968188989207874
              ],
              [
                116.3553,
                39.965
              ],
              [
                116.35530001628042,
                39.95359522222922
              ]
            ]
          ]
        ]
      }
    },
    {
      "type": "Feature",
      "id": "LU-004",
      "properties": {
        "id": "LU-004",
        "layer": "LAND_USE",
        "source_type": "agent_generated_design",
        "confidence": "medium",
        "geometry_role": "design_proposal",
        "land_use_code": "0803",
        "name_zh": "文化展示与公共学习",
        "concept_note": "百年京张、中关村与AI新文化",
        "planning_status": "concept_only_not_approved_land_use",
        "area_sqm_declared": 1646442.629
      },
      "geometry": {
        "type": "MultiPolygon",
        "coordinates": [
          [
            [
              [
                116.34019665870896,
                39.98270056586796
              ],
              [
                116.34569102344048,
                39.98273171218974
              ],
              [
                116.34571926967016,
                39.97908451800352
              ],
              [
                116.34574764804597,
                39.97541952449293
              ],
              [
                116.34592671637863,
                39.97175337278035
              ],
              [
                116.3461215378809,
                39.96813899687974
              ],
              [
                116.33989166606412,
                39.968103687635235
              ],
              [
                116.3397,
                39.975
              ],
              [
                116.34019665870896,
                39.98270056586796
              ]
            ]
          ],
          [
            [
              [
                116.34881491462372,
                39.96815415854433
              ],
              [
                116.34881328735139,
                39.96818748001113
              ],
              [
                116.34861681428814,
                39.971835150007195
              ],
              [
                116.34843968254974,
                39.975464567127396
              ],
              [
                116.3484117001537,
                39.97909682649862
              ],
              [
                116.34838358605165,
                39.9827454515232
              ],
              [
                116.34838357503924,
                39.98274688056347
              ],
              [
                116.35387795243325,
                39.9827776388478
              ],
              [
                116.3550449694261,
                39.968188989207874
              ],
              [
                116.34881491462372,
                39.96815415854433
              ]
            ]
          ]
        ]
      }
    },
    {
      "type": "Feature",
      "id": "LU-005",
      "properties": {
        "id": "LU-005",
        "layer": "LAND_USE",
        "source_type": "agent_generated_design",
        "confidence": "medium",
        "geometry_role": "design_proposal",
        "land_use_code": "0802",
        "name_zh": "近校科研与成果转化",
        "concept_note": "原点社区共创学习室",
        "planning_status": "concept_only_not_approved_land_use",
        "area_sqm_declared": 1409451.029
      },
      "geometry": {
        "type": "MultiPolygon",
        "coordinates": [
          [
            [
              [
                116.34607272450802,
                39.99732897467774
              ],
              [
                116.34585835426721,
                39.993734032148524
              ],
              [
                116.34563915507078,
                39.990057761092174
              ],
              [
                116.34566274532224,
                39.98638229165421
              ],
              [
                116.34569101237197,
                39.98273314122929
              ],
              [
                116.34569102344048,
                39.98273171218974
              ],
              [
                116.34019665870896,
                39.98270056586796
              ],
              [
                116.34113861172393,
                39.99730103000567
              ],
              [
                116.34607272450802,
                39.99732897467774
              ]
            ]
          ],
          [
            [
              [
                116.35387795243325,
                39.9827776388478
              ],
              [
                116.34838357503924,
                39.98274688056347
              ],
              [
                116.34835547040772,
                39.98639354470878
              ],
              [
                116.34833236671592,
                39.990015368886795
              ],
              [
                116.34854857574945,
                39.99363910280911
              ],
              [
                116.34876637245972,
                39.997289100847766
              ],
              [
                116.3487696580266,
                39.99734416014519
              ],
              [
                116.35370378140554,
                39.99737177997888
              ],
              [
                116.3533,
                39.989999999999995
              ],
              [
                116.35387795243325,
                39.9827776388478
              ]
            ]
          ]
        ]
      }
    },
    {
      "type": "Feature",
      "id": "LU-006",
      "properties": {
        "id": "LU-006",
        "layer": "LAND_USE",
        "source_type": "agent_generated_design",
        "confidence": "medium",
        "geometry_role": "design_proposal",
        "land_use_code": "05",
        "name_zh": "科技服务与国际交往",
        "concept_note": "中关村科技服务翼接口",
        "planning_status": "concept_only_not_approved_land_use",
        "area_sqm_declared": 1358393.999
      },
      "geometry": {
        "type": "MultiPolygon",
        "coordinates": [
          [
            [
              [
                116.34198779683791,
                40.011900924349305
              ],
              [
                116.34689738962574,
                40.011928697140746
              ],
              [
                116.34671104270535,
                40.00832886062384
              ],
              [
                116.34651126162491,
                40.004682098782666
              ],
              [
                116.34629368209707,
                40.00103403340597
              ],
              [
                116.34607600791192,
                39.997384034033765
              ],
              [
                116.34607272450802,
                39.99732897467774
              ],
              [
                116.34113861172393,
                39.99730103000567
              ],
              [
                116.34169999999999,
                40.00600000000001
              ],
              [
                116.34198779683791,
                40.011900924349305
              ]
            ]
          ],
          [
            [
              [
                116.3487696580266,
                39.99734416014519
              ],
              [
                116.34898418973636,
                40.00093909637209
              ],
              [
                116.34920214286504,
                40.00459102086214
              ],
              [
                116.34940241046675,
                40.00824404401346
              ],
              [
                116.34959155086638,
                40.01189507107353
              ],
              [
                116.34959407865726,
                40.01194386338054
              ],
              [
                116.35450368194167,
                40.011971313968374
              ],
              [
                116.35370378140554,
                39.99737177997888
              ],
              [
                116.3487696580266,
                39.99734416014519
              ]
            ]
          ]
        ]
      }
    },
    {
      "type": "Feature",
      "id": "LU-007",
      "properties": {
        "id": "LU-007",
        "layer": "LAND_USE",
        "source_type": "agent_generated_design",
        "confidence": "medium",
        "geometry_role": "design_proposal",
        "land_use_code": "0802",
        "name_zh": "全栈研发与受控验证",
        "concept_note": "众智园互操作测试室",
        "planning_status": "concept_only_not_approved_land_use",
        "area_sqm_declared": 1358423.45
      },
      "geometry": {
        "type": "MultiPolygon",
        "coordinates": [
          [
            [
              [
                116.34959407865726,
                40.01194386338054
              ],
              [
                116.34996975983321,
                40.01919471649532
              ],
              [
                116.35016848232671,
                40.02302962607488
              ],
              [
                116.3487016979391,
                40.02650017088029
              ],
              [
                116.3553,
                40.0265
              ],
              [
                116.35450368194167,
                40.011971313968374
              ],
              [
                116.34959407865726,
                40.01194386338054
              ]
            ]
          ],
          [
            [
              [
                116.34791692215279,
                40.02650016620245
              ],
              [
                116.34717145528701,
                40.02650015683657
              ],
              [
                116.34599311456105,
                40.026205785380235
              ],
              [
                116.34745724091229,
                40.02274187285089
              ],
              [
                116.34727783787353,
                40.0192771412983
              ],
              [
                116.34689991549823,
                40.01197748949086
              ],
              [
                116.34689738962574,
                40.011928697140746
              ],
              [
                116.34198779683791,
                40.011900924349305
              ],
              [
                116.34270000000001,
                40.0265
              ],
              [
                116.34791692215279,
                40.02650016620245
              ]
            ]
          ]
        ]
      }
    }
  ]
}
