{
  "type": "FeatureCollection",
  "name": "no_app_jingzhang_public_space",
  "metadata": {
    "coordinate_reference_system": "EPSG:4326",
    "area_calculation_crs": "EPSG:4548",
    "design_status": "concept_proposal_subject_to_professional_review",
    "scenario_count": 12,
    "industry_test_count": 4
  },
  "features": [
    {
      "type": "Feature",
      "id": "PUBLIC-001",
      "properties": {
        "id": "PUBLIC-001",
        "layer": "PUBLIC_SPACE",
        "source_type": "agent_generated_design",
        "confidence": "medium",
        "geometry_role": "design_proposal",
        "name_zh": "京张无账号导览",
        "scenario_card": "SC-01",
        "interface_l0": "实体总图与触觉标识",
        "optional_ai": "opt-in only; no mandatory account or facial recognition",
        "human_fallback": "visible on-site human review or service path",
        "test_scenario": false,
        "area_sqm_declared": 45166.298
      },
      "geometry": {
        "type": "Polygon",
        "coordinates": [
          [
            [
              116.34752165281502,
              39.94347831096676
            ],
            [
              116.34750243246954,
              39.943373291730154
            ],
            [
              116.34746993140504,
              39.94327022826726
            ],
            [
              116.34742446268024,
              39.94317011312513
            ],
            [
              116.34736646423298,
              39.94307391045294
            ],
            [
              116.34729649466081,
              39.9429825467172
            ],
            [
              116.34721522783974,
              39.94289690178016
            ],
            [
              116.34712344643323,
              39.94281780042692
            ],
            [
              116.34702203435405,
              39.942746004423256
            ],
            [
              116.34691196825149,
              39.94268220518025
            ],
            [
              116.34679430810561,
              39.942627017096555
            ],
            [
              116.34667018701995,
              39.9425809716423
            ],
            [
              116.3465408003101,
              39.94254451224148
            ],
            [
              116.34640739399359,
              39.94251799000241
            ],
            [
              116.34627125279191,
              39.94250166033677
            ],
            [
              116.3461336877601,
              39.9424956805005
            ],
            [
              116.34599602366272,
              39.942500108079535
            ],
            [
              116.34585958621808,
              39.942514900435334
            ],
            [
              116.34572568933325,
              39.942539915115475
            ],
            [
              116.34559562245269,
              39.94257491122537
            ],
            [
              116.34547063814242,
              39.94261955174768
            ],
            [
              116.34535194002886,
              39.942673406787605
            ],
            [
              116.34524067120898,
              39.94273595771216
            ],
            [
              116.34513790324277,
              39.942806602144174
            ],
            [
              116.34504462583422,
              39.942884659762655
            ],
            [
              116.3449617373003,
              39.94296937885377
            ],
            [
              116.34489003591952,
              39.94305994354927
            ],
            [
              116.34483021224338,
              39.943155481682915
            ],
            [
              116.34478284244489,
              39.94325507318916
            ],
            [
              116.34474838276832,
              39.943357758963025
            ],
            [
              116.3447271651334,
              39.943462550096314
            ],
            [
              116.34471939393681,
              39.94356843740083
            ],
            [
              116.34472514408128,
              39.94367440112712
            ],
            [
              116.34474436025198,
              39.94377942078507
            ],
            [
              116.3447768574468,
              39.94388248497194
            ],
            [
              116.34482232275569,
              39.943982601112815
            ],
            [
              116.34488031837208,
              39.94407880502017
            ],
            [
              116.34495028580726,
              39.94417017017998
            ],
            [
              116.34503155126734,
              39.944255816675344
            ],
            [
              116.34512333214111,
              39.9443349196612
            ],
            [
              116.34522474453628,
              39.944406717309086
            ],
            [
              116.3453348117915,
              39.944470518144705
            ],
            [
              116.34545247388232,
              39.9445257077082
            ],
            [
              116.34557659763048,
              39.944571754472584
            ],
            [
              116.34570598761809,
              39.944608214963516
            ],
            [
              116.34583939770167,
              39.94463473803081
            ],
            [
              116.34597554301489,
              39.94465106823089
            ],
            [
              116.34611311234478,
              39.94465704828735
            ],
            [
              116.3462507807616,
              39.944652620605744
            ],
            [
              116.34638722238103,
              39.9446378278286
            ],
            [
              116.34652112313556,
              39.94461281242448
            ],
            [
              116.34665119343202,
              39.94457781531585
            ],
            [
              116.34677618057313,
              39.944533173558376
            ],
            [
              116.34689488082368,
              39.944479317094356
            ],
            [
              116.34700615100455,
              39.9444167646115
            ],
            [
              116.3471089195035,
              39.94434611854684
            ],
            [
              116.34720219659606,
              39.944268059284155
            ],
            [
              116.34728508397735,
              39.94418333860043
            ],
            [
              116.34735678341318,
              39.94409277242514
            ],
            [
              116.34741660442684,
              39.943997232981346
            ],
            [
              116.34746397094756,
              39.94389764038498
            ],
            [
              116.34749842685707,
              39.94379495378292
            ],
            [
              116.34751964038041,
              39.94369016211517
            ],
            [
              116.34752740727892,
              39.94358427459047
            ],
            [
              116.34752165281502,
              39.94347831096676
            ]
          ]
        ]
      }
    },
    {
      "type": "Feature",
      "id": "PUBLIC-002",
      "properties": {
        "id": "PUBLIC-002",
        "layer": "PUBLIC_SPACE",
        "source_type": "agent_generated_design",
        "confidence": "medium",
        "geometry_role": "design_proposal",
        "name_zh": "慢行友好路线",
        "scenario_card": "SC-02",
        "interface_l0": "固定方向、休息点与人工问路",
        "optional_ai": "opt-in only; no mandatory account or facial recognition",
        "human_fallback": "visible on-site human review or service path",
        "test_scenario": false,
        "area_sqm_declared": 45166.298
      },
      "geometry": {
        "type": "Polygon",
        "coordinates": [
          [
            [
              116.35103094423414,
              39.95051271552554
            ],
            [
              116.35099843462714,
              39.950409653108814
            ],
            [
              116.35095295615373,
              39.950309539394304
            ],
            [
              116.3508949468457,
              39.950213338517464
            ],
            [
              116.35082496540512,
              39.950121976927484
            ],
            [
              116.35074368582232,
              39.95003633446594
            ],
            [
              116.35065189088371,
              39.94995723589412
            ],
            [
              116.35055046463238,
              39.949885442950944
            ],
            [
              116.350440383854,
              39.94982164701807
            ],
            [
              116.35032270867003,
              39.94976646246225
            ],
            [
              116.35019857232884,
              39.94972042071963
            ],
            [
              116.35006917029284,
              39.94968396517845
            ],
            [
              116.34993574872719,
              39.94965744690985
            ],
            [
              116.34979959250022,
              39.94964112128732
            ],
            [
              116.3496620128116,
              39.94963514552783
            ],
            [
              116.34952433456706,
              39.94963957717805
            ],
            [
              116.34938788362112,
              39.949654373560236
            ],
            [
              116.34925397401086,
              39.94967939218322
            ],
            [
              116.34912389530331,
              39.94971439211442
            ],
            [
              116.34899890017829,
              39.94975903629974
            ],
            [
              116.34888019236645,
              39.94981289480907
            ],
            [
              116.34876891505813,
              39.94987544897605
            ],
            [
              116.34866613989503,
              39.94994609639228
            ],
            [
              116.3485728566505,
              39.95002415670804
            ],
            [
              116.34848996369773,
              39.95010887818349
            ],
            [
              116.34841825935779,
              39.950199444927485
            ],
            [
              116.34835843421065,
              39.950294984754024
            ],
            [
              116.34831106444356,
              39.95039457758126
            ],
            [
              116.3482766063005,
              39.950497264291485
            ],
            [
              116.3482553916865,
              39.950602055967515
            ],
            [
              116.34824762496908,
              39.9507079434159
            ],
            [
              116.34825338100788,
              39.95081390688578
            ],
            [
              116.34827260443134,
              39.95091892588955
            ],
            [
              116.34830511016754,
              39.95102198903074
            ],
            [
              116.34835058522418,
              39.95112210374451
            ],
            [
              116.34840859170083,
              39.95121830585704
            ],
            [
              116.34847857100416,
              39.951309668871616
            ],
            [
              116.34855984922604,
              39.95139531289197
            ],
            [
              116.34865164363231,
              39.95147441309687
            ],
            [
              116.34875307020039,
              39.95154620768464
            ],
            [
              116.34886315213237,
              39.951610005210455
            ],
            [
              116.34898082926249,
              39.951665191246306
            ],
            [
              116.34910496826762,
              39.951711234299204
            ],
            [
              116.34923437358293,
              39.95174769093052
            ],
            [
              116.34936779891726,
              39.95177421002724
            ],
            [
              116.34950395925743,
              39.95179053618405
            ],
            [
              116.34964154324575,
              39.95179651216345
            ],
            [
              116.34977922581122,
              39.95179208041033
            ],
            [
              116.34991568093325,
              39.95177728360636
            ],
            [
              116.35004959441433,
              39.951752264258936
            ],
            [
              116.35017967653864,
              39.95171726332846
            ],
            [
              116.35030467449506,
              39.95167261790746
            ],
            [
              116.35042338444414,
              39.951618757973506
            ],
            [
              116.35053466311338,
              39.95155620224774
            ],
            [
              116.3506374388088,
              39.95148555319842
            ],
            [
              116.35073072173661,
              39.951407491238065
            ],
            [
              116.35081361353579,
              39.95132276816968
            ],
            [
              116.35088531592959,
              39.95123219994566
            ],
            [
              116.35094513841278,
              39.951136658808856
            ],
            [
              116.35099250490056,
              39.95103706489147
            ],
            [
              116.3510269592749,
              39.95093437735312
            ],
            [
              116.35104816977572,
              39.9508295851428
            ],
            [
              116.35105593219346,
              39.95072369747452
            ],
            [
              116.3510501718337,
              39.95061773410753
            ],
            [
              116.35103094423414,
              39.95051271552554
            ]
          ]
        ]
      }
    },
    {
      "type": "Feature",
      "id": "PUBLIC-003",
      "properties": {
        "id": "PUBLIC-003",
        "layer": "PUBLIC_SPACE",
        "source_type": "agent_generated_design",
        "confidence": "medium",
        "geometry_role": "design_proposal",
        "name_zh": "多语公共发布",
        "scenario_card": "SC-03",
        "interface_l0": "中英要点和现场服务",
        "optional_ai": "opt-in only; no mandatory account or facial recognition",
        "human_fallback": "visible on-site human review or service path",
        "test_scenario": false,
        "area_sqm_declared": 45166.298
      },
      "geometry": {
        "type": "Polygon",
        "coordinates": [
          [
            [
              116.34730465495579,
              39.95761140536323
            ],
            [
              116.34727214773983,
              39.95750834204524
            ],
            [
              116.34722667015805,
              39.957408226996925
            ],
            [
              116.34716866023362,
              39.95731202436658
            ],
            [
              116.34709867667465,
              39.95722066062028
            ],
            [
              116.34701739349184,
              39.95713501562036
            ],
            [
              116.3469255935063,
              39.957055914152555
            ],
            [
              116.34682416080972,
              39.95698411798368
            ],
            [
              116.34671407224988,
              39.956920318526414
            ],
            [
              116.34659638802316,
              39.95686513018149
            ],
            [
              116.346472241465,
              39.956819084421504
            ],
            [
              116.34634282813622,
              39.95678262467341
            ],
            [
              116.34620939431073,
              39.95675610204884
            ],
            [
              116.34607322497492,
              39.956739771963214
            ],
            [
              116.34593563145465,
              39.95673379167648
            ],
            [
              116.34579793878886,
              39.956738218778916
            ],
            [
              116.34566147297096,
              39.956753010636554
            ],
            [
              116.34552754818118,
              39.956778024801814
            ],
            [
              116.34539745413271,
              39.95681302038506
            ],
            [
              116.34527244365313,
              39.956857660374034
            ],
            [
              116.34515372062093,
              39.956911514879046
            ],
            [
              116.345042428373,
              39.956974065272306
            ],
            [
              116.34493963869492,
              39.95704470918178
            ],
            [
              116.34484634149979,
              39.95712276629148
            ],
            [
              116.34476343529516,
              39.957207484892514
            ],
            [
              116.3446917185297,
              39.95729804912135
            ],
            [
              116.34463188190308,
              39.957393586816295
            ],
            [
              116.34458450171314,
              39.95749317791597
            ],
            [
              116.34455003430416,
              39.957595863319376
            ],
            [
              116.34452881167044,
              39.957700654121865
            ],
            [
              116.34452103825679,
              39.957806541138424
            ],
            [
              116.34452678898738,
              39.95791250462238
            ],
            [
              116.34454600854176,
              39.95801752408599
            ],
            [
              116.34457851188525,
              39.9581205881283
            ],
            [
              116.34462398604869,
              39.95822070417588
            ],
            [
              116.34468199314024,
              39.958316908042
            ],
            [
              116.34475197456068,
              39.95840827321312
            ],
            [
              116.34483325638148,
              39.958493919772124
            ],
            [
              116.3449250558339,
              39.958573022873395
            ],
            [
              116.34502648884671,
              39.95864482068732
            ],
            [
              116.34513657855999,
              39.958708621738
            ],
            [
              116.34525426473299,
              39.95876381156348
            ],
            [
              116.34537841395556,
              39.95880985863427
            ],
            [
              116.34550783056439,
              39.95884631947301
            ],
            [
              116.34564126815962,
              39.95887284292622
            ],
            [
              116.34577744160993,
              39.958889173546574
            ],
            [
              116.34591503943132,
              39.9588951540536
            ],
            [
              116.34605273641961,
              39.95889072684856
            ],
            [
              116.34618920641529,
              39.95887593456933
            ],
            [
              116.34632313507753,
              39.958850919679726
            ],
            [
              116.34645323254436,
              39.95881592309725
            ],
            [
              116.34657824585679,
              39.958771281872494
            ],
            [
              116.34669697102753,
              39.95871742594266
            ],
            [
              116.34680826463743,
              39.958654873990305
            ],
            [
              116.34691105484865,
              39.958584228447386
            ],
            [
              116.34700435172756,
              39.95850616969263
            ],
            [
              116.34708725677875,
              39.95842144949818
            ],
            [
              116.3471589715979,
              39.958330883788776
            ],
            [
              116.34721880556013,
              39.95823534478305
            ],
            [
              116.34726618247002,
              39.958135752592696
            ],
            [
              116.34730064610928,
              39.95803306636068
            ],
            [
              116.3473218646285,
              39.95792827502345
            ],
            [
              116.347329633741,
              39.9578223877866
            ],
            [
              116.34732387868792,
              39.957716424405255
            ],
            [
              116.34730465495579,
              39.95761140536323
            ]
          ]
        ]
      }
    },
    {
      "type": "Feature",
      "id": "PUBLIC-004",
      "properties": {
        "id": "PUBLIC-004",
        "layer": "PUBLIC_SPACE",
        "source_type": "agent_generated_design",
        "confidence": "medium",
        "geometry_role": "design_proposal",
        "name_zh": "人才服务接力",
        "scenario_card": "SC-04",
        "interface_l0": "纸质清单与人工初诊",
        "optional_ai": "opt-in only; no mandatory account or facial recognition",
        "human_fallback": "visible on-site human review or service path",
        "test_scenario": false,
        "area_sqm_declared": 45166.298
      },
      "geometry": {
        "type": "Polygon",
        "coordinates": [
          [
            [
              116.3508338578268,
              39.96475082340554
            ],
            [
              116.35080134206233,
              39.96464776113417
            ],
            [
              116.35075585472507,
              39.96454764751417
            ],
            [
              116.35069783393214,
              39.96445144668
            ],
            [
              116.35062783849638,
              39.96436008508051
            ],
            [
              116.35054654254282,
              39.96427444255729
            ],
            [
              116.35045472901558,
              39.964195343872234
            ],
            [
              116.35035328213677,
              39.96412355076535
            ],
            [
              116.3502431788907,
              39.96405975461986
            ],
            [
              116.3501254796152,
              39.96400456980455
            ],
            [
              116.35000131779064,
              39.96395852775803
            ],
            [
              116.34987188912484,
              39.9639220718715
            ],
            [
              116.34973844003933,
              39.963895553219395
            ],
            [
              116.3496022556675,
              39.96387922717887
            ],
            [
              116.34946464748003,
              39.96387325097095
            ],
            [
              116.34932694065698,
              39.96387768214661
            ],
            [
              116.34919046132812,
              39.96389247803269
            ],
            [
              116.34905652380381,
              39.96391749614277
            ],
            [
              116.34892641791987,
              39.96395249554926
            ],
            [
              116.34880139661784,
              39.963997139203094
            ],
            [
              116.34868266388041,
              39.96405099717929
            ],
            [
              116.3485713631379,
              39.96411355081662
            ],
            [
              116.34846856625778,
              39.96418419771184
            ],
            [
              116.34837526322245,
              39.96426225752021
            ],
            [
              116.34829235259576,
              39.964346978506846
            ],
            [
              116.34822063286896,
              39.964437544785234
            ],
            [
              116.34816079477025,
              39.96453308417396
            ],
            [
              116.34811341461165,
              39.96463267659534
            ],
            [
              116.34807894873722,
              39.964735362935635
            ],
            [
              116.34805772912645,
              39.964840154281184
            ],
            [
              116.3480499601951,
              39.96494604144175
            ],
            [
              116.34805571682416,
              39.96505200466924
            ],
            [
              116.3480749436364,
              39.96515702347836
            ],
            [
              116.34810745552733,
              39.965260086474544
            ],
            [
              116.34815293944538,
              39.96536020109432
            ],
            [
              116.34821095740486,
              39.965456403164794
            ],
            [
              116.34828095070185,
              39.96554776618962
            ],
            [
              116.34836224529349,
              39.96563341027243
            ],
            [
              116.34845405828803,
              39.9657125105914
            ],
            [
              116.34855550548377,
              39.96578430534371
            ],
            [
              116.34866560988424,
              39.96584810308294
            ],
            [
              116.34878331110724,
              39.96590328937905
            ],
            [
              116.34890747559763,
              39.965949332736486
            ],
            [
              116.34903690754507,
              39.96598578971371
            ],
            [
              116.34917036040193,
              39.966012309194376
            ],
            [
              116.34930654888988,
              39.96602863576943
            ],
            [
              116.34944416138013,
              39.96603461219738
            ],
            [
              116.34958187252718,
              39.966030180918764
            ],
            [
              116.3497183560351,
              39.9660153846107
            ],
            [
              116.34985229743299,
              39.96599036577578
            ],
            [
              116.34998240673615,
              39.96595536536954
            ],
            [
              116.3501074308716,
              39.9659107204794
            ],
            [
              116.3502261657478,
              39.96585686107786
            ],
            [
              116.35033746785221,
              39.965794305880934
            ],
            [
              116.35044026526508,
              39.96572365735181
            ],
            [
              116.35053356798346,
              39.965645595898
            ],
            [
              116.35061647745574,
              39.96556087331765
            ],
            [
              116.35068819523502,
              39.96547030555846
            ],
            [
              116.35074803066792,
              39.96537476485881
            ],
            [
              116.35079540754491,
              39.965275171346725
            ],
            [
              116.35082986964798,
              39.96517248417789
            ],
            [
              116.35085108514261,
              39.965067692297794
            ],
            [
              116.35085884977121,
              39.964961804917216
            ],
            [
              116.35085308881814,
              39.96485584179268
            ],
            [
              116.3508338578268,
              39.96475082340554
            ]
          ]
        ]
      }
    },
    {
      "type": "Feature",
      "id": "PUBLIC-005",
      "properties": {
        "id": "PUBLIC-005",
        "layer": "PUBLIC_SPACE",
        "source_type": "agent_generated_design",
        "confidence": "medium",
        "geometry_role": "design_proposal",
        "name_zh": "机器人礼让测试",
        "scenario_card": "SC-05",
        "interface_l0": "物理边界、急停与安全员",
        "optional_ai": "opt-in only; no mandatory account or facial recognition",
        "human_fallback": "visible on-site human review or service path",
        "test_scenario": true,
        "area_sqm_declared": 45166.298
      },
      "geometry": {
        "type": "Polygon",
        "coordinates": [
          [
            [
              116.34682272830322,
              39.971847883023266
            ],
            [
              116.34679021535999,
              39.97174481977389
            ],
            [
              116.34674472933196,
              39.97164470471121
            ],
            [
              116.34668670832382,
              39.97154850198363
            ],
            [
              116.34661671115032,
              39.971457138058184
            ],
            [
              116.34653541195334,
              39.97137149279893
            ],
            [
              116.34644359370823,
              39.971292390994044
            ],
            [
              116.34634214068255,
              39.971220594413595
            ],
            [
              116.34623202991986,
              39.97115679447425
            ],
            [
              116.34611432183033,
              39.97110160558131
            ],
            [
              116.3459901499792,
              39.97105555921268
            ],
            [
              116.34586071017087,
              39.971019098801165
            ],
            [
              116.34572724893422,
              39.97099257546475
            ],
            [
              116.34559105151955,
              39.97097624462573
            ],
            [
              116.34545342952318,
              39.9709702635513
            ],
            [
              116.34531570825814,
              39.970974689839316
            ],
            [
              116.34517921399328,
              39.97098948086367
            ],
            [
              116.34504526118272,
              39.9710144941848
            ],
            [
              116.34491513980952,
              39.97104948892117
            ],
            [
              116.34479010296435,
              39.97109412806873
            ],
            [
              116.34467135477954,
              39.971147981745894
            ],
            [
              116.34456003883425,
              39.97121053133284
            ],
            [
              116.34445722714221,
              39.97128117446531
            ],
            [
              116.3443639098286,
              39.97135923083485
            ],
            [
              116.34428098559462,
              39.971443948739655
            ],
            [
              116.34420925306269,
              39.97153451232294
            ],
            [
              116.34414940308427,
              39.97163004942922
            ],
            [
              116.34410201208578,
              39.97172964000283
            ],
            [
              116.34406753651572,
              39.971832324947805
            ],
            [
              116.34404630844698,
              39.971937115363936
            ],
            [
              116.34403853237674,
              39.972043002069945
            ],
            [
              116.3440442832548,
              39.97214896532214
            ],
            [
              116.34406350575937,
              39.972253984634996
            ],
            [
              116.34409601482737,
              39.97235704860907
            ],
            [
              116.34414149743453,
              39.972457164671475
            ],
            [
              116.34419951560777,
              39.972553368635445
            ],
            [
              116.34426951064115,
              39.972644733986414
            ],
            [
              116.34435080847511,
              39.97273038080556
            ],
            [
              116.34444262618663,
              39.97280948424473
            ],
            [
              116.34454407952869,
              39.97288128247104
            ],
            [
              116.34465419144557,
              39.97294508400462
            ],
            [
              116.34477190148273,
              39.97300027437887
            ],
            [
              116.34489607600008,
              39.97304632205898
            ],
            [
              116.34502551909078,
              39.97308278356174
            ],
            [
              116.3451589840998,
              39.97310930772721
            ],
            [
              116.34529518563187,
              39.97312563910127
            ],
            [
              116.34543281193245,
              39.97313162039612
            ],
            [
              116.34557053752306,
              39.97312719400547
            ],
            [
              116.3457070359687,
              39.97311240255935
            ],
            [
              116.34584099265447,
              39.973087388513555
            ],
            [
              116.34597111744851,
              39.97305239277744
            ],
            [
              116.34609615712864,
              39.973007752393485
            ],
            [
              116.34621490745353,
              39.9729538972908
            ],
            [
              116.34632622476185,
              39.97289134614398
            ],
            [
              116.34642903698744,
              39.97282070137723
            ],
            [
              116.3465223539847,
              39.972742643361805
            ],
            [
              116.34660527706448,
              39.972657923862776
            ],
            [
              116.34667700764881,
              39.97256735879816
            ],
            [
              116.34673685496097,
              39.9724718203804
            ],
            [
              116.34678424267707,
              39.972372228715564
            ],
            [
              116.3468187144748,
              39.97226954294152
            ],
            [
              116.34683993842613,
              39.972164751990356
            ],
            [
              116.34684771019218,
              39.97205886506392
            ],
            [
              116.34684195498853,
              39.97195290191436
            ],
            [
              116.34682272830322,
              39.971847883023266
            ]
          ]
        ]
      }
    },
    {
      "type": "Feature",
      "id": "PUBLIC-006",
      "properties": {
        "id": "PUBLIC-006",
        "layer": "PUBLIC_SPACE",
        "source_type": "agent_generated_design",
        "confidence": "medium",
        "geometry_role": "design_proposal",
        "name_zh": "公共AI互操作测试",
        "scenario_card": "SC-06",
        "interface_l0": "统一说明、服务编号与人工转接",
        "optional_ai": "opt-in only; no mandatory account or facial recognition",
        "human_fallback": "visible on-site human review or service path",
        "test_scenario": true,
        "area_sqm_declared": 45166.298
      },
      "geometry": {
        "type": "Polygon",
        "coordinates": [
          [
            [
              116.3502589890594,
              39.978986779069
            ],
            [
              116.35022646770295,
              39.97888371684153
            ],
            [
              116.35018097205017,
              39.9787836031721
            ],
            [
              116.35012294029828,
              39.97868740219568
            ],
            [
              116.35005293136564,
              39.97859604036245
            ],
            [
              116.34997161950733,
              39.97851039751627
            ],
            [
              116.34987978782061,
              39.978431298422116
            ],
            [
              116.34977832070253,
              39.97835950482394
            ],
            [
              116.34966819533231,
              39.97829570810965
            ],
            [
              116.34955047226083,
              39.97824052265351
            ],
            [
              116.3494262851976,
              39.9781944799003
            ],
            [
              116.34929683009345,
              39.97815802324804
            ],
            [
              116.34916335362459,
              39.97813150377849
            ],
            [
              116.34902714118796,
              39.9781151768767
            ],
            [
              116.34888950452454,
              39.97810919977196
            ],
            [
              116.34875176908864,
              39.97811363002389
            ],
            [
              116.34861526128545,
              39.97812842496823
            ],
            [
              116.34848129569957,
              39.978153442127656
            ],
            [
              116.34835116243697,
              39.97818844058366
            ],
            [
              116.34822611470288,
              39.97823308329642
            ],
            [
              116.34810735673449,
              39.978286940349996
            ],
            [
              116.34799603220513,
              39.97834949309206
            ],
            [
              116.34789321321124,
              39.97842013912797
            ],
            [
              116.34779988994829,
              39.978498198121315
            ],
            [
              116.34771696117484,
              39.97858291834505
            ],
            [
              116.34764522555696,
              39.97867348392004
            ],
            [
              116.34758537397593,
              39.978769022671614
            ],
            [
              116.3475379828736,
              39.978868614528295
            ],
            [
              116.34750350869948,
              39.97897130038174
            ],
            [
              116.34748228351302,
              39.979076091322995
            ],
            [
              116.34747451178372,
              39.97918197816573
            ],
            [
              116.34748026841956,
              39.97928794116491
            ],
            [
              116.34749949804329,
              39.97939295983747
            ],
            [
              116.34753201552334,
              39.97949602279009
            ],
            [
              116.34757750775447,
              39.97959613745977
            ],
            [
              116.34763553667085,
              39.97969233967309
            ],
            [
              116.34770554346314,
              39.97978370293236
            ],
            [
              116.34778685395848,
              39.97986934733892
            ],
            [
              116.34787868511201,
              39.979948448067795
            ],
            [
              116.34798015254715,
              39.98002024331226
            ],
            [
              116.34809027907252,
              39.9800840416211
            ],
            [
              116.34820800409284,
              39.98013922855878
            ],
            [
              116.34833219382372,
              39.980185272623594
            ],
            [
              116.34846165221175,
              39.98022173036712
            ],
            [
              116.34859513245463,
              39.98024825066569
            ],
            [
              116.3487313490103,
              39.980264578102336
            ],
            [
              116.34886898997952,
              39.98027055542723
            ],
            [
              116.34900672974253,
              39.98026612507232
            ],
            [
              116.34914324172779,
              39.98025132970581
            ],
            [
              116.34927721119003,
              39.980226311821234
            ],
            [
              116.34940734787432,
              39.98019131236497
            ],
            [
              116.34953239844391,
              39.98014666841531
            ],
            [
              116.34965115855267,
              39.980092809935684
            ],
            [
              116.34976248444501,
              39.98003025563326
            ],
            [
              116.34986530397207,
              39.97995960796261
            ],
            [
              116.34995862691797,
              39.979881547323
            ],
            [
              116.35004155453625,
              39.97979682550472
            ],
            [
              116.35011328820528,
              39.979706258448175
            ],
            [
              116.35017313711866,
              39.97961071838498
            ],
            [
              116.35022052493709,
              39.97951112543703
            ],
            [
              116.35025499533721,
              39.9794084387546
            ],
            [
              116.35027621640462,
              39.97930364727847
            ],
            [
              116.35028398382812,
              39.979197760215584
            ],
            [
              116.3502782228652,
              39.97909179731938
            ],
            [
              116.3502589890594,
              39.978986779069
            ]
          ]
        ]
      }
    },
    {
      "type": "Feature",
      "id": "PUBLIC-007",
      "properties": {
        "id": "PUBLIC-007",
        "layer": "PUBLIC_SPACE",
        "source_type": "agent_generated_design",
        "confidence": "medium",
        "geometry_role": "design_proposal",
        "name_zh": "断网与降级测试",
        "scenario_card": "SC-07",
        "interface_l0": "静态导视、纸质台账和巡查",
        "optional_ai": "opt-in only; no mandatory account or facial recognition",
        "human_fallback": "visible on-site human review or service path",
        "test_scenario": true,
        "area_sqm_declared": 45166.298
      },
      "geometry": {
        "type": "Polygon",
        "coordinates": [
          [
            [
              116.34657505263081,
              39.986085644419624
            ],
            [
              116.34654253360273,
              39.98598258130172
            ],
            [
              116.34649703877852,
              39.98588246631381
            ],
            [
              116.3464390063475,
              39.985786263603565
            ],
            [
              116.34636899523454,
              39.98569489963787
            ],
            [
              116.34628767971574,
              39.98560925428111
            ],
            [
              116.34619584292369,
              39.98553015232241
            ],
            [
              116.34609436930455,
              39.98545835553333
            ],
            [
              116.3459842361002,
              39.98539455533249
            ],
            [
              116.34586650393693,
              39.98533936612775
            ],
            [
              116.34574230661181,
              39.985293319399965
            ],
            [
              116.34561284017452,
              39.9852568585854
            ],
            [
              116.34547935141038,
              39.98523033480593
            ],
            [
              116.34534312583475,
              39.985214003488096
            ],
            [
              116.34520547531511,
              39.98520802190371
            ],
            [
              116.34506772543915,
              39.98521244765552
            ],
            [
              116.3449312027512,
              39.98522723812259
            ],
            [
              116.3447972219791,
              39.98525225087074
            ],
            [
              116.3446670733751,
              39.98528724502393
            ],
            [
              116.34454201029213,
              39.985331883583775
            ],
            [
              116.34442323711518,
              39.98538573667433
            ],
            [
              116.34431189766401,
              39.985448285681436
            ],
            [
              116.3442090641788,
              39.98551892824644
            ],
            [
              116.3441157269945,
              39.98559698406635
            ],
            [
              116.34403278500378,
              39.98568170144466
            ],
            [
              116.343961037,
              39.98577226452971
            ],
            [
              116.3439011739837,
              39.98586780117079
            ],
            [
              116.34385377250688,
              39.985967391316706
            ],
            [
              116.34381928911894,
              39.98607007587566
            ],
            [
              116.34379805596814,
              39.98617486595116
            ],
            [
              116.34379027760063,
              39.98628075236519
            ],
            [
              116.34379602898841,
              39.986386715376874
            ],
            [
              116.34381525480475,
              39.98649173450303
            ],
            [
              116.34384776995479,
              39.986594798345976
            ],
            [
              116.34389326135573,
              39.98669491433412
            ],
            [
              116.34395129094978,
              39.98679111828138
            ],
            [
              116.3440212999211,
              39.98688248367333
            ],
            [
              116.34410261407585,
              39.98696813059075
            ],
            [
              116.3441944503339,
              39.98704723418456
            ],
            [
              116.34429592426964,
              39.98711903262037
            ],
            [
              116.34440605862898,
              39.98718283441623
            ],
            [
              116.34452379274123,
              39.987238025103046
            ],
            [
              116.34464799273447,
              39.98728407314297
            ],
            [
              116.34477746245642,
              39.987320535049335
            ],
            [
              116.34491095499563,
              39.98734705965828
            ],
            [
              116.34504718469155,
              39.98736339151142
            ],
            [
              116.34518483951845,
              39.98736937331636
            ],
            [
              116.34532259372307,
              39.98736494746186
            ],
            [
              116.34545912059475,
              39.987350156572816
            ],
            [
              116.34559310524487,
              39.98732514309964
            ],
            [
              116.34572325727214,
              39.987290147946176
            ],
            [
              116.3458483231921,
              39.98724550814933
            ],
            [
              116.34596709851071,
              39.98719165363253
            ],
            [
              116.3460784393259,
              39.98712910306477
            ],
            [
              116.34618127334511,
              39.98705845886465
            ],
            [
              116.34627461021282,
              39.98698040139803
            ],
            [
              116.34635755104857,
              39.98689568242467
            ],
            [
              116.34642929710334,
              39.98680511785756
            ],
            [
              116.34648915745156,
              39.986709579904335
            ],
            [
              116.3465365556437,
              39.98660998866662
            ],
            [
              116.34657103525657,
              39.98650730327818
            ],
            [
              116.34659226428707,
              39.98640251266738
            ],
            [
              116.34660003834732,
              39.986296626032804
            ],
            [
              116.34659428263086,
              39.9861906631238
            ],
            [
              116.34657505263081,
              39.986085644419624
            ]
          ]
        ]
      }
    },
    {
      "type": "Feature",
      "id": "PUBLIC-008",
      "properties": {
        "id": "PUBLIC-008",
        "layer": "PUBLIC_SPACE",
        "source_type": "agent_generated_design",
        "confidence": "medium",
        "geometry_role": "design_proposal",
        "name_zh": "无障碍信息挑战",
        "scenario_card": "SC-08",
        "interface_l0": "语音、大字、触觉与简洁交互",
        "optional_ai": "opt-in only; no mandatory account or facial recognition",
        "human_fallback": "visible on-site human review or service path",
        "test_scenario": true,
        "area_sqm_declared": 45166.298
      },
      "geometry": {
        "type": "Polygon",
        "coordinates": [
          [
            [
              116.35038239083295,
              39.993226612562935
            ],
            [
              116.35034986282665,
              39.99312355056693
            ],
            [
              116.35030435782672,
              39.99302343711405
            ],
            [
              116.35024631412045,
              39.99292723633717
            ],
            [
              116.35017629074137,
              39.99283587468451
            ],
            [
              116.35009496208367,
              39.99275023199821
            ],
            [
              116.35000311140647,
              39.9926711330417
            ],
            [
              116.34990162328964,
              39.99259933955757
            ],
            [
              116.34979147511467,
              39.99253554293264
            ],
            [
              116.34967372765205,
              39.992480357540295
            ],
            [
              116.34954951484615,
              39.992434314824706
            ],
            [
              116.34942003289572,
              39.992397858183466
            ],
            [
              116.34928652873542,
              39.99237133869826
            ],
            [
              116.34915028802894,
              39.9923550117543
            ],
            [
              116.34901262278935,
              39.992349034581245
            ],
            [
              116.34887485874617,
              39.9923534647394
            ],
            [
              116.34873832258009,
              39.99236825956538
            ],
            [
              116.34860432914876,
              39.99239327658303
            ],
            [
              116.34847416882633,
              39.99242827487523
            ],
            [
              116.34834909507853,
              39.992472917403674
            ],
            [
              116.3482303123931,
              39.99252677425427
            ],
            [
              116.34811896468138,
              39.99258932677662
            ],
            [
              116.34801612426303,
              39.99265997257824
            ],
            [
              116.34792278153985,
              39.992738031324954
            ],
            [
              116.34783983545788,
              39.992822751292124
            ],
            [
              116.34776808484982,
              39.99291331660311
            ],
            [
              116.34770822074134,
              39.99300885508578
            ],
            [
              116.34766081969497,
              39.99310844667122
            ],
            [
              116.34762633825602,
              39.99321113225377
            ],
            [
              116.34760510855399,
              39.99331592292707
            ],
            [
              116.34759733510185,
              39.993421809507346
            ],
            [
              116.34760309282422,
              39.99352777225212
            ],
            [
              116.34762232633346,
              39.993632790680756
            ],
            [
              116.34765485046066,
              39.9937358534023
            ],
            [
              116.3477003520365,
              39.993835967855965
            ],
            [
              116.34775839290525,
              39.99393216987042
            ],
            [
              116.3478284141425,
              39.994023532949846
            ],
            [
              116.34790974143627,
              39.994109177197295
            ],
            [
              116.34800159157994,
              39.994188277789384
            ],
            [
              116.3481030800141,
              39.99426007292061
            ],
            [
              116.34821322934509,
              39.99432387114091
            ],
            [
              116.34833097875794,
              39.99437905801554
            ],
            [
              116.34845519423344,
              39.994425102043394
            ],
            [
              116.34858467947012,
              39.99446155977643
            ],
            [
              116.34871818740712,
              39.994488080091024
            ],
            [
              116.34885443223561,
              39.99450440757008
            ],
            [
              116.34899210178406,
              39.994510384963384
            ],
            [
              116.3491298701574,
              39.994505954702156
            ],
            [
              116.34926641050853,
              39.994491159453766
            ],
            [
              116.34940040781898,
              39.994466141710575
            ],
            [
              116.34953057156551,
              39.994431142417604
            ],
            [
              116.34965564815079,
              39.99438649865161
            ],
            [
              116.34977443297808,
              39.99433264037423
            ],
            [
              116.3498857820537,
              39.994270086290705
            ],
            [
              116.34998862300559,
              39.99419943885353
            ],
            [
              116.35008196541142,
              39.994121378459695
            ],
            [
              116.3501649103374,
              39.99403665689718
            ],
            [
              116.35023665899521,
              39.99394609010392
            ],
            [
              116.35029652043413,
              39.99385055030899
            ],
            [
              116.3503439181942,
              39.993750957631725
            ],
            [
              116.35037839585645,
              39.99364827121979
            ],
            [
              116.35039962143651,
              39.993543480011404
            ],
            [
              116.35040739057979,
              39.993437593210885
            ],
            [
              116.35040162852724,
              39.993331630569166
            ],
            [
              116.35038239083295,
              39.993226612562935
            ]
          ]
        ]
      }
    },
    {
      "type": "Feature",
      "id": "PUBLIC-009",
      "properties": {
        "id": "PUBLIC-009",
        "layer": "PUBLIC_SPACE",
        "source_type": "agent_generated_design",
        "confidence": "medium",
        "geometry_role": "design_proposal",
        "name_zh": "社区健康导航",
        "scenario_card": "SC-09",
        "interface_l0": "公开服务信息与人工问询",
        "optional_ai": "opt-in only; no mandatory account or facial recognition",
        "human_fallback": "visible on-site human review or service path",
        "test_scenario": false,
        "area_sqm_declared": 45166.298
      },
      "geometry": {
        "type": "Polygon",
        "coordinates": [
          [
            [
              116.34717754698566,
              40.000328162408096
            ],
            [
              116.34714502058472,
              40.000225099650066
            ],
            [
              116.34709951570869,
              40.000124985060815
            ],
            [
              116.34704147064372,
              40.00002878278415
            ],
            [
              116.34697144443638,
              39.99993741928275
            ],
            [
              116.34689011150822,
              39.99985177441654
            ],
            [
              116.34679825515941,
              39.99977267296995
            ],
            [
              116.34669676002451,
              39.99970087670954
            ],
            [
              116.3465866035526,
              39.99963707704885
            ],
            [
              116.34646884659404,
              39.99958188839051
            ],
            [
              116.3463446231846,
              39.999535842210115
            ],
            [
              116.34621512962529,
              39.999499381938655
            ],
            [
              116.34608161296244,
              39.999472858692755
            ],
            [
              116.34594535898013,
              39.99945652789381
            ],
            [
              116.34580767981934,
              39.99945054680866
            ],
            [
              116.34566990134358,
              39.999454973035206
            ],
            [
              116.34553335037253,
              39.99946976394798
            ],
            [
              116.34539934190641,
              39.99949477710847
            ],
            [
              116.3452691664641,
              39.99952977163672
            ],
            [
              116.34514407765695,
              39.999574410530705
            ],
            [
              116.34502528011772,
              39.99962826391128
            ],
            [
              116.34491391790073,
              39.99969081316151
            ],
            [
              116.3448110634654,
              39.999761455920414
            ],
            [
              116.34471770734844,
              39.99983951188311
            ],
            [
              116.34463474862488,
              39.9999242293518
            ],
            [
              116.3445629862492,
              40.000014792473884
            ],
            [
              116.34450311136038,
              40.000110329098355
            ],
            [
              116.34445570062479,
              40.00020991917421
            ],
            [
              116.34442121068108,
              40.00031260361027
            ],
            [
              116.34439997374061,
              40.00041739351126
            ],
            [
              116.34439219438612,
              40.000523279700865
            ],
            [
              116.34439794759912,
              40.00062924244037
            ],
            [
              116.34441717803539,
              40.00073426124917
            ],
            [
              116.34444970055561,
              40.00083732473267
            ],
            [
              116.34449520200599,
              40.00093744032274
            ],
            [
              116.34455324423205,
              40.001033643837104
            ],
            [
              116.3446232682963,
              40.00112500876549
            ],
            [
              116.34470459985957,
              40.00121065519316
            ],
            [
              116.34479645567414,
              40.00128975827572
            ],
            [
              116.34489795112596,
              40.001361556183674
            ],
            [
              116.3450081087538,
              40.00142535744019
            ],
            [
              116.34512586766284,
              40.00148054758131
            ],
            [
              116.34525009374234,
              40.00152659507446
            ],
            [
              116.34537959058879,
              40.001563056438215
            ],
            [
              116.3455131110294,
              40.00158958051396
            ],
            [
              116.34564936913499,
              40.00160591184841
            ],
            [
              116.34578705260611,
              40.00161189315415
            ],
            [
              116.34592483541361,
              40.001607466824794
            ],
            [
              116.34606139057134,
              40.00159267548975
            ],
            [
              116.3461954029182,
              40.0015676616038
            ],
            [
              116.34632558178616,
              40.00153266607473
            ],
            [
              116.3464506734322,
              40.00148802594307
            ],
            [
              116.34656947311451,
              40.00143417113549
            ],
            [
              116.3466808366964,
              40.001371620323795
            ],
            [
              116.34678369166598,
              40.00130097592895
            ],
            [
              116.34687704746602,
              40.0012229183187
            ],
            [
              116.34696000503368,
              40.001138199254186
            ],
            [
              116.34703176545888,
              40.0010476346493
            ],
            [
              116.3470916376776,
              40.00095209671206
            ],
            [
              116.34713904512607,
              40.000852505543925
            ],
            [
              116.34717353129203,
              40.00074982027801
            ],
            [
              116.34719476410919,
              40.00064502984152
            ],
            [
              116.34720253915334,
              40.00053914343133
            ],
            [
              116.34719678160862,
              40.000433180794644
            ],
            [
              116.34717754698566,
              40.000328162408096
            ]
          ]
        ]
      }
    },
    {
      "type": "Feature",
      "id": "PUBLIC-010",
      "properties": {
        "id": "PUBLIC-010",
        "layer": "PUBLIC_SPACE",
        "source_type": "agent_generated_design",
        "confidence": "medium",
        "geometry_role": "design_proposal",
        "name_zh": "智能原生消费试用",
        "scenario_card": "SC-10",
        "interface_l0": "现金、多介质与明码信息",
        "optional_ai": "opt-in only; no mandatory account or facial recognition",
        "human_fallback": "visible on-site human review or service path",
        "test_scenario": false,
        "area_sqm_declared": 45166.298
      },
      "geometry": {
        "type": "Polygon",
        "coordinates": [
          [
            [
              116.35121997740507,
              40.00747041175796
            ],
            [
              116.35118744166539,
              40.007367350185454
            ],
            [
              116.35114192626176,
              40.0072672372214
            ],
            [
              116.35108386958176,
              40.007171036993945
            ],
            [
              116.35101383078378,
              40.00707967594602
            ],
            [
              116.35093248441062,
              40.00699403391392
            ],
            [
              116.35084061389196,
              40.00691493565474
            ],
            [
              116.35073910399883,
              40.00684314290439
            ],
            [
              116.35062893232237,
              40.00677934704257
            ],
            [
              116.35051115985938,
              40.006724162435326
            ],
            [
              116.35038692079502,
              40.00667812051925
            ],
            [
              116.35025741158086,
              40.00664166468422
            ],
            [
              116.35012387941413,
              40.006615146004165
            ],
            [
              116.34998761022811,
              40.00659881985653
            ],
            [
              116.34984991631022,
              40.006592843463324
            ],
            [
              116.34971212366604,
              40.00659727437729
            ],
            [
              116.3495755592517,
              40.006612069927826
            ],
            [
              116.34944153819681,
              40.00663708763175
            ],
            [
              116.34931135114157,
              40.00667208656537
            ],
            [
              116.3491862518091,
              40.00671672968422
            ],
            [
              116.34906744493348,
              40.006770587068495
            ],
            [
              116.348956074659,
              40.00683314006271
            ],
            [
              116.34885321352267,
              40.00690378626981
            ],
            [
              116.34875985212575,
              40.00698184535177
            ],
            [
              116.34867688959409,
              40.0070665655807
            ],
            [
              116.3486051249189,
              40.00715713107745
            ],
            [
              116.3485452492613,
              40.00725266966814
            ],
            [
              116.3484978392951,
              40.0073522612828
            ],
            [
              116.34846335165153,
              40.00745494681549
            ],
            [
              116.3484421185199,
              40.00755973736034
            ],
            [
              116.34843434444622,
              40.00766562373483
            ],
            [
              116.34844010436117,
              40.00777158619846
            ],
            [
              116.34845934285603,
              40.007876604273285
            ],
            [
              116.34849187471391,
              40.00797966657178
            ],
            [
              116.34853738669108,
              40.008079780537194
            ],
            [
              116.34859544053168,
              40.008175982002896
            ],
            [
              116.34866547718643,
              40.00826734447837
            ],
            [
              116.34874682219485,
              40.008352988072446
            ],
            [
              116.34883869217974,
              40.008432087968025
            ],
            [
              116.3489402023906,
              40.00850388236631
            ],
            [
              116.34905037522405,
              40.00856767982427
            ],
            [
              116.3491681496388,
              40.008622865914525
            ],
            [
              116.34929239137477,
              40.008668909143466
            ],
            [
              116.34942190387763,
              40.00870536607077
            ],
            [
              116.34955543982383,
              40.008731885580545
            ],
            [
              116.3496917131348,
              40.00874821226346
            ],
            [
              116.34982941136465,
              40.00875418887695
            ],
            [
              116.34996720834206,
              40.00874975785976
            ],
            [
              116.35010377694441,
              40.0087349618865
            ],
            [
              116.35023780188108,
              40.0087099434566
            ],
            [
              116.35036799236279,
              40.00867494352161
            ],
            [
              116.35049309453467,
              40.00863029916453
            ],
            [
              116.35061190355354,
              40.0085764403527
            ],
            [
              116.35072327519273,
              40.0085138857965
            ],
            [
              116.35082613686284,
              40.00844323795299
            ],
            [
              116.35091949794203,
              40.00836517722309
            ],
            [
              116.3510024593167,
              40.00828045539803
            ],
            [
              116.35107422204013,
              40.008189888418286
            ],
            [
              116.35113409502614,
              40.008094348514746
            ],
            [
              116.35118150170362,
              40.007994755807786
            ],
            [
              116.35121598556772,
              40.00789206944537
            ],
            [
              116.35123721457438,
              40.00778727836524
            ],
            [
              116.35124498433612,
              40.007681391770475
            ],
            [
              116.35123922008792,
              40.00757542941007
            ],
            [
              116.35121997740507,
              40.00747041175796
            ]
          ]
        ]
      }
    },
    {
      "type": "Feature",
      "id": "PUBLIC-011",
      "properties": {
        "id": "PUBLIC-011",
        "layer": "PUBLIC_SPACE",
        "source_type": "agent_generated_design",
        "confidence": "medium",
        "geometry_role": "design_proposal",
        "name_zh": "京张记忆声景",
        "scenario_card": "SC-11",
        "interface_l0": "文字、图形与可触摸时间线",
        "optional_ai": "opt-in only; no mandatory account or facial recognition",
        "human_fallback": "visible on-site human review or service path",
        "test_scenario": false,
        "area_sqm_declared": 45166.298
      },
      "geometry": {
        "type": "Polygon",
        "coordinates": [
          [
            [
              116.34795833681896,
              40.014571646543914
            ],
            [
              116.34792580277015,
              40.01446858419383
            ],
            [
              116.34788028757261,
              40.014368470071354
            ],
            [
              116.34782222961194,
              40.01427226831583
            ],
            [
              116.34775218805893,
              40.01418090538487
            ],
            [
              116.34767083748288,
              40.014095261132944
            ],
            [
              116.347578961354,
              40.01401616033847
            ],
            [
              116.34747744449734,
              40.013944364761805
            ],
            [
              116.34736726457109,
              40.013880565809835
            ],
            [
              116.34724948265159,
              40.013825377878376
            ],
            [
              116.34712523301496,
              40.01377933243602
            ],
            [
              116.34699571221462,
              40.01374287290663
            ],
            [
              116.34686216755938,
              40.01371635039967
            ],
            [
              116.34672588510281,
              40.01370002032943
            ],
            [
              116.34658817726003,
              40.01369403995569
            ],
            [
              116.34645037017076,
              40.01369846686956
            ],
            [
              116.3463137909302,
              40.0137132584389
            ],
            [
              116.34617975481076,
              40.01373827221893
            ],
            [
              116.3460495525976,
              40.01377326732369
            ],
            [
              116.34592443815991,
              40.01381790674562
            ],
            [
              116.34580561637716,
              40.01387176060053
            ],
            [
              116.34569423153722,
              40.013934310266905
            ],
            [
              116.3455913563173,
              40.01400495337975
            ],
            [
              116.34549798145434,
              40.01408300963084
            ],
            [
              116.34541500620387,
              40.01416772731955
            ],
            [
              116.34534322967953,
              40.01425829059122
            ],
            [
              116.34528334315662,
              40.01435382729337
            ],
            [
              116.34523592341357,
              40.014453417374284
            ],
            [
              116.34520142717577,
              40.014556101742755
            ],
            [
              116.34518018671531,
              40.01466089150414
            ],
            [
              116.34517240664881,
              40.01476677748347
            ],
            [
              116.34517816196471,
              40.01487273994405
            ],
            [
              116.34519739729859,
              40.01497775840801
            ],
            [
              116.34522992746398,
              40.01508082148401
            ],
            [
              116.34527543923352,
              40.015180936607855
            ],
            [
              116.3453334943534,
              40.015277139601764
            ],
            [
              116.34540353376194,
              40.01536850396048
            ],
            [
              116.34548488297223,
              40.01545414977472
            ],
            [
              116.34557675856662,
              40.01553325220595
            ],
            [
              116.34567827574058,
              40.015605049431
            ],
            [
              116.34578845682368,
              40.01566884997958
            ],
            [
              116.3459062406952,
              40.015724039394534
            ],
            [
              116.34603049300394,
              40.01577008615026
            ],
            [
              116.3461600170938,
              40.015806546772446
            ],
            [
              116.34629356552958,
              40.01583307010958
            ],
            [
              116.34642985211242,
              40.01584940071552
            ],
            [
              116.34656756426863,
              40.01585538130986
            ],
            [
              116.34670537569271,
              40.01585095429305
            ],
            [
              116.3468419591229,
              40.015836162301134
            ],
            [
              116.34697599912577,
              40.015811147795205
            ],
            [
              116.3471062047669,
              40.015776151689046
            ],
            [
              116.34723132204542,
              40.01573151102875
            ],
            [
              116.34735014597264,
              40.015677655746074
            ],
            [
              116.34746153217833,
              40.01561510451741
            ],
            [
              116.34756440793271,
              40.015544459767774
            ],
            [
              116.3476577824784,
              40.01546640186833
            ],
            [
              116.34774075657201,
              40.01538168258299
            ],
            [
              116.34781253114433,
              40.01529111782783
            ],
            [
              116.34787241499514,
              40.015195579812286
            ],
            [
              116.34791983144865,
              40.015095988638606
            ],
            [
              116.3479543239059,
              40.014993303439965
            ],
            [
              116.3479755602401,
              40.01488851314288
            ],
            [
              116.34798333599316,
              40.01478262694294
            ],
            [
              116.34797757634247,
              40.014676664585295
            ],
            [
              116.34795833681896,
              40.014571646543914
            ]
          ]
        ]
      }
    },
    {
      "type": "Feature",
      "id": "PUBLIC-012",
      "properties": {
        "id": "PUBLIC-012",
        "layer": "PUBLIC_SPACE",
        "source_type": "agent_generated_design",
        "confidence": "medium",
        "geometry_role": "design_proposal",
        "name_zh": "NO-APP城市开放日",
        "scenario_card": "SC-12",
        "interface_l0": "纸质日程、总台与公共展区",
        "optional_ai": "opt-in only; no mandatory account or facial recognition",
        "human_fallback": "visible on-site human review or service path",
        "test_scenario": false,
        "area_sqm_declared": 45166.298
      },
      "geometry": {
        "type": "Polygon",
        "coordinates": [
          [
            [
              116.35195831466964,
              40.02171361606943
            ],
            [
              116.35192577134056,
              40.02161055489393
            ],
            [
              116.35188024567131,
              40.02151044238113
            ],
            [
              116.35182217614835,
              40.02141424265478
            ],
            [
              116.35175212205384,
              40.021322882152994
            ],
            [
              116.35167075807786,
              40.021237240706796
            ],
            [
              116.35157886781968,
              40.02115814306763
            ],
            [
              116.35147733624038,
              40.021086350965405
            ],
            [
              116.35136714113999,
              40.02102255577359
            ],
            [
              116.3512493437409,
              40.020967371851754
            ],
            [
              116.35112507846831,
              40.02092133062988
            ],
            [
              116.35099554202627,
              40.02088487549118
            ],
            [
              116.35086198187409,
              40.02085835750283
            ],
            [
              116.3507256842146,
              40.020842032035624
            ],
            [
              116.35058796160935,
              40.02083605630499
            ],
            [
              116.35045014034019,
              40.02084048785734
            ],
            [
              116.35031354763882,
              40.020855284015866
            ],
            [
              116.35017949890731,
              40.0208803022916
            ],
            [
              116.35004928505225,
              40.0209153017553
            ],
            [
              116.34992416005494,
              40.020959945357426
            ],
            [
              116.34980532889654,
              40.02101380317353
            ],
            [
              116.34969393595519,
              40.021076356543965
            ],
            [
              116.34959105398615,
              40.02114700306808
            ],
            [
              116.34949767379133,
              40.0212250624048
            ],
            [
              116.34941469467766,
              40.021309782823785
            ],
            [
              116.34934291579597,
              40.02140034844409
            ],
            [
              116.34928302844432,
              40.02149588709062
            ],
            [
              116.34923560940908,
              40.02159547869292
            ],
            [
              116.3492011154089,
              40.02169816414514
            ],
            [
              116.34917987869433,
              40.0218029545422
            ],
            [
              116.34917210384594,
              40.02190884070302
            ],
            [
              116.34917786580193,
              40.022014802889146
            ],
            [
              116.34919710913395,
              40.02211982062532
            ],
            [
              116.34922964857856,
              40.022222882527224
            ],
            [
              116.34927517081901,
              40.02232299604198
            ],
            [
              116.34933323750067,
              40.02241919700725
            ],
            [
              116.34940328945052,
              40.02251055893735
            ],
            [
              116.34948465206092,
              40.022596201946335
            ],
            [
              116.3495765417851,
              40.02267530122275
            ],
            [
              116.34967807368245,
              40.02274709497374
            ],
            [
              116.34978826994076,
              40.02281089176247
            ],
            [
              116.34990606929317,
              40.022866077168004
            ],
            [
              116.35003033723933,
              40.02291211970336
            ],
            [
              116.35015987697254,
              40.022948575934834
            ],
            [
              116.35029344090694,
              40.02297509475326
            ],
            [
              116.35042974269439,
              40.02299142075595
            ],
            [
              116.35056746961466,
              40.02299739670687
            ],
            [
              116.35070529522014,
              40.02299296505117
            ],
            [
              116.35084189211244,
              40.02297816846961
            ],
            [
              116.35097594472846,
              40.02295314946746
            ],
            [
              116.3511061620123,
              40.022918149001825
            ],
            [
              116.35123128985094,
              40.022873504160785
            ],
            [
              116.351350123154,
              40.02281964491637
            ],
            [
              116.35146151746092,
              40.022757089983116
            ],
            [
              116.35156439996398,
              40.022686441821754
            ],
            [
              116.3516577798407,
              40.022608380836274
            ],
            [
              116.35174075779646,
              40.02252365882038
            ],
            [
              116.35181253472483,
              40.02243309171637
            ],
            [
              116.35187241940291,
              40.022337551756365
            ],
            [
              116.35191983514699,
              40.02223795906128
            ],
            [
              116.35195432536493,
              40.022135272778996
            ],
            [
              116.35197555795156,
              40.02203048184644
            ],
            [
              116.3519833284849,
              40.021924595465336
            ],
            [
              116.3519775621926,
              40.02181863338257
            ],
            [
              116.35195831466964,
              40.02171361606943
            ]
          ]
        ]
      }
    }
  ]
}
