{
  "type": "FeatureCollection",
  "name": "no_app_jingzhang_roads",
  "metadata": {
    "coordinate_reference_system": "EPSG:4326",
    "area_calculation_crs": "EPSG:4548",
    "design_status": "concept_proposal_subject_to_professional_review",
    "engineering_status": "concept only; no road redline or bridge/tunnel conclusion"
  },
  "features": [
    {
      "type": "Feature",
      "id": "ROAD-001",
      "properties": {
        "id": "ROAD-001",
        "layer": "ROAD_CENTERLINE",
        "source_type": "agent_generated_design",
        "confidence": "medium",
        "geometry_role": "design_proposal",
        "name_zh": "南北无门槛慢行绿脊",
        "road_class": "greenway",
        "status": "concept_alignment_not_engineering_centerline",
        "design_note": "连续通行、实体导视、无障碍休息与轨道文化路线"
      },
      "geometry": {
        "type": "LineString",
        "coordinates": [
          [
            116.34810535484235,
            39.939000229779204
          ],
          [
            116.34795049601956,
            39.94260770680521
          ],
          [
            116.34789985208872,
            39.94625622771166
          ],
          [
            116.34784920014307,
            39.949904746264444
          ],
          [
            116.34779854018086,
            39.95355326246353
          ],
          [
            116.34774787220037,
            39.95720177630884
          ],
          [
            116.3476971961998,
            39.96085028780031
          ],
          [
            116.34764651217746,
            39.964498796937896
          ],
          [
            116.34746830967197,
            39.96814658600475
          ],
          [
            116.34727176442597,
            39.9717942691915
          ],
          [
            116.34709366474985,
            39.97544205362209
          ],
          [
            116.34706548468492,
            39.97909068006802
          ],
          [
            116.34703729898474,
            39.9827393041942
          ],
          [
            116.34700910764826,
            39.98638792600059
          ],
          [
            116.34698576120337,
            39.99003657281583
          ],
          [
            116.34720346583376,
            39.993686575292266
          ],
          [
            116.34742119101149,
            39.99733657525521
          ],
          [
            116.34763893674263,
            40.00098657270448
          ],
          [
            116.34785670303326,
            40.00463656763987
          ],
          [
            116.34805672731312,
            40.0082864601386
          ],
          [
            116.34824573388599,
            40.01193628810366
          ],
          [
            116.34843475796573,
            40.01558611363096
          ],
          [
            116.34862379955749,
            40.019235936720285
          ],
          [
            116.34881285866656,
            40.022885757371505
          ],
          [
            116.34728519589481,
            40.02650015857564
          ]
        ]
      }
    },
    {
      "type": "Feature",
      "id": "ROAD-002",
      "properties": {
        "id": "ROAD-002",
        "layer": "ROAD_CENTERLINE",
        "source_type": "agent_generated_design",
        "confidence": "medium",
        "geometry_role": "design_proposal",
        "name_zh": "东西缝合接口 1",
        "road_class": "pedestrian",
        "status": "concept_connection_not_road_redline",
        "design_note": "方向性连接社区、园区、轨道与公共脊；待交通专业深化"
      },
      "geometry": {
        "type": "LineString",
        "coordinates": [
          [
            116.34045146672752,
            39.94795161830444
          ],
          [
            116.35530001499097,
            39.94803514188876
          ]
        ]
      }
    },
    {
      "type": "Feature",
      "id": "ROAD-003",
      "properties": {
        "id": "ROAD-003",
        "layer": "ROAD_CENTERLINE",
        "source_type": "agent_generated_design",
        "confidence": "medium",
        "geometry_role": "design_proposal",
        "name_zh": "东西缝合接口 2",
        "road_class": "cycleway",
        "status": "concept_connection_not_road_redline",
        "design_note": "方向性连接社区、园区、轨道与公共脊；待交通专业深化"
      },
      "geometry": {
        "type": "LineString",
        "coordinates": [
          [
            116.3400654411764,
            39.96184960519877
          ],
          [
            116.35530000687532,
            39.96193533277412
          ]
        ]
      }
    },
    {
      "type": "Feature",
      "id": "ROAD-004",
      "properties": {
        "id": "ROAD-004",
        "layer": "ROAD_CENTERLINE",
        "source_type": "agent_generated_design",
        "confidence": "medium",
        "geometry_role": "design_proposal",
        "name_zh": "东西缝合接口 3",
        "road_class": "pedestrian",
        "status": "concept_connection_not_road_redline",
        "design_note": "方向性连接社区、园区、轨道与公共脊；待交通专业深化"
      },
      "geometry": {
        "type": "LineString",
        "coordinates": [
          [
            116.33974823564006,
            39.97574794947201
          ],
          [
            116.35443374188864,
            39.97583066935062
          ]
        ]
      }
    },
    {
      "type": "Feature",
      "id": "ROAD-005",
      "properties": {
        "id": "ROAD-005",
        "layer": "ROAD_CENTERLINE",
        "source_type": "agent_generated_design",
        "confidence": "medium",
        "geometry_role": "design_proposal",
        "name_zh": "东西缝合接口 4",
        "road_class": "cycleway",
        "status": "concept_connection_not_road_redline",
        "design_note": "方向性连接社区、园区、轨道与公共脊；待交通专业深化"
      },
      "geometry": {
        "type": "LineString",
        "coordinates": [
          [
            116.34064516304241,
            39.98965317295766
          ],
          [
            116.35332204095575,
            39.98972459648471
          ]
        ]
      }
    },
    {
      "type": "Feature",
      "id": "ROAD-006",
      "properties": {
        "id": "ROAD-006",
        "layer": "ROAD_CENTERLINE",
        "source_type": "agent_generated_design",
        "confidence": "medium",
        "geometry_role": "design_proposal",
        "name_zh": "东西缝合接口 5",
        "road_class": "pedestrian",
        "status": "concept_connection_not_road_redline",
        "design_note": "方向性连接社区、园区、轨道与公共脊；待交通专业深化"
      },
      "geometry": {
        "type": "LineString",
        "coordinates": [
          [
            116.34154241568459,
            40.0035583592118
          ],
          [
            116.35404655929847,
            40.003628727950364
          ]
        ]
      }
    },
    {
      "type": "Feature",
      "id": "ROAD-007",
      "properties": {
        "id": "ROAD-007",
        "layer": "ROAD_CENTERLINE",
        "source_type": "agent_generated_design",
        "confidence": "medium",
        "geometry_role": "design_proposal",
        "name_zh": "东西缝合接口 6",
        "road_class": "cycleway",
        "status": "concept_connection_not_road_redline",
        "design_note": "方向性连接社区、园区、轨道与公共脊；待交通专业深化"
      },
      "geometry": {
        "type": "LineString",
        "coordinates": [
          [
            116.3422590815417,
            40.01746248152643
          ],
          [
            116.35480848465579,
            40.01753303081917
          ]
        ]
      }
    }
  ]
}
