{
 "type": "FeatureCollection",
 "name": "public_space",
 "features": [
  {
   "type": "Feature",
   "id": "PS-LM00",
   "properties": {
    "id": "PS-LM00",
    "layer": "PUBLIC_SPACE",
    "scenario_type": "ai_landmark",
    "label_zh": "共享厨坊",
    "landmark_id": "KIT-HUB",
    "official_boundary": false,
    "geometry_role": "design_proposal",
    "confidence": "low",
    "source_type": "agent_generated_design"
   },
   "geometry": {
    "type": "Polygon",
    "coordinates": [
     [
      [
       116.34816322277064,
       40.01661520988711
      ],
      [
       116.34816069927572,
       40.01688043127003
      ],
      [
       116.34883678958333,
       40.01688423225414
      ],
      [
       116.34883931046133,
       40.01661901083572
      ],
      [
       116.34816322277064,
       40.01661520988711
      ]
     ]
    ]
   }
  },
  {
   "type": "Feature",
   "id": "PS-LM01",
   "properties": {
    "id": "PS-LM01",
    "layer": "PUBLIC_SPACE",
    "scenario_type": "ai_landmark",
    "label_zh": "食育工坊",
    "landmark_id": "KIT-SCHOOL",
    "official_boundary": false,
    "geometry_role": "design_proposal",
    "confidence": "low",
    "source_type": "agent_generated_design"
   },
   "geometry": {
    "type": "Polygon",
    "coordinates": [
     [
      [
       116.34716335681028,
       39.988365497029676
      ],
      [
       116.34716083196999,
       39.988630719656484
      ],
      [
       116.3478366435638,
       39.98863452425718
      ],
      [
       116.34783916579089,
       39.98836930159483
      ],
      [
       116.34716335681028,
       39.988365497029676
      ]
     ]
    ]
   }
  },
  {
   "type": "Feature",
   "id": "PS-LM02",
   "properties": {
    "id": "PS-LM02",
    "layer": "PUBLIC_SPACE",
    "scenario_type": "ai_landmark",
    "label_zh": "暖灶驿站",
    "landmark_id": "KIT-STATION",
    "official_boundary": false,
    "geometry_role": "design_proposal",
    "confidence": "low",
    "source_type": "agent_generated_design"
   },
   "geometry": {
    "type": "Polygon",
    "coordinates": [
     [
      [
       116.34816355480928,
       39.94678563103838
      ],
      [
       116.34816103754443,
       39.9470508556262
      ],
      [
       116.34883643995785,
       39.94705465113593
      ],
      [
       116.34883895461489,
       39.946789426512645
      ],
      [
       116.34816355480928,
       39.94678563103838
      ]
     ]
    ]
   }
  },
  {
   "type": "Feature",
   "id": "PS-SN00",
   "properties": {
    "id": "PS-SN00",
    "layer": "PUBLIC_SPACE",
    "scenario_type": "scenario_node",
    "label_zh": "AI场景节点",
    "official_boundary": false,
    "geometry_role": "design_proposal",
    "confidence": "low",
    "source_type": "agent_generated_design"
   },
   "geometry": {
    "type": "Polygon",
    "coordinates": [
     [
      [
       116.34720268238382,
       40.00636202132502
      ],
      [
       116.34719753552622,
       40.006902357492095
      ],
      [
       116.34790018729262,
       40.006906313327114
      ],
      [
       116.34790532861129,
       40.00636597708476
      ],
      [
       116.34720268238382,
       40.00636202132502
      ]
     ]
    ]
   }
  },
  {
   "type": "Feature",
   "id": "PS-SN01",
   "properties": {
    "id": "PS-SN01",
    "layer": "PUBLIC_SPACE",
    "scenario_type": "scenario_node",
    "label_zh": "AI场景节点",
    "official_boundary": false,
    "geometry_role": "design_proposal",
    "confidence": "low",
    "source_type": "agent_generated_design"
   },
   "geometry": {
    "type": "Polygon",
    "coordinates": [
     [
      [
       116.34737638593593,
       39.996275280059585
      ],
      [
       116.34736909905486,
       39.99704075764399
      ],
      [
       116.34836437926937,
       39.99704635787425
      ],
      [
       116.34837165503967,
       39.99628088013888
      ],
      [
       116.34737638593593,
       39.996275280059585
      ]
     ]
    ]
   }
  },
  {
   "type": "Feature",
   "id": "PS-SN02",
   "properties": {
    "id": "PS-SN02",
    "layer": "PUBLIC_SPACE",
    "scenario_type": "scenario_node",
    "label_zh": "AI场景节点",
    "official_boundary": false,
    "geometry_role": "design_proposal",
    "confidence": "low",
    "source_type": "agent_generated_design"
   },
   "geometry": {
    "type": "Polygon",
    "coordinates": [
     [
      [
       116.34753791024444,
       39.986188317380375
      ],
      [
       116.34752848580872,
       39.98717893717239
      ],
      [
       116.34881631036663,
       39.98718617965876
      ],
      [
       116.34882571620395,
       39.98619555961408
      ],
      [
       116.34753791024444,
       39.986188317380375
      ]
     ]
    ]
   }
  },
  {
   "type": "Feature",
   "id": "PS-SN03",
   "properties": {
    "id": "PS-SN03",
    "layer": "PUBLIC_SPACE",
    "scenario_type": "scenario_node",
    "label_zh": "AI场景节点",
    "official_boundary": false,
    "geometry_role": "design_proposal",
    "confidence": "low",
    "source_type": "agent_generated_design"
   },
   "geometry": {
    "type": "Polygon",
    "coordinates": [
     [
      [
       116.34807539985724,
       39.97644051572605
      ],
      [
       116.34807026531996,
       39.97698085478499
      ],
      [
       116.34877261067243,
       39.97698480289158
      ],
      [
       116.34877773967905,
       39.97644446375752
      ],
      [
       116.34807539985724,
       39.97644051572605
      ]
     ]
    ]
   }
  },
  {
   "type": "Feature",
   "id": "PS-SN04",
   "properties": {
    "id": "PS-SN04",
    "layer": "PUBLIC_SPACE",
    "scenario_type": "scenario_node",
    "label_zh": "AI场景节点",
    "official_boundary": false,
    "geometry_role": "design_proposal",
    "confidence": "low",
    "source_type": "agent_generated_design"
   },
   "geometry": {
    "type": "Polygon",
    "coordinates": [
     [
      [
       116.34817702540228,
       39.96635251435377
      ],
      [
       116.34816975516372,
       39.967117996023894
      ],
      [
       116.34916460147384,
       39.96712358592718
      ],
      [
       116.3491718606182,
       39.96635810410635
      ],
      [
       116.34817702540228,
       39.96635251435377
      ]
     ]
    ]
   }
  },
  {
   "type": "Feature",
   "id": "PS-SN05",
   "properties": {
    "id": "PS-SN05",
    "layer": "PUBLIC_SPACE",
    "scenario_type": "scenario_node",
    "label_zh": "AI场景节点",
    "official_boundary": false,
    "geometry_role": "design_proposal",
    "confidence": "low",
    "source_type": "agent_generated_design"
   },
   "geometry": {
    "type": "Polygon",
    "coordinates": [
     [
      [
       116.34827860095263,
       39.95626449515676
      ],
      [
       116.34826919718029,
       39.95725512022419
      ],
      [
       116.34955646045721,
       39.95726235001564
      ],
      [
       116.34956584565893,
       39.95627172469595
      ],
      [
       116.34827860095263,
       39.95626449515676
      ]
     ]
    ]
   }
  }
 ]
}