{
  "type": "FeatureCollection",
  "name": "time_equity_land_use_concept_split_validated",
  "features": [
    {
      "type": "Feature",
      "id": "LU-001",
      "properties": {
        "id": "LU-001",
        "layer": "LAND_USE",
        "source_type": "agent_generated_design",
        "confidence": "medium",
        "geometry_role": "design_proposal",
        "land_use_code": "1401",
        "name_zh": "公共时间带公园绿地建议区",
        "area_sqm_declared": 1710852.549,
        "design_status": "conceptual_recommendation_not_statutory_zoning"
      },
      "geometry": {
        "type": "Polygon",
        "coordinates": [
          [
            [
              116.3459679763112,
              39.98795842817869
            ],
            [
              116.34596751692692,
              39.98801898267316
            ],
            [
              116.34677823755852,
              40.00726784176556
            ],
            [
              116.34624718872698,
              40.02650013856498
            ],
            [
              116.34830940885979,
              40.02650016920634
            ],
            [
              116.3488395381883,
              40.00728021727259
            ],
            [
              116.34883922862355,
              40.00723773819781
            ],
            [
              116.3480283106632,
              39.987997936351306
            ],
            [
              116.34942987583463,
              39.963516247401415
            ],
            [
              116.34943062669502,
              39.96346405282806
            ],
            [
              116.3487354648282,
              39.93900022749426
            ],
            [
              116.34667584466433,
              39.939000222265136
            ],
            [
              116.34737051472919,
              39.96347258696387
            ],
            [
              116.3459679763112,
              39.98795842817869
            ]
          ]
        ]
      }
    },
    {
      "type": "Feature",
      "id": "LU-002",
      "properties": {
        "id": "LU-002",
        "layer": "LAND_USE",
        "source_type": "agent_generated_design",
        "confidence": "medium",
        "geometry_role": "design_proposal",
        "land_use_code": "0802",
        "name_zh": "AI研发与责任测试建议区",
        "area_sqm_declared": 757217.236,
        "design_status": "conceptual_recommendation_not_statutory_zoning"
      },
      "geometry": {
        "type": "Polygon",
        "coordinates": [
          [
            [
              116.34908991330994,
              39.951475491329525
            ],
            [
              116.35530001650551,
              39.95151019272439
            ],
            [
              116.3553,
              39.939
            ],
            [
              116.3487354648282,
              39.93900022749426
            ],
            [
              116.34908991330994,
              39.951475491329525
            ]
          ]
        ]
      }
    },
    {
      "type": "Feature",
      "id": "LU-003",
      "properties": {
        "id": "LU-003",
        "layer": "LAND_USE",
        "source_type": "agent_generated_design",
        "confidence": "medium",
        "geometry_role": "design_proposal",
        "land_use_code": "0802",
        "name_zh": "AI研发与责任测试建议区",
        "area_sqm_declared": 747010.33,
        "design_status": "conceptual_recommendation_not_statutory_zoning"
      },
      "geometry": {
        "type": "Polygon",
        "coordinates": [
          [
            [
              116.34035497861302,
              39.95142611838012
            ],
            [
              116.34702959007915,
              39.95146390496667
            ],
            [
              116.34667584466433,
              39.939000222265136
            ],
            [
              116.34070000000001,
              39.93899999999999
            ],
            [
              116.34035497861302,
              39.95142611838012
            ]
          ]
        ]
      }
    },
    {
      "type": "Feature",
      "id": "LU-004",
      "properties": {
        "id": "LU-004",
        "layer": "LAND_USE",
        "source_type": "agent_generated_design",
        "confidence": "medium",
        "geometry_role": "design_proposal",
        "land_use_code": "0804",
        "name_zh": "教育科研与开放学习建议区",
        "area_sqm_declared": 716127.308,
        "design_status": "conceptual_recommendation_not_statutory_zoning"
      },
      "geometry": {
        "type": "Polygon",
        "coordinates": [
          [
            [
              116.35530000239758,
              39.964020358541696
            ],
            [
              116.35530001650551,
              39.95151019272439
            ],
            [
              116.34908991330994,
              39.951475491329525
            ],
            [
              116.34943062669502,
              39.96346405282806
            ],
            [
              116.34942987583463,
              39.963516247401415
            ],
            [
              116.34940291252335,
              39.963987411681686
            ],
            [
              116.35530000239758,
              39.964020358541696
            ]
          ]
        ]
      }
    },
    {
      "type": "Feature",
      "id": "LU-005",
      "properties": {
        "id": "LU-005",
        "layer": "LAND_USE",
        "source_type": "agent_generated_design",
        "confidence": "medium",
        "geometry_role": "design_proposal",
        "land_use_code": "0804",
        "name_zh": "教育科研与开放学习建议区",
        "area_sqm_declared": 833864.917,
        "design_status": "conceptual_recommendation_not_statutory_zoning"
      },
      "geometry": {
        "type": "Polygon",
        "coordinates": [
          [
            [
              116.34734170081285,
              39.96397582499681
            ],
            [
              116.34737051472919,
              39.96347258696387
            ],
            [
              116.34702959007915,
              39.95146390496667
            ],
            [
              116.34035497861302,
              39.95142611838012
            ],
            [
              116.34000752052772,
              39.96393430014885
            ],
            [
              116.34734170081285,
              39.96397582499681
            ]
          ]
        ]
      }
    },
    {
      "type": "Feature",
      "id": "LU-006",
      "properties": {
        "id": "LU-006",
        "layer": "LAND_USE",
        "source_type": "agent_generated_design",
        "confidence": "medium",
        "geometry_role": "design_proposal",
        "land_use_code": "0702",
        "name_zh": "照护与社区服务建议区",
        "area_sqm_declared": 691908.671,
        "design_status": "conceptual_recommendation_not_statutory_zoning"
      },
      "geometry": {
        "type": "Polygon",
        "coordinates": [
          [
            [
              116.35437816843238,
              39.976525366833975
            ],
            [
              116.3553,
              39.965
            ],
            [
              116.35530000239758,
              39.964020358541696
            ],
            [
              116.34940291252335,
              39.963987411681686
            ],
            [
              116.34868707283344,
              39.97649352823433
            ],
            [
              116.35437816843238,
              39.976525366833975
            ]
          ]
        ]
      }
    },
    {
      "type": "Feature",
      "id": "LU-007",
      "properties": {
        "id": "LU-007",
        "layer": "LAND_USE",
        "source_type": "agent_generated_design",
        "confidence": "medium",
        "geometry_role": "design_proposal",
        "land_use_code": "0702",
        "name_zh": "照护与社区服务建议区",
        "area_sqm_declared": 847618.208,
        "design_status": "conceptual_recommendation_not_statutory_zoning"
      },
      "geometry": {
        "type": "Polygon",
        "coordinates": [
          [
            [
              116.33979307429135,
              39.97644321153033
            ],
            [
              116.34662548575106,
              39.97648192582242
            ],
            [
              116.34734170081285,
              39.96397582499681
            ],
            [
              116.34000752052772,
              39.96393430014885
            ],
            [
              116.3397,
              39.975
            ],
            [
              116.33979307429135,
              39.97644321153033
            ]
          ]
        ]
      }
    },
    {
      "type": "Feature",
      "id": "LU-008",
      "properties": {
        "id": "LU-008",
        "layer": "LAND_USE",
        "source_type": "agent_generated_design",
        "confidence": "medium",
        "geometry_role": "design_proposal",
        "land_use_code": "0701",
        "name_zh": "生活支持与居住建议区",
        "area_sqm_declared": 657933.908,
        "design_status": "conceptual_recommendation_not_statutory_zoning"
      },
      "geometry": {
        "type": "Polygon",
        "coordinates": [
          [
            [
              116.35337763759618,
              39.9890299012548
            ],
            [
              116.35437816843238,
              39.976525366833975
            ],
            [
              116.34868707283344,
              39.97649352823433
            ],
            [
              116.3480283106632,
              39.987997936351306
            ],
            [
              116.34807054331493,
              39.98900017165925
            ],
            [
              116.35337763759618,
              39.9890299012548
            ]
          ]
        ]
      }
    },
    {
      "type": "Feature",
      "id": "LU-009",
      "properties": {
        "id": "LU-009",
        "layer": "LAND_USE",
        "source_type": "agent_generated_design",
        "confidence": "medium",
        "geometry_role": "design_proposal",
        "land_use_code": "0701",
        "name_zh": "生活支持与居住建议区",
        "area_sqm_declared": 720782.767,
        "design_status": "conceptual_recommendation_not_statutory_zoning"
      },
      "geometry": {
        "type": "Polygon",
        "coordinates": [
          [
            [
              116.34600834399079,
              39.988988553945944
            ],
            [
              116.34596751692692,
              39.98801898267316
            ],
            [
              116.3459679763112,
              39.98795842817869
            ],
            [
              116.34662548575106,
              39.97648192582242
            ],
            [
              116.33979307429135,
              39.97644321153033
            ],
            [
              116.34060030895085,
              39.98895791266752
            ],
            [
              116.34600834399079,
              39.988988553945944
            ]
          ]
        ]
      }
    },
    {
      "type": "Feature",
      "id": "LU-010",
      "properties": {
        "id": "LU-010",
        "layer": "LAND_USE",
        "source_type": "agent_generated_design",
        "confidence": "medium",
        "geometry_role": "design_proposal",
        "land_use_code": "05",
        "name_zh": "产业服务与智能原生商业建议区",
        "area_sqm_declared": 624060.415,
        "design_status": "conceptual_recommendation_not_statutory_zoning"
      },
      "geometry": {
        "type": "Polygon",
        "coordinates": [
          [
            [
              116.3539322938988,
              40.001543079432004
            ],
            [
              116.3533,
              39.99
            ],
            [
              116.35337763759618,
              39.9890299012548
            ],
            [
              116.34807054331493,
              39.98900017165925
            ],
            [
              116.34859791175187,
              40.001513219616754
            ],
            [
              116.3539322938988,
              40.001543079432004
            ]
          ]
        ]
      }
    },
    {
      "type": "Feature",
      "id": "LU-011",
      "properties": {
        "id": "LU-011",
        "layer": "LAND_USE",
        "source_type": "agent_generated_design",
        "confidence": "medium",
        "geometry_role": "design_proposal",
        "land_use_code": "05",
        "name_zh": "产业服务与智能原生商业建议区",
        "area_sqm_declared": 624938.787,
        "design_status": "conceptual_recommendation_not_statutory_zoning"
      },
      "geometry": {
        "type": "Polygon",
        "coordinates": [
          [
            [
              116.34653533582187,
              40.00150160828576
            ],
            [
              116.34600834399079,
              39.988988553945944
            ],
            [
              116.34060030895085,
              39.98895791266752
            ],
            [
              116.34140780703993,
              40.0014725836477
            ],
            [
              116.34653533582187,
              40.00150160828576
            ]
          ]
        ]
      }
    },
    {
      "type": "Feature",
      "id": "LU-012",
      "properties": {
        "id": "LU-012",
        "layer": "LAND_USE",
        "source_type": "agent_generated_design",
        "confidence": "medium",
        "geometry_role": "design_proposal",
        "land_use_code": "0803",
        "name_zh": "京张文化与公共学习建议区",
        "area_sqm_declared": 657233.08,
        "design_status": "conceptual_recommendation_not_statutory_zoning"
      },
      "geometry": {
        "type": "Polygon",
        "coordinates": [
          [
            [
              116.35461797786878,
              40.01405695845884
            ],
            [
              116.3539322938988,
              40.001543079432004
            ],
            [
              116.34859791175187,
              40.001513219616754
            ],
            [
              116.34883922862355,
              40.00723773819781
            ],
            [
              116.3488395381883,
              40.00728021727259
            ],
            [
              116.34865358329778,
              40.014023588637485
            ],
            [
              116.35461797786878,
              40.01405695845884
            ]
          ]
        ]
      }
    },
    {
      "type": "Feature",
      "id": "LU-013",
      "properties": {
        "id": "LU-013",
        "layer": "LAND_USE",
        "source_type": "agent_generated_design",
        "confidence": "medium",
        "geometry_role": "design_proposal",
        "land_use_code": "0803",
        "name_zh": "京张文化与公共学习建议区",
        "area_sqm_declared": 581276.12,
        "design_status": "conceptual_recommendation_not_statutory_zoning"
      },
      "geometry": {
        "type": "Polygon",
        "coordinates": [
          [
            [
              116.342089524163,
              40.01398650894669
            ],
            [
              116.34659205849356,
              40.01401198334813
            ],
            [
              116.34677823755852,
              40.00726784176556
            ],
            [
              116.34653533582187,
              40.00150160828576
            ],
            [
              116.34140780703993,
              40.0014725836477
            ],
            [
              116.34169999999999,
              40.00600000000001
            ],
            [
              116.342089524163,
              40.01398650894669
            ]
          ]
        ]
      }
    },
    {
      "type": "Feature",
      "id": "LU-014",
      "properties": {
        "id": "LU-014",
        "layer": "LAND_USE",
        "source_type": "agent_generated_design",
        "confidence": "medium",
        "geometry_role": "design_proposal",
        "land_use_code": "1403",
        "name_zh": "人工服务与公共换乘广场建议区",
        "area_sqm_declared": 765053.075,
        "design_status": "conceptual_recommendation_not_statutory_zoning"
      },
      "geometry": {
        "type": "Polygon",
        "coordinates": [
          [
            [
              116.3553,
              40.02649999999999
            ],
            [
              116.35461797786878,
              40.01405695845884
            ],
            [
              116.34865358329778,
              40.014023588637485
            ],
            [
              116.34830940885979,
              40.02650016920634
            ],
            [
              116.3553,
              40.02649999999999
            ]
          ]
        ]
      }
    },
    {
      "type": "Feature",
      "id": "LU-015",
      "properties": {
        "id": "LU-015",
        "layer": "LAND_USE",
        "source_type": "agent_generated_design",
        "confidence": "medium",
        "geometry_role": "design_proposal",
        "land_use_code": "1403",
        "name_zh": "人工服务与公共换乘广场建议区",
        "area_sqm_declared": 476947.932,
        "design_status": "conceptual_recommendation_not_statutory_zoning"
      },
      "geometry": {
        "type": "Polygon",
        "coordinates": [
          [
            [
              116.342089524163,
              40.01398650894669
            ],
            [
              116.34270000000001,
              40.026500000000006
            ],
            [
              116.34624718886114,
              40.0265001337065
            ],
            [
              116.34659205849356,
              40.01401198334813
            ],
            [
              116.342089524163,
              40.01398650894669
            ]
          ]
        ]
      }
    }
  ]
}
