{
  "type": "FeatureCollection",
  "name": "staffed_care_support_public_nodes",
  "features": [
    {
      "type": "Feature",
      "id": "PUBLIC-001",
      "properties": {
        "id": "PUBLIC-001",
        "layer": "PUBLIC_SPACE",
        "source_type": "agent_generated_design",
        "confidence": "medium",
        "geometry_role": "design_proposal",
        "name_zh": "公平时钟北门",
        "area_sqm_declared": 8470.628,
        "service_node": true,
        "staffed_fallback_required": true,
        "official_location": false
      },
      "geometry": {
        "type": "Polygon",
        "coordinates": [
          [
            [
              116.34845295178832,
              39.943996772411495
            ],
            [
              116.34843799574548,
              39.943936606057
            ],
            [
              116.34841296477447,
              39.94387845702245
            ],
            [
              116.34837828718443,
              39.94382332024787
            ],
            [
              116.34833455633597,
              39.94377213913066
            ],
            [
              116.3482825204872,
              39.94372578938436
            ],
            [
              116.34822306999025,
              39.943685064055636
            ],
            [
              116.34815722205667,
              39.94365065995563
            ],
            [
              116.3480861033529,
              39.94362316573825
            ],
            [
              116.34801093072343,
              39.94360305182856
            ],
            [
              116.34793299037132,
              39.943590662374476
            ],
            [
              116.3478536158523,
              39.9435862093586
            ],
            [
              116.34777416525914,
              39.94358976897153
            ],
            [
              116.34769599798601,
              39.9436012803083
            ],
            [
              116.34762045147083,
              39.94362054641043
            ],
            [
              116.34754881831307,
              39.943647237635666
            ],
            [
              116.34748232415858,
              39.94368089729784
            ],
            [
              116.34742210672957,
              39.94372094948036
            ],
            [
              116.34736919635861,
              39.94376670888965
            ],
            [
              116.34732449835975,
              39.94381739258
            ],
            [
              116.34728877753813,
              39.94387213334927
            ],
            [
              116.3472626451031,
              39.94392999457626
            ],
            [
              116.3472465482094,
              39.94398998624606
            ],
            [
              116.34724076230462,
              39.944051081888915
            ],
            [
              116.34724538641449,
              39.94411223614318
            ],
            [
              116.34726034144666,
              39.94417240264162
            ],
            [
              116.34728537154221,
              39.94423055191509
            ],
            [
              116.3473200484516,
              39.944285689007316
            ],
            [
              116.34736377886067,
              39.944336870499235
            ],
            [
              116.34741581454116,
              39.944383220651765
            ],
            [
              116.34747526515254,
              39.94442394639059
            ],
            [
              116.34754111347536,
              39.94445835087658
            ],
            [
              116.34761223281667,
              39.94448584542956
            ],
            [
              116.34768740628854,
              39.944505959601564
            ],
            [
              116.34776534763054,
              39.94451834922681
            ],
            [
              116.34784472321942,
              39.94452280231104
            ],
            [
              116.34792417488954,
              39.94451924265897
            ],
            [
              116.34800234317335,
              39.94450773117828
            ],
            [
              116.348077890564,
              39.944488464837214
            ],
            [
              116.3481495244024,
              39.94446177329435
            ],
            [
              116.3482160189963,
              39.94442811325745
            ],
            [
              116.34827623659356,
              39.9443880606687
            ],
            [
              116.3483291468501,
              39.94434230084931
            ],
            [
              116.34837384445973,
              39.94429161677297
            ],
            [
              116.3484095646438,
              39.94423687566811
            ],
            [
              116.34843569623641,
              39.94417901417881
            ],
            [
              116.34845179214024,
              39.944119022337844
            ],
            [
              116.34845757697516,
              39.94405792662665
            ],
            [
              116.34845295178832,
              39.943996772411495
            ]
          ]
        ]
      }
    },
    {
      "type": "Feature",
      "id": "PUBLIC-002",
      "properties": {
        "id": "PUBLIC-002",
        "layer": "PUBLIC_SPACE",
        "source_type": "agent_generated_design",
        "confidence": "medium",
        "geometry_role": "design_proposal",
        "name_zh": "研发交接台",
        "area_sqm_declared": 8470.628,
        "service_node": true,
        "staffed_fallback_required": true,
        "official_location": false
      },
      "geometry": {
        "type": "Polygon",
        "coordinates": [
          [
            [
              116.34870280595477,
              39.952792000750556
            ],
            [
              116.34868784788156,
              39.95273183450209
            ],
            [
              116.34866281359334,
              39.952673685581935
            ],
            [
              116.348628131456,
              39.95261854892813
            ],
            [
              116.34858439490793,
              39.95256736793601
            ],
            [
              116.34853235230482,
              39.95252101831698
            ],
            [
              116.34847289411432,
              39.952480293115514
            ],
            [
              116.34840703767962,
              39.95244588914059
            ],
            [
              116.3483359098127,
              39.952418395043935
            ],
            [
              116.34826072751471,
              39.9523982812486
            ],
            [
              116.3481827771542,
              39.95238589190051
            ],
            [
              116.34810339245813,
              39.95238143898046
            ],
            [
              116.34802393169332,
              39.9523849986774
            ],
            [
              116.34794575442805,
              39.95239651008494
            ],
            [
              116.34787019827118,
              39.95241577624336
            ],
            [
              116.34779855598715,
              39.952442467509485
            ],
            [
              116.34773205337792,
              39.95247612719644
            ],
            [
              116.34767182831037,
              39.952516179387175
            ],
            [
              116.34761891124778,
              39.952561938788044
            ],
            [
              116.3475742076187,
              39.952612622453415
            ],
            [
              116.34753848232458,
              39.95266736318163
            ],
            [
              116.34751234665136,
              39.95272522435217
            ],
            [
              116.34749624780912,
              39.95278521595108
            ],
            [
              116.34749046127884,
              39.95284631150985
            ],
            [
              116.34749508609696,
              39.95290746566827
            ],
            [
              116.34751004315908,
              39.95296763206073
            ],
            [
              116.34753507657146,
              39.953025781219885
            ],
            [
              116.34756975802784,
              39.95308091819144
            ],
            [
              116.34761349413634,
              39.95313209955838
            ],
            [
              116.34766553657114,
              39.95317844958379
            ],
            [
              116.3477249948761,
              39.95321917519547
            ],
            [
              116.34779085170018,
              39.95325357955651
            ],
            [
              116.34786198020497,
              39.95328107398885
            ],
            [
              116.34793716334573,
              39.95330118804657
            ],
            [
              116.34801511469658,
              39.95331357756587
            ],
            [
              116.348094500463,
              39.95331803055429
            ],
            [
              116.34817396230521,
              39.953314470818206
            ],
            [
              116.34825214058158,
              39.95330295926668
            ],
            [
              116.34832769761431,
              39.95328369286925
            ],
            [
              116.34839934057926,
              39.95325700128537
            ],
            [
              116.34846584362809,
              39.95322334122359
            ],
            [
              116.34852606886396,
              39.95318328862647
            ],
            [
              116.34857898581207,
              39.953137528815404
            ],
            [
              116.34862368905175,
              39.95308684476391
            ],
            [
              116.34865941370803,
              39.95303210370002
            ],
            [
              116.34868554853847,
              39.95297424226709
            ],
            [
              116.34870164639038,
              39.952914250496946
            ],
            [
              116.34870743185031,
              39.95285315486983
            ],
            [
              116.34870280595477,
              39.952792000750556
            ]
          ]
        ]
      }
    },
    {
      "type": "Feature",
      "id": "PUBLIC-003",
      "properties": {
        "id": "PUBLIC-003",
        "layer": "PUBLIC_SPACE",
        "source_type": "agent_generated_design",
        "confidence": "medium",
        "geometry_role": "design_proposal",
        "name_zh": "夜班休息点",
        "area_sqm_declared": 8470.628,
        "service_node": true,
        "staffed_fallback_required": true,
        "official_location": false
      },
      "geometry": {
        "type": "Polygon",
        "coordinates": [
          [
            [
              116.34900269529012,
              39.96334625717234
            ],
            [
              116.3489877347792,
              39.96328609105115
            ],
            [
              116.34896269650822,
              39.963227942268304
            ],
            [
              116.34892800891136,
              39.963172805759505
            ],
            [
              116.34888426552034,
              39.96312162491758
            ],
            [
              116.34883221480797,
              39.96307527545137
            ],
            [
              116.34877274738065,
              39.963034550402725
            ],
            [
              116.34870688073964,
              39.96300014657801
            ],
            [
              116.34863574187149,
              39.962972652626384
            ],
            [
              116.34856054796568,
              39.962952538968416
            ],
            [
              116.34848258558921,
              39.96294014974763
            ],
            [
              116.34840318867474,
              39.962935696942715
            ],
            [
              116.34832371569813,
              39.962939256740604
            ],
            [
              116.34824552643653,
              39.9629507682332
            ],
            [
              116.34816995870409,
              39.962970034459325
            ],
            [
              116.34809830546327,
              39.96299672577462
            ],
            [
              116.34803179270355,
              39.963030385491415
            ],
            [
              116.34797155846542,
              39.96307043769215
            ],
            [
              116.34791863336912,
              39.96311619708296
            ],
            [
              116.34787392298064,
              39.96316688071846
            ],
            [
              116.34783819231707,
              39.96322162139744
            ],
            [
              116.34781205275623,
              39.96327948250028
            ],
            [
              116.34779595157478,
              39.96333947401417
            ],
            [
              116.34779016429371,
              39.963400569472036
            ],
            [
              116.34779478996232,
              39.96346172351541
            ],
            [
              116.34780974946166,
              39.96352188978065
            ],
            [
              116.3478347868563,
              39.96358003880259
            ],
            [
              116.34786947377192,
              39.96363517562928
            ],
            [
              116.34791321672313,
              39.96368635684617
            ],
            [
              116.34796526726711,
              39.963732706718915
            ],
            [
              116.34802473480896,
              39.96377343217793
            ],
            [
              116.34809060183959,
              39.96380783638889
            ],
            [
              116.34816174134595,
              39.96383533067632
            ],
            [
              116.348236936095,
              39.96385544459678
            ],
            [
              116.34831489946231,
              39.963867833988814
            ],
            [
              116.34839429744768,
              39.96387228686211
            ],
            [
              116.3484737715023,
              39.96386872702505
            ],
            [
              116.34855196177553,
              39.96385721538842
            ],
            [
              116.34862753038426,
              39.96383794892318
            ],
            [
              116.34869918430635,
              39.963811257290004
            ],
            [
              116.34876569750588,
              39.963777597198245
            ],
            [
              116.34882593191239,
              39.96373754459098
            ],
            [
              116.34887885689416,
              39.9636917847898
            ],
            [
              116.348923566893,
              39.96364110076805
            ],
            [
              116.34895929691841,
              39.96358635975326
            ],
            [
              116.348985435636,
              39.96352849838794
            ],
            [
              116.34900153582657,
              39.96346850670279
            ],
            [
              116.34900732203674,
              39.96340741117654
            ],
            [
              116.34900269529012,
              39.96334625717234
            ]
          ]
        ]
      }
    },
    {
      "type": "Feature",
      "id": "PUBLIC-004",
      "properties": {
        "id": "PUBLIC-004",
        "layer": "PUBLIC_SPACE",
        "source_type": "agent_generated_design",
        "confidence": "medium",
        "geometry_role": "design_proposal",
        "name_zh": "照护道岔北庭",
        "area_sqm_declared": 8470.628,
        "service_node": true,
        "staffed_fallback_required": true,
        "official_location": false
      },
      "geometry": {
        "type": "Polygon",
        "coordinates": [
          [
            [
              116.34845592812256,
              39.97301397196525
            ],
            [
              116.34844096609919,
              39.97295380586043
            ],
            [
              116.34841592487666,
              39.97289565703151
            ],
            [
              116.34838123293966,
              39.972840520415005
            ],
            [
              116.3483374838942,
              39.97278933940559
            ],
            [
              116.3482854263098,
              39.972742989714945
            ],
            [
              116.3482259509105,
              39.97270226438877
            ],
            [
              116.34816007533392,
              39.97266786023819
            ],
            [
              116.3480889267195,
              39.9726403659179
            ],
            [
              116.34801372242347,
              39.97262025185478
            ],
            [
              116.34793574919067,
              39.97260786219934
            ],
            [
              116.34785634113939,
              39.97260340893761
            ],
            [
              116.34777685693608,
              39.97260696826444
            ],
            [
              116.34769865655002,
              39.97261847927971
            ],
            [
              116.3476230779856,
              39.97263774503046
            ],
            [
              116.34755141439068,
              39.972664435880446
            ],
            [
              116.34748489193184,
              39.97269809514995
            ],
            [
              116.34742464881555,
              39.972738146929096
            ],
            [
              116.34737171581394,
              39.97278390593123
            ],
            [
              116.34732699862828,
              39.97283458921761
            ],
            [
              116.34729126239193,
              39.97288932959301
            ],
            [
              116.34726511857814,
              39.97294719044302
            ],
            [
              116.34724901453629,
              39.97300718175912
            ],
            [
              116.34724322583634,
              39.973068277077665
            ],
            [
              116.34724785155186,
              39.973129431042544
            ],
            [
              116.34726281256313,
              39.973189597291466
            ],
            [
              116.34728785290889,
              39.973247746359554
            ],
            [
              116.34732254416429,
              39.973302883294046
            ],
            [
              116.3473662927697,
              39.97335406467857
            ],
            [
              116.34741835018559,
              39.97340041477587
            ],
            [
              116.34747782569946,
              39.97344114051256
            ],
            [
              116.34754370166586,
              39.97347554504953
            ],
            [
              116.34761485091875,
              39.97350303970575
            ],
            [
              116.34769005605844,
              39.97352315403143
            ],
            [
              116.34776803028257,
              39.973535543858226
            ],
            [
              116.34784743940526,
              39.97353999718834
            ],
            [
              116.34792692468707,
              39.97353643782237
            ],
            [
              116.34800512608527,
              39.973524926662996
            ],
            [
              116.34808070552641,
              39.97350566067306
            ],
            [
              116.34815236980297,
              39.973478969505095
            ],
            [
              116.34821889270185,
              39.97344530986049
            ],
            [
              116.34827913598663,
              39.97340525767468
            ],
            [
              116.34833206887365,
              39.973359498262035
            ],
            [
              116.34837678566953,
              39.97330881458925
            ],
            [
              116.34841252126739,
              39.97325407387793
            ],
            [
              116.34843866423755,
              39.97319621276536
            ],
            [
              116.34845476728806,
              39.97313622127792
            ],
            [
              116.3484605549166,
              39.973075125890965
            ],
            [
              116.34845592812256,
              39.97301397196525
            ]
          ]
        ]
      }
    },
    {
      "type": "Feature",
      "id": "PUBLIC-005",
      "properties": {
        "id": "PUBLIC-005",
        "layer": "PUBLIC_SPACE",
        "source_type": "agent_generated_design",
        "confidence": "medium",
        "geometry_role": "design_proposal",
        "name_zh": "照护换乘庭",
        "area_sqm_declared": 8470.628,
        "service_node": true,
        "staffed_fallback_required": true,
        "official_location": false
      },
      "geometry": {
        "type": "Polygon",
        "coordinates": [
          [
            [
              116.34790236166549,
              39.98268161033926
            ],
            [
              116.347887398135,
              39.98262144424993
            ],
            [
              116.34786235396538,
              39.98256329537351
            ],
            [
              116.34782765769174,
              39.98250815864724
            ],
            [
              116.34778390299428,
              39.98245697746774
            ],
            [
              116.3477318385393,
              39.98241062754957
            ],
            [
              116.34767235516834,
              39.98236990194231
            ],
            [
              116.34760647065542,
              39.982335497461904
            ],
            [
              116.3475353122929,
              39.98230800276868
            ],
            [
              116.34746009760379,
              39.98228788829592
            ],
            [
              116.34738211351073,
              39.9822754982011
            ],
            [
              116.34730269431788,
              39.982271044477805
            ],
            [
              116.34722319888225,
              39.982274603328726
            ],
            [
              116.34714498736528,
              39.98228611386195
            ],
            [
              116.34706939796187,
              39.98230537913273
            ],
            [
              116.34699772400528,
              39.98233206951306
            ],
            [
              116.3469311918394,
              39.98236572833124
            ],
            [
              116.34687093983676,
              39.98240577968512
            ],
            [
              116.34681799892154,
              39.98245153829535
            ],
            [
              116.3467732749304,
              39.982502221229865
            ],
            [
              116.34673753311321,
              39.98255696129947
            ],
            [
              116.34671138503865,
              39.982614821895005
            ],
            [
              116.34669527812902,
              39.9826748130123
            ],
            [
              116.34668948800339,
              39.9827359081911
            ],
            [
              116.34669411375974,
              39.98279706207771
            ],
            [
              116.34670907627762,
              39.98285722831117
            ],
            [
              116.34673411957006,
              39.98291537742684
            ],
            [
              116.34676881516175,
              39.982970514471184
            ],
            [
              116.34681256941893,
              39.983021696025915
            ],
            [
              116.34686463370532,
              39.983068046350894
            ],
            [
              116.34692411719091,
              39.98310877236881
            ],
            [
              116.34699000209379,
              39.98314317723574
            ],
            [
              116.34706116109507,
              39.983170672265
            ],
            [
              116.34713637662821,
              39.983190787000446
            ],
            [
              116.34721436171306,
              39.98320317726666
            ],
            [
              116.34729378197787,
              39.98320763105839
            ],
            [
              116.34737327849253,
              39.9832040721683
            ],
            [
              116.34745149102211,
              39.983192561490945
            ],
            [
              116.3475270813027,
              39.9831732959809
            ],
            [
              116.34759875594125,
              39.9831466052825
            ],
            [
              116.34766528854742,
              39.983112946089086
            ],
            [
              116.34772554071863,
              39.9830728943284
            ],
            [
              116.34777848151924,
              39.98302713530754
            ],
            [
              116.34782320512039,
              39.982976451986495
            ],
            [
              116.34785894629883,
              39.982921711580815
            ],
            [
              116.34788509352937,
              39.98286385072263
            ],
            [
              116.3479011994472,
              39.98280385943394
            ],
            [
              116.34790698850088,
              39.98274276418669
            ],
            [
              116.34790236166549,
              39.98268161033926
            ]
          ]
        ]
      }
    },
    {
      "type": "Feature",
      "id": "PUBLIC-006",
      "properties": {
        "id": "PUBLIC-006",
        "layer": "PUBLIC_SPACE",
        "source_type": "agent_generated_design",
        "confidence": "medium",
        "geometry_role": "design_proposal",
        "name_zh": "无账号服务点",
        "area_sqm_declared": 8470.628,
        "service_node": true,
        "staffed_fallback_required": true,
        "official_location": false
      },
      "geometry": {
        "type": "Polygon",
        "coordinates": [
          [
            [
              116.34782454204732,
              39.99323045732612
            ],
            [
              116.3478095764089,
              39.99317029131793
            ],
            [
              116.34778452857415,
              39.993112142499754
            ],
            [
              116.34774982714092,
              39.99305700580785
            ],
            [
              116.34770606587776,
              39.993005824638196
            ],
            [
              116.34765399356324,
              39.99295947470524
            ],
            [
              116.3475945011734,
              39.99291874905877
            ],
            [
              116.34752860663662,
              39.992884344515396
            ],
            [
              116.34745743741671,
              39.99285684973655
            ],
            [
              116.34738221122244,
              39.99283673515695
            ],
            [
              116.34730421517332,
              39.99282434493592
            ],
            [
              116.34722478377806,
              39.99281989106917
            ],
            [
              116.34714527610248,
              39.992823449761886
            ],
            [
              116.34706705251739,
              39.992834960124824
            ],
            [
              116.34699145142419,
              39.992854225216185
            ],
            [
              116.34691976635612,
              39.99288091541101
            ],
            [
              116.34685322384718,
              39.99291457404078
            ],
            [
              116.3467929624469,
              39.99295462520659
            ],
            [
              116.34674001324022,
              39.99300038363227
            ],
            [
              116.3466952822057,
              39.993051066388965
            ],
            [
              116.3466595347137,
              39.99310580629052
            ],
            [
              116.34663338242999,
              39.99316366673062
            ],
            [
              116.34661727284899,
              39.99322365770779
            ],
            [
              116.34661148163539,
              39.99328475276416
            ],
            [
              116.34661610790586,
              39.99334590654813
            ],
            [
              116.34663107253112,
              39.993406072700495
            ],
            [
              116.34665611948822,
              39.99346422175803
            ],
            [
              116.34669082023913,
              39.993519358768125
            ],
            [
              116.3467345810618,
              39.993570540313144
            ],
            [
              116.34678665320764,
              39.99361689065307
            ],
            [
              116.34684614571214,
              39.99365761671035
            ],
            [
              116.34691204063911,
              39.993692021640385
            ],
            [
              116.34698321049814,
              39.993719516755405
            ],
            [
              116.34705843753689,
              39.993739631597784
            ],
            [
              116.34713643457829,
              39.99375202199028
            ],
            [
              116.34721586704605,
              39.99375647592549
            ],
            [
              116.34729537580124,
              39.993752917193575
            ],
            [
              116.34737360039948,
              39.99374140668645
            ],
            [
              116.34744920237033,
              39.99372214135575
            ],
            [
              116.34752088812071,
              39.993695450842736
            ],
            [
              116.34758743107018,
              39.993661791837575
            ],
            [
              116.34764769263914,
              39.99362174026483
            ],
            [
              116.34770064173115,
              39.99357598142833
            ],
            [
              116.34774537237548,
              39.993525298284965
            ],
            [
              116.3477811192284,
              39.99347055804723
            ],
            [
              116.34780727066762,
              39.99341269734437
            ],
            [
              116.34782337925633,
              39.993352706195736
            ],
            [
              116.34782916939739,
              39.993291611070894
            ],
            [
              116.34782454204732,
              39.99323045732612
            ]
          ]
        ]
      }
    },
    {
      "type": "Feature",
      "id": "PUBLIC-007",
      "properties": {
        "id": "PUBLIC-007",
        "layer": "PUBLIC_SPACE",
        "source_type": "agent_generated_design",
        "confidence": "medium",
        "geometry_role": "design_proposal",
        "name_zh": "夜归信息点",
        "area_sqm_declared": 8470.628,
        "service_node": true,
        "staffed_fallback_required": true,
        "official_location": false
      },
      "geometry": {
        "type": "Polygon",
        "coordinates": [
          [
            [
              116.34823213731131,
              40.002902358655035
            ],
            [
              116.3482171693179,
              40.002842192779745
            ],
            [
              116.34819211771328,
              40.00278404411525
            ],
            [
              116.34815741115978,
              40.002728907595184
            ],
            [
              116.34811364351351,
              40.00267772661259
            ],
            [
              116.34806156366236,
              40.002631376878675
            ],
            [
              116.34800206271127,
              40.00259065143988
            ],
            [
              116.34793615873512,
              40.002556247109226
            ],
            [
              116.34786497935924,
              40.002528752544485
            ],
            [
              116.34778974246613,
              40.002508638176735
            ],
            [
              116.34771173535839,
              40.002496248161656
            ],
            [
              116.34763229273389,
              40.00249179449144
            ],
            [
              116.34755277385058,
              40.00249535336793
            ],
            [
              116.34747453927106,
              40.0025068638987
            ],
            [
              116.34739892758479,
              40.00252612913909
            ],
            [
              116.34732723250629,
              40.00255281946163
            ],
            [
              116.34726068074077,
              40.002586478195575
            ],
            [
              116.34720041099622,
              40.002626529440256
            ],
            [
              116.34714745450033,
              40.002672287918166
            ],
            [
              116.34710271735632,
              40.00272297069956
            ],
            [
              116.34706696503916,
              40.00277771059783
            ],
            [
              116.34704080929717,
              40.002835571006756
            ],
            [
              116.34702469768393,
              40.002895561925406
            ],
            [
              116.34701890589892,
              40.00295665689688
            ],
            [
              116.34702353306862,
              40.00301781057104
            ],
            [
              116.34703850004841,
              40.00307797659058
            ],
            [
              116.34706355077498,
              40.00313612549452
            ],
            [
              116.34709825664584,
              40.00319126233292
            ],
            [
              116.3471420238514,
              40.00324244369101
            ],
            [
              116.34719410353381,
              40.003288793832006
            ],
            [
              116.34725360459962,
              40.00332951968176
            ],
            [
              116.34731950896618,
              40.00336392439921
            ],
            [
              116.3473906889815,
              40.00339141930022
            ],
            [
              116.34746592671948,
              40.00341153393083
            ],
            [
              116.34754393482002,
              40.00342392411743
            ],
            [
              116.34762337851757,
              40.0034283778561
            ],
            [
              116.34770289848099,
              40.00342481894041
            ],
            [
              116.34778113407417,
              40.0034133082654
            ],
            [
              116.34785674663848,
              40.003394042785565
            ],
            [
              116.34792844239962,
              40.00336735214472
            ],
            [
              116.34799499460583,
              40.00333369303527
            ],
            [
              116.34805526451913,
              40.003293641383486
            ],
            [
              116.3481082209003,
              40.003247882494634
            ],
            [
              116.34815295765391,
              40.00319719932644
            ],
            [
              116.34818870933165,
              40.00314245909187
            ],
            [
              116.34821486422874,
              40.003084598420095
            ],
            [
              116.34823097484919,
              40.00302460732994
            ],
            [
              116.34823676556115,
              40.00296351228999
            ],
            [
              116.34823213731131,
              40.002902358655035
            ]
          ]
        ]
      }
    },
    {
      "type": "Feature",
      "id": "PUBLIC-008",
      "properties": {
        "id": "PUBLIC-008",
        "layer": "PUBLIC_SPACE",
        "source_type": "agent_generated_design",
        "confidence": "medium",
        "geometry_role": "design_proposal",
        "name_zh": "夜归回声钟",
        "area_sqm_declared": 8470.628,
        "service_node": true,
        "staffed_fallback_required": true,
        "official_location": false
      },
      "geometry": {
        "type": "Polygon",
        "coordinates": [
          [
            [
              116.34826540320293,
              40.012575855339726
            ],
            [
              116.34825043318233,
              40.01251568955165
            ],
            [
              116.3482253781241,
              40.012457540962494
            ],
            [
              116.34819066674966,
              40.01240240450464
            ],
            [
              116.34814689299769,
              40.01235122357002
            ],
            [
              116.34809480586046,
              40.01230487386904
            ],
            [
              116.34803529656764,
              40.012264148447564
            ],
            [
              116.3479693833368,
              40.01222974411832
            ],
            [
              116.34789819395165,
              40.01220224953905
            ],
            [
              116.34782294646593,
              40.01218213514107
            ],
            [
              116.34774492836345,
              40.012169745080584
            ],
            [
              116.34766547453023,
              40.01216529135058
            ],
            [
              116.34758594441598,
              40.01216885015386
            ],
            [
              116.34750769877543,
              40.012180360599324
            ],
            [
              116.34743207638726,
              40.01219962574375
            ],
            [
              116.34736037114916,
              40.012226315961264
            ],
            [
              116.34729380994018,
              40.01225997458299
            ],
            [
              116.34723353162978,
              40.01230002571014
            ],
            [
              116.34718056759228,
              40.012345784067236
            ],
            [
              116.34713582405998,
              40.012396466726614
            ],
            [
              116.34710006661705,
              40.012451206503734
            ],
            [
              116.34707390709961,
              40.012509066794465
            ],
            [
              116.34705779312581,
              40.01256905759989
            ],
            [
              116.3470520004356,
              40.01263015246508
            ],
            [
              116.34705662817085,
              40.012691306041674
            ],
            [
              116.34707159717735,
              40.012751471974056
            ],
            [
              116.34709665135709,
              40.01280962080273
            ],
            [
              116.34713136204856,
              40.012864757579024
            ],
            [
              116.34717513535963,
              40.01291593888928
            ],
            [
              116.34722722232804,
              40.012962288997485
            ],
            [
              116.34728673173565,
              40.01300301483005
            ],
            [
              116.34735264535706,
              40.01303741954624
            ],
            [
              116.34742383538197,
              40.01306491446189
            ],
            [
              116.34749908371302,
              40.01308502912281
            ],
            [
              116.34757710280876,
              40.01309741935487
            ],
            [
              116.34765655771554,
              40.01310187315337
            ],
            [
              116.34773608891044,
              40.01309831431086
            ],
            [
              116.34781433556513,
              40.013086803721094
            ],
            [
              116.34788995883173,
              40.01306753833715
            ],
            [
              116.34796166475279,
              40.0130408478012
            ],
            [
              116.3480282264027,
              40.01300718880383
            ],
            [
              116.34808850488193,
              40.01296713726944
            ],
            [
              116.34814146880461,
              40.012921378501254
            ],
            [
              116.34818621194636,
              40.01287069545496
            ],
            [
              116.34822196874953,
              40.01281595534143
            ],
            [
              116.34824812742166,
              40.012758094787756
            ],
            [
              116.34826424040217,
              40.01269810381077
            ],
            [
              116.34827003201886,
              40.012637008877086
            ],
            [
              116.34826540320293,
              40.012575855339726
            ]
          ]
        ]
      }
    },
    {
      "type": "Feature",
      "id": "PUBLIC-009",
      "properties": {
        "id": "PUBLIC-009",
        "layer": "PUBLIC_SPACE",
        "source_type": "agent_generated_design",
        "confidence": "medium",
        "geometry_role": "design_proposal",
        "name_zh": "南门人工求助点",
        "area_sqm_declared": 8470.628,
        "service_node": true,
        "staffed_fallback_required": true,
        "official_location": false
      },
      "geometry": {
        "type": "Polygon",
        "coordinates": [
          [
            [
              116.34802275484785,
              40.021371102997456
            ],
            [
              116.34800778322337,
              40.021310937255336
            ],
            [
              116.34798272525606,
              40.02125278867754
            ],
            [
              116.3479480097171,
              40.02119765219626
            ],
            [
              116.34790423061645,
              40.02114647120381
            ],
            [
              116.34785213703786,
              40.0211001214116
            ],
            [
              116.34779262032124,
              40.021059395867006
            ],
            [
              116.34772669881123,
              40.021024991384905
            ],
            [
              116.34765550043308,
              40.02099749662566
            ],
            [
              116.34758024339453,
              40.02097738202364
            ],
            [
              116.34750221534274,
              40.020964991738516
            ],
            [
              116.34742275133398,
              40.02096053776716
            ],
            [
              116.34734321099207,
              40.02096409631649
            ],
            [
              116.34726495524669,
              40.020975606499746
            ],
            [
              116.34718932304946,
              40.02099487137817
            ],
            [
              116.34711760846585,
              40.0210215613305
            ],
            [
              116.34705103853481,
              40.02105521969235
            ],
            [
              116.34699075227505,
              40.021095270569404
            ],
            [
              116.34693778119689,
              40.02114102869047
            ],
            [
              116.34689303165308,
              40.02119171113189
            ],
            [
              116.34685726933073,
              40.0212464507129
            ],
            [
              116.34683110614937,
              40.021304310832704
            ],
            [
              116.3468149897899,
              40.021364301495325
            ],
            [
              116.34680919603305,
              40.02142539624825
            ],
            [
              116.346813824039,
              40.021486549745084
            ],
            [
              116.3468287946489,
              40.02154671563154
            ],
            [
              116.34685385173736,
              40.02160486444892
            ],
            [
              116.34688856659304,
              40.02166000124875
            ],
            [
              116.3469323452526,
              40.02171118261694
            ],
            [
              116.34698443866228,
              40.02175753281652
            ],
            [
              116.34704395549372,
              40.02179825877232
            ],
            [
              116.34710987739452,
              40.021832663641476
            ],
            [
              116.34718107641267,
              40.02186015873721
            ],
            [
              116.34725633429689,
              40.021880273602285
            ],
            [
              116.34733436334237,
              40.021892664059
            ],
            [
              116.34741382842515,
              40.0218971180989
            ],
            [
              116.34749336984821,
              40.0218935595103
            ],
            [
              116.34757162660816,
              40.021882049182736
            ],
            [
              116.34764725968425,
              40.021862784064695
            ],
            [
              116.34771897495112,
              40.021836093793844
            ],
            [
              116.34778554532329,
              40.021802435056244
            ],
            [
              116.34784583175194,
              40.02176238377182
            ],
            [
              116.34789880271526,
              40.02171662523954
            ],
            [
              116.34794355186833,
              40.02166594241107
            ],
            [
              116.34797931355067,
              40.02161120249355
            ],
            [
              116.34800547588634,
              40.02155334211072
            ],
            [
              116.34802159125212,
              40.02149335127649
            ],
            [
              116.34802738393493,
              40.02143225645503
            ],
            [
              116.34802275484785,
              40.021371102997456
            ]
          ]
        ]
      }
    }
  ]
}
