{
  "type": "FeatureCollection",
  "features": [
    {
      "type": "Feature",
      "id": "BD-001",
      "properties": {
        "source_type": "agent_generated_design",
        "confidence": "medium",
        "geometry_role": "design_proposal",
        "official_boundary": false,
        "boundary_precision": "provisional_rough",
        "id": "BD-001",
        "layer": "BUILDING_FOOTPRINT",
        "segment_id": "YLD-1",
        "name_zh": "清河养路段更新示意地块",
        "note_zh": "概念建议，非拆改留结论",
        "area_sqm_declared": 78000.0
      },
      "geometry": {
        "type": "Polygon",
        "coordinates": [
          [
            [
              116.34805729791258,
              40.015726755430094
            ],
            [
              116.3480350156749,
              40.018068208388634
            ],
            [
              116.35154884902019,
              40.01808792410903
            ],
            [
              116.35157101118601,
              40.01574646952512
            ],
            [
              116.34805729791258,
              40.015726755430094
            ]
          ]
        ]
      }
    },
    {
      "type": "Feature",
      "id": "BD-002",
      "properties": {
        "source_type": "agent_generated_design",
        "confidence": "medium",
        "geometry_role": "design_proposal",
        "official_boundary": false,
        "boundary_precision": "provisional_rough",
        "id": "BD-002",
        "layer": "BUILDING_FOOTPRINT",
        "segment_id": "YLD-2",
        "name_zh": "众智园养路段更新示意地块",
        "note_zh": "概念建议，非拆改留结论",
        "area_sqm_declared": 78000.0
      },
      "geometry": {
        "type": "Polygon",
        "coordinates": [
          [
            [
              116.34823220244343,
              39.99733795315616
            ],
            [
              116.3482099406741,
              39.9996794136482
            ],
            [
              116.35172283140425,
              39.99969911660655
            ],
            [
              116.35174497321196,
              39.997357654489996
            ],
            [
              116.34823220244343,
              39.99733795315616
            ]
          ]
        ]
      }
    },
    {
      "type": "Feature",
      "id": "BD-003",
      "properties": {
        "source_type": "agent_generated_design",
        "confidence": "medium",
        "geometry_role": "design_proposal",
        "official_boundary": false,
        "boundary_precision": "provisional_rough",
        "id": "BD-003",
        "layer": "BUILDING_FOOTPRINT",
        "segment_id": "YLD-3",
        "name_zh": "原点养路段更新示意地块",
        "note_zh": "概念建议，非拆改留结论",
        "area_sqm_declared": 78000.0
      },
      "geometry": {
        "type": "Polygon",
        "coordinates": [
          [
            [
              116.3484152634497,
              39.97807343017751
            ],
            [
              116.34839302310095,
              39.9804148985608
            ],
            [
              116.351904927258,
              39.98043458815664
            ],
            [
              116.35192704776058,
              39.97809311814973
            ],
            [
              116.3484152634497,
              39.97807343017751
            ]
          ]
        ]
      }
    },
    {
      "type": "Feature",
      "id": "BD-004",
      "properties": {
        "source_type": "agent_generated_design",
        "confidence": "medium",
        "geometry_role": "design_proposal",
        "official_boundary": false,
        "boundary_precision": "provisional_rough",
        "id": "BD-004",
        "layer": "BUILDING_FOOTPRINT",
        "segment_id": "YLD-4",
        "name_zh": "北下关养路段更新示意地块",
        "note_zh": "概念建议，非拆改留结论",
        "area_sqm_declared": 78000.0
      },
      "geometry": {
        "type": "Polygon",
        "coordinates": [
          [
            [
              116.34859814832359,
              39.95880884227769
            ],
            [
              116.34857592937236,
              39.96115031855125
            ],
            [
              116.35208684790544,
              39.96116999479196
            ],
            [
              116.35210894712576,
              39.95882851689569
            ],
            [
              116.34859814832359,
              39.95880884227769
            ]
          ]
        ]
      }
    },
    {
      "type": "Feature",
      "id": "BD-005",
      "properties": {
        "source_type": "agent_generated_design",
        "confidence": "medium",
        "geometry_role": "design_proposal",
        "official_boundary": false,
        "boundary_precision": "provisional_rough",
        "id": "BD-005",
        "layer": "BUILDING_FOOTPRINT",
        "segment_id": "YLD-5",
        "name_zh": "大钟寺养路段更新示意地块",
        "note_zh": "概念建议，非拆改留结论",
        "area_sqm_declared": 78000.0
      },
      "geometry": {
        "type": "Polygon",
        "coordinates": [
          [
            [
              116.34873934793694,
              39.94392252534924
            ],
            [
              116.34871714550442,
              39.94626400771914
            ],
            [
              116.3522273030684,
              39.94628367364505
            ],
            [
              116.35224938585901,
              39.943942189653136
            ],
            [
              116.34873934793694,
              39.94392252534924
            ]
          ]
        ]
      }
    }
  ]
}