{
  "type": "FeatureCollection",
  "features": [
    {
      "type": "Feature",
      "id": "GS-001",
      "properties": {
        "source_type": "agent_generated_design",
        "confidence": "medium",
        "geometry_role": "design_proposal",
        "official_boundary": false,
        "boundary_precision": "provisional_rough",
        "id": "GS-001",
        "layer": "GREEN_SPACE",
        "name_zh": "京张遗址公园绿廊",
        "area_sqm_declared": 777289.966
      },
      "geometry": {
        "type": "Polygon",
        "coordinates": [
          [
            [
              116.34761602318493,
              39.939000229191215
            ],
            [
              116.34678326802694,
              40.02650015006055
            ],
            [
              116.34772045517674,
              40.02650016419951
            ],
            [
              116.34855201559621,
              39.93900022851288
            ],
            [
              116.34761602318493,
              39.939000229191215
            ]
          ]
        ]
      }
    }
  ]
}