{
  "type": "FeatureCollection",
  "features": [
    {
      "type": "Feature",
      "id": "LU-001",
      "properties": {
        "source_type": "agent_generated_design",
        "confidence": "medium",
        "geometry_role": "design_proposal",
        "official_boundary": false,
        "boundary_precision": "provisional_rough",
        "id": "LU-001",
        "layer": "LAND_USE",
        "land_use_code": "0802",
        "land_use_label_zh": "科研用地",
        "segment_id": "YLD-1",
        "segment_name_zh": "清河养路段",
        "area_sqm_declared": 2287113.888
      },
      "geometry": {
        "type": "Polygon",
        "coordinates": [
          [
            [
              116.34270000000001,
              40.026500000000006
            ],
            [
              116.3553,
              40.02649999999999
            ],
            [
              116.35424768122668,
              40.007299467389345
            ],
            [
              116.34175994695364,
              40.00722921199805
            ],
            [
              116.34270000000001,
              40.026500000000006
            ]
          ]
        ]
      }
    },
    {
      "type": "Feature",
      "id": "LU-002",
      "properties": {
        "source_type": "agent_generated_design",
        "confidence": "medium",
        "geometry_role": "design_proposal",
        "official_boundary": false,
        "boundary_precision": "provisional_rough",
        "id": "LU-002",
        "layer": "LAND_USE",
        "land_use_code": "0802",
        "land_use_label_zh": "科研用地",
        "segment_id": "YLD-2",
        "segment_name_zh": "众智园养路段",
        "area_sqm_declared": 2085067.203
      },
      "geometry": {
        "type": "Polygon",
        "coordinates": [
          [
            [
              116.3533,
              39.99
            ],
            [
              116.353317593172,
              39.98978017209486
            ],
            [
              116.34064875140466,
              39.98970879377373
            ],
            [
              116.34169999999999,
              40.00600000000001
            ],
            [
              116.34175994695364,
              40.00722921199805
            ],
            [
              116.35424768122668,
              40.007299467389345
            ],
            [
              116.3533,
              39.99
            ]
          ]
        ]
      }
    },
    {
      "type": "Feature",
      "id": "LU-003",
      "properties": {
        "source_type": "agent_generated_design",
        "confidence": "medium",
        "geometry_role": "design_proposal",
        "official_boundary": false,
        "boundary_precision": "provisional_rough",
        "id": "LU-003",
        "layer": "LAND_USE",
        "land_use_code": "0804",
        "land_use_label_zh": "教育用地",
        "segment_id": "YLD-3",
        "segment_name_zh": "原点养路段",
        "area_sqm_declared": 2810832.757
      },
      "geometry": {
        "type": "Polygon",
        "coordinates": [
          [
            [
              116.35499829907135,
              39.968772536195814
            ],
            [
              116.33987544503815,
              39.968687401624884
            ],
            [
              116.3397,
              39.975
            ],
            [
              116.34064875140466,
              39.98970879377373
            ],
            [
              116.353317593172,
              39.98978017209486
            ],
            [
              116.35499829907135,
              39.968772536195814
            ]
          ]
        ]
      }
    },
    {
      "type": "Feature",
      "id": "LU-004",
      "properties": {
        "source_type": "agent_generated_design",
        "confidence": "medium",
        "geometry_role": "design_proposal",
        "official_boundary": false,
        "boundary_precision": "provisional_rough",
        "id": "LU-004",
        "layer": "LAND_USE",
        "land_use_code": "0701",
        "land_use_label_zh": "城镇住宅用地",
        "segment_id": "YLD-4",
        "segment_name_zh": "北下关养路段",
        "area_sqm_declared": 2517313.288
      },
      "geometry": {
        "type": "Polygon",
        "coordinates": [
          [
            [
              116.3553,
              39.965
            ],
            [
              116.35530001647538,
              39.951259989134755
            ],
            [
              116.34036192616414,
              39.951175954450505
            ],
            [
              116.33987544503815,
              39.968687401624884
            ],
            [
              116.35499829907135,
              39.968772536195814
            ],
            [
              116.3553,
              39.965
            ]
          ]
        ]
      }
    },
    {
      "type": "Feature",
      "id": "LU-005",
      "properties": {
        "source_type": "agent_generated_design",
        "confidence": "medium",
        "geometry_role": "design_proposal",
        "official_boundary": false,
        "boundary_precision": "provisional_rough",
        "id": "LU-005",
        "layer": "LAND_USE",
        "land_use_code": "05",
        "land_use_label_zh": "商业服务业用地",
        "segment_id": "YLD-5",
        "segment_name_zh": "大钟寺养路段",
        "area_sqm_declared": 1712498.249
      },
      "geometry": {
        "type": "Polygon",
        "coordinates": [
          [
            [
              116.3553,
              39.939
            ],
            [
              116.34070000000001,
              39.93899999999999
            ],
            [
              116.34036192616414,
              39.951175954450505
            ],
            [
              116.35530001647538,
              39.951259989134755
            ],
            [
              116.3553,
              39.939
            ]
          ]
        ]
      }
    }
  ]
}