{
  "type": "FeatureCollection",
  "features": [
    {
      "type": "Feature",
      "id": "PH-001",
      "properties": {
        "source_type": "agent_generated_design",
        "confidence": "medium",
        "geometry_role": "design_proposal",
        "official_boundary": false,
        "boundary_precision": "provisional_rough",
        "id": "PH-001",
        "layer": "PHASE",
        "phase": "一期",
        "segments": [
          "YLD-3"
        ],
        "note_zh": "概念分期建议，非开发时序结论",
        "area_sqm_declared": 2810832.757
      },
      "geometry": {
        "type": "Polygon",
        "coordinates": [
          [
            [
              116.35499829907135,
              39.968772536195814
            ],
            [
              116.33987544503815,
              39.968687401624884
            ],
            [
              116.3397,
              39.975
            ],
            [
              116.34064875140466,
              39.98970879377373
            ],
            [
              116.353317593172,
              39.98978017209486
            ],
            [
              116.35499829907135,
              39.968772536195814
            ]
          ]
        ]
      }
    },
    {
      "type": "Feature",
      "id": "PH-002",
      "properties": {
        "source_type": "agent_generated_design",
        "confidence": "medium",
        "geometry_role": "design_proposal",
        "official_boundary": false,
        "boundary_precision": "provisional_rough",
        "id": "PH-002",
        "layer": "PHASE",
        "phase": "二期",
        "segments": [
          "YLD-2",
          "YLD-5"
        ],
        "note_zh": "概念分期建议，非开发时序结论",
        "area_sqm_declared": 3797565.452
      },
      "geometry": {
        "type": "MultiPolygon",
        "coordinates": [
          [
            [
              [
                116.34070000000001,
                39.93899999999999
              ],
              [
                116.34036192616414,
                39.951175954450505
              ],
              [
                116.35530001647538,
                39.951259989134755
              ],
              [
                116.3553,
                39.939
              ],
              [
                116.34070000000001,
                39.93899999999999
              ]
            ]
          ],
          [
            [
              [
                116.353317593172,
                39.98978017209486
              ],
              [
                116.34064875140466,
                39.98970879377373
              ],
              [
                116.34169999999999,
                40.00600000000001
              ],
              [
                116.34175994695364,
                40.00722921199805
              ],
              [
                116.35424768122668,
                40.007299467389345
              ],
              [
                116.3533,
                39.99
              ],
              [
                116.353317593172,
                39.98978017209486
              ]
            ]
          ]
        ]
      }
    },
    {
      "type": "Feature",
      "id": "PH-003",
      "properties": {
        "source_type": "agent_generated_design",
        "confidence": "medium",
        "geometry_role": "design_proposal",
        "official_boundary": false,
        "boundary_precision": "provisional_rough",
        "id": "PH-003",
        "layer": "PHASE",
        "phase": "三期",
        "segments": [
          "YLD-1",
          "YLD-4"
        ],
        "note_zh": "概念分期建议，非开发时序结论",
        "area_sqm_declared": 4804427.176
      },
      "geometry": {
        "type": "MultiPolygon",
        "coordinates": [
          [
            [
              [
                116.35530001647538,
                39.951259989134755
              ],
              [
                116.34036192616414,
                39.951175954450505
              ],
              [
                116.33987544503815,
                39.968687401624884
              ],
              [
                116.35499829907135,
                39.968772536195814
              ],
              [
                116.3553,
                39.965
              ],
              [
                116.35530001647538,
                39.951259989134755
              ]
            ]
          ],
          [
            [
              [
                116.3553,
                40.02649999999999
              ],
              [
                116.35424768122668,
                40.007299467389345
              ],
              [
                116.34175994695364,
                40.00722921199805
              ],
              [
                116.34270000000001,
                40.026500000000006
              ],
              [
                116.3553,
                40.02649999999999
              ]
            ]
          ]
        ]
      }
    }
  ]
}