{
  "type": "FeatureCollection",
  "features": [
    {
      "type": "Feature",
      "id": "PS-K0",
      "properties": {
        "source_type": "agent_generated_design",
        "confidence": "medium",
        "geometry_role": "design_proposal",
        "official_boundary": false,
        "boundary_precision": "provisional_rough",
        "id": "PS-K0",
        "layer": "PUBLIC_SPACE",
        "node_code": "K0",
        "name_zh": "K0 公里牌节点",
        "area_sqm_declared": 14400.0
      },
      "geometry": {
        "type": "Polygon",
        "coordinates": [
          [
            [
              116.34680037406385,
              40.024706627812
            ],
            [
              116.34773748653217,
              40.024711906458755
            ],
            [
              116.3477529236425,
              40.02309090262666
            ],
            [
              116.346815833349,
              40.023085624281165
            ],
            [
              116.34680037406385,
              40.024706627812
            ]
          ]
        ]
      }
    },
    {
      "type": "Feature",
      "id": "PS-K1",
      "properties": {
        "source_type": "agent_generated_design",
        "confidence": "medium",
        "geometry_role": "design_proposal",
        "official_boundary": false,
        "boundary_precision": "provisional_rough",
        "id": "PS-K1",
        "layer": "PUBLIC_SPACE",
        "node_code": "K1",
        "name_zh": "K1 公里牌节点",
        "area_sqm_declared": 14400.0
      },
      "geometry": {
        "type": "Polygon",
        "coordinates": [
          [
            [
              116.34688757915787,
              40.01556089820051
            ],
            [
              116.34782456653909,
              40.01556617514771
            ],
            [
              116.34783999659459,
              40.01394516872145
            ],
            [
              116.34690303137806,
              40.013939892075435
            ],
            [
              116.34688757915787,
              40.01556089820051
            ]
          ]
        ]
      }
    },
    {
      "type": "Feature",
      "id": "PS-K2",
      "properties": {
        "source_type": "agent_generated_design",
        "confidence": "medium",
        "geometry_role": "design_proposal",
        "official_boundary": false,
        "boundary_precision": "provisional_rough",
        "id": "PS-K2",
        "layer": "PUBLIC_SPACE",
        "node_code": "K2",
        "name_zh": "K2 公里牌节点",
        "area_sqm_declared": 14400.0
      },
      "geometry": {
        "type": "Polygon",
        "coordinates": [
          [
            [
              116.34697474439965,
              40.0064151539526
            ],
            [
              116.3479116067509,
              40.00642042920068
            ],
            [
              116.3479270297552,
              40.0047994201804
            ],
            [
              116.34699018955848,
              40.00479414523342
            ],
            [
              116.34697474439965,
              40.0064151539526
            ]
          ]
        ]
      }
    },
    {
      "type": "Feature",
      "id": "PS-K3",
      "properties": {
        "source_type": "agent_generated_design",
        "confidence": "medium",
        "geometry_role": "design_proposal",
        "official_boundary": false,
        "boundary_precision": "provisional_rough",
        "id": "PS-K3",
        "layer": "PUBLIC_SPACE",
        "node_code": "K3",
        "name_zh": "K3 公里牌节点",
        "area_sqm_declared": 14400.0
      },
      "geometry": {
        "type": "Polygon",
        "coordinates": [
          [
            [
              116.34706186980956,
              39.997269395069154
            ],
            [
              116.34799860718798,
              39.99727466861857
            ],
            [
              116.34801402314464,
              39.995653657004425
            ],
            [
              116.34707730791065,
              39.99564838375603
            ],
            [
              116.34706186980956,
              39.997269395069154
            ]
          ]
        ]
      }
    },
    {
      "type": "Feature",
      "id": "PS-K4",
      "properties": {
        "source_type": "agent_generated_design",
        "confidence": "medium",
        "geometry_role": "design_proposal",
        "official_boundary": false,
        "boundary_precision": "provisional_rough",
        "id": "PS-K4",
        "layer": "PUBLIC_SPACE",
        "node_code": "K4",
        "name_zh": "K4 公里牌节点",
        "area_sqm_declared": 14400.0
      },
      "geometry": {
        "type": "Polygon",
        "coordinates": [
          [
            [
              116.3471489554079,
              39.988123621551004
            ],
            [
              116.34808556787061,
              39.988128893402234
            ],
            [
              116.34810097678323,
              39.98650787919438
            ],
            [
              116.34716438645485,
              39.98650260764411
            ],
            [
              116.3471489554079,
              39.988123621551004
            ]
          ]
        ]
      }
    },
    {
      "type": "Feature",
      "id": "PS-K5",
      "properties": {
        "source_type": "agent_generated_design",
        "confidence": "medium",
        "geometry_role": "design_proposal",
        "official_boundary": false,
        "boundary_precision": "provisional_rough",
        "id": "PS-K5",
        "layer": "PUBLIC_SPACE",
        "node_code": "K5",
        "name_zh": "K5 公里牌节点",
        "area_sqm_declared": 14400.0
      },
      "geometry": {
        "type": "Polygon",
        "coordinates": [
          [
            [
              116.347236001215,
              39.9789778333991
            ],
            [
              116.34817248881906,
              39.978983103552544
            ],
            [
              116.34818789069124,
              39.977362086751135
            ],
            [
              116.3472514252114,
              39.977356816898556
            ],
            [
              116.347236001215,
              39.9789778333991
            ]
          ]
        ]
      }
    },
    {
      "type": "Feature",
      "id": "PS-K6",
      "properties": {
        "source_type": "agent_generated_design",
        "confidence": "medium",
        "geometry_role": "design_proposal",
        "official_boundary": false,
        "boundary_precision": "provisional_rough",
        "id": "PS-K6",
        "layer": "PUBLIC_SPACE",
        "node_code": "K6",
        "name_zh": "K6 公里牌节点",
        "area_sqm_declared": 14400.0
      },
      "geometry": {
        "type": "Polygon",
        "coordinates": [
          [
            [
              116.34732300725118,
              39.96983203061426
            ],
            [
              116.3482593700536,
              39.96983729907038
            ],
            [
              116.34827476488893,
              39.96821627967559
            ],
            [
              116.3473384242006,
              39.96821101152026
            ],
            [
              116.34732300725118,
              39.96983203061426
            ]
          ]
        ]
      }
    },
    {
      "type": "Feature",
      "id": "PS-K7",
      "properties": {
        "source_type": "agent_generated_design",
        "confidence": "medium",
        "geometry_role": "design_proposal",
        "official_boundary": false,
        "boundary_precision": "provisional_rough",
        "id": "PS-K7",
        "layer": "PUBLIC_SPACE",
        "node_code": "K7",
        "name_zh": "K7 公里牌节点",
        "area_sqm_declared": 14400.0
      },
      "geometry": {
        "type": "Polygon",
        "coordinates": [
          [
            [
              116.34740997353664,
              39.9606862131974
            ],
            [
              116.34834621159446,
              39.960691479956644
            ],
            [
              116.34836159939654,
              39.95907045796863
            ],
            [
              116.34742538344273,
              39.959065191510085
            ],
            [
              116.34740997353664,
              39.9606862131974
            ]
          ]
        ]
      }
    },
    {
      "type": "Feature",
      "id": "PS-K8",
      "properties": {
        "source_type": "agent_generated_design",
        "confidence": "medium",
        "geometry_role": "design_proposal",
        "official_boundary": false,
        "boundary_precision": "provisional_rough",
        "id": "PS-K8",
        "layer": "PUBLIC_SPACE",
        "node_code": "K8",
        "name_zh": "K8 公里牌节点",
        "area_sqm_declared": 14400.0
      },
      "geometry": {
        "type": "Polygon",
        "coordinates": [
          [
            [
              116.34749690009174,
              39.95154038114938
            ],
            [
              116.34843301346191,
              39.951545646212196
            ],
            [
              116.34844839423431,
              39.949924621631105
            ],
            [
              116.34751230295804,
              39.94991935686892
            ],
            [
              116.34749690009174,
              39.95154038114938
            ]
          ]
        ]
      }
    },
    {
      "type": "Feature",
      "id": "PS-K9",
      "properties": {
        "source_type": "agent_generated_design",
        "confidence": "medium",
        "geometry_role": "design_proposal",
        "official_boundary": false,
        "boundary_precision": "provisional_rough",
        "id": "PS-K9",
        "layer": "PUBLIC_SPACE",
        "node_code": "K9",
        "name_zh": "K9 公里牌节点",
        "area_sqm_declared": 14400.0
      },
      "geometry": {
        "type": "Polygon",
        "coordinates": [
          [
            [
              116.34758378693665,
              39.94239453447109
            ],
            [
              116.34851977567615,
              39.94239979783795
            ],
            [
              116.34853514942246,
              39.940778770663925
            ],
            [
              116.3475991827668,
              39.94077350759764
            ],
            [
              116.34758378693665,
              39.94239453447109
            ]
          ]
        ]
      }
    }
  ]
}