{
  "type": "FeatureCollection",
  "features": [
    {
      "type": "Feature",
      "id": "RD-001",
      "properties": {
        "source_type": "agent_generated_design",
        "confidence": "medium",
        "geometry_role": "design_proposal",
        "official_boundary": false,
        "boundary_precision": "provisional_rough",
        "id": "RD-001",
        "layer": "ROAD_AREA",
        "road_class": "branch",
        "name_zh": "缝合支路 1",
        "area_sqm_declared": 30242.804
      },
      "geometry": {
        "type": "Polygon",
        "coordinates": [
          [
            [
              116.35530001049543,
              39.9441462100055
            ],
            [
              116.34055943213801,
              39.94406330258866
            ],
            [
              116.34055343177828,
              39.944279416776816
            ],
            [
              116.35530001082293,
              39.94436235843528
            ],
            [
              116.35530001049543,
              39.9441462100055
            ]
          ]
        ]
      }
    },
    {
      "type": "Feature",
      "id": "RD-002",
      "properties": {
        "source_type": "agent_generated_design",
        "confidence": "medium",
        "geometry_role": "design_proposal",
        "official_boundary": false,
        "boundary_precision": "provisional_rough",
        "id": "RD-002",
        "layer": "ROAD_AREA",
        "road_class": "branch",
        "name_zh": "缝合支路 2",
        "area_sqm_declared": 30864.882
      },
      "geometry": {
        "type": "Polygon",
        "coordinates": [
          [
            [
              116.35530001555587,
              39.955155171283586
            ],
            [
              116.34025375914224,
              39.9550705190769
            ],
            [
              116.34024775638267,
              39.95528663282471
            ],
            [
              116.35530001541794,
              39.95537131930426
            ],
            [
              116.35530001555587,
              39.955155171283586
            ]
          ]
        ]
      }
    },
    {
      "type": "Feature",
      "id": "RD-003",
      "properties": {
        "source_type": "agent_generated_design",
        "confidence": "medium",
        "geometry_role": "design_proposal",
        "official_boundary": false,
        "boundary_precision": "provisional_rough",
        "id": "RD-003",
        "layer": "ROAD_AREA",
        "road_class": "branch",
        "name_zh": "缝合支路 3",
        "area_sqm_declared": 31278.44
      },
      "geometry": {
        "type": "Polygon",
        "coordinates": [
          [
            [
              116.35520694777895,
              39.96616359418454
            ],
            [
              116.33994796387258,
              39.96607771313642
            ],
            [
              116.33994195871142,
              39.96629382644385
            ],
            [
              116.35518966983611,
              39.96637964569039
            ],
            [
              116.35520694777895,
              39.96616359418454
            ]
          ]
        ]
      }
    },
    {
      "type": "Feature",
      "id": "RD-004",
      "properties": {
        "source_type": "agent_generated_design",
        "confidence": "medium",
        "geometry_role": "design_proposal",
        "official_boundary": false,
        "boundary_precision": "provisional_rough",
        "id": "RD-004",
        "layer": "ROAD_AREA",
        "road_class": "branch",
        "name_zh": "缝合支路 4",
        "area_sqm_declared": 29680.983
      },
      "geometry": {
        "type": "Polygon",
        "coordinates": [
          [
            [
              116.35432678968954,
              39.977167614520496
            ],
            [
              116.33983452834498,
              39.977085981189106
            ],
            [
              116.33984847356871,
              39.97730220770628
            ],
            [
              116.35430950574029,
              39.97738366544227
            ],
            [
              116.35432678968954,
              39.977167614520496
            ]
          ]
        ]
      }
    },
    {
      "type": "Feature",
      "id": "RD-005",
      "properties": {
        "source_type": "agent_generated_design",
        "confidence": "medium",
        "geometry_role": "design_proposal",
        "official_boundary": false,
        "boundary_precision": "provisional_rough",
        "id": "RD-005",
        "layer": "ROAD_AREA",
        "road_class": "branch",
        "name_zh": "缝合支路 5",
        "area_sqm_declared": 26415.111
      },
      "geometry": {
        "type": "Polygon",
        "coordinates": [
          [
            [
              116.35344632556216,
              39.98817160510307
            ],
            [
              116.34054489284152,
              39.988098918419134
            ],
            [
              116.34055884206855,
              39.988315144477866
            ],
            [
              116.35342903560182,
              39.988387655440576
            ],
            [
              116.35344632556216,
              39.98817160510307
            ]
          ]
        ]
      }
    },
    {
      "type": "Feature",
      "id": "RD-006",
      "properties": {
        "source_type": "agent_generated_design",
        "confidence": "medium",
        "geometry_role": "design_proposal",
        "official_boundary": false,
        "boundary_precision": "provisional_rough",
        "id": "RD-006",
        "layer": "ROAD_AREA",
        "road_class": "branch",
        "name_zh": "缝合支路 6",
        "area_sqm_declared": 25715.317
      },
      "geometry": {
        "type": "Polygon",
        "coordinates": [
          [
            [
              116.35380297187099,
              39.99918247191417
            ],
            [
              116.34125546132385,
              39.99911183229609
            ],
            [
              116.34126941455769,
              39.999328057896236
            ],
            [
              116.35381481638804,
              39.99939868433859
            ],
            [
              116.35380297187099,
              39.99918247191417
            ]
          ]
        ]
      }
    },
    {
      "type": "Feature",
      "id": "RD-007",
      "properties": {
        "source_type": "agent_generated_design",
        "confidence": "medium",
        "geometry_role": "design_proposal",
        "official_boundary": false,
        "boundary_precision": "provisional_rough",
        "id": "RD-007",
        "layer": "ROAD_AREA",
        "road_class": "branch",
        "name_zh": "缝合支路 7",
        "area_sqm_declared": 25627.93
      },
      "geometry": {
        "type": "Polygon",
        "coordinates": [
          [
            [
              116.35440632567662,
              40.010194691803086
            ],
            [
              116.34190114631035,
              40.01012435321758
            ],
            [
              116.34191169132843,
              40.01034055898967
            ],
            [
              116.35441817353475,
              40.01041090378659
            ],
            [
              116.35440632567662,
              40.010194691803086
            ]
          ]
        ]
      }
    },
    {
      "type": "Feature",
      "id": "RD-008",
      "properties": {
        "source_type": "agent_generated_design",
        "confidence": "medium",
        "geometry_role": "design_proposal",
        "official_boundary": false,
        "boundary_precision": "provisional_rough",
        "id": "RD-008",
        "layer": "ROAD_AREA",
        "road_class": "branch",
        "name_zh": "缝合支路 8",
        "area_sqm_declared": 25759.793
      },
      "geometry": {
        "type": "Polygon",
        "coordinates": [
          [
            [
              116.35500984972663,
              40.02120688923263
            ],
            [
              116.34243830282072,
              40.0211362345378
            ],
            [
              116.34244885075469,
              40.02135243987902
            ],
            [
              116.35502170092883,
              40.021423100775124
            ],
            [
              116.35500984972663,
              40.02120688923263
            ]
          ]
        ]
      }
    }
  ]
}