{
  "type": "FeatureCollection",
  "name": "building_footprints_design",
  "features": [
    {
      "type": "Feature",
      "id": "BLDG-001",
      "properties": {
        "id": "BLDG-001",
        "layer": "BUILDING_FOOTPRINT",
        "source_type": "agent_generated_design",
        "confidence": "medium",
        "geometry_role": "design_proposal",
        "name_zh": "台账中心",
        "name_en": "Ledger Centre",
        "building_type": "ai_r_and_d",
        "area_sqm_declared": 39000.0,
        "design_note_zh": "概念示意基底，不构成建筑方案、高度或强度结论。"
      },
      "geometry": {
        "type": "Polygon",
        "coordinates": [
          [
            [
              116.35025133449892,
              40.01734494686158
            ],
            [
              116.35026243778644,
              40.016174219840025
            ],
            [
              116.34674870349059,
              40.01615446589531
            ],
            [
              116.34673754016767,
              40.01732519210256
            ],
            [
              116.35025133449892,
              40.01734494686158
            ]
          ]
        ]
      }
    },
    {
      "type": "Feature",
      "id": "BLDG-002",
      "properties": {
        "id": "BLDG-002",
        "layer": "BUILDING_FOOTPRINT",
        "source_type": "agent_generated_design",
        "confidence": "medium",
        "geometry_role": "design_proposal",
        "name_zh": "全栈验证实验室",
        "name_en": "Full-stack Validation Lab",
        "building_type": "lab",
        "area_sqm_declared": 26400.0,
        "design_note_zh": "概念示意基底，不构成建筑方案、高度或强度结论。"
      },
      "geometry": {
        "type": "Polygon",
        "coordinates": [
          [
            [
              116.34682804849419,
              40.02011758313285
            ],
            [
              116.34683749404988,
              40.01912696912632
            ],
            [
              116.34402638710068,
              40.01911109045029
            ],
            [
              116.34401690089992,
              40.02010170390298
            ],
            [
              116.34682804849419,
              40.02011758313285
            ]
          ]
        ]
      }
    },
    {
      "type": "Feature",
      "id": "BLDG-003",
      "properties": {
        "id": "BLDG-003",
        "layer": "BUILDING_FOOTPRINT",
        "source_type": "agent_generated_design",
        "confidence": "medium",
        "geometry_role": "design_proposal",
        "name_zh": "原点社区服务站",
        "name_en": "Origin Community Hub",
        "building_type": "community_service",
        "area_sqm_declared": 19000.0,
        "design_note_zh": "概念示意基底，不构成建筑方案、高度或强度结论。"
      },
      "geometry": {
        "type": "Polygon",
        "coordinates": [
          [
            [
              116.34866671115458,
              39.9889343679985
            ],
            [
              116.34867483677395,
              39.988078832799765
            ],
            [
              116.34633330751424,
              39.98806565089982
            ],
            [
              116.34632515268814,
              39.98892118570139
            ],
            [
              116.34866671115458,
              39.9889343679985
            ]
          ]
        ]
      }
    },
    {
      "type": "Feature",
      "id": "BLDG-004",
      "properties": {
        "id": "BLDG-004",
        "layer": "BUILDING_FOOTPRINT",
        "source_type": "agent_generated_design",
        "confidence": "medium",
        "geometry_role": "design_proposal",
        "name_zh": "人才公寓组团",
        "name_en": "Talent Housing Cluster",
        "building_type": "talent_apartment",
        "area_sqm_declared": 22000.0,
        "design_note_zh": "概念示意基底，不构成建筑方案、高度或强度结论。"
      },
      "geometry": {
        "type": "Polygon",
        "coordinates": [
          [
            [
              116.34610623874924,
              39.987321365606135
            ],
            [
              116.34611482515554,
              39.98642080244357
            ],
            [
              116.34353920663948,
              39.986406243363696
            ],
            [
              116.3435305864177,
              39.987306806064495
            ],
            [
              116.34610623874924,
              39.987321365606135
            ]
          ]
        ]
      }
    },
    {
      "type": "Feature",
      "id": "BLDG-005",
      "properties": {
        "id": "BLDG-005",
        "layer": "BUILDING_FOOTPRINT",
        "source_type": "agent_generated_design",
        "confidence": "medium",
        "geometry_role": "design_proposal",
        "name_zh": "兜底服务门厅",
        "name_en": "Fallback Service Concourse",
        "building_type": "mixed_use",
        "area_sqm_declared": 24150.0,
        "design_note_zh": "概念示意基底，不构成建筑方案、高度或强度结论。"
      },
      "geometry": {
        "type": "Polygon",
        "coordinates": [
          [
            [
              116.34984108919356,
              39.94740049150768
            ],
            [
              116.34985004075983,
              39.94645489294848
            ],
            [
              116.34715891421492,
              39.946439770009874
            ],
            [
              116.3471499256024,
              39.94738536806533
            ],
            [
              116.34984108919356,
              39.94740049150768
            ]
          ]
        ]
      }
    },
    {
      "type": "Feature",
      "id": "BLDG-006",
      "properties": {
        "id": "BLDG-006",
        "layer": "BUILDING_FOOTPRINT",
        "source_type": "agent_generated_design",
        "confidence": "medium",
        "geometry_role": "design_proposal",
        "name_zh": "接驳枢纽",
        "name_en": "Mobility Hub",
        "building_type": "mobility_hub",
        "area_sqm_declared": 14400.0,
        "design_note_zh": "概念示意基底，不构成建筑方案、高度或强度结论。"
      },
      "geometry": {
        "type": "Polygon",
        "coordinates": [
          [
            [
              116.35164258523857,
              39.94869396070079
            ],
            [
              116.35165023712656,
              39.94788344755153
            ],
            [
              116.34977810927124,
              39.94787296261688
            ],
            [
              116.34977043529199,
              39.94868347546676
            ],
            [
              116.35164258523857,
              39.94869396070079
            ]
          ]
        ]
      }
    }
  ]
}
