{
  "type": "FeatureCollection",
  "name": "constraints_and_data_gaps",
  "features": [
    {
      "type": "Feature",
      "id": "CON-001",
      "properties": {
        "id": "CON-001",
        "layer": "HERITAGE_PROTECTION",
        "source_type": "agent_inferred_from_public_data",
        "confidence": "low",
        "geometry_role": "analysis_helper",
        "name_zh": "京张铁路历史线位敏感带（待正式数据补齐）",
        "name_en": "Jing-Zhang heritage alignment sensitivity band (pending official data)",
        "official_boundary": false,
        "boundary_precision": "provisional_rough",
        "source_id": "DATA-SRC-PROVISIONAL-BOUNDARIES-20260605",
        "design_note_zh": "以历史线位为中心的概念敏感带，不是文保紫线，正式紫线发布后必须整体复算。"
      },
      "geometry": {
        "type": "Polygon",
        "coordinates": [
          [
            [
              116.3459384446501,
              39.967816869176936
            ],
            [
              116.34632490321667,
              39.98847199538773
            ],
            [
              116.34564922707355,
              39.99830461554331
            ],
            [
              116.34564799393571,
              39.99832462013145
            ],
            [
              116.34465292003436,
              40.01666617370322
            ],
            [
              116.34465241223378,
              40.01667640172673
            ],
            [
              116.34421083440986,
              40.02609669453068
            ],
            [
              116.34889357754943,
              40.02622634650333
            ],
            [
              116.34933427672314,
              40.01681114504118
            ],
            [
              116.35032727848434,
              39.998484667362426
            ],
            [
              116.35100574937616,
              39.988601564011326
            ],
            [
              116.35100875591895,
              39.98848058369101
            ],
            [
              116.35061955713677,
              39.967754485948724
            ],
            [
              116.35061900559573,
              39.96773360661049
            ],
            [
              116.35007036284917,
              39.951522975647386
            ],
            [
              116.34971838404537,
              39.9392761171325
            ],
            [
              116.34503966875708,
              39.93935569333973
            ],
            [
              116.34539092006364,
              39.951606081175235
            ],
            [
              116.34539113367617,
              39.95161313421258
            ],
            [
              116.3459384446501,
              39.967816869176936
            ]
          ]
        ]
      }
    },
    {
      "type": "Feature",
      "id": "CON-002",
      "properties": {
        "id": "CON-002",
        "layer": "REGULATORY_CONTROL",
        "source_type": "agent_inferred_from_public_data",
        "confidence": "low",
        "geometry_role": "analysis_helper",
        "name_zh": "南端门厅位置存疑区（见上游 Issue #1029）",
        "name_en": "South concourse location uncertainty (upstream Issue #1029)",
        "official_boundary": false,
        "boundary_precision": "provisional_rough",
        "source_id": "DATA-SRC-PROVISIONAL-BOUNDARIES-20260605",
        "design_note_zh": "临时几何的大钟寺片区质心落在北京北站一带，与站名不符；本方案按位置存疑处理，正式数据发布后复算。"
      },
      "geometry": {
        "type": "Polygon",
        "coordinates": [
          [
            [
              116.35316103761755,
              39.946593132724445
            ],
            [
              116.35309693592814,
              39.94624307407654
            ],
            [
              116.3529885784946,
              39.94589953203944
            ],
            [
              116.35283697606236,
              39.94556582640873
            ],
            [
              116.35264362011421,
              39.94524516254057
            ],
            [
              116.35241035422379,
              39.944940621635475
            ],
            [
              116.35213944432125,
              39.94465515213388
            ],
            [
              116.35183347405288,
              39.94439149709334
            ],
            [
              116.35149541505757,
              39.94415218558709
            ],
            [
              116.35112849825994,
              39.943939531997145
            ],
            [
              116.35073628449875,
              39.94375559139106
            ],
            [
              116.35032253617459,
              39.94360212279132
            ],
            [
              116.34989122888017,
              39.94348059825751
            ],
            [
              116.34944653972028,
              39.943392202831326
            ],
            [
              116.34899271914749,
              39.94333777978897
            ],
            [
              116.34853416093596,
              39.943317858058386
            ],
            [
              116.34807528546845,
              39.94333262454993
            ],
            [
              116.34762048109866,
              39.94338194184026
            ],
            [
              116.3471741628553,
              39.94346533048934
            ],
            [
              116.3467405967174,
              39.94358199506701
            ],
            [
              116.34632398180102,
              39.94373079759129
            ],
            [
              116.34592830947132,
              39.943910310764174
            ],
            [
              116.34555741016416,
              39.9441188182258
            ],
            [
              116.34521484818765,
              39.9443543049441
            ],
            [
              116.34490390968949,
              39.944614493159314
            ],
            [
              116.34462761393203,
              39.944896887466165
            ],
            [
              116.34438859628756,
              39.94519877414024
            ],
            [
              116.34418917834525,
              39.94551723052814
            ],
            [
              116.34403126190585,
              39.94584919648628
            ],
            [
              116.3439163873771,
              39.94619148370744
            ],
            [
              116.34384565175965,
              39.94654078425468
            ],
            [
              116.34381974303123,
              39.94689374279919
            ],
            [
              116.34383890501363,
              39.94724695641736
            ],
            [
              116.34390296031037,
              39.947597019750134
            ],
            [
              116.34401128644225,
              39.94794056989976
            ],
            [
              116.34416285083121,
              39.94827429563723
            ],
            [
              116.34435617532392,
              39.94859497323229
            ],
            [
              116.34458941755547,
              39.94889952095828
            ],
            [
              116.34486031225119,
              39.94918501678235
            ],
            [
              116.34516627660447,
              39.94944868996605
            ],
            [
              116.34550433911534,
              39.94968801974306
            ],
            [
              116.34587125711154,
              39.949900681958866
            ],
            [
              116.34626350410613,
              39.95008464807958
            ],
            [
              116.34667728202196,
              39.95023813123648
            ],
            [
              116.34710862583077,
              39.950359658876714
            ],
            [
              116.34755335685503,
              39.95044806350391
            ],
            [
              116.34800722312175,
              39.95050249248323
            ],
            [
              116.34846581739725,
              39.95052241659235
            ],
            [
              116.34892475256632,
              39.950507649024466
            ],
            [
              116.34937960333001,
              39.95045832704938
            ],
            [
              116.34982596457431,
              39.95037493035326
            ],
            [
              116.35025956858536,
              39.95025826368068
            ],
            [
              116.35067621495719,
              39.950109447429355
            ],
            [
              116.35107189941634,
              39.949929909358666
            ],
            [
              116.35144282545978,
              39.94972139365103
            ],
            [
              116.35178539335134,
              39.94948588879019
            ],
            [
              116.35209632833396,
              39.949225682303606
            ],
            [
              116.35237261136271,
              39.94894326129441
            ],
            [
              116.3526116073039,
              39.94864136718261
            ],
            [
              116.35281099565458,
              39.94832289623772
            ],
            [
              116.35296887575117,
              39.94799090916132
            ],
            [
              116.35308369671357,
              39.94764861267364
            ],
            [
              116.3531543866383,
              39.947299306189336
            ],
            [
              116.35318024760147,
              39.946946345200615
            ],
            [
              116.35316103761755,
              39.946593132724445
            ]
          ]
        ]
      }
    }
  ]
}
