{
  "type": "FeatureCollection",
  "name": "green_space_design",
  "features": [
    {
      "type": "Feature",
      "id": "GREEN-001",
      "properties": {
        "id": "GREEN-001",
        "layer": "GREEN_SPACE",
        "source_type": "agent_generated_design",
        "confidence": "medium",
        "geometry_role": "design_proposal",
        "name_zh": "京张遗址公园演练主脊绿廊",
        "name_en": "Rehearsal Spine Greenway",
        "land_use_code": "1401",
        "area_sqm_declared": 2219125.539,
        "design_note_zh": "沿历史线位形成连续慢行绿廊，是全部街道级场景的默认演练界面。"
      },
      "geometry": {
        "type": "Polygon",
        "coordinates": [
          [
            [
              116.3469331382669,
              39.96780141202057
            ],
            [
              116.34732046401507,
              39.988486702050245
            ],
            [
              116.34664316331133,
              39.99834501356955
            ],
            [
              116.34664245644244,
              39.998356519378596
            ],
            [
              116.34564764804605,
              40.01669808352683
            ],
            [
              116.34564735762721,
              40.016703962850656
            ],
            [
              116.34520591636914,
              40.026124260500914
            ],
            [
              116.34789849219366,
              40.0261988121781
            ],
            [
              116.34833943049371,
              40.016781445663305
            ],
            [
              116.34933305146684,
              39.99844854116591
            ],
            [
              116.35001195122138,
              39.98856120444135
            ],
            [
              116.35001367609037,
              39.98849163287205
            ],
            [
              116.34962477784556,
              39.96776554324062
            ],
            [
              116.34962447025964,
              39.96775353632151
            ],
            [
              116.34907600636016,
              39.95154139824548
            ],
            [
              116.34872416051772,
              39.93929304289816
            ],
            [
              116.34603389366907,
              39.939338799186054
            ],
            [
              116.3463853223255,
              39.95158918547562
            ],
            [
              116.34638544757101,
              39.95159323895843
            ],
            [
              116.3469331382669,
              39.96780141202057
            ]
          ]
        ]
      }
    },
    {
      "type": "Feature",
      "id": "GREEN-002",
      "properties": {
        "id": "GREEN-002",
        "layer": "GREEN_SPACE",
        "source_type": "agent_generated_design",
        "confidence": "medium",
        "geometry_role": "design_proposal",
        "name_zh": "小月河侧防护绿带",
        "name_en": "Xiaoyuehe Buffer Green",
        "land_use_code": "1402",
        "area_sqm_declared": 581398.861,
        "design_note_zh": "东侧防护绿带，概念建议衔接小月河场景赋能翼。"
      },
      "geometry": {
        "type": "MultiPolygon",
        "coordinates": [
          [
            [
              [
                116.3538008293432,
                39.99914332162774
              ],
              [
                116.35354277511044,
                40.026500079282904
              ],
              [
                116.3553000024631,
                40.02649999853675
              ],
              [
                116.3538008293432,
                39.99914332162774
              ]
            ]
          ],
          [
            [
              [
                116.35530000470638,
                39.938999997897504
              ],
              [
                116.35436691311241,
                39.93900005612595
              ],
              [
                116.35396532048311,
                39.981685735400866
              ],
              [
                116.35530000144225,
                39.964999998558135
              ],
              [
                116.35530000470638,
                39.938999997897504
              ]
            ]
          ]
        ]
      }
    }
  ]
}
