{
  "type": "FeatureCollection",
  "name": "phasing_design",
  "features": [
    {
      "type": "Feature",
      "id": "PHASE-001",
      "properties": {
        "id": "PHASE-001",
        "layer": "PHASE",
        "source_type": "agent_generated_design",
        "confidence": "medium",
        "geometry_role": "design_proposal",
        "name_zh": "一期：主脊贯通与三处地标",
        "name_en": "Phase 1",
        "phase": "phase_1",
        "area_sqm_declared": 4229813.435,
        "design_note_zh": "分期为概念建议的讨论顺序，不构成开发时序或投资安排结论。"
      },
      "geometry": {
        "type": "Polygon",
        "coordinates": [
          [
            [
              116.33987543957437,
              39.968687401737874
            ],
            [
              116.35499829705007,
              39.96877253632866
            ],
            [
              116.35530000144225,
              39.964999998558135
            ],
            [
              116.35530000470638,
              39.938999997897504
            ],
            [
              116.34069999743949,
              39.93900000196361
            ],
            [
              116.33987543957437,
              39.968687401737874
            ]
          ]
        ]
      }
    },
    {
      "type": "Feature",
      "id": "PHASE-002",
      "properties": {
        "id": "PHASE-002",
        "layer": "PHASE",
        "source_type": "agent_generated_design",
        "confidence": "medium",
        "geometry_role": "design_proposal",
        "name_zh": "二期：生活演练与东西缝合",
        "name_en": "Phase 2",
        "phase": "phase_2",
        "area_sqm_declared": 4065286.786,
        "design_note_zh": "分期为概念建议的讨论顺序，不构成开发时序或投资安排结论。"
      },
      "geometry": {
        "type": "Polygon",
        "coordinates": [
          [
            [
              116.35499829705007,
              39.96877253632866
            ],
            [
              116.33987543957437,
              39.968687401737874
            ],
            [
              116.33970000041599,
              39.97500000183598
            ],
            [
              116.34132704098025,
              40.00022111672091
            ],
            [
              116.35386373244614,
              40.00029168874452
            ],
            [
              116.3532999995242,
              39.98999999649747
            ],
            [
              116.35499829705007,
              39.96877253632866
            ]
          ]
        ]
      }
    },
    {
      "type": "Feature",
      "id": "PHASE-003",
      "properties": {
        "id": "PHASE-003",
        "layer": "PHASE",
        "source_type": "agent_generated_design",
        "confidence": "medium",
        "geometry_role": "design_proposal",
        "name_zh": "三期：北段全栈验证与留白",
        "name_en": "Phase 3",
        "phase": "phase_3",
        "area_sqm_declared": 3117727.036,
        "design_note_zh": "分期为概念建议的讨论顺序，不构成开发时序或投资安排结论。"
      },
      "geometry": {
        "type": "Polygon",
        "coordinates": [
          [
            [
              116.35386373244614,
              40.00029168874452
            ],
            [
              116.34132704098025,
              40.00022111672091
            ],
            [
              116.3416999990316,
              40.00600000284499
            ],
            [
              116.34269999899189,
              40.02649999924773
            ],
            [
              116.3553000024631,
              40.02649999853675
            ],
            [
              116.35386373244614,
              40.00029168874452
            ]
          ]
        ]
      }
    }
  ]
}
