{
  "type": "FeatureCollection",
  "name": "public_space_design",
  "features": [
    {
      "type": "Feature",
      "id": "PUB-001",
      "properties": {
        "id": "PUB-001",
        "layer": "PUBLIC_SPACE",
        "source_type": "agent_generated_design",
        "confidence": "medium",
        "geometry_role": "design_proposal",
        "name_zh": "台账塔广场",
        "name_en": "Ledger Tower Plaza",
        "land_use_code": "1403",
        "area_sqm_declared": 138321.839,
        "landmark": true,
        "design_note_zh": "朝圣地标一：实时公开当日全部在跑场景的读数与失败数。"
      },
      "geometry": {
        "type": "Polygon",
        "coordinates": [
          [
            [
              116.35091587493659,
              40.01639430658725
            ],
            [
              116.35085893630885,
              40.01621394726241
            ],
            [
              116.35077927252992,
              40.01603875616465
            ],
            [
              116.35067766441044,
              40.01587040374641
            ],
            [
              116.35055508055655,
              40.01571051647231
            ],
            [
              116.35041270104458,
              40.01556064993616
            ],
            [
              116.35025191801394,
              40.01542222582497
            ],
            [
              116.35007425316572,
              40.01529658549609
            ],
            [
              116.34988142846234,
              40.01518494534684
            ],
            [
              116.34967529611069,
              40.01508836940708
            ],
            [
              116.34945786173267,
              40.01500779649084
            ],
            [
              116.3492311910988,
              40.0149439946457
            ],
            [
              116.34899748023619,
              40.0148975795611
            ],
            [
              116.34875898524758,
              40.01486900517072
            ],
            [
              116.34851798735379,
              40.01485854544552
            ],
            [
              116.34827682803916,
              40.014866294592366
            ],
            [
              116.34803780347944,
              40.014892184473176
            ],
            [
              116.34780323499557,
              40.01493596698865
            ],
            [
              116.34757538707703,
              40.01499721361631
            ],
            [
              116.34735643208201,
              40.0150753332223
            ],
            [
              116.34714848529548,
              40.01516958126264
            ],
            [
              116.34695356997008,
              40.01527904157173
            ],
            [
              116.34677353491591,
              40.01540267092529
            ],
            [
              116.34661012503426,
              40.01553927241628
            ],
            [
              116.34646492250018,
              40.015687522138236
            ],
            [
              116.34633931119502,
              40.01584601401154
            ],
            [
              116.3462345006442,
              40.01601320587857
            ],
            [
              116.34615152541184,
              40.01618748253979
            ],
            [
              116.3460911511379,
              40.01636718223909
            ],
            [
              116.3460539802009,
              40.01655057023937
            ],
            [
              116.34604036946497,
              40.016735865375004
            ],
            [
              116.3460504413818,
              40.01692130315598
            ],
            [
              116.34608410792232,
              40.01710508186588
            ],
            [
              116.34614104636877,
              40.01728544348034
            ],
            [
              116.34622068785099,
              40.01746064658511
            ],
            [
              116.34632229898283,
              40.017629002862435
            ],
            [
              116.34644487635512,
              40.01778888550413
            ],
            [
              116.34658723988713,
              40.017938765765074
            ],
            [
              116.34674803299406,
              40.01807719495509
            ],
            [
              116.3469256989009,
              40.018202831326875
            ],
            [
              116.3471185153501,
              40.01831448530559
            ],
            [
              116.34732465368148,
              40.01841106578879
            ],
            [
              116.34754210795684,
              40.018491642792966
            ],
            [
              116.3477687769538,
              40.018555447918686
            ],
            [
              116.34800249948171,
              40.01860185653986
            ],
            [
              116.34824101882118,
              40.01863043263625
            ],
            [
              116.34848201821366,
              40.01864089297072
            ],
            [
              116.34872320251739,
              40.01863314357388
            ],
            [
              116.34896222819636,
              40.01860725233252
            ],
            [
              116.34919680848841,
              40.018563476598864
            ],
            [
              116.34942467861794,
              40.0185022269697
            ],
            [
              116.34964363060041,
              40.01842410350479
            ],
            [
              116.34985158395448,
              40.0183298510912
            ],
            [
              116.35004651525982,
              40.01822037705745
            ],
            [
              116.35022655186462,
              40.018096751696376
            ],
            [
              116.35038994906076,
              40.01796014509118
            ],
            [
              116.350535159849,
              40.01781188153961
            ],
            [
              116.35066076508907,
              40.017653394128544
            ],
            [
              116.3507655557424,
              40.01748619817339
            ],
            [
              116.3508485326972,
              40.0173119092261
            ],
            [
              116.35090888367891,
              40.01713220691879
            ],
            [
              116.35094604189196,
              40.01694882628389
            ],
            [
              116.35095963950229,
              40.01676352146761
            ],
            [
              116.35094955422326,
              40.01657809300799
            ],
            [
              116.35091587493659,
              40.01639430658725
            ]
          ]
        ]
      }
    },
    {
      "type": "Feature",
      "id": "PUB-002",
      "properties": {
        "id": "PUB-002",
        "layer": "PUBLIC_SPACE",
        "source_type": "agent_generated_design",
        "confidence": "medium",
        "geometry_role": "design_proposal",
        "name_zh": "人字回廊",
        "name_en": "Switchback Colonnade",
        "land_use_code": "1403",
        "area_sqm_declared": 96056.772,
        "landmark": true,
        "design_note_zh": "朝圣地标二：以人字形折返隐喻可撤回的城市决策。"
      },
      "geometry": {
        "type": "Polygon",
        "coordinates": [
          [
            [
              116.34951239666555,
              39.988203849141534
            ],
            [
              116.34946496368126,
              39.98805355005187
            ],
            [
              116.34939861643633,
              39.9879075487608
            ],
            [
              116.34931397392057,
              39.9877672536655
            ],
            [
              116.34921186635269,
              39.9876340203054
            ],
            [
              116.34909327689432,
              39.98750912401871
            ],
            [
              116.34895932985397,
              39.98739376888419
            ],
            [
              116.3488113493935,
              39.98728907004105
            ],
            [
              116.34865073100104,
              39.98719602595113
            ],
            [
              116.34847902318769,
              39.98711554587843
            ],
            [
              116.34829789279391,
              39.987048404666176
            ],
            [
              116.34810908995587,
              39.986995233535865
            ],
            [
              116.34791441264457,
              39.98695655591426
            ],
            [
              116.34771574222087,
              39.98693274260425
            ],
            [
              116.34751499644013,
              39.98692402953408
            ],
            [
              116.3473141063859,
              39.98693048160378
            ],
            [
              116.34711500416918,
              39.98695205565898
            ],
            [
              116.34691961182699,
              39.986988537385464
            ],
            [
              116.34672980586353,
              39.98703957713328
            ],
            [
              116.34654741742729,
              39.98710467190435
            ],
            [
              116.34637420847238,
              39.98718321024728
            ],
            [
              116.34621183698319,
              39.98727443603495
            ],
            [
              116.34606186859946,
              39.98737745753412
            ],
            [
              116.34592575277419,
              39.98749129229916
            ],
            [
              116.34580479961667,
              39.98761484002074
            ],
            [
              116.34570016792706,
              39.98774690947422
            ],
            [
              116.34561286502273,
              39.987886236528425
            ],
            [
              116.34554373511382,
              39.98803147507196
            ],
            [
              116.34549344733401,
              39.98818122396199
            ],
            [
              116.34546248385614,
              39.9883340449677
            ],
            [
              116.34545115159423,
              39.988488462835335
            ],
            [
              116.34545953510893,
              39.98864299203969
            ],
            [
              116.34548757855501,
              39.98879613724672
            ],
            [
              116.34553500329123,
              39.98894643787894
            ],
            [
              116.34560135496305,
              39.98909244136364
            ],
            [
              116.34568599144528,
              39.98923273909036
            ],
            [
              116.34578809445878,
              39.98936597548414
            ],
            [
              116.34590668101659,
              39.98949087509023
            ],
            [
              116.34604061521433,
              39.98960623363672
            ],
            [
              116.34618860805662,
              39.989710936048034
            ],
            [
              116.3463492289062,
              39.98980398353031
            ],
            [
              116.34652092915813,
              39.98988446668915
            ],
            [
              116.34670206522779,
              39.98995161069198
            ],
            [
              116.34689088676028,
              39.990004784209965
            ],
            [
              116.34708557210138,
              39.99004346359541
            ],
            [
              116.3472842512892,
              39.99006727804355
            ],
            [
              116.34748500614579,
              39.99007600058797
            ],
            [
              116.3476859054926,
              39.99006953929381
            ],
            [
              116.34788501660789,
              39.99004796434066
            ],
            [
              116.34808041719809,
              39.99001148107169
            ],
            [
              116.34827021873433,
              39.9899604391302
            ],
            [
              116.3484526132043,
              39.98989534172781
            ],
            [
              116.34862583842157,
              39.989816800417046
            ],
            [
              116.348788212811,
              39.98972557130986
            ],
            [
              116.3489381706218,
              39.989622546267114
            ],
            [
              116.34907429748071,
              39.98950870806551
            ],
            [
              116.34919524818073,
              39.98938515695166
            ],
            [
              116.34929987572433,
              39.98925308434621
            ],
            [
              116.34938717295303,
              39.98911375450135
            ],
            [
              116.34945628416712,
              39.98896851357015
            ],
            [
              116.34950656391712,
              39.98881876291624
            ],
            [
              116.34953751854543,
              39.988665949778
            ],
            [
              116.34954885335351,
              39.988511531507726
            ],
            [
              116.3495404489242,
              39.98835700245623
            ],
            [
              116.34951239666555,
              39.988203849141534
            ]
          ]
        ]
      }
    },
    {
      "type": "Feature",
      "id": "PUB-003",
      "properties": {
        "id": "PUB-003",
        "layer": "PUBLIC_SPACE",
        "source_type": "agent_generated_design",
        "confidence": "medium",
        "geometry_role": "design_proposal",
        "name_zh": "断电广场",
        "name_en": "AI-off Plaza",
        "land_use_code": "1403",
        "area_sqm_declared": 85392.511,
        "landmark": true,
        "design_note_zh": "朝圣地标三：每周固定时段关闭 AI，公开验证兜底服务。"
      },
      "geometry": {
        "type": "Polygon",
        "coordinates": [
          [
            [
              116.35039624777768,
              39.946640870267224
            ],
            [
              116.35035155567786,
              39.94649915977845
            ],
            [
              116.35028902787968,
              39.94636151017171
            ],
            [
              116.35020926055233,
              39.94622923065623
            ],
            [
              116.35011304901126,
              39.9461036045328
            ],
            [
              116.350001294536,
              39.94598584364234
            ],
            [
              116.34987508627115,
              39.945877088826805
            ],
            [
              116.34973563136248,
              39.94577837351487
            ],
            [
              116.34958427810159,
              39.94569065087243
            ],
            [
              116.34942249278096,
              39.94561476665633
            ],
            [
              116.34925181289388,
              39.94555145895394
            ],
            [
              116.34907389419449,
              39.94550133143063
            ],
            [
              116.34889045202866,
              39.9454648710144
            ],
            [
              116.34870324989384,
              39.94544242081479
            ],
            [
              116.34851408757305,
              39.94543419806939
            ],
            [
              116.34832480113997,
              39.945440294144746
            ],
            [
              116.34813718140373,
              39.94546063805344
            ],
            [
              116.3479530671759,
              39.94549503300304
            ],
            [
              116.34777422827202,
              39.9455431557377
            ],
            [
              116.34760236568773,
              39.94560453852584
            ],
            [
              116.34743914644771,
              39.94567859637318
            ],
            [
              116.34728614527867,
              39.945764608680854
            ],
            [
              116.34714484435551,
              39.94586174626055
            ],
            [
              116.34701658650125,
              39.94596907106891
            ],
            [
              116.34690261003215,
              39.94608556342015
            ],
            [
              116.34680401391296,
              39.9462100947692
            ],
            [
              116.34672175741296,
              39.94634146373244
            ],
            [
              116.34665662500184,
              39.94647839588786
            ],
            [
              116.34660924931889,
              39.94661958893385
            ],
            [
              116.34658007632413,
              39.94676368547279
            ],
            [
              116.34656938869456,
              39.94690927314179
            ],
            [
              116.34657730496203,
              39.94705497466907
            ],
            [
              116.34660373339051,
              39.94719937556425
            ],
            [
              116.34664841817326,
              39.94734108742217
            ],
            [
              116.34671093942734,
              39.947478747923405
            ],
            [
              116.34679068970158,
              39.947611029709044
            ],
            [
              116.34688690898852,
              39.947736649585465
            ],
            [
              116.34699866089089,
              39.94785441342264
            ],
            [
              116.34712486806377,
              39.94796318033096
            ],
            [
              116.34726431187006,
              39.948061898686
            ],
            [
              116.34741566731124,
              39.94814962433977
            ],
            [
              116.3475774680963,
              39.9482255024138
            ],
            [
              116.34774815301881,
              39.94828881259323
            ],
            [
              116.34792606621595,
              39.948338942111704
            ],
            [
              116.34810951541995,
              39.94837541309926
            ],
            [
              116.34829673703054,
              39.94839786437482
            ],
            [
              116.34848589586348,
              39.94840607846467
            ],
            [
              116.34867520207933,
              39.948399991266434
            ],
            [
              116.34886281800922,
              39.94837964649485
            ],
            [
              116.34904693963949,
              39.94834524117028
            ],
            [
              116.34922579670264,
              39.948297116612586
            ],
            [
              116.3493976646395,
              39.94823573148866
            ],
            [
              116.34956087613367,
              39.94816167988834
            ],
            [
              116.34971387987557,
              39.94807566463396
            ],
            [
              116.34985519350592,
              39.94797852403298
            ],
            [
              116.34998345084736,
              39.94787118711003
            ],
            [
              116.35009742513618,
              39.94775469174745
            ],
            [
              116.3501960057909,
              39.94763016654043
            ],
            [
              116.35027826895622,
              39.94749879516581
            ],
            [
              116.35034339525437,
              39.94736185194376
            ],
            [
              116.35039076381368,
              39.94722065733227
            ],
            [
              116.3504199289478,
              39.94707656878881
            ],
            [
              116.35043059683484,
              39.94693097163246
            ],
            [
              116.350422684015,
              39.946785279370964
            ],
            [
              116.35039624777768,
              39.946640870267224
            ]
          ]
        ]
      }
    },
    {
      "type": "Feature",
      "id": "PUB-004",
      "properties": {
        "id": "PUB-004",
        "layer": "PUBLIC_SPACE",
        "source_type": "agent_generated_design",
        "confidence": "medium",
        "geometry_role": "design_proposal",
        "name_zh": "东西缝合口 1",
        "name_en": "East-West Seam 1",
        "land_use_code": "1403",
        "area_sqm_declared": 77385.1,
        "design_note_zh": "概念建议：把被横向道路切断的步行关系重新接通，作为跨界场景的演练口。"
      },
      "geometry": {
        "type": "MultiPolygon",
        "coordinates": [
          [
            [
              [
                116.34958427810159,
                39.94569065087243
              ],
              [
                116.34973563136248,
                39.94577837351487
              ],
              [
                116.34987508627115,
                39.945877088826805
              ],
              [
                116.350001294536,
                39.94598584364234
              ],
              [
                116.35011304901126,
                39.9461036045328
              ],
              [
                116.35020926055233,
                39.94622923065623
              ],
              [
                116.35026389022795,
                39.94631983279281
              ],
              [
                116.35529679594397,
                39.94634792983346
              ],
              [
                116.35530001477846,
                39.94634782164667
              ],
              [
                116.35530001468979,
                39.94566347791566
              ],
              [
                116.34945675330442,
                39.945630836804234
              ],
              [
                116.34958427810159,
                39.94569065087243
              ]
            ]
          ],
          [
            [
              [
                116.34050452451758,
                39.946264726845165
              ],
              [
                116.34674767131658,
                39.94630007325686
              ],
              [
                116.34680401391296,
                39.9462100947692
              ],
              [
                116.34690261003215,
                39.94608556342015
              ],
              [
                116.34701658650125,
                39.94596907106891
              ],
              [
                116.34714484435551,
                39.94586174626055
              ],
              [
                116.34728614527867,
                39.945764608680854
              ],
              [
                116.34743914644771,
                39.94567859637318
              ],
              [
                116.34756780397763,
                39.94562022192651
              ],
              [
                116.34051730946942,
                39.945580330102956
              ],
              [
                116.3404983138003,
                39.94626445735435
              ],
              [
                116.34050452451758,
                39.946264726845165
              ]
            ]
          ]
        ]
      }
    },
    {
      "type": "Feature",
      "id": "PUB-005",
      "properties": {
        "id": "PUB-005",
        "layer": "PUBLIC_SPACE",
        "source_type": "agent_generated_design",
        "confidence": "medium",
        "geometry_role": "design_proposal",
        "name_zh": "东西缝合口 2",
        "name_en": "East-West Seam 2",
        "land_use_code": "1403",
        "area_sqm_declared": 98119.046,
        "design_note_zh": "概念建议：把被横向道路切断的步行关系重新接通，作为跨界场景的演练口。"
      },
      "geometry": {
        "type": "Polygon",
        "coordinates": [
          [
            [
              116.34022459793295,
              39.95696292148476
            ],
            [
              116.34020117310364,
              39.95696367076724
            ],
            [
              116.34018222389909,
              39.95764579751892
            ],
            [
              116.34021802038025,
              39.95764735218141
            ],
            [
              116.3552967976342,
              39.95773219122076
            ],
            [
              116.35530001700263,
              39.957732083038444
            ],
            [
              116.35530001843799,
              39.95704774064684
            ],
            [
              116.34022459793295,
              39.95696292148476
            ]
          ]
        ]
      }
    },
    {
      "type": "Feature",
      "id": "PUB-006",
      "properties": {
        "id": "PUB-006",
        "layer": "PUBLIC_SPACE",
        "source_type": "agent_generated_design",
        "confidence": "medium",
        "geometry_role": "design_proposal",
        "name_zh": "东西缝合口 3",
        "name_en": "East-West Seam 3",
        "land_use_code": "1403",
        "area_sqm_declared": 98120.122,
        "design_note_zh": "概念建议：把被横向道路切断的步行关系重新接通，作为跨界场景的演练口。"
      },
      "geometry": {
        "type": "Polygon",
        "coordinates": [
          [
            [
              116.34007155495803,
              39.96834793311826
            ],
            [
              116.34002834226155,
              39.96835261345763
            ],
            [
              116.33998591776441,
              39.9683605314739
            ],
            [
              116.33994471521163,
              39.96837161758859
            ],
            [
              116.33990512205172,
              39.96838574792329
            ],
            [
              116.33988356122074,
              39.968395522893736
            ],
            [
              116.33986746987418,
              39.96897442712173
            ],
            [
              116.33989931602545,
              39.968989360536135
            ],
            [
              116.33993863339316,
              39.969003940214634
            ],
            [
              116.3399796185796,
              39.96901549430647
            ],
            [
              116.34002188654827,
              39.96902389453168
            ],
            [
              116.34006500492464,
              39.96902906637819
            ],
            [
              116.34010858789127,
              39.96903096261792
            ],
            [
              116.35497093435933,
              39.96911461763482
            ],
            [
              116.35502558067085,
              39.96843136417634
            ],
            [
              116.35500151344897,
              39.96843032064178
            ],
            [
              116.34011516918613,
              39.96834653328445
            ],
            [
              116.34007155495803,
              39.96834793311826
            ]
          ]
        ]
      }
    },
    {
      "type": "Feature",
      "id": "PUB-007",
      "properties": {
        "id": "PUB-007",
        "layer": "PUBLIC_SPACE",
        "source_type": "agent_generated_design",
        "confidence": "medium",
        "geometry_role": "design_proposal",
        "name_zh": "东西缝合口 4",
        "name_en": "East-West Seam 4",
        "land_use_code": "1403",
        "area_sqm_declared": 91286.517,
        "design_note_zh": "概念建议：把被横向道路切断的步行关系重新接通，作为跨界场景的演练口。"
      },
      "geometry": {
        "type": "Polygon",
        "coordinates": [
          [
            [
              116.34000513051059,
              39.97973107394142
            ],
            [
              116.34004923131701,
              39.980414835861964
            ],
            [
              116.35406068444755,
              39.98049376555323
            ],
            [
              116.35411535040548,
              39.97981051400501
            ],
            [
              116.3540912792104,
              39.979809470251844
            ],
            [
              116.34003043680373,
              39.979730263384155
            ],
            [
              116.34000513051059,
              39.97973107394142
            ]
          ]
        ]
      }
    },
    {
      "type": "Feature",
      "id": "PUB-008",
      "properties": {
        "id": "PUB-008",
        "layer": "PUBLIC_SPACE",
        "source_type": "agent_generated_design",
        "confidence": "medium",
        "geometry_role": "design_proposal",
        "name_zh": "东西缝合口 5",
        "name_en": "East-West Seam 5",
        "land_use_code": "1403",
        "area_sqm_declared": 81932.001,
        "design_note_zh": "概念建议：把被横向道路切断的步行关系重新接通，作为跨界场景的演练口。"
      },
      "geometry": {
        "type": "Polygon",
        "coordinates": [
          [
            [
              116.34076508028895,
              39.99111863461957
            ],
            [
              116.34073975808975,
              39.99111944523499
            ],
            [
              116.34078387199017,
              39.99180320565629
            ],
            [
              116.35338067892204,
              39.99187416824879
            ],
            [
              116.3534026046894,
              39.99187346200911
            ],
            [
              116.35336515679509,
              39.991189617202174
            ],
            [
              116.34076508028895,
              39.99111863461957
            ]
          ]
        ]
      }
    },
    {
      "type": "Feature",
      "id": "PUB-009",
      "properties": {
        "id": "PUB-009",
        "layer": "PUBLIC_SPACE",
        "source_type": "agent_generated_design",
        "confidence": "medium",
        "geometry_role": "design_proposal",
        "name_zh": "东西缝合口 6",
        "name_en": "East-West Seam 6",
        "land_use_code": "1403",
        "area_sqm_declared": 81141.145,
        "design_note_zh": "概念建议：把被横向道路切断的步行关系重新接通，作为跨界场景的演练口。"
      },
      "geometry": {
        "type": "Polygon",
        "coordinates": [
          [
            [
              116.34155647429513,
              40.00338300922657
            ],
            [
              116.34153114757035,
              40.003383819976584
            ],
            [
              116.34157527558548,
              40.00406757878279
            ],
            [
              116.35405247969206,
              40.00413779404368
            ],
            [
              116.35407440937865,
              40.004137087709516
            ],
            [
              116.35403694972426,
              40.00345324445533
            ],
            [
              116.34155647429513,
              40.00338300922657
            ]
          ]
        ]
      }
    },
    {
      "type": "Feature",
      "id": "PUB-010",
      "properties": {
        "id": "PUB-010",
        "layer": "PUBLIC_SPACE",
        "source_type": "agent_generated_design",
        "confidence": "medium",
        "geometry_role": "design_proposal",
        "name_zh": "东西缝合口 7",
        "name_en": "East-West Seam 7",
        "land_use_code": "1403",
        "area_sqm_declared": 52145.916,
        "design_note_zh": "概念建议：把被横向道路切断的步行关系重新接通，作为跨界场景的演练口。"
      },
      "geometry": {
        "type": "MultiPolygon",
        "coordinates": [
          [
            [
              [
                116.35055508055655,
                40.01571051647231
              ],
              [
                116.35067766441044,
                40.01587040374641
              ],
              [
                116.35077927252992,
                40.01603875616465
              ],
              [
                116.35085893630885,
                40.01621394726241
              ],
              [
                116.35091138288539,
                40.016380096862996
              ],
              [
                116.35472447977892,
                40.01640139192308
              ],
              [
                116.35474642509969,
                40.016400685559546
              ],
              [
                116.35470894196106,
                40.015716843793285
              ],
              [
                116.35053896033826,
                40.015693548749
              ],
              [
                116.35055508055655,
                40.01571051647231
              ]
            ]
          ],
          [
            [
              [
                116.34220388330691,
                40.01633099753202
              ],
              [
                116.34609591294634,
                40.01635302454747
              ],
              [
                116.34615152541184,
                40.01618748253979
              ],
              [
                116.3462345006442,
                40.01601320587857
              ],
              [
                116.34633931119502,
                40.01584601401154
              ],
              [
                116.34646492250018,
                40.015687522138236
              ],
              [
                116.3464813636646,
                40.01567073747869
              ],
              [
                116.34219047343679,
                40.01564646009251
              ],
              [
                116.34217052013747,
                40.01564709433165
              ],
              [
                116.34220388330691,
                40.01633099753202
              ]
            ]
          ]
        ]
      }
    }
  ]
}
