{
  "type": "FeatureCollection",
  "name": "roads_design",
  "features": [
    {
      "type": "Feature",
      "id": "ROAD-001",
      "properties": {
        "id": "ROAD-001",
        "layer": "ROAD_CENTERLINE",
        "source_type": "agent_generated_design",
        "confidence": "medium",
        "geometry_role": "design_proposal",
        "name_zh": "演练主脊慢行道",
        "name_en": "Rehearsal Spine Greenway Route",
        "road_class": "greenway",
        "design_note_zh": "南北贯通的连续慢行主脊，是所有街道级场景的默认演练路径。"
      },
      "geometry": {
        "type": "LineString",
        "coordinates": [
          [
            116.34737902597531,
            39.93931593096965
          ],
          [
            116.34773069457596,
            39.95156631516177
          ],
          [
            116.34827890343352,
            39.96778048371666
          ],
          [
            116.34866739492806,
            39.98850657728974
          ],
          [
            116.34798790765427,
            39.99839966362374
          ],
          [
            116.34699345847373,
            40.01674124196865
          ],
          [
            116.34655220199387,
            40.026161544893114
          ]
        ]
      }
    },
    {
      "type": "Feature",
      "id": "ROAD-002",
      "properties": {
        "id": "ROAD-002",
        "layer": "ROAD_CENTERLINE",
        "source_type": "agent_generated_design",
        "confidence": "medium",
        "geometry_role": "design_proposal",
        "name_zh": "东西缝合步道 1",
        "name_en": "East-West Seam Walk 1",
        "road_class": "pedestrian",
        "design_note_zh": "概念建议：以步行优先方式缝合东西两侧，不涉及道路红线或工程线位结论。"
      },
      "geometry": {
        "type": "LineString",
        "coordinates": [
          [
            116.34050781015375,
            39.94592250922664
          ],
          [
            116.35530001301402,
            39.946005711240495
          ]
        ]
      }
    },
    {
      "type": "Feature",
      "id": "ROAD-003",
      "properties": {
        "id": "ROAD-003",
        "layer": "ROAD_CENTERLINE",
        "source_type": "agent_generated_design",
        "confidence": "medium",
        "geometry_role": "design_proposal",
        "name_zh": "东西缝合步道 2",
        "name_en": "East-West Seam Walk 2",
        "road_class": "pedestrian",
        "design_note_zh": "概念建议：以步行优先方式缝合东西两侧，不涉及道路红线或工程线位结论。"
      },
      "geometry": {
        "type": "LineString",
        "coordinates": [
          [
            116.34022130875947,
            39.95730513597748
          ],
          [
            116.35530001368838,
            39.957389974009935
          ]
        ]
      }
    },
    {
      "type": "Feature",
      "id": "ROAD-004",
      "properties": {
        "id": "ROAD-004",
        "layer": "ROAD_CENTERLINE",
        "source_type": "agent_generated_design",
        "confidence": "medium",
        "geometry_role": "design_proposal",
        "name_zh": "东西缝合步道 3",
        "name_en": "East-West Seam Walk 3",
        "road_class": "pedestrian",
        "design_note_zh": "概念建议：以步行优先方式缝合东西两侧，不涉及道路红线或工程线位结论。"
      },
      "geometry": {
        "type": "LineString",
        "coordinates": [
          [
            116.3401118781346,
            39.96868874781648
          ],
          [
            116.35499829907123,
            39.96877253619743
          ]
        ]
      }
    },
    {
      "type": "Feature",
      "id": "ROAD-005",
      "properties": {
        "id": "ROAD-005",
        "layer": "ROAD_CENTERLINE",
        "source_type": "agent_generated_design",
        "confidence": "medium",
        "geometry_role": "design_proposal",
        "name_zh": "东西缝合步道 4",
        "name_en": "East-West Seam Walk 4",
        "road_class": "pedestrian",
        "design_note_zh": "概念建议：以步行优先方式缝合东西两侧，不涉及道路红线或工程线位结论。"
      },
      "geometry": {
        "type": "LineString",
        "coordinates": [
          [
            116.34002714523807,
            39.98007247796422
          ],
          [
            116.3540880551888,
            39.98015168577201
          ]
        ]
      }
    },
    {
      "type": "Feature",
      "id": "ROAD-006",
      "properties": {
        "id": "ROAD-006",
        "layer": "ROAD_CENTERLINE",
        "source_type": "agent_generated_design",
        "confidence": "medium",
        "geometry_role": "design_proposal",
        "name_zh": "东西缝合步道 5",
        "name_en": "East-West Seam Walk 5",
        "road_class": "pedestrian",
        "design_note_zh": "概念建议：以步行优先方式缝合东西两侧，不涉及道路红线或工程线位结论。"
      },
      "geometry": {
        "type": "LineString",
        "coordinates": [
          [
            116.34076178748582,
            39.991460849276436
          ],
          [
            116.35338390490725,
            39.99153195533224
          ]
        ]
      }
    },
    {
      "type": "Feature",
      "id": "ROAD-007",
      "properties": {
        "id": "ROAD-007",
        "layer": "ROAD_CENTERLINE",
        "source_type": "agent_generated_design",
        "confidence": "medium",
        "geometry_role": "design_proposal",
        "name_zh": "东西缝合步道 6",
        "name_en": "East-West Seam Walk 6",
        "road_class": "pedestrian",
        "design_note_zh": "概念建议：以步行优先方式缝合东西两侧，不涉及道路红线或工程线位结论。"
      },
      "geometry": {
        "type": "LineString",
        "coordinates": [
          [
            116.34155318469261,
            40.00372522122074
          ],
          [
            116.35405570079409,
            40.003795579797035
          ]
        ]
      }
    },
    {
      "type": "Feature",
      "id": "ROAD-008",
      "properties": {
        "id": "ROAD-008",
        "layer": "ROAD_CENTERLINE",
        "source_type": "agent_generated_design",
        "confidence": "medium",
        "geometry_role": "design_proposal",
        "name_zh": "东西缝合步道 7",
        "name_en": "East-West Seam Walk 7",
        "road_class": "pedestrian",
        "design_note_zh": "概念建议：以步行优先方式缝合东西两侧，不涉及道路红线或工程线位结论。"
      },
      "geometry": {
        "type": "LineString",
        "coordinates": [
          [
            116.34218718740613,
            40.015988669419635
          ],
          [
            116.35472770770576,
            40.016059176411694
          ]
        ]
      }
    }
  ]
}
