{
 "type": "FeatureCollection",
 "features": [
  {
   "type": "Feature",
   "properties": {
    "id": "BLD-001",
    "layer": "BUILDING_FOOTPRINT",
    "building_type": "mixed_use",
    "source_type": "agent_generated_design",
    "confidence": "low",
    "geometry_role": "provisional_constraint",
    "footprint_sqm": 1027.1,
    "height_m": 24,
    "floors": 8
   },
   "geometry": {
    "type": "Polygon",
    "coordinates": [
     [
      [
       116.34242413546126,
       39.95125823042324
      ],
      [
       116.34284339995295,
       39.95126060780653
      ],
      [
       116.34284587035451,
       39.95100246594059
      ],
      [
       116.34242660743864,
       39.95100008857892
      ],
      [
       116.34242413546126,
       39.95125823042324
      ]
     ]
    ]
   },
   "id": "BLD-001"
  },
  {
   "type": "Feature",
   "properties": {
    "id": "BLD-002",
    "layer": "BUILDING_FOOTPRINT",
    "building_type": "mixed_use",
    "source_type": "agent_generated_design",
    "confidence": "low",
    "geometry_role": "provisional_constraint",
    "footprint_sqm": 2478.8,
    "height_m": 36,
    "floors": 8
   },
   "geometry": {
    "type": "Polygon",
    "coordinates": [
     [
      [
       116.34231854401978,
       39.94709419677706
      ],
      [
       116.34296985421551,
       39.947097889792055
      ],
      [
       116.34297369079812,
       39.94669685237401
      ],
      [
       116.34232238440491,
       39.94669315941119
      ],
      [
       116.34231854401978,
       39.94709419677706
      ]
     ]
    ]
   },
   "id": "BLD-002"
  },
  {
   "type": "Feature",
   "properties": {
    "id": "BLD-003",
    "layer": "BUILDING_FOOTPRINT",
    "building_type": "mixed_use",
    "source_type": "agent_generated_design",
    "confidence": "low",
    "geometry_role": "provisional_constraint",
    "footprint_sqm": 3314.9,
    "height_m": 60,
    "floors": 8
   },
   "geometry": {
    "type": "Polygon",
    "coordinates": [
     [
      [
       116.35057148352043,
       39.94328046390588
      ],
      [
       116.35132462813635,
       39.94328468028765
      ],
      [
       116.3513290078074,
       39.94282091333358
      ],
      [
       116.35057586827563,
       39.94281669702069
      ],
      [
       116.35057148352043,
       39.94328046390588
      ]
     ]
    ]
   },
   "id": "BLD-003"
  },
  {
   "type": "Feature",
   "properties": {
    "id": "BLD-004",
    "layer": "BUILDING_FOOTPRINT",
    "building_type": "mixed_use",
    "source_type": "agent_generated_design",
    "confidence": "low",
    "geometry_role": "provisional_constraint",
    "footprint_sqm": 927.0,
    "height_m": 60,
    "floors": 8
   },
   "geometry": {
    "type": "Polygon",
    "coordinates": [
     [
      [
       116.35064606258685,
       39.94226928802451
      ],
      [
       116.35104432602019,
       39.942271517989916
      ],
      [
       116.35104664295797,
       39.94202627403621
      ],
      [
       116.35064838094628,
       39.942024044090076
      ],
      [
       116.35064606258685,
       39.94226928802451
      ]
     ]
    ]
   },
   "id": "BLD-004"
  },
  {
   "type": "Feature",
   "properties": {
    "id": "BLD-005",
    "layer": "BUILDING_FOOTPRINT",
    "building_type": "cultural",
    "source_type": "agent_generated_design",
    "confidence": "low",
    "geometry_role": "provisional_constraint",
    "footprint_sqm": 806.5,
    "height_m": 45,
    "floors": 8
   },
   "geometry": {
    "type": "Polygon",
    "coordinates": [
     [
      [
       116.35346656547514,
       39.941611789360884
      ],
      [
       116.35383805299486,
       39.94161386039826
      ],
      [
       116.3538402048279,
       39.94138510238899
      ],
      [
       116.3534687185451,
       39.9413830313683
      ],
      [
       116.35346656547514,
       39.941611789360884
      ]
     ]
    ]
   },
   "id": "BLD-005"
  },
  {
   "type": "Feature",
   "properties": {
    "id": "BLD-006",
    "layer": "BUILDING_FOOTPRINT",
    "building_type": "residential",
    "source_type": "agent_generated_design",
    "confidence": "low",
    "geometry_role": "provisional_constraint",
    "footprint_sqm": 1236.1,
    "height_m": 24,
    "floors": 8
   },
   "geometry": {
    "type": "Polygon",
    "coordinates": [
     [
      [
       116.34210439069014,
       39.96876666696208
      ],
      [
       116.34256446308184,
       39.96876927720747
      ],
      [
       116.34256717607111,
       39.9684860829392
      ],
      [
       116.34210710557763,
       39.96848347271986
      ],
      [
       116.34210439069014,
       39.96876666696208
      ]
     ]
    ]
   },
   "id": "BLD-006"
  },
  {
   "type": "Feature",
   "properties": {
    "id": "BLD-007",
    "layer": "BUILDING_FOOTPRINT",
    "building_type": "residential",
    "source_type": "agent_generated_design",
    "confidence": "low",
    "geometry_role": "provisional_constraint",
    "footprint_sqm": 2983.3,
    "height_m": 36,
    "floors": 8
   },
   "geometry": {
    "type": "Polygon",
    "coordinates": [
     [
      [
       116.34198459530472,
       39.96461202112794
      ],
      [
       116.34269929897077,
       39.964616075888706
      ],
      [
       116.34270351224356,
       39.96417611820154
      ],
      [
       116.34198881315793,
       39.964172063503604
      ],
      [
       116.34198459530472,
       39.96461202112794
      ]
     ]
    ]
   },
   "id": "BLD-007"
  },
  {
   "type": "Feature",
   "properties": {
    "id": "BLD-008",
    "layer": "BUILDING_FOOTPRINT",
    "building_type": "ai_r_and_d",
    "source_type": "agent_generated_design",
    "confidence": "low",
    "geometry_role": "provisional_constraint",
    "footprint_sqm": 3311.9,
    "height_m": 60,
    "floors": 8
   },
   "geometry": {
    "type": "Polygon",
    "coordinates": [
     [
      [
       116.35040592160595,
       39.960778073400945
      ],
      [
       116.35115891201463,
       39.96078229044537
      ],
      [
       116.35116329350477,
       39.96031873798421
      ],
      [
       116.35041030818,
       39.96031452100863
      ],
      [
       116.35040592160595,
       39.960778073400945
      ]
     ]
    ]
   },
   "id": "BLD-008"
  },
  {
   "type": "Feature",
   "properties": {
    "id": "BLD-009",
    "layer": "BUILDING_FOOTPRINT",
    "building_type": "ai_r_and_d",
    "source_type": "agent_generated_design",
    "confidence": "low",
    "geometry_role": "provisional_constraint",
    "footprint_sqm": 926.1,
    "height_m": 60,
    "floors": 8
   },
   "geometry": {
    "type": "Polygon",
    "coordinates": [
     [
      [
       116.35048050340406,
       39.95976608903633
      ],
      [
       116.35087868528412,
       39.95976831935198
      ],
      [
       116.35088100318364,
       39.95952318882393
      ],
      [
       116.35048282272516,
       39.95952095852754
      ],
      [
       116.35048050340406,
       39.95976608903633
      ]
     ]
    ]
   },
   "id": "BLD-009"
  },
  {
   "type": "Feature",
   "properties": {
    "id": "BLD-010",
    "layer": "BUILDING_FOOTPRINT",
    "building_type": "office",
    "source_type": "agent_generated_design",
    "confidence": "low",
    "geometry_role": "provisional_constraint",
    "footprint_sqm": 818.7,
    "height_m": 24,
    "floors": 8
   },
   "geometry": {
    "type": "Polygon",
    "coordinates": [
     [
      [
       116.35350217572692,
       39.967821908676115
      ],
      [
       116.35387659830762,
       39.967823996290214
      ],
      [
       116.353878768197,
       39.96759351994206
      ],
      [
       116.35350434687348,
       39.9675914323449
      ],
      [
       116.35350217572692,
       39.967821908676115
      ]
     ]
    ]
   },
   "id": "BLD-010"
  },
  {
   "type": "Feature",
   "properties": {
    "id": "BLD-011",
    "layer": "BUILDING_FOOTPRINT",
    "building_type": "office",
    "source_type": "agent_generated_design",
    "confidence": "low",
    "geometry_role": "provisional_constraint",
    "footprint_sqm": 1377.0,
    "height_m": 24,
    "floors": 8
   },
   "geometry": {
    "type": "Polygon",
    "coordinates": [
     [
      [
       116.35323913922562,
       39.9639249962514
      ],
      [
       116.3537246996893,
       39.96392770432593
      ],
      [
       116.35372751408394,
       39.96362879972147
      ],
      [
       116.35324195573448,
       39.963626091675444
      ],
      [
       116.35323913922562,
       39.9639249962514
      ]
     ]
    ]
   },
   "id": "BLD-011"
  },
  {
   "type": "Feature",
   "properties": {
    "id": "BLD-012",
    "layer": "BUILDING_FOOTPRINT",
    "building_type": "education",
    "source_type": "agent_generated_design",
    "confidence": "low",
    "geometry_role": "provisional_constraint",
    "footprint_sqm": 1327.2,
    "height_m": 24,
    "floors": 8
   },
   "geometry": {
    "type": "Polygon",
    "coordinates": [
     [
      [
       116.34192396115306,
       39.986301584325474
      ],
      [
       116.34240080327142,
       39.98630429071053
      ],
      [
       116.34240361687581,
       39.986010849855454
      ],
      [
       116.3419267767973,
       39.986008143498374
      ],
      [
       116.34192396115306,
       39.986301584325474
      ]
     ]
    ]
   },
   "id": "BLD-012"
  },
  {
   "type": "Feature",
   "properties": {
    "id": "BLD-013",
    "layer": "BUILDING_FOOTPRINT",
    "building_type": "education",
    "source_type": "agent_generated_design",
    "confidence": "low",
    "geometry_role": "provisional_constraint",
    "footprint_sqm": 3203.1,
    "height_m": 36,
    "floors": 8
   },
   "geometry": {
    "type": "Polygon",
    "coordinates": [
     [
      [
       116.34179847420376,
       39.982137468419396
      ],
      [
       116.34253922882503,
       39.98214167252988
      ],
      [
       116.3425435983275,
       39.981685796211885
      ],
      [
       116.34180284862845,
       39.981681592168904
      ],
      [
       116.34179847420376,
       39.982137468419396
      ]
     ]
    ]
   },
   "id": "BLD-013"
  },
  {
   "type": "Feature",
   "properties": {
    "id": "BLD-014",
    "layer": "BUILDING_FOOTPRINT",
    "building_type": "ai_r_and_d",
    "source_type": "agent_generated_design",
    "confidence": "low",
    "geometry_role": "provisional_constraint",
    "footprint_sqm": 3311.9,
    "height_m": 60,
    "floors": 8
   },
   "geometry": {
    "type": "Polygon",
    "coordinates": [
     [
      [
       116.35024011971048,
       39.97829133813311
      ],
      [
       116.35099330227892,
       39.978295557779575
      ],
      [
       116.35099768760482,
       39.97783200673835
      ],
      [
       116.35024451012472,
       39.977827787160784
      ],
      [
       116.35024011971048,
       39.97829133813311
      ]
     ]
    ]
   },
   "id": "BLD-014"
  },
  {
   "type": "Feature",
   "properties": {
    "id": "BLD-015",
    "layer": "BUILDING_FOOTPRINT",
    "building_type": "ai_r_and_d",
    "source_type": "agent_generated_design",
    "confidence": "low",
    "geometry_role": "provisional_constraint",
    "footprint_sqm": 926.1,
    "height_m": 60,
    "floors": 8
   },
   "geometry": {
    "type": "Polygon",
    "coordinates": [
     [
      [
       116.35031472648267,
       39.9772793570943
      ],
      [
       116.35071300997332,
       39.9772815887861
      ],
      [
       116.350715329902,
       39.97703645900895
      ],
      [
       116.3503170478342,
       39.97703422733641
      ],
      [
       116.35031472648267,
       39.9772793570943
      ]
     ]
    ]
   },
   "id": "BLD-015"
  },
  {
   "type": "Feature",
   "properties": {
    "id": "BLD-016",
    "layer": "BUILDING_FOOTPRINT",
    "building_type": "office",
    "source_type": "agent_generated_design",
    "confidence": "low",
    "geometry_role": "provisional_constraint",
    "footprint_sqm": 3311.9,
    "height_m": 60,
    "floors": 8
   },
   "geometry": {
    "type": "Polygon",
    "coordinates": [
     [
      [
       116.3500741726573,
       39.99580454921457
      ],
      [
       116.35082754755376,
       39.99580877146437
      ],
      [
       116.35083193671915,
       39.995345221843245
      ],
      [
       116.3500785669155,
       39.995340999662375
      ],
      [
       116.3500741726573,
       39.99580454921457
      ]
     ]
    ]
   },
   "id": "BLD-016"
  },
  {
   "type": "Feature",
   "properties": {
    "id": "BLD-017",
    "layer": "BUILDING_FOOTPRINT",
    "building_type": "office",
    "source_type": "agent_generated_design",
    "confidence": "low",
    "geometry_role": "provisional_constraint",
    "footprint_sqm": 926.1,
    "height_m": 60,
    "floors": 8
   },
   "geometry": {
    "type": "Polygon",
    "coordinates": [
     [
      [
       116.35014880442631,
       39.99479257150203
      ],
      [
       116.35054718961649,
       39.9947948045707
      ],
      [
       116.35054951157636,
       39.994549675544505
      ],
      [
       116.35015112781026,
       39.99454744249512
      ],
      [
       116.35014880442631,
       39.99479257150203
      ]
     ]
    ]
   },
   "id": "BLD-017"
  },
  {
   "type": "Feature",
   "properties": {
    "id": "BLD-018",
    "layer": "BUILDING_FOOTPRINT",
    "building_type": "ai_r_and_d",
    "source_type": "agent_generated_design",
    "confidence": "low",
    "geometry_role": "provisional_constraint",
    "footprint_sqm": 3316.3,
    "height_m": 60,
    "floors": 8
   },
   "geometry": {
    "type": "Polygon",
    "coordinates": [
     [
      [
       116.34990821853842,
       40.01331132362346
      ],
      [
       116.35066228767457,
       40.013315551288215
      ],
      [
       116.35066668360321,
       40.01285169440207
      ],
      [
       116.34991261957113,
       40.01284746680637
      ],
      [
       116.34990821853842,
       40.01331132362346
      ]
     ]
    ]
   },
   "id": "BLD-018"
  },
  {
   "type": "Feature",
   "properties": {
    "id": "BLD-019",
    "layer": "BUILDING_FOOTPRINT",
    "building_type": "ai_r_and_d",
    "source_type": "agent_generated_design",
    "confidence": "low",
    "geometry_role": "provisional_constraint",
    "footprint_sqm": 927.4,
    "height_m": 60,
    "floors": 8
   },
   "geometry": {
    "type": "Polygon",
    "coordinates": [
     [
      [
       116.34998290596273,
       40.012300685380794
      ],
      [
       116.35038165827149,
       40.01230292131371
      ],
      [
       116.35038398381009,
       40.0120576298032
      ],
      [
       116.34998523292859,
       40.0120553938896
      ],
      [
       116.34998290596273,
       40.012300685380794
      ]
     ]
    ]
   },
   "id": "BLD-019"
  }
 ],
 "properties": {
  "crs": "EPSG:4326",
  "area_calculation_crs": "EPSG:4548",
  "official_boundary": false,
  "geometry_role": "provisional_constraint",
  "generated_by": "Yeche Hermes Agent (Youmu76)"
 }
}