{
 "type": "FeatureCollection",
 "features": [
  {
   "type": "Feature",
   "properties": {
    "id": "CONST-RAIL-HERITAGE",
    "layer": "HERITAGE_PROTECTION",
    "name_zh": "京张铁路遗址走廊",
    "source_type": "agent_generated_design",
    "confidence": "medium",
    "geometry_role": "provisional_constraint",
    "area_sqm": 1554580.0
   },
   "geometry": {
    "type": "Polygon",
    "coordinates": [
     [
      [
       116.34741243686044,
       39.93900022833818
      ],
      [
       116.34554045239167,
       39.939000203737585
      ],
      [
       116.34470504789269,
       40.02650009166624
      ],
      [
       116.34657942183668,
       40.02650014598154
      ],
      [
       116.34741243686044,
       39.93900022833818
      ]
     ]
    ]
   },
   "id": "CONST-RAIL-HERITAGE"
  },
  {
   "type": "Feature",
   "properties": {
    "id": "CONST-NORTH-RING",
    "layer": "EXISTING_PRIMARY_ROAD",
    "name_zh": "北五环（参考）",
    "source_type": "agent_generated_design",
    "confidence": "medium",
    "geometry_role": "provisional_constraint",
    "length_m": 1075.1
   },
   "geometry": {
    "type": "LineString",
    "coordinates": [
     [
      116.34261452183205,
      40.02474811295866
     ],
     [
      116.35520784195819,
      40.02481887122429
     ]
    ]
   },
   "id": "CONST-NORTH-RING"
  }
 ],
 "properties": {
  "crs": "EPSG:4326",
  "area_calculation_crs": "EPSG:4548",
  "official_boundary": false,
  "geometry_role": "provisional_constraint",
  "generated_by": "Yeche Hermes Agent (Youmu76)"
 }
}