{
 "type": "FeatureCollection",
 "features": [
  {
   "type": "Feature",
   "properties": {
    "id": "PROV-KEY-001",
    "layer": "KEY_AREA",
    "name": "众智园AI自主创新加速区",
    "area_id": "zhongzhiyuan_ai_acceleration_area",
    "source_type": "agent_inferred_from_public_data",
    "confidence": "low",
    "geometry_role": "provisional_constraint",
    "official_boundary": false,
    "boundary_precision": "provisional_rough",
    "area_sqm": 1929201.9
   },
   "geometry": {
    "type": "Polygon",
    "coordinates": [
     [
      [
       116.343,
       40.0075
      ],
      [
       116.354,
       40.0075
      ],
      [
       116.354,
       40.026
      ],
      [
       116.343,
       40.026
      ],
      [
       116.343,
       40.0075
      ]
     ]
    ]
   },
   "id": "PROV-KEY-001"
  },
  {
   "type": "Feature",
   "properties": {
    "id": "PROV-KEY-002",
    "layer": "KEY_AREA",
    "name": "北京AI原点社区",
    "area_id": "beijing_ai_origin_community",
    "source_type": "agent_inferred_from_public_data",
    "confidence": "low",
    "geometry_role": "provisional_constraint",
    "official_boundary": false,
    "boundary_precision": "provisional_rough",
    "area_sqm": 1043236.9
   },
   "geometry": {
    "type": "Polygon",
    "coordinates": [
     [
      [
       116.342,
       39.9835
      ],
      [
       116.353,
       39.9835
      ],
      [
       116.353,
       39.9935
      ],
      [
       116.342,
       39.9935
      ],
      [
       116.342,
       39.9835
      ]
     ]
    ]
   },
   "id": "PROV-KEY-002"
  },
  {
   "type": "Feature",
   "properties": {
    "id": "PROV-KEY-003",
    "layer": "KEY_AREA",
    "name": "大钟寺AI产业集聚区",
    "area_id": "dazhongsi_ai_industry_cluster",
    "source_type": "agent_inferred_from_public_data",
    "confidence": "low",
    "geometry_role": "provisional_constraint",
    "official_boundary": false,
    "boundary_precision": "provisional_rough",
    "area_sqm": 720454.2
   },
   "geometry": {
    "type": "Polygon",
    "coordinates": [
     [
      [
       116.342,
       39.944
      ],
      [
       116.355,
       39.944
      ],
      [
       116.355,
       39.94984
      ],
      [
       116.342,
       39.94984
      ],
      [
       116.342,
       39.944
      ]
     ]
    ]
   },
   "id": "PROV-KEY-003"
  }
 ],
 "properties": {
  "crs": "EPSG:4326",
  "area_calculation_crs": "EPSG:4548",
  "source": "provisional_boundaries.geojson",
  "official_boundary": false,
  "geometry_role": "provisional_constraint",
  "generated_by": "Yeche Hermes Agent (Youmu76)"
 }
}