{
 "type": "FeatureCollection",
 "features": [
  {
   "type": "Feature",
   "properties": {
    "id": "LU-0101",
    "layer": "LAND_USE",
    "source_type": "agent_generated_design",
    "confidence": "low",
    "geometry_role": "provisional_constraint",
    "land_use_code": "05",
    "land_use_label_zh": "商业服务业用地",
    "design_note": "大钟寺智能消费街区",
    "area_sqm": 663069.1,
    "official_boundary": false,
    "recomputed_epsg": "4548"
   },
   "geometry": {
    "type": "Polygon",
    "coordinates": [
     [
      [
       116.34438076438518,
       39.95645302301799
      ],
      [
       116.3445473552127,
       39.93900017841572
      ],
      [
       116.34070000000001,
       39.93899999999999
      ],
      [
       116.34021601432904,
       39.956429394563216
      ],
      [
       116.34438076438518,
       39.95645302301799
      ]
     ]
    ]
   },
   "id": "LU-0101"
  },
  {
   "type": "Feature",
   "properties": {
    "id": "LU-0102",
    "layer": "LAND_USE",
    "source_type": "agent_generated_design",
    "confidence": "low",
    "geometry_role": "provisional_constraint",
    "land_use_code": "1401",
    "land_use_label_zh": "公园绿地",
    "design_note": "绿脉南门户公园",
    "area_sqm": 639468.6,
    "official_boundary": false,
    "recomputed_epsg": "4548"
   },
   "geometry": {
    "type": "Polygon",
    "coordinates": [
     [
      [
       116.34438076438518,
       39.95645302301799
      ],
      [
       116.34823971814329,
       39.95647478300115
      ],
      [
       116.3484055343748,
       39.93900022911781
      ],
      [
       116.3445473552127,
       39.93900017841572
      ],
      [
       116.34438076438518,
       39.95645302301799
      ]
     ]
    ]
   },
   "id": "LU-0102"
  },
  {
   "type": "Feature",
   "properties": {
    "id": "LU-0103",
    "layer": "LAND_USE",
    "source_type": "agent_generated_design",
    "confidence": "low",
    "geometry_role": "provisional_constraint",
    "land_use_code": "05",
    "land_use_label_zh": "商业服务业用地",
    "design_note": "大钟寺AI产业服务",
    "area_sqm": 693654.2,
    "official_boundary": false,
    "recomputed_epsg": "4548"
   },
   "geometry": {
    "type": "Polygon",
    "coordinates": [
     [
      [
       116.34823971814329,
       39.95647478300115
      ],
      [
       116.3524202561008,
       39.956498211373564
      ],
      [
       116.3525852304324,
       39.93900013915409
      ],
      [
       116.3484055343748,
       39.93900022911781
      ],
      [
       116.34823971814329,
       39.95647478300115
      ]
     ]
    ]
   },
   "id": "LU-0103"
  },
  {
   "type": "Feature",
   "properties": {
    "id": "LU-0104",
    "layer": "LAND_USE",
    "source_type": "agent_generated_design",
    "confidence": "low",
    "geometry_role": "provisional_constraint",
    "land_use_code": "0803",
    "land_use_label_zh": "文化用地",
    "design_note": "协议文化中心",
    "area_sqm": 464700.5,
    "official_boundary": false,
    "recomputed_epsg": "4548"
   },
   "geometry": {
    "type": "Polygon",
    "coordinates": [
     [
      [
       116.3524202561008,
       39.956498211373564
      ],
      [
       116.35530001453657,
       39.956514262280294
      ],
      [
       116.3553,
       39.939
      ],
      [
       116.3525852304324,
       39.93900013915409
      ],
      [
       116.3524202561008,
       39.956498211373564
      ]
     ]
    ]
   },
   "id": "LU-0104"
  },
  {
   "type": "Feature",
   "properties": {
    "id": "LU-0201",
    "layer": "LAND_USE",
    "source_type": "agent_generated_design",
    "confidence": "low",
    "geometry_role": "provisional_constraint",
    "land_use_code": "0701",
    "land_use_label_zh": "城镇住宅用地",
    "design_note": "南段更新住区",
    "area_sqm": 718536.3,
    "official_boundary": false,
    "recomputed_epsg": "4548"
   },
   "geometry": {
    "type": "Polygon",
    "coordinates": [
     [
      [
       116.34421345031777,
       39.973966279824566
      ],
      [
       116.34438076438518,
       39.95645302301799
      ],
      [
       116.34021601432904,
       39.956429394563216
      ],
      [
       116.33972944031498,
       39.97394082470908
      ],
      [
       116.34421345031777,
       39.973966279824566
      ]
     ]
    ]
   },
   "id": "LU-0201"
  },
  {
   "type": "Feature",
   "properties": {
    "id": "LU-0202",
    "layer": "LAND_USE",
    "source_type": "agent_generated_design",
    "confidence": "low",
    "geometry_role": "provisional_constraint",
    "land_use_code": "1401",
    "land_use_label_zh": "公园绿地",
    "design_note": "遗址公园南段",
    "area_sqm": 641285.5,
    "official_boundary": false,
    "recomputed_epsg": "4548"
   },
   "geometry": {
    "type": "Polygon",
    "coordinates": [
     [
      [
       116.34421345031777,
       39.973966279824566
      ],
      [
       116.3480733887106,
       39.97398805323454
      ],
      [
       116.34823971814329,
       39.95647478300115
      ],
      [
       116.34438076438518,
       39.95645302301799
      ],
      [
       116.34421345031777,
       39.973966279824566
      ]
     ]
    ]
   },
   "id": "LU-0202"
  },
  {
   "type": "Feature",
   "properties": {
    "id": "LU-0203",
    "layer": "LAND_USE",
    "source_type": "agent_generated_design",
    "confidence": "low",
    "geometry_role": "provisional_constraint",
    "land_use_code": "0802",
    "land_use_label_zh": "科研用地",
    "design_note": "AI场景中试街区",
    "area_sqm": 694725.9,
    "official_boundary": false,
    "recomputed_epsg": "4548"
   },
   "geometry": {
    "type": "Polygon",
    "coordinates": [
     [
      [
       116.3480733887106,
       39.97398805323454
      ],
      [
       116.35225499336035,
       39.97401149606326
      ],
      [
       116.3524202561008,
       39.956498211373564
      ],
      [
       116.34823971814329,
       39.95647478300115
      ],
      [
       116.3480733887106,
       39.97398805323454
      ]
     ]
    ]
   },
   "id": "LU-0203"
  },
  {
   "type": "Feature",
   "properties": {
    "id": "LU-0204",
    "layer": "LAND_USE",
    "source_type": "agent_generated_design",
    "confidence": "low",
    "geometry_role": "provisional_constraint",
    "land_use_code": "0702",
    "land_use_label_zh": "城镇社区服务设施用地",
    "design_note": "社区AI服务综合体",
    "area_sqm": 461317.8,
    "official_boundary": false,
    "recomputed_epsg": "4548"
   },
   "geometry": {
    "type": "Polygon",
    "coordinates": [
     [
      [
       116.3524202561008,
       39.956498211373564
      ],
      [
       116.35225499336035,
       39.97401149606326
      ],
      [
       116.35457822716728,
       39.97402445533892
      ],
      [
       116.3553,
       39.965
      ],
      [
       116.35530001453657,
       39.956514262280294
      ],
      [
       116.3524202561008,
       39.956498211373564
      ]
     ]
    ]
   },
   "id": "LU-0204"
  },
  {
   "type": "Feature",
   "properties": {
    "id": "LU-0301",
    "layer": "LAND_USE",
    "source_type": "agent_generated_design",
    "confidence": "low",
    "geometry_role": "provisional_constraint",
    "land_use_code": "0804",
    "land_use_label_zh": "教育用地",
    "design_note": "原点社区高校协同区",
    "area_sqm": 652863.1,
    "official_boundary": false,
    "recomputed_epsg": "4548"
   },
   "geometry": {
    "type": "Polygon",
    "coordinates": [
     [
      [
       116.34404598977261,
       39.9914794829713
      ],
      [
       116.34421345031777,
       39.973966279824566
      ],
      [
       116.33972944031498,
       39.97394082470908
      ],
      [
       116.3397,
       39.97500000000001
      ],
      [
       116.34076178748582,
       39.99146084927643
      ],
      [
       116.34404598977261,
       39.9914794829713
      ]
     ]
    ]
   },
   "id": "LU-0301"
  },
  {
   "type": "Feature",
   "properties": {
    "id": "LU-0302",
    "layer": "LAND_USE",
    "source_type": "agent_generated_design",
    "confidence": "low",
    "geometry_role": "provisional_constraint",
    "land_use_code": "1401",
    "land_use_label_zh": "公园绿地",
    "design_note": "原点绿核",
    "area_sqm": 641285.5,
    "official_boundary": false,
    "recomputed_epsg": "4548"
   },
   "geometry": {
    "type": "Polygon",
    "coordinates": [
     [
      [
       116.34404598977261,
       39.9914794829713
      ],
      [
       116.3479069136621,
       39.99150126981488
      ],
      [
       116.3480733887106,
       39.97398805323454
      ],
      [
       116.34421345031777,
       39.973966279824566
      ],
      [
       116.34404598977261,
       39.9914794829713
      ]
     ]
    ]
   },
   "id": "LU-0302"
  },
  {
   "type": "Feature",
   "properties": {
    "id": "LU-0303",
    "layer": "LAND_USE",
    "source_type": "agent_generated_design",
    "confidence": "low",
    "geometry_role": "provisional_constraint",
    "land_use_code": "0802",
    "land_use_label_zh": "科研用地",
    "design_note": "AI原点开源社区",
    "area_sqm": 694725.9,
    "official_boundary": false,
    "recomputed_epsg": "4548"
   },
   "geometry": {
    "type": "Polygon",
    "coordinates": [
     [
      [
       116.3479069136621,
       39.99150126981488
      ],
      [
       116.35208958593779,
       39.99152472710717
      ],
      [
       116.35225499336035,
       39.97401149606326
      ],
      [
       116.3480733887106,
       39.97398805323454
      ],
      [
       116.3479069136621,
       39.99150126981488
      ]
     ]
    ]
   },
   "id": "LU-0303"
  },
  {
   "type": "Feature",
   "properties": {
    "id": "LU-0304",
    "layer": "LAND_USE",
    "source_type": "agent_generated_design",
    "confidence": "low",
    "geometry_role": "provisional_constraint",
    "land_use_code": "0701",
    "land_use_label_zh": "城镇住宅用地",
    "design_note": "原点人才住区",
    "area_sqm": 284836.0,
    "official_boundary": false,
    "recomputed_epsg": "4548"
   },
   "geometry": {
    "type": "Polygon",
    "coordinates": [
     [
      [
       116.35225499336035,
       39.97401149606326
      ],
      [
       116.35208958593779,
       39.99152472710717
      ],
      [
       116.35338390490725,
       39.99153195533224
      ],
      [
       116.3533,
       39.989999999999995
      ],
      [
       116.35457822716728,
       39.97402445533892
      ],
      [
       116.35225499336035,
       39.97401149606326
      ]
     ]
    ]
   },
   "id": "LU-0304"
  },
  {
   "type": "Feature",
   "properties": {
    "id": "LU-0401",
    "layer": "LAND_USE",
    "source_type": "agent_generated_design",
    "confidence": "low",
    "geometry_role": "provisional_constraint",
    "land_use_code": "1402",
    "land_use_label_zh": "防护绿地",
    "design_note": "西侧生态防护带",
    "area_sqm": 438299.6,
    "official_boundary": false,
    "recomputed_epsg": "4548"
   },
   "geometry": {
    "type": "Polygon",
    "coordinates": [
     [
      [
       116.34387838260659,
       40.008992632452
      ],
      [
       116.34404598977261,
       39.9914794829713
      ],
      [
       116.34076178748582,
       39.99146084927643
      ],
      [
       116.34169999999999,
       40.006
      ],
      [
       116.34184538752943,
       40.00898110459063
      ],
      [
       116.34387838260659,
       40.008992632452
      ]
     ]
    ]
   },
   "id": "LU-0401"
  },
  {
   "type": "Feature",
   "properties": {
    "id": "LU-0402",
    "layer": "LAND_USE",
    "source_type": "agent_generated_design",
    "confidence": "low",
    "geometry_role": "provisional_constraint",
    "land_use_code": "1401",
    "land_use_label_zh": "公园绿地",
    "design_note": "遗址公园中段",
    "area_sqm": 641285.5,
    "official_boundary": false,
    "recomputed_epsg": "4548"
   },
   "geometry": {
    "type": "Polygon",
    "coordinates": [
     [
      [
       116.34387838260659,
       40.008992632452
      ],
      [
       116.3477402928554,
       40.00901443273594
      ],
      [
       116.3479069136621,
       39.99150126981488
      ],
      [
       116.34404598977261,
       39.9914794829713
      ],
      [
       116.34387838260659,
       40.008992632452
      ]
     ]
    ]
   },
   "id": "LU-0402"
  },
  {
   "type": "Feature",
   "properties": {
    "id": "LU-0403",
    "layer": "LAND_USE",
    "source_type": "agent_generated_design",
    "confidence": "low",
    "geometry_role": "provisional_constraint",
    "land_use_code": "0805",
    "land_use_label_zh": "体育用地",
    "design_note": "AI活力运动公园",
    "area_sqm": 694725.9,
    "official_boundary": false,
    "recomputed_epsg": "4548"
   },
   "geometry": {
    "type": "Polygon",
    "coordinates": [
     [
      [
       116.3477402928554,
       40.00901443273594
      ],
      [
       116.3519240336917,
       40.009037904499124
      ],
      [
       116.35208958593779,
       39.99152472710717
      ],
      [
       116.3479069136621,
       39.99150126981488
      ],
      [
       116.3477402928554,
       40.00901443273594
      ]
     ]
    ]
   },
   "id": "LU-0403"
  },
  {
   "type": "Feature",
   "properties": {
    "id": "LU-0404",
    "layer": "LAND_USE",
    "source_type": "agent_generated_design",
    "confidence": "low",
    "geometry_role": "provisional_constraint",
    "land_use_code": "0701",
    "land_use_label_zh": "城镇住宅用地",
    "design_note": "中段更新住区",
    "area_sqm": 308386.0,
    "official_boundary": false,
    "recomputed_epsg": "4548"
   },
   "geometry": {
    "type": "Polygon",
    "coordinates": [
     [
      [
       116.35208958593779,
       39.99152472710717
      ],
      [
       116.3519240336917,
       40.009037904499124
      ],
      [
       116.35434367790417,
       40.00905141032824
      ],
      [
       116.35338390490725,
       39.99153195533224
      ],
      [
       116.35208958593779,
       39.99152472710717
      ]
     ]
    ]
   },
   "id": "LU-0404"
  },
  {
   "type": "Feature",
   "properties": {
    "id": "LU-0501",
    "layer": "LAND_USE",
    "source_type": "agent_generated_design",
    "confidence": "low",
    "geometry_role": "provisional_constraint",
    "land_use_code": "0802",
    "land_use_label_zh": "科研用地",
    "design_note": "众智园AI研发西区",
    "area_sqm": 252654.4,
    "official_boundary": false,
    "recomputed_epsg": "4548"
   },
   "geometry": {
    "type": "Polygon",
    "coordinates": [
     [
      [
       116.34387838260659,
       40.008992632452
      ],
      [
       116.34184538752943,
       40.00898110459063
      ],
      [
       116.34270000000001,
       40.0265
      ],
      [
       116.34371068308572,
       40.02650005054272
      ],
      [
       116.34387838260659,
       40.008992632452
      ]
     ]
    ]
   },
   "id": "LU-0501"
  },
  {
   "type": "Feature",
   "properties": {
    "id": "LU-0502",
    "layer": "LAND_USE",
    "source_type": "agent_generated_design",
    "confidence": "low",
    "geometry_role": "provisional_constraint",
    "land_use_code": "1401",
    "land_use_label_zh": "公园绿地",
    "design_note": "北门户创新公园",
    "area_sqm": 640680.2,
    "official_boundary": false,
    "recomputed_epsg": "4548"
   },
   "geometry": {
    "type": "Polygon",
    "coordinates": [
     [
      [
       116.3477402928554,
       40.00901443273594
      ],
      [
       116.34387838260659,
       40.008992632452
      ],
      [
       116.34371068308572,
       40.02650005054272
      ],
      [
       116.34757378698076,
       40.026500162487096
      ],
      [
       116.3477402928554,
       40.00901443273594
      ]
     ]
    ]
   },
   "id": "LU-0502"
  },
  {
   "type": "Feature",
   "properties": {
    "id": "LU-0503",
    "layer": "LAND_USE",
    "source_type": "agent_generated_design",
    "confidence": "low",
    "geometry_role": "provisional_constraint",
    "land_use_code": "0802",
    "land_use_label_zh": "科研用地",
    "design_note": "众智园全栈创新主区",
    "area_sqm": 693173.5,
    "official_boundary": false,
    "recomputed_epsg": "4548"
   },
   "geometry": {
    "type": "Polygon",
    "coordinates": [
     [
      [
       116.3519240336917,
       40.009037904499124
      ],
      [
       116.3477402928554,
       40.00901443273594
      ],
      [
       116.34757378698076,
       40.026500162487096
      ],
      [
       116.35175881817595,
       40.026500138422065
      ],
      [
       116.3519240336917,
       40.009037904499124
      ]
     ]
    ]
   },
   "id": "LU-0503"
  },
  {
   "type": "Feature",
   "properties": {
    "id": "LU-0504",
    "layer": "LAND_USE",
    "source_type": "agent_generated_design",
    "confidence": "low",
    "geometry_role": "provisional_constraint",
    "land_use_code": "1403",
    "land_use_label_zh": "广场用地",
    "design_note": "众智园开放广场",
    "area_sqm": 493151.8,
    "official_boundary": false,
    "recomputed_epsg": "4548"
   },
   "geometry": {
    "type": "Polygon",
    "coordinates": [
     [
      [
       116.3519240336917,
       40.009037904499124
      ],
      [
       116.35175881817595,
       40.026500138422065
      ],
      [
       116.3553,
       40.0265
      ],
      [
       116.35434367790417,
       40.00905141032824
      ],
      [
       116.3519240336917,
       40.009037904499124
      ]
     ]
    ]
   },
   "id": "LU-0504"
  }
 ],
 "properties": {
  "crs": "EPSG:4326",
  "area_calculation_crs": "EPSG:4548",
  "source": "provisional_boundaries.geojson",
  "official_boundary": false,
  "geometry_role": "provisional_constraint",
  "generated_by": "Yeche Hermes Agent (Youmu76)",
  "generation_version": "v2-20260810"
 }
}