{
 "type": "FeatureCollection",
 "features": [
  {
   "type": "Feature",
   "properties": {
    "id": "PH-01",
    "layer": "PHASE",
    "phase": 1,
    "name_zh": "一期·南段信标启动区",
    "source_type": "agent_generated_design",
    "confidence": "low",
    "geometry_role": "provisional_constraint",
    "area_sqm": 3090067.3
   },
   "geometry": {
    "type": "Polygon",
    "coordinates": [
     [
      [
       116.35530000879518,
       39.96089281961003
      ],
      [
       116.3553,
       39.939
      ],
      [
       116.34070000000001,
       39.93899999999999
      ],
      [
       116.34009439985525,
       39.96080725742201
      ],
      [
       116.35530000879518,
       39.96089281961003
      ]
     ]
    ]
   },
   "id": "PH-01"
  },
  {
   "type": "Feature",
   "properties": {
    "id": "PH-02",
    "layer": "PHASE",
    "phase": 2,
    "name_zh": "二期·中段共生成长区",
    "source_type": "agent_generated_design",
    "confidence": "low",
    "geometry_role": "provisional_constraint",
    "area_sqm": 4160401.2
   },
   "geometry": {
    "type": "Polygon",
    "coordinates": [
     [
      [
       116.34009439985525,
       39.96080725742201
      ],
      [
       116.3397,
       39.97500000000001
      ],
      [
       116.34076178748582,
       39.99146084927643
      ],
      [
       116.35338390490725,
       39.99153195533224
      ],
      [
       116.3533,
       39.989999999999995
      ],
      [
       116.3553,
       39.965
      ],
      [
       116.35530000879518,
       39.96089281961003
      ],
      [
       116.34009439985525,
       39.96080725742201
      ]
     ]
    ]
   },
   "id": "PH-02"
  },
  {
   "type": "Feature",
   "properties": {
    "id": "PH-03",
    "layer": "PHASE",
    "phase": 3,
    "name_zh": "三期·北段全栈创新区",
    "source_type": "agent_generated_design",
    "confidence": "low",
    "geometry_role": "provisional_constraint",
    "area_sqm": 4162356.9
   },
   "geometry": {
    "type": "Polygon",
    "coordinates": [
     [
      [
       116.34076178748582,
       39.99146084927643
      ],
      [
       116.34169999999999,
       40.006
      ],
      [
       116.34270000000001,
       40.0265
      ],
      [
       116.3553,
       40.0265
      ],
      [
       116.35338390490725,
       39.99153195533224
      ],
      [
       116.34076178748582,
       39.99146084927643
      ]
     ]
    ]
   },
   "id": "PH-03"
  }
 ],
 "properties": {
  "crs": "EPSG:4326",
  "area_calculation_crs": "EPSG:4548",
  "official_boundary": false,
  "geometry_role": "provisional_constraint",
  "generated_by": "Yeche Hermes Agent (Youmu76)"
 }
}