{
 "type": "FeatureCollection",
 "features": [
  {
   "type": "Feature",
   "properties": {
    "id": "PS-SPINE-S",
    "layer": "PUBLIC_SPACE",
    "space_type": "plaza",
    "name_zh": "京张南门户广场",
    "source_type": "agent_generated_design",
    "confidence": "low",
    "geometry_role": "provisional_constraint",
    "area_sqm": 45166.3
   },
   "geometry": {
    "type": "Polygon",
    "coordinates": [
     [
      [
       116.34780856436048,
       39.94585787863212
      ],
      [
       116.34778934295919,
       39.945752859477146
      ],
      [
       116.34775684038554,
       39.94564979612431
      ],
      [
       116.34771136971281,
       39.945549681119594
      ],
      [
       116.34765336889765,
       39.94545347861086
      ],
      [
       116.34758339656037,
       39.94536211506306
      ],
      [
       116.34750212660357,
       39.94527647033659
      ],
      [
       116.34741034172099,
       39.945197369214576
      ],
      [
       116.34730892585884,
       39.9451255734605
      ],
      [
       116.34719885570283,
       39.94506177448308
      ],
      [
       116.34708119127207,
       39.9450065866784
      ],
      [
       116.34695706571136,
       39.9449605415139
      ],
      [
       116.34682767437938,
       39.9449240824108
      ],
      [
       116.3466942633382,
       39.9448975604745
      ],
      [
       116.34655811735475,
       39.944881231113825
      ],
      [
       116.34642054753016,
       39.944875251581735
      ],
      [
       116.3462828786751,
       39.94487967946125
      ],
      [
       116.3461464365537,
       39.94489447211092
      ],
      [
       116.34601253511806,
       39.944919487075516
      ],
      [
       116.34588246385651,
       39.94495448345769
      ],
      [
       116.34575747537721,
       39.94499912423752
      ],
      [
       116.34563877334672,
       39.9450529795177
      ],
      [
       116.34552750089979,
       39.94511553066292
      ],
      [
       116.34542472963123,
       39.94518617529392
      ],
      [
       116.34533144927691,
       39.94526423308777
      ],
      [
       116.34524855818218,
       39.94534895232894
      ],
      [
       116.34517685465018,
       39.94543951714776
      ],
      [
       116.34511702925313,
       39.9455350553768
      ],
      [
       116.34506965818063,
       39.9456346469496
      ],
      [
       116.34503519768923,
       39.94573733276054
      ],
      [
       116.34501397970655,
       39.945842123901066
      ],
      [
       116.34500620863257,
       39.94594801118289
      ],
      [
       116.34501195936883,
       39.946053974856795
      ],
      [
       116.34503117659486,
       39.9461589944332
      ],
      [
       116.34506367529836,
       39.94626205851009
      ],
      [
       116.34510914255479,
       39.94636217451365
      ],
      [
       116.34516714053883,
       39.94645837825766
      ],
      [
       116.3452371107389,
       39.94654974322969
      ],
      [
       116.34531837933459,
       39.9466353895146
      ],
      [
       116.34541016368443,
       39.94671449226939
      ],
      [
       116.34551157986267,
       39.94678628966782
      ],
      [
       116.3456216511715,
       39.94685009023797
      ],
      [
       116.34573931754748,
       39.946905279522575
      ],
      [
       116.34586344577104,
       39.9469513259973
      ],
      [
       116.34599284038119,
       39.94698778619059
      ],
      [
       116.34612625518992,
       39.94701430895513
      ],
      [
       116.34626240528543,
       39.94703063885029
      ],
      [
       116.34639997940863,
       39.947036618602546
      ],
      [
       116.34653765258362,
       39.94703219062045
      ],
      [
       116.34667409888029,
       39.94701739754935
      ],
      [
       116.34680800418606,
       39.94699238186069
      ],
      [
       116.34693807886389,
       39.94695738447966
      ],
      [
       116.34706307017434,
       39.946912742464534
      ],
      [
       116.347181774342,
       39.94685888576015
      ],
      [
       116.34729304815008,
       39.946796333056476
      ],
      [
       116.34739581995139,
       39.94672568679272
      ],
      [
       116.3474890999896,
       39.94664762735451
      ],
      [
       116.34757198993151,
       39.946562906520604
      ],
      [
       116.34764369151831,
       39.94647234022186
      ],
      [
       116.3477035142525,
       39.94637680068258
      ],
      [
       116.3477508820468,
       39.94627720801961
      ],
      [
       116.34778533877069,
       39.94617452138042
      ],
      [
       116.34780655264129,
       39.946069729705435
      ],
      [
       116.34781431941668,
       39.94596384220342
      ],
      [
       116.34780856436048,
       39.94585787863212
      ]
     ]
    ]
   },
   "id": "PS-SPINE-S"
  },
  {
   "type": "Feature",
   "properties": {
    "id": "PS-ORIGIN",
    "layer": "PUBLIC_SPACE",
    "space_type": "plaza",
    "name_zh": "原点开源广场",
    "source_type": "agent_generated_design",
    "confidence": "low",
    "geometry_role": "provisional_constraint",
    "area_sqm": 45166.3
   },
   "geometry": {
    "type": "Polygon",
    "coordinates": [
     [
      [
       116.34786395257207,
       39.97388094444134
      ],
      [
       116.34784472382002,
       39.973775925737655
      ],
      [
       116.34781220846344,
       39.97367286278942
      ],
      [
       116.34776671969885,
       39.97357274813872
      ],
      [
       116.34770869565713,
       39.97347654592997
      ],
      [
       116.34763869518237,
       39.97338518262522
      ],
      [
       116.34755739244818,
       39.97329953808252
      ],
      [
       116.34746557046402,
       39.97322043708318
      ],
      [
       116.34736411353342,
       39.97314864138949
      ],
      [
       116.34725399873754,
       39.973084842409584
      ],
      [
       116.34713628652543,
       39.973029654539516
      ],
      [
       116.34701211050199,
       39.972983609247336
      ],
      [
       116.3468826665118,
       39.97294714995548
      ],
      [
       116.34674920112401,
       39.97292062777116
      ],
      [
       116.34661299962893,
       39.97290429810559
      ],
      [
       116.34647537366209,
       39.97289831821463
      ],
      [
       116.34633764857483,
       39.97290274568476
      ],
      [
       116.34620115067275,
       39.97291753787847
      ],
      [
       116.34606719444506,
       39.972942552344975
      ],
      [
       116.34593706990763,
       39.97297754819167
      ],
      [
       116.34581203018165,
       39.97302218840385
      ],
      [
       116.34569327942724,
       39.97307604308966
      ],
      [
       116.3455819612482,
       39.97313859361957
      ],
      [
       116.3454791476799,
       39.97320923762024
      ],
      [
       116.34538582886543,
       39.97328729477483
      ],
      [
       116.34530290352063,
       39.97337201337403
      ],
      [
       116.34523117027847,
       39.973462577554336
      ],
      [
       116.34517131999733,
       39.973558115154525
      ],
      [
       116.34512392910655,
       39.97365770611417
      ],
      [
       116.34508945405358,
       39.97376039133357
      ],
      [
       116.34506822690632,
       39.97386518190993
      ],
      [
       116.34506045215312,
       39.973971068660354
      ],
      [
       116.34506620473111,
       39.97407703184078
      ],
      [
       116.34508542930206,
       39.97418205096634
      ],
      [
       116.34511794078306,
       39.974285114639386
      ],
      [
       116.34516342612662,
       39.974385230289975
      ],
      [
       116.34522144733326,
       39.974481433735264
      ],
      [
       116.34529144566787,
       39.97457279846568
      ],
      [
       116.34537274703905,
       39.97465844456839
      ],
      [
       116.34546456848976,
       39.97473754720213
      ],
      [
       116.34556602573693,
       39.974809344541804
      ],
      [
       116.34567614168729,
       39.974873145116035
      ],
      [
       116.34579385584736,
       39.974928334467485
      ],
      [
       116.34591803453745,
       39.97497438107116
      ],
      [
       116.3460474818104,
       39.97501084145426
      ],
      [
       116.34618095097102,
       39.97503736446762
      ],
      [
       116.34631715658395,
       39.975053694668176
      ],
      [
       116.34645478685543,
       39.97505967477947
      ],
      [
       116.34659251626867,
       39.975055247206605
      ],
      [
       116.34672901835185,
       39.975040454591
      ],
      [
       116.3468629784551,
       39.97501543939969
      ],
      [
       116.34699310641355,
       39.97498044255311
      ],
      [
       116.3471181489746,
       39.974935801104394
      ],
      [
       116.34723690186921,
       39.97488194499291
      ],
      [
       116.34734822141122,
       39.97481939290301
      ],
      [
       116.34745103551299,
       39.97474874726794
      ],
      [
       116.34754435401085,
       39.97467068846734
      ],
      [
       116.3476272782012,
       39.97458596827383
      ],
      [
       116.3476990094954,
       39.974495402612135
      ],
      [
       116.34775885710992,
       39.974399863700455
      ],
      [
       116.3478062447179,
       39.97430027164957
      ],
      [
       116.34784071599807,
       39.97419758560111
      ],
      [
       116.34786193902748,
       39.974092794489806
      ],
      [
       116.34786970947604,
       39.97398690751902
      ],
      [
       116.34786395257207,
       39.97388094444134
      ]
     ]
    ]
   },
   "id": "PS-ORIGIN"
  },
  {
   "type": "Feature",
   "properties": {
    "id": "PS-ORIGIN-2",
    "layer": "PUBLIC_SPACE",
    "space_type": "plaza",
    "name_zh": "原点协议亭",
    "source_type": "agent_generated_design",
    "confidence": "low",
    "geometry_role": "provisional_constraint",
    "area_sqm": 45166.3
   },
   "geometry": {
    "type": "Polygon",
    "coordinates": [
     [
      [
       116.3483048568667,
       39.97826196743906
      ],
      [
       116.34828562630177,
       39.978156948872346
      ],
      [
       116.34825310829407,
       39.97805388610343
      ],
      [
       116.34820761606558,
       39.97795377167267
      ],
      [
       116.34814958778063,
       39.97785756972236
      ],
      [
       116.34807958232412,
       39.97776620671207
      ],
      [
       116.3479982739177,
       39.97768056249699
      ],
      [
       116.34790644562541,
       39.97760146185529
      ],
      [
       116.34780498181154,
       39.97752966654581
      ],
      [
       116.34769485962359,
       39.97746586797296
      ],
      [
       116.34757713958172,
       39.977410680528905
      ],
      [
       116.34745295536625,
       39.97736463567756
      ],
      [
       116.34732350290072,
       39.97732817683712
      ],
      [
       116.34719002883577,
       39.97730165511046
      ],
      [
       116.34705381854533,
       39.977285325904354
      ],
      [
       116.34691618374963,
       39.977279346470276
      ],
      [
       116.34677844988501,
       39.97728377439029
      ],
      [
       116.34664194334157,
       39.977298567022565
      ],
      [
       116.3465079786917,
       39.97732358191204
      ],
      [
       116.34637784603247,
       39.97735857816212
      ],
      [
       116.34625279856321,
       39.97740321875414
      ],
      [
       116.34613404051858,
       39.977457073792664
      ],
      [
       116.34602271557266,
       39.97751962464471
      ],
      [
       116.34591989582586,
       39.97759026893387
      ],
      [
       116.34582657148091,
       39.97766832634053
      ],
      [
       116.34574364130684,
       39.977753045152944
      ],
      [
       116.34567190398315,
       39.97784360950556
      ],
      [
       116.34561205040754,
       39.97793914723548
      ],
      [
       116.34556465704105,
       39.978038738281064
      ],
      [
       116.34553018035503,
       39.9781414235418
      ],
      [
       116.34550895243312,
       39.97824621411442
      ],
      [
       116.34550117777111,
       39.97835210081616
      ],
      [
       116.34550693130527,
       39.978458063903346
      ],
      [
       116.3455261576882,
       39.978563082892045
      ],
      [
       116.34555867181955,
       39.978666146385926
      ],
      [
       116.34560416062627,
       39.978766261816766
      ],
      [
       116.34566218607559,
       39.978862465003836
      ],
      [
       116.34573218939153,
       39.978953829440044
      ],
      [
       116.34581349643474,
       39.97903947521538
      ],
      [
       116.34590532419354,
       39.979118577491754
      ],
      [
       116.34600678832412,
       39.97919037444746
      ],
      [
       116.3461169116669,
       39.979254174614866
      ],
      [
       116.3462346336572,
       39.979309363540516
      ],
      [
       116.34635882053992,
       39.97935540970354
      ],
      [
       116.34648827628905,
       39.97939186963535
      ],
      [
       116.34662175412767,
       39.979418392191135
      ],
      [
       116.34675796853688,
       39.979434721932265
      ],
      [
       116.34689560763816,
       39.97944070158668
      ],
      [
       116.34703334582971,
       39.97943627356387
      ],
      [
       116.34716985655517,
       39.9794214805096
      ],
      [
       116.34730382508137,
       39.979396464895146
      ],
      [
       116.34743396116234,
       39.979361467645
      ],
      [
       116.34755901146725,
       39.97931682581622
      ],
      [
       116.34767777165246,
       39.979262969351794
      ],
      [
       116.3477890979616,
       39.97920041693948
      ],
      [
       116.34789191824188,
       39.97912977101566
      ],
      [
       116.34798524227008,
       39.97905171196274
      ],
      [
       116.3480681712894,
       39.978966991555794
      ],
      [
       116.3481399066646,
       39.97887642572158
      ],
      [
       116.34819975757296,
       39.97878088667996
      ],
      [
       116.34824714765585,
       39.978681294543
      ],
      [
       116.34828162056822,
       39.978578608453155
      ],
      [
       116.34830284437136,
       39.97847381734552
      ],
      [
       116.34831061472778,
       39.97836793042345
      ],
      [
       116.3483048568667,
       39.97826196743906
      ]
     ]
    ]
   },
   "id": "PS-ORIGIN-2"
  },
  {
   "type": "Feature",
   "properties": {
    "id": "PS-ZHONG",
    "layer": "PUBLIC_SPACE",
    "space_type": "plaza",
    "name_zh": "众智园开放广场",
    "source_type": "agent_generated_design",
    "confidence": "low",
    "geometry_role": "provisional_constraint",
    "area_sqm": 45166.3
   },
   "geometry": {
    "type": "Polygon",
    "coordinates": [
     [
      [
       116.34753075097534,
       40.008907323130764
      ],
      [
       116.3475115136377,
       40.00880230492948
      ],
      [
       116.34747898288424,
       40.00869924237906
      ],
      [
       116.34743347205982,
       40.00859912801774
      ],
      [
       116.3473754195079,
       40.00850292598716
      ],
      [
       116.34730538434721,
       40.008411562747604
      ],
      [
       116.34722404108544,
       40.00832591815648
      ],
      [
       116.34713217312238,
       40.00824681699551
      ],
      [
       116.34703066520436,
       40.00817502102856
      ],
      [
       116.34692049490364,
       40.00811122166633
      ],
      [
       116.34680272320372,
       40.00805603330854
      ],
      [
       116.34667848428236,
       40.00800998742791
      ],
      [
       116.34654897458984,
       40.00797352745252
      ],
      [
       116.34641544132795,
       40.00794700449615
      ],
      [
       116.3462791704406,
       40.00793067397739
      ],
      [
       116.34614147423146,
       40.00792469316039
      ],
      [
       116.34600367872827,
       40.00792911964047
      ],
      [
       116.34586711091463,
       40.00794391078971
      ],
      [
       116.34573308595294,
       40.00796892416734
      ],
      [
       116.34560289452098,
       40.00800391889131
      ],
      [
       116.34547779038401,
       40.0080485579577
      ],
      [
       116.34535897832242,
       40.00810241148573
      ],
      [
       116.34524760253038,
       40.00816496085705
      ],
      [
       116.34514473559803,
       40.0082356037095
      ],
      [
       116.34505136818245,
       40.008313659737354
      ],
      [
       116.34496839946743,
       40.00839837724212
      ],
      [
       116.34489662850375,
       40.008488940370924
      ],
      [
       116.34483674651311,
       40.008584476972665
      ],
      [
       116.34478933023021,
       40.008684066996544
      ],
      [
       116.34475483634722,
       40.00878675135195
      ],
      [
       116.34473359711345,
       40.00889154114434
      ],
      [
       116.34472581713374,
       40.00899742719845
      ],
      [
       116.34473157139563,
       40.009103389776875
      ],
      [
       116.34475080454483,
       40.009208408400575
      ],
      [
       116.34478333141593,
       40.00931147167673
      ],
      [
       116.3448288388133,
       40.00941158703918
      ],
      [
       116.34488688852515,
       40.00950779030785
      ],
      [
       116.34495692154192,
       40.00959915497487
      ],
      [
       116.34503826343828,
       40.00968480112796
      ],
      [
       116.34513013086695,
       40.00976390392537
      ],
      [
       116.34523163910204,
       40.00983570154035
      ],
      [
       116.34534181055926,
       40.00989950249888
      ],
      [
       116.34545958421054,
       40.00995469233988
      ],
      [
       116.34558382580316,
       40.01000073953365
      ],
      [
       116.34571333878422,
       40.01003720060163
      ],
      [
       116.34584687582553,
       40.01006372438806
      ],
      [
       116.34598315083794,
       40.010080055442444
      ],
      [
       116.34612085135925,
       40.01008603648006
      ],
      [
       116.34625865119601,
       40.01008160989711
      ],
      [
       116.34639522319809,
       40.01006681832543
      ],
      [
       116.34652925204209,
       40.01004180422208
      ],
      [
       116.34665944690113,
       40.01000680849695
      ],
      [
       116.34678455387815,
       40.00996216819249
      ],
      [
       116.34690336808367,
       40.009908313237
      ],
      [
       116.34701474524113,
       40.009845762303726
      ],
      [
       116.34711761270789,
       40.00977511781484
      ],
      [
       116.34721097980636,
       40.009697060138954
      ],
      [
       116.3472939473649,
       40.009612341037865
      ],
      [
       116.34736571637723,
       40.00952177642585
      ],
      [
       116.3474255956966,
       40.00942623851098
      ],
      [
       116.34747300869093,
       40.00932664739451
      ],
      [
       116.34750749879454,
       40.00922396220905
      ],
      [
       116.34752873390326,
       40.00911917188104
      ],
      [
       116.3475365095708,
       40.00901328560631
      ],
      [
       116.34753075097534,
       40.008907323130764
      ]
     ]
    ]
   },
   "id": "PS-ZHONG"
  },
  {
   "type": "Feature",
   "properties": {
    "id": "PS-ZHONG-2",
    "layer": "PUBLIC_SPACE",
    "space_type": "plaza",
    "name_zh": "可信算力广场",
    "source_type": "agent_generated_design",
    "confidence": "low",
    "geometry_role": "provisional_constraint",
    "area_sqm": 45166.3
   },
   "geometry": {
    "type": "Polygon",
    "coordinates": [
     [
      [
       116.34687040816611,
       40.01065501060682
      ],
      [
       116.34685117138771,
       40.01054999233167
      ],
      [
       116.34681864083595,
       40.01044692962816
      ],
      [
       116.34677312985373,
       40.01034681503604
      ],
      [
       116.34671507678607,
       40.01025061269912
      ],
      [
       116.34664504075663,
       40.01015924908066
      ],
      [
       116.34656369628149,
       40.01007360404172
      ],
      [
       116.34647182677215,
       40.00999450236835
      ],
      [
       116.34637031698985,
       40.00992270582933
      ],
      [
       116.34626014452469,
       40.00985890584085
      ],
      [
       116.34614237038114,
       40.009803716808676
      ],
      [
       116.34601812876048,
       40.00975767021202
      ],
      [
       116.34588861613892,
       40.00972120948586
      ],
      [
       116.34575507974648,
       40.00969468575121
      ],
      [
       116.34561880555722,
       40.00967835443415
      ],
      [
       116.34548110590663,
       40.0096723728065
      ],
      [
       116.34534330685554,
       40.0096767984714
      ],
      [
       116.34520673542175,
       40.0096915888088
      ],
      [
       116.34507270680255,
       40.009716601385705
      ],
      [
       116.34494251171083,
       40.009751595327806
      ],
      [
       116.34481740394716,
       40.0097962336387
      ],
      [
       116.34469858832686,
       40.00985008644491
      ],
      [
       116.34458720907836,
       40.009912635134995
      ],
      [
       116.34448433882505,
       40.00998327735339
      ],
      [
       116.34439096825605,
       40.010061332800454
      ],
      [
       116.34430799658551,
       40.0101460497833
      ],
      [
       116.34423622289263,
       40.01023661245411
      ],
      [
       116.34417633842538,
       40.01033214866613
      ],
      [
       116.34412891994242,
       40.0104317383724
      ],
      [
       116.34409442415696,
       40.01053442248529
      ],
      [
       116.34407318333675,
       40.01063921211263
      ],
      [
       116.34406540210189,
       40.01074509808076
      ],
      [
       116.34407115545199,
       40.010851060653096
      ],
      [
       116.34409038804156,
       40.01095607935065
      ],
      [
       116.34412291471061,
       40.01105914277987
      ],
      [
       116.34416842226538,
       40.01115925837315
      ],
      [
       116.34422647249268,
       40.0112554619482
      ],
      [
       116.3442965063779,
       40.01134682699416
      ],
      [
       116.3443778494874,
       40.011432473595136
      ],
      [
       116.3444697184622,
       40.01151157690504
      ],
      [
       116.34457122856153,
       40.01158337509222
      ],
      [
       116.34468140218313,
       40.011647176677116
      ],
      [
       116.34479917827811,
       40.01170236719261
      ],
      [
       116.34492342257022,
       40.01174841510252
      ],
      [
       116.3450529384805,
       40.011784876921375
      ],
      [
       116.34518647865262,
       40.01181140148619
      ],
      [
       116.34532275696729,
       40.011827733338976
      ],
      [
       116.34546046093041,
       40.0118337151873
      ],
      [
       116.34559826431543,
       40.01182928941956
      ],
      [
       116.34573483993805,
       40.011814498659774
      ],
      [
       116.34586887244001,
       40.01178948535715
      ],
      [
       116.34599907095914,
       40.011754490413885
      ],
      [
       116.3461241815632,
       40.01170985086486
      ],
      [
       116.34624299932773,
       40.01165599663114
      ],
      [
       116.34635437994183,
       40.01159344637902
      ],
      [
       116.34645725072969,
       40.0115228025241
      ],
      [
       116.34655062098169,
       40.01144474542889
      ],
      [
       116.34663359149575,
       40.01136002684961
      ],
      [
       116.34670536323722,
       40.01126946269549
      ],
      [
       116.34676524503303,
       40.0111739251702
      ],
      [
       116.34681266022726,
       40.011074334371244
      ],
      [
       116.346847152233,
       40.010971649428186
      ],
      [
       116.34686838892785,
       40.01086685926512
      ],
      [
       116.34687616585018,
       40.0107609730763
      ],
      [
       116.34687040816611,
       40.01065501060682
      ]
     ]
    ]
   },
   "id": "PS-ZHONG-2"
  },
  {
   "type": "Feature",
   "properties": {
    "id": "PS-DAZ",
    "layer": "PUBLIC_SPACE",
    "space_type": "plaza",
    "name_zh": "大钟寺协议广场",
    "source_type": "agent_generated_design",
    "confidence": "low",
    "geometry_role": "provisional_constraint",
    "area_sqm": 45166.3
   },
   "geometry": {
    "type": "Polygon",
    "coordinates": [
     [
      [
       116.34806359378622,
       39.95286501420999
      ],
      [
       116.34804437017847,
       39.952759995204865
      ],
      [
       116.34801186404728,
       39.952656932017895
      ],
      [
       116.34796638850021,
       39.95255681719347
      ],
      [
       116.34790838154085,
       39.952460614877694
      ],
      [
       116.34783840184868,
       39.95236925153366
      ],
      [
       116.34775712339717,
       39.9522836070198
      ],
      [
       116.34766532896187,
       39.952204506117155
      ],
      [
       116.34756390258102,
       39.95213271058714
      ],
      [
       116.34745382104155,
       39.952068911836285
      ],
      [
       116.34733614447228,
       39.95201372425851
      ],
      [
       116.34721200613487,
       39.951967679319004
      ],
      [
       116.347082601511,
       39.95193122043686
      ],
      [
       116.34694917679072,
       39.951904698715346
      ],
      [
       116.34681301687277,
       39.951888369561225
      ],
      [
       116.34667543299237,
       39.95188239022544
      ],
      [
       116.34653775009556,
       39.951886818289125
      ],
      [
       116.34640129408167,
       39.95190161110906
      ],
      [
       116.34626737903663,
       39.951926626228406
      ],
      [
       116.34613729457972,
       39.95196162274829
      ],
      [
       116.34601229344622,
       39.95200626364749
      ],
      [
       116.34589357942455,
       39.95206011902752
      ],
      [
       116.34578229576488,
       39.95212267025217
      ],
      [
       116.34567951417004,
       39.952193314941375
      ],
      [
       116.34558622447537,
       39.95227137277166
      ],
      [
       116.34550332511611,
       39.95235609202718
      ],
      [
       116.34543161447506,
       39.952446656838084
      ],
      [
       116.34537178319287,
       39.95254219503708
      ],
      [
       116.34532440751588,
       39.95264178655794
      ],
      [
       116.34528994374492,
       39.9527444722956
      ],
      [
       116.34526872383927,
       39.95284926334216
      ],
      [
       116.34526095221743,
       39.952955150510306
      ],
      [
       116.3452667037863,
       39.95306111405187
      ],
      [
       116.34528592321732,
       39.95316613347853
      ],
      [
       116.34531842547702,
       39.953269197389766
      ],
      [
       116.34536389760665,
       39.95336931321332
      ],
      [
       116.34542190173394,
       39.95346551676471
      ],
      [
       116.3454918792882,
       39.95355688153335
      ],
      [
       116.34557315637815,
       39.95364252760606
      ],
      [
       116.34566495028058,
       39.95372163014188
      ],
      [
       116.34576637697768,
       39.95379342731665
      ],
      [
       116.3458764596704,
       39.95385722766063
      ],
      [
       116.34599413818562,
       39.95391241671869
      ],
      [
       116.34611827918685,
       39.95395846296872
      ],
      [
       116.3462476870901,
       39.95399492294129
      ],
      [
       116.34638111557925,
       39.95402144549123
      ],
      [
       116.34651727961071,
       39.95403777517995
      ],
      [
       116.34665486779126,
       39.95404375473592
      ],
      [
       116.34679255500951,
       39.954039326569585
      ],
      [
       116.34692901520009,
       39.95402453332808
      ],
      [
       116.34706293411662,
       39.953999517484476
      ],
      [
       116.34719302199095,
       39.95396451996546
      ],
      [
       116.34731802595658,
       39.95391987783065
      ],
      [
       116.34743674211613,
       39.95386602102602
      ],
      [
       116.34754802713738,
       39.95380346824253
      ],
      [
       116.34765080926508,
       39.95373282192015
      ],
      [
       116.34774409864347,
       39.95365476244508
      ],
      [
       116.34782699684946,
       39.95357004159645
      ],
      [
       116.34789870554461,
       39.953479475305265
      ],
      [
       116.34795853416297,
       39.953383935795735
      ],
      [
       116.34800590656062,
       39.95328434318445
      ],
      [
       116.3480403665627,
       39.95318165661837
      ],
      [
       116.34806158235482,
       39.95307686503722
      ],
      [
       116.34806934967654,
       39.95297097764889
      ],
      [
       116.34806359378622,
       39.95286501420999
      ]
     ]
    ]
   },
   "id": "PS-DAZ"
  },
  {
   "type": "Feature",
   "properties": {
    "id": "PS-SPINE-N",
    "layer": "PUBLIC_SPACE",
    "space_type": "plaza",
    "name_zh": "北门户创新广场",
    "source_type": "agent_generated_design",
    "confidence": "low",
    "geometry_role": "provisional_constraint",
    "area_sqm": 45166.3
   },
   "geometry": {
    "type": "Polygon",
    "coordinates": [
     [
      [
       116.34712549278053,
       40.0176620713517
      ],
      [
       116.34710625378882,
       40.01755705322651
      ],
      [
       116.34707371966827,
       40.01745399068902
      ],
      [
       116.3470282037962,
       40.017353876277355
      ],
      [
       116.34697014456468,
       40.0172576741336
      ],
      [
       116.34690010115675,
       40.01716631071916
      ],
      [
       116.34681874815963,
       40.01708066589311
      ],
      [
       116.34672686906681,
       40.017001564439454
      ],
      [
       116.34662534873188,
       40.01692976812482
      ],
      [
       116.34651516484656,
       40.01686596836326
      ],
      [
       116.34639737852528,
       40.016810779558355
      ],
      [
       116.34627312408658,
       40.016764733187124
      ],
      [
       116.34614359813013,
       40.016728272682336
      ],
      [
       116.34601004801435,
       40.016701749162884
      ],
      [
       116.3458737598454,
       40.01668541805278
      ],
      [
       116.34573604609344,
       40.016679436621864
      ],
      [
       116.34559823295508,
       40.01668386247136
      ],
      [
       116.34546164758372,
       40.01669865297944
      ],
      [
       116.34532760531084,
       40.01672366571149
      ],
      [
       116.3451973969809,
       40.016758659791684
      ],
      [
       116.34507227652188,
       40.0168032982223
      ],
      [
       116.34495344887131,
       40.016857151128704
      ],
      [
       116.34484205837353,
       40.01691969989853
      ],
      [
       116.34473917776029,
       40.01699034217541
      ],
      [
       116.34464579782039,
       40.017068397659166
      ],
      [
       116.34456281785828,
       40.017153114656594
      ],
      [
       116.344491037033,
       40.01724367731966
      ],
      [
       116.34443114666126,
       40.01733921350178
      ],
      [
       116.34438372355855,
       40.0174388031562
      ],
      [
       116.34434922448261,
       40.017541487195864
      ],
      [
       116.3443279817329,
       40.017646276729295
      ],
      [
       116.34432019994811,
       40.01775216258371
      ],
      [
       116.3443259541332,
       40.01785812502363
      ],
      [
       116.34434518893461,
       40.01796314357136
      ],
      [
       116.34437771917109,
       40.01806620683477
      ],
      [
       116.34442323161458,
       40.01816632224788
      ],
      [
       116.34448128800477,
       40.01826252563008
      ],
      [
       116.34455132926776,
       40.01835389047239
      ],
      [
       116.34463268089881,
       40.01843953686088
      ],
      [
       116.34472455945694,
       40.018518639951495
      ],
      [
       116.34482608010907,
       40.01859043791469
      ],
      [
       116.34493626515128,
       40.018654239273054
      ],
      [
       116.34505405342472,
       40.018709429561646
      ],
      [
       116.34517831053583,
       40.018755477246444
      ],
      [
       116.34530783978222,
       40.01879193884418
      ],
      [
       116.34544139367904,
       40.01881846319397
      ],
      [
       116.34557768597482,
       40.018834794839876
      ],
      [
       116.34571540404085,
       40.01884077649151
      ],
      [
       116.34585322151467,
       40.01883635053912
      ],
      [
       116.34598981107631,
       40.01882155960852
      ],
      [
       116.34612385723325,
       40.01879654615054
      ],
      [
       116.34625406899181,
       40.0187615510689
      ],
      [
       116.34637919229216,
       40.018716911399835
      ],
      [
       116.34649802208766,
       40.018663057065545
      ],
      [
       116.34660941395147,
       40.01860050673329
      ],
      [
       116.34671229509944,
       40.01852986281945
      ],
      [
       116.34680567472213,
       40.018451805687135
      ],
      [
       116.34688865352734,
       40.01836708709291
      ],
      [
       116.34696043240046,
       40.01827652294617
      ],
      [
       116.34702032009979,
       40.018180985450485
      ],
      [
       116.34706773991259,
       40.01808139470311
      ],
      [
       116.34710223520747,
       40.017978709833095
      ],
      [
       116.34712347383035,
       40.017873919763865
      ],
      [
       116.3471312513011,
       40.01776803368874
      ],
      [
       116.34712549278053,
       40.0176620713517
      ]
     ]
    ]
   },
   "id": "PS-SPINE-N"
  }
 ],
 "properties": {
  "crs": "EPSG:4326",
  "area_calculation_crs": "EPSG:4548",
  "official_boundary": false,
  "geometry_role": "provisional_constraint",
  "generated_by": "Yeche Hermes Agent (Youmu76)"
 }
}