{
 "type": "FeatureCollection",
 "features": [
  {
   "type": "Feature",
   "properties": {
    "id": "SITE-001",
    "layer": "SITE_BOUNDARY",
    "name": "总体设计范围（provisional）",
    "source_type": "agent_inferred_from_public_data",
    "confidence": "medium",
    "geometry_role": "provisional_constraint",
    "official_boundary": false,
    "boundary_precision": "provisional_rough",
    "area_sqm": 11412825.4,
    "official_announced_area_sqm": 11400000
   },
   "geometry": {
    "type": "Polygon",
    "coordinates": [
     [
      [
       116.3407,
       39.939
      ],
      [
       116.3553,
       39.939
      ],
      [
       116.3553,
       39.965
      ],
      [
       116.3533,
       39.99
      ],
      [
       116.3553,
       40.0265
      ],
      [
       116.3427,
       40.0265
      ],
      [
       116.3417,
       40.006
      ],
      [
       116.3397,
       39.975
      ],
      [
       116.3407,
       39.939
      ]
     ]
    ]
   },
   "id": "SITE-001"
  }
 ],
 "properties": {
  "crs": "EPSG:4326",
  "area_calculation_crs": "EPSG:4548",
  "source": "provisional_boundaries.geojson",
  "official_boundary": false,
  "geometry_role": "provisional_constraint",
  "generated_by": "Yeche Hermes Agent (Youmu76)"
 }
}