{
  "type": "FeatureCollection",
  "name": "provisional_land_use_with_event_role_candidates",
  "features": [
    {
      "type": "Feature",
      "id": "LU-001",
      "properties": {
        "id": "LU-001",
        "layer": "LAND_USE",
        "source_type": "agent_generated_design",
        "confidence": "medium",
        "geometry_role": "design_proposal",
        "land_use_code": "0802",
        "name_zh": "AI研发创新用地",
        "area_sqm_declared": 2674562.492,
        "note": "D/T/S are event-specific roles, not permanent land-use zones; E0 means no authorised site chain has been bound or measured.",
        "event_role_status": "candidate_unbound",
        "possible_event_roles": [
          "D",
          "T",
          "S"
        ],
        "evidence_level": "E0"
      },
      "geometry": {
        "type": "Polygon",
        "coordinates": [
          [
            [
              116.3407,
              39.939
            ],
            [
              116.3397,
              39.975
            ],
            [
              116.3417,
              40.006
            ],
            [
              116.3427,
              40.0265
            ],
            [
              116.344068,
              40.0265
            ],
            [
              116.344068,
              39.939
            ],
            [
              116.3407,
              39.939
            ]
          ]
        ]
      }
    },
    {
      "type": "Feature",
      "id": "LU-002",
      "properties": {
        "id": "LU-002",
        "layer": "LAND_USE",
        "source_type": "agent_generated_design",
        "confidence": "medium",
        "geometry_role": "design_proposal",
        "land_use_code": "1401",
        "name_zh": "公园绿地与开敞空间",
        "area_sqm_declared": 2589339.239,
        "note": "D/T/S are event-specific roles, not permanent land-use zones; E0 means no authorised site chain has been bound or measured.",
        "event_role_status": "candidate_unbound",
        "possible_event_roles": [
          "D",
          "T",
          "S"
        ],
        "evidence_level": "E0"
      },
      "geometry": {
        "type": "Polygon",
        "coordinates": [
          [
            [
              116.344068,
              39.939
            ],
            [
              116.344068,
              40.0265
            ],
            [
              116.347188,
              40.0265
            ],
            [
              116.347188,
              39.939
            ],
            [
              116.344068,
              39.939
            ]
          ]
        ]
      }
    },
    {
      "type": "Feature",
      "id": "LU-003",
      "properties": {
        "id": "LU-003",
        "layer": "LAND_USE",
        "source_type": "agent_generated_design",
        "confidence": "medium",
        "geometry_role": "design_proposal",
        "land_use_code": "09",
        "name_zh": "商业服务业用地（产业服务为概念叠加）",
        "name_en": "Commercial service land (industry-service concept overlay)",
        "area_sqm_declared": 3366138.181,
        "note": "D/T/S are event-specific roles, not permanent land-use zones; E0 means no authorised site chain has been bound or measured.",
        "event_role_status": "candidate_unbound",
        "possible_event_roles": [
          "D",
          "T",
          "S"
        ],
        "evidence_level": "E0"
      },
      "geometry": {
        "type": "Polygon",
        "coordinates": [
          [
            [
              116.347188,
              39.939
            ],
            [
              116.347188,
              40.0265
            ],
            [
              116.351244,
              40.0265
            ],
            [
              116.351244,
              39.939
            ],
            [
              116.347188,
              39.939
            ]
          ]
        ]
      }
    },
    {
      "type": "Feature",
      "id": "LU-004",
      "properties": {
        "id": "LU-004",
        "layer": "LAND_USE",
        "source_type": "agent_generated_design",
        "confidence": "medium",
        "geometry_role": "design_proposal",
        "land_use_code": "0702",
        "name_zh": "社区服务与配套用地",
        "area_sqm_declared": 2782792.823,
        "note": "D/T/S are event-specific roles, not permanent land-use zones; E0 means no authorised site chain has been bound or measured.",
        "event_role_status": "candidate_unbound",
        "possible_event_roles": [
          "D",
          "T",
          "S"
        ],
        "evidence_level": "E0"
      },
      "geometry": {
        "type": "Polygon",
        "coordinates": [
          [
            [
              116.3553,
              40.0265
            ],
            [
              116.3533,
              39.99
            ],
            [
              116.3553,
              39.965
            ],
            [
              116.3553,
              39.939
            ],
            [
              116.351244,
              39.939
            ],
            [
              116.351244,
              40.0265
            ],
            [
              116.3553,
              40.0265
            ]
          ]
        ]
      }
    }
  ]
}
