{
  "type": "FeatureCollection",
  "name": "building_footprints_design",
  "features": [
    {
      "type": "Feature",
      "id": "BLDG-0001",
      "properties": {
        "id": "BLDG-0001",
        "layer": "BUILDING_FOOTPRINT",
        "source_type": "agent_generated_design",
        "confidence": "low",
        "geometry_role": "design_proposal",
        "building_type": "mixed_use",
        "floors_above_ground": 6,
        "height_m": 24
      },
      "geometry": {
        "type": "Polygon",
        "coordinates": [
          [
            [
              116.34107694444445,
              39.94075
            ],
            [
              116.34176472222222,
              39.94075
            ],
            [
              116.34176472222222,
              39.939750000000004
            ],
            [
              116.34107694444445,
              39.939750000000004
            ],
            [
              116.34107694444445,
              39.94075
            ]
          ]
        ]
      }
    },
    {
      "type": "Feature",
      "id": "BLDG-0002",
      "properties": {
        "id": "BLDG-0002",
        "layer": "BUILDING_FOOTPRINT",
        "source_type": "agent_generated_design",
        "confidence": "low",
        "geometry_role": "design_proposal",
        "building_type": "mixed_use",
        "floors_above_ground": 6,
        "height_m": 24
      },
      "geometry": {
        "type": "Polygon",
        "coordinates": [
          [
            [
              116.34147814814816,
              39.94133333333333
            ],
            [
              116.34216592592593,
              39.94133333333333
            ],
            [
              116.34216592592593,
              39.940333333333335
            ],
            [
              116.34147814814816,
              39.940333333333335
            ],
            [
              116.34147814814816,
              39.94133333333333
            ]
          ]
        ]
      }
    },
    {
      "type": "Feature",
      "id": "BLDG-0003",
      "properties": {
        "id": "BLDG-0003",
        "layer": "BUILDING_FOOTPRINT",
        "source_type": "agent_generated_design",
        "confidence": "low",
        "geometry_role": "design_proposal",
        "building_type": "mixed_use",
        "floors_above_ground": 6,
        "height_m": 24
      },
      "geometry": {
        "type": "Polygon",
        "coordinates": [
          [
            [
              116.34187935185186,
              39.941916666666664
            ],
            [
              116.34256712962963,
              39.941916666666664
            ],
            [
              116.34256712962963,
              39.940916666666666
            ],
            [
              116.34187935185186,
              39.940916666666666
            ],
            [
              116.34187935185186,
              39.941916666666664
            ]
          ]
        ]
      }
    },
    {
      "type": "Feature",
      "id": "BLDG-0004",
      "properties": {
        "id": "BLDG-0004",
        "layer": "BUILDING_FOOTPRINT",
        "source_type": "agent_generated_design",
        "confidence": "low",
        "geometry_role": "design_proposal",
        "building_type": "mixed_use",
        "floors_above_ground": 6,
        "height_m": 24
      },
      "geometry": {
        "type": "Polygon",
        "coordinates": [
          [
            [
              116.34093905555555,
              39.946044
            ],
            [
              116.34165927777778,
              39.946044
            ],
            [
              116.34165927777778,
              39.944876
            ],
            [
              116.34093905555555,
              39.944876
            ],
            [
              116.34093905555555,
              39.946044
            ]
          ]
        ]
      }
    },
    {
      "type": "Feature",
      "id": "BLDG-0005",
      "properties": {
        "id": "BLDG-0005",
        "layer": "BUILDING_FOOTPRINT",
        "source_type": "agent_generated_design",
        "confidence": "low",
        "geometry_role": "design_proposal",
        "building_type": "mixed_use",
        "floors_above_ground": 6,
        "height_m": 24
      },
      "geometry": {
        "type": "Polygon",
        "coordinates": [
          [
            [
              116.34135918518518,
              39.94672533333333
            ],
            [
              116.34207940740741,
              39.94672533333333
            ],
            [
              116.34207940740741,
              39.94555733333333
            ],
            [
              116.34135918518518,
              39.94555733333333
            ],
            [
              116.34135918518518,
              39.94672533333333
            ]
          ]
        ]
      }
    },
    {
      "type": "Feature",
      "id": "BLDG-0006",
      "properties": {
        "id": "BLDG-0006",
        "layer": "BUILDING_FOOTPRINT",
        "source_type": "agent_generated_design",
        "confidence": "low",
        "geometry_role": "design_proposal",
        "building_type": "mixed_use",
        "floors_above_ground": 6,
        "height_m": 24
      },
      "geometry": {
        "type": "Polygon",
        "coordinates": [
          [
            [
              116.34177931481481,
              39.947406666666666
            ],
            [
              116.34249953703704,
              39.947406666666666
            ],
            [
              116.34249953703704,
              39.946238666666666
            ],
            [
              116.34177931481481,
              39.946238666666666
            ],
            [
              116.34177931481481,
              39.947406666666666
            ]
          ]
        ]
      }
    },
    {
      "type": "Feature",
      "id": "BLDG-0007",
      "properties": {
        "id": "BLDG-0007",
        "layer": "BUILDING_FOOTPRINT",
        "source_type": "agent_generated_design",
        "confidence": "low",
        "geometry_role": "design_proposal",
        "building_type": "mixed_use",
        "floors_above_ground": 6,
        "height_m": 24
      },
      "geometry": {
        "type": "Polygon",
        "coordinates": [
          [
            [
              116.34074638888889,
              39.952696
            ],
            [
              116.34151194444445,
              39.952696
            ],
            [
              116.34151194444445,
              39.951064
            ],
            [
              116.34074638888889,
              39.951064
            ],
            [
              116.34074638888889,
              39.952696
            ]
          ]
        ]
      }
    },
    {
      "type": "Feature",
      "id": "BLDG-0008",
      "properties": {
        "id": "BLDG-0008",
        "layer": "BUILDING_FOOTPRINT",
        "source_type": "agent_generated_design",
        "confidence": "low",
        "geometry_role": "design_proposal",
        "building_type": "mixed_use",
        "floors_above_ground": 6,
        "height_m": 24
      },
      "geometry": {
        "type": "Polygon",
        "coordinates": [
          [
            [
              116.34119296296296,
              39.953648
            ],
            [
              116.34195851851852,
              39.953648
            ],
            [
              116.34195851851852,
              39.952016
            ],
            [
              116.34119296296296,
              39.952016
            ],
            [
              116.34119296296296,
              39.953648
            ]
          ]
        ]
      }
    },
    {
      "type": "Feature",
      "id": "BLDG-0009",
      "properties": {
        "id": "BLDG-0009",
        "layer": "BUILDING_FOOTPRINT",
        "source_type": "agent_generated_design",
        "confidence": "low",
        "geometry_role": "design_proposal",
        "building_type": "mixed_use",
        "floors_above_ground": 6,
        "height_m": 24
      },
      "geometry": {
        "type": "Polygon",
        "coordinates": [
          [
            [
              116.34163953703704,
              39.9546
            ],
            [
              116.3424050925926,
              39.9546
            ],
            [
              116.3424050925926,
              39.952968
            ],
            [
              116.34163953703704,
              39.952968
            ],
            [
              116.34163953703704,
              39.9546
            ]
          ]
        ]
      }
    },
    {
      "type": "Feature",
      "id": "BLDG-0010",
      "properties": {
        "id": "BLDG-0010",
        "layer": "BUILDING_FOOTPRINT",
        "source_type": "agent_generated_design",
        "confidence": "low",
        "geometry_role": "design_proposal",
        "building_type": "mixed_use",
        "floors_above_ground": 6,
        "height_m": 24
      },
      "geometry": {
        "type": "Polygon",
        "coordinates": [
          [
            [
              116.3405811111111,
              39.96045
            ],
            [
              116.34138555555555,
              39.96045
            ],
            [
              116.34138555555555,
              39.95905
            ],
            [
              116.3405811111111,
              39.95905
            ],
            [
              116.3405811111111,
              39.96045
            ]
          ]
        ]
      }
    },
    {
      "type": "Feature",
      "id": "BLDG-0011",
      "properties": {
        "id": "BLDG-0011",
        "layer": "BUILDING_FOOTPRINT",
        "source_type": "agent_generated_design",
        "confidence": "low",
        "geometry_role": "design_proposal",
        "building_type": "mixed_use",
        "floors_above_ground": 6,
        "height_m": 24
      },
      "geometry": {
        "type": "Polygon",
        "coordinates": [
          [
            [
              116.34105037037037,
              39.96126666666667
            ],
            [
              116.34185481481481,
              39.96126666666667
            ],
            [
              116.34185481481481,
              39.95986666666666
            ],
            [
              116.34105037037037,
              39.95986666666666
            ],
            [
              116.34105037037037,
              39.96126666666667
            ]
          ]
        ]
      }
    },
    {
      "type": "Feature",
      "id": "BLDG-0012",
      "properties": {
        "id": "BLDG-0012",
        "layer": "BUILDING_FOOTPRINT",
        "source_type": "agent_generated_design",
        "confidence": "low",
        "geometry_role": "design_proposal",
        "building_type": "mixed_use",
        "floors_above_ground": 6,
        "height_m": 24
      },
      "geometry": {
        "type": "Polygon",
        "coordinates": [
          [
            [
              116.34151962962963,
              39.96208333333334
            ],
            [
              116.34232407407407,
              39.96208333333334
            ],
            [
              116.34232407407407,
              39.960683333333336
            ],
            [
              116.34151962962963,
              39.960683333333336
            ],
            [
              116.34151962962963,
              39.96208333333334
            ]
          ]
        ]
      }
    },
    {
      "type": "Feature",
      "id": "BLDG-0013",
      "properties": {
        "id": "BLDG-0013",
        "layer": "BUILDING_FOOTPRINT",
        "source_type": "agent_generated_design",
        "confidence": "low",
        "geometry_role": "design_proposal",
        "building_type": "mixed_use",
        "floors_above_ground": 6,
        "height_m": 24
      },
      "geometry": {
        "type": "Polygon",
        "coordinates": [
          [
            [
              116.340345,
              39.968500000000006
            ],
            [
              116.341205,
              39.968500000000006
            ],
            [
              116.341205,
              39.9665
            ],
            [
              116.340345,
              39.9665
            ],
            [
              116.340345,
              39.968500000000006
            ]
          ]
        ]
      }
    },
    {
      "type": "Feature",
      "id": "BLDG-0014",
      "properties": {
        "id": "BLDG-0014",
        "layer": "BUILDING_FOOTPRINT",
        "source_type": "agent_generated_design",
        "confidence": "low",
        "geometry_role": "design_proposal",
        "building_type": "mixed_use",
        "floors_above_ground": 6,
        "height_m": 24
      },
      "geometry": {
        "type": "Polygon",
        "coordinates": [
          [
            [
              116.34084666666666,
              39.96966666666667
            ],
            [
              116.34170666666667,
              39.96966666666667
            ],
            [
              116.34170666666667,
              39.967666666666666
            ],
            [
              116.34084666666666,
              39.967666666666666
            ],
            [
              116.34084666666666,
              39.96966666666667
            ]
          ]
        ]
      }
    },
    {
      "type": "Feature",
      "id": "BLDG-0015",
      "properties": {
        "id": "BLDG-0015",
        "layer": "BUILDING_FOOTPRINT",
        "source_type": "agent_generated_design",
        "confidence": "low",
        "geometry_role": "design_proposal",
        "building_type": "mixed_use",
        "floors_above_ground": 6,
        "height_m": 24
      },
      "geometry": {
        "type": "Polygon",
        "coordinates": [
          [
            [
              116.34134833333333,
              39.97083333333334
            ],
            [
              116.34220833333333,
              39.97083333333334
            ],
            [
              116.34220833333333,
              39.968833333333336
            ],
            [
              116.34134833333333,
              39.968833333333336
            ],
            [
              116.34134833333333,
              39.97083333333334
            ]
          ]
        ]
      }
    },
    {
      "type": "Feature",
      "id": "BLDG-0016",
      "properties": {
        "id": "BLDG-0016",
        "layer": "BUILDING_FOOTPRINT",
        "source_type": "agent_generated_design",
        "confidence": "low",
        "geometry_role": "design_proposal",
        "building_type": "mixed_use",
        "floors_above_ground": 6,
        "height_m": 24
      },
      "geometry": {
        "type": "Polygon",
        "coordinates": [
          [
            [
              116.340345,
              39.977975
            ],
            [
              116.341205,
              39.977975
            ],
            [
              116.341205,
              39.976275
            ],
            [
              116.340345,
              39.976275
            ],
            [
              116.340345,
              39.977975
            ]
          ]
        ]
      }
    },
    {
      "type": "Feature",
      "id": "BLDG-0017",
      "properties": {
        "id": "BLDG-0017",
        "layer": "BUILDING_FOOTPRINT",
        "source_type": "agent_generated_design",
        "confidence": "low",
        "geometry_role": "design_proposal",
        "building_type": "mixed_use",
        "floors_above_ground": 6,
        "height_m": 24
      },
      "geometry": {
        "type": "Polygon",
        "coordinates": [
          [
            [
              116.34084666666666,
              39.978966666666665
            ],
            [
              116.34170666666667,
              39.978966666666665
            ],
            [
              116.34170666666667,
              39.977266666666665
            ],
            [
              116.34084666666666,
              39.977266666666665
            ],
            [
              116.34084666666666,
              39.978966666666665
            ]
          ]
        ]
      }
    },
    {
      "type": "Feature",
      "id": "BLDG-0018",
      "properties": {
        "id": "BLDG-0018",
        "layer": "BUILDING_FOOTPRINT",
        "source_type": "agent_generated_design",
        "confidence": "low",
        "geometry_role": "design_proposal",
        "building_type": "mixed_use",
        "floors_above_ground": 6,
        "height_m": 24
      },
      "geometry": {
        "type": "Polygon",
        "coordinates": [
          [
            [
              116.34134833333333,
              39.979958333333336
            ],
            [
              116.34220833333333,
              39.979958333333336
            ],
            [
              116.34220833333333,
              39.978258333333336
            ],
            [
              116.34134833333333,
              39.978258333333336
            ],
            [
              116.34134833333333,
              39.979958333333336
            ]
          ]
        ]
      }
    },
    {
      "type": "Feature",
      "id": "BLDG-0019",
      "properties": {
        "id": "BLDG-0019",
        "layer": "BUILDING_FOOTPRINT",
        "source_type": "agent_generated_design",
        "confidence": "low",
        "geometry_role": "design_proposal",
        "building_type": "mixed_use",
        "floors_above_ground": 6,
        "height_m": 24
      },
      "geometry": {
        "type": "Polygon",
        "coordinates": [
          [
            [
              116.34081112903225,
              39.987
            ],
            [
              116.34156145161289,
              39.987
            ],
            [
              116.34156145161289,
              39.985
            ],
            [
              116.34081112903225,
              39.985
            ],
            [
              116.34081112903225,
              39.987
            ]
          ]
        ]
      }
    },
    {
      "type": "Feature",
      "id": "BLDG-0020",
      "properties": {
        "id": "BLDG-0020",
        "layer": "BUILDING_FOOTPRINT",
        "source_type": "agent_generated_design",
        "confidence": "low",
        "geometry_role": "design_proposal",
        "building_type": "mixed_use",
        "floors_above_ground": 6,
        "height_m": 24
      },
      "geometry": {
        "type": "Polygon",
        "coordinates": [
          [
            [
              116.34124881720429,
              39.988166666666665
            ],
            [
              116.34199913978493,
              39.988166666666665
            ],
            [
              116.34199913978493,
              39.98616666666666
            ],
            [
              116.34124881720429,
              39.98616666666666
            ],
            [
              116.34124881720429,
              39.988166666666665
            ]
          ]
        ]
      }
    },
    {
      "type": "Feature",
      "id": "BLDG-0021",
      "properties": {
        "id": "BLDG-0021",
        "layer": "BUILDING_FOOTPRINT",
        "source_type": "agent_generated_design",
        "confidence": "low",
        "geometry_role": "design_proposal",
        "building_type": "mixed_use",
        "floors_above_ground": 6,
        "height_m": 24
      },
      "geometry": {
        "type": "Polygon",
        "coordinates": [
          [
            [
              116.34168650537633,
              39.989333333333335
            ],
            [
              116.34243682795697,
              39.989333333333335
            ],
            [
              116.34243682795697,
              39.98733333333333
            ],
            [
              116.34168650537633,
              39.98733333333333
            ],
            [
              116.34168650537633,
              39.989333333333335
            ]
          ]
        ]
      }
    },
    {
      "type": "Feature",
      "id": "BLDG-0022",
      "properties": {
        "id": "BLDG-0022",
        "layer": "BUILDING_FOOTPRINT",
        "source_type": "agent_generated_design",
        "confidence": "low",
        "geometry_role": "design_proposal",
        "building_type": "mixed_use",
        "floors_above_ground": 6,
        "height_m": 24
      },
      "geometry": {
        "type": "Polygon",
        "coordinates": [
          [
            [
              116.34135951612903,
              39.99787499999999
            ],
            [
              116.34198080645162,
              39.99787499999999
            ],
            [
              116.34198080645162,
              39.995374999999996
            ],
            [
              116.34135951612903,
              39.995374999999996
            ],
            [
              116.34135951612903,
              39.99787499999999
            ]
          ]
        ]
      }
    },
    {
      "type": "Feature",
      "id": "BLDG-0023",
      "properties": {
        "id": "BLDG-0023",
        "layer": "BUILDING_FOOTPRINT",
        "source_type": "agent_generated_design",
        "confidence": "low",
        "geometry_role": "design_proposal",
        "building_type": "mixed_use",
        "floors_above_ground": 6,
        "height_m": 24
      },
      "geometry": {
        "type": "Polygon",
        "coordinates": [
          [
            [
              116.34172193548387,
              39.99933333333333
            ],
            [
              116.34234322580646,
              39.99933333333333
            ],
            [
              116.34234322580646,
              39.996833333333335
            ],
            [
              116.34172193548387,
              39.996833333333335
            ],
            [
              116.34172193548387,
              39.99933333333333
            ]
          ]
        ]
      }
    },
    {
      "type": "Feature",
      "id": "BLDG-0024",
      "properties": {
        "id": "BLDG-0024",
        "layer": "BUILDING_FOOTPRINT",
        "source_type": "agent_generated_design",
        "confidence": "low",
        "geometry_role": "design_proposal",
        "building_type": "mixed_use",
        "floors_above_ground": 6,
        "height_m": 24
      },
      "geometry": {
        "type": "Polygon",
        "coordinates": [
          [
            [
              116.3420843548387,
              40.000791666666665
            ],
            [
              116.34270564516129,
              40.000791666666665
            ],
            [
              116.34270564516129,
              39.99829166666667
            ],
            [
              116.3420843548387,
              39.99829166666667
            ],
            [
              116.3420843548387,
              40.000791666666665
            ]
          ]
        ]
      }
    },
    {
      "type": "Feature",
      "id": "BLDG-0025",
      "properties": {
        "id": "BLDG-0025",
        "layer": "BUILDING_FOOTPRINT",
        "source_type": "agent_generated_design",
        "confidence": "low",
        "geometry_role": "design_proposal",
        "building_type": "mixed_use",
        "floors_above_ground": 6,
        "height_m": 24
      },
      "geometry": {
        "type": "Polygon",
        "coordinates": [
          [
            [
              116.342045,
              40.006525
            ],
            [
              116.342505,
              40.006525
            ],
            [
              116.342505,
              40.006225
            ],
            [
              116.342045,
              40.006225
            ],
            [
              116.342045,
              40.006525
            ]
          ]
        ]
      }
    },
    {
      "type": "Feature",
      "id": "BLDG-0026",
      "properties": {
        "id": "BLDG-0026",
        "layer": "BUILDING_FOOTPRINT",
        "source_type": "agent_generated_design",
        "confidence": "low",
        "geometry_role": "design_proposal",
        "building_type": "mixed_use",
        "floors_above_ground": 6,
        "height_m": 24
      },
      "geometry": {
        "type": "Polygon",
        "coordinates": [
          [
            [
              116.34210719512195,
              40.009075
            ],
            [
              116.3425525609756,
              40.009075
            ],
            [
              116.3425525609756,
              40.008175
            ],
            [
              116.34210719512195,
              40.008175
            ],
            [
              116.34210719512195,
              40.009075
            ]
          ]
        ]
      }
    },
    {
      "type": "Feature",
      "id": "BLDG-0027",
      "properties": {
        "id": "BLDG-0027",
        "layer": "BUILDING_FOOTPRINT",
        "source_type": "agent_generated_design",
        "confidence": "low",
        "geometry_role": "design_proposal",
        "building_type": "mixed_use",
        "floors_above_ground": 6,
        "height_m": 24
      },
      "geometry": {
        "type": "Polygon",
        "coordinates": [
          [
            [
              116.34236699186992,
              40.0096
            ],
            [
              116.34281235772357,
              40.0096
            ],
            [
              116.34281235772357,
              40.0087
            ],
            [
              116.34236699186992,
              40.0087
            ],
            [
              116.34236699186992,
              40.0096
            ]
          ]
        ]
      }
    },
    {
      "type": "Feature",
      "id": "BLDG-0028",
      "properties": {
        "id": "BLDG-0028",
        "layer": "BUILDING_FOOTPRINT",
        "source_type": "agent_generated_design",
        "confidence": "low",
        "geometry_role": "design_proposal",
        "building_type": "mixed_use",
        "floors_above_ground": 6,
        "height_m": 24
      },
      "geometry": {
        "type": "Polygon",
        "coordinates": [
          [
            [
              116.34262678861789,
              40.010125
            ],
            [
              116.34307215447154,
              40.010125
            ],
            [
              116.34307215447154,
              40.009225
            ],
            [
              116.34262678861789,
              40.009225
            ],
            [
              116.34262678861789,
              40.010125
            ]
          ]
        ]
      }
    },
    {
      "type": "Feature",
      "id": "BLDG-0029",
      "properties": {
        "id": "BLDG-0029",
        "layer": "BUILDING_FOOTPRINT",
        "source_type": "agent_generated_design",
        "confidence": "low",
        "geometry_role": "design_proposal",
        "building_type": "mixed_use",
        "floors_above_ground": 6,
        "height_m": 24
      },
      "geometry": {
        "type": "Polygon",
        "coordinates": [
          [
            [
              116.34229378048781,
              40.014275
            ],
            [
              116.34269524390244,
              40.014275
            ],
            [
              116.34269524390244,
              40.012975
            ],
            [
              116.34229378048781,
              40.012975
            ],
            [
              116.34229378048781,
              40.014275
            ]
          ]
        ]
      }
    },
    {
      "type": "Feature",
      "id": "BLDG-0030",
      "properties": {
        "id": "BLDG-0030",
        "layer": "BUILDING_FOOTPRINT",
        "source_type": "agent_generated_design",
        "confidence": "low",
        "geometry_role": "design_proposal",
        "building_type": "mixed_use",
        "floors_above_ground": 6,
        "height_m": 24
      },
      "geometry": {
        "type": "Polygon",
        "coordinates": [
          [
            [
              116.34252796747967,
              40.015033333333335
            ],
            [
              116.3429294308943,
              40.015033333333335
            ],
            [
              116.3429294308943,
              40.013733333333334
            ],
            [
              116.34252796747967,
              40.013733333333334
            ],
            [
              116.34252796747967,
              40.015033333333335
            ]
          ]
        ]
      }
    },
    {
      "type": "Feature",
      "id": "BLDG-0031",
      "properties": {
        "id": "BLDG-0031",
        "layer": "BUILDING_FOOTPRINT",
        "source_type": "agent_generated_design",
        "confidence": "low",
        "geometry_role": "design_proposal",
        "building_type": "mixed_use",
        "floors_above_ground": 6,
        "height_m": 24
      },
      "geometry": {
        "type": "Polygon",
        "coordinates": [
          [
            [
              116.34276215447154,
              40.01579166666667
            ],
            [
              116.34316361788618,
              40.01579166666667
            ],
            [
              116.34316361788618,
              40.01449166666667
            ],
            [
              116.34276215447154,
              40.01449166666667
            ],
            [
              116.34276215447154,
              40.01579166666667
            ]
          ]
        ]
      }
    },
    {
      "type": "Feature",
      "id": "BLDG-0032",
      "properties": {
        "id": "BLDG-0032",
        "layer": "BUILDING_FOOTPRINT",
        "source_type": "agent_generated_design",
        "confidence": "low",
        "geometry_role": "design_proposal",
        "building_type": "mixed_use",
        "floors_above_ground": 6,
        "height_m": 24
      },
      "geometry": {
        "type": "Polygon",
        "coordinates": [
          [
            [
              116.34256329268293,
              40.0213
            ],
            [
              116.34290134146342,
              40.0213
            ],
            [
              116.34290134146342,
              40.0197
            ],
            [
              116.34256329268293,
              40.0197
            ],
            [
              116.34256329268293,
              40.0213
            ]
          ]
        ]
      }
    },
    {
      "type": "Feature",
      "id": "BLDG-0033",
      "properties": {
        "id": "BLDG-0033",
        "layer": "BUILDING_FOOTPRINT",
        "source_type": "agent_generated_design",
        "confidence": "low",
        "geometry_role": "design_proposal",
        "building_type": "mixed_use",
        "floors_above_ground": 6,
        "height_m": 24
      },
      "geometry": {
        "type": "Polygon",
        "coordinates": [
          [
            [
              116.34276048780488,
              40.02223333333333
            ],
            [
              116.34309853658537,
              40.02223333333333
            ],
            [
              116.34309853658537,
              40.020633333333336
            ],
            [
              116.34276048780488,
              40.020633333333336
            ],
            [
              116.34276048780488,
              40.02223333333333
            ]
          ]
        ]
      }
    },
    {
      "type": "Feature",
      "id": "BLDG-0034",
      "properties": {
        "id": "BLDG-0034",
        "layer": "BUILDING_FOOTPRINT",
        "source_type": "agent_generated_design",
        "confidence": "low",
        "geometry_role": "design_proposal",
        "building_type": "mixed_use",
        "floors_above_ground": 6,
        "height_m": 24
      },
      "geometry": {
        "type": "Polygon",
        "coordinates": [
          [
            [
              116.34295768292682,
              40.02316666666666
            ],
            [
              116.34329573170731,
              40.02316666666666
            ],
            [
              116.34329573170731,
              40.021566666666665
            ],
            [
              116.34295768292682,
              40.021566666666665
            ],
            [
              116.34295768292682,
              40.02316666666666
            ]
          ]
        ]
      }
    },
    {
      "type": "Feature",
      "id": "BLDG-0035",
      "properties": {
        "id": "BLDG-0035",
        "layer": "BUILDING_FOOTPRINT",
        "source_type": "agent_generated_design",
        "confidence": "low",
        "geometry_role": "design_proposal",
        "building_type": "mixed_use",
        "floors_above_ground": 6,
        "height_m": 24
      },
      "geometry": {
        "type": "Polygon",
        "coordinates": [
          [
            [
              116.34745,
              39.94075
            ],
            [
              116.34805,
              39.94075
            ],
            [
              116.34805,
              39.939750000000004
            ],
            [
              116.34745,
              39.939750000000004
            ],
            [
              116.34745,
              39.94075
            ]
          ]
        ]
      }
    },
    {
      "type": "Feature",
      "id": "BLDG-0036",
      "properties": {
        "id": "BLDG-0036",
        "layer": "BUILDING_FOOTPRINT",
        "source_type": "agent_generated_design",
        "confidence": "low",
        "geometry_role": "design_proposal",
        "building_type": "mixed_use",
        "floors_above_ground": 6,
        "height_m": 24
      },
      "geometry": {
        "type": "Polygon",
        "coordinates": [
          [
            [
              116.34779999999999,
              39.94133333333333
            ],
            [
              116.3484,
              39.94133333333333
            ],
            [
              116.3484,
              39.940333333333335
            ],
            [
              116.34779999999999,
              39.940333333333335
            ],
            [
              116.34779999999999,
              39.94133333333333
            ]
          ]
        ]
      }
    },
    {
      "type": "Feature",
      "id": "BLDG-0037",
      "properties": {
        "id": "BLDG-0037",
        "layer": "BUILDING_FOOTPRINT",
        "source_type": "agent_generated_design",
        "confidence": "low",
        "geometry_role": "design_proposal",
        "building_type": "mixed_use",
        "floors_above_ground": 6,
        "height_m": 24
      },
      "geometry": {
        "type": "Polygon",
        "coordinates": [
          [
            [
              116.34814999999999,
              39.941916666666664
            ],
            [
              116.34875,
              39.941916666666664
            ],
            [
              116.34875,
              39.940916666666666
            ],
            [
              116.34814999999999,
              39.940916666666666
            ],
            [
              116.34814999999999,
              39.941916666666664
            ]
          ]
        ]
      }
    },
    {
      "type": "Feature",
      "id": "BLDG-0038",
      "properties": {
        "id": "BLDG-0038",
        "layer": "BUILDING_FOOTPRINT",
        "source_type": "agent_generated_design",
        "confidence": "low",
        "geometry_role": "design_proposal",
        "building_type": "mixed_use",
        "floors_above_ground": 6,
        "height_m": 24
      },
      "geometry": {
        "type": "Polygon",
        "coordinates": [
          [
            [
              116.34745,
              39.946044
            ],
            [
              116.34805,
              39.946044
            ],
            [
              116.34805,
              39.944876
            ],
            [
              116.34745,
              39.944876
            ],
            [
              116.34745,
              39.946044
            ]
          ]
        ]
      }
    },
    {
      "type": "Feature",
      "id": "BLDG-0039",
      "properties": {
        "id": "BLDG-0039",
        "layer": "BUILDING_FOOTPRINT",
        "source_type": "agent_generated_design",
        "confidence": "low",
        "geometry_role": "design_proposal",
        "building_type": "mixed_use",
        "floors_above_ground": 6,
        "height_m": 24
      },
      "geometry": {
        "type": "Polygon",
        "coordinates": [
          [
            [
              116.34779999999999,
              39.94672533333333
            ],
            [
              116.3484,
              39.94672533333333
            ],
            [
              116.3484,
              39.94555733333333
            ],
            [
              116.34779999999999,
              39.94555733333333
            ],
            [
              116.34779999999999,
              39.94672533333333
            ]
          ]
        ]
      }
    },
    {
      "type": "Feature",
      "id": "BLDG-0040",
      "properties": {
        "id": "BLDG-0040",
        "layer": "BUILDING_FOOTPRINT",
        "source_type": "agent_generated_design",
        "confidence": "low",
        "geometry_role": "design_proposal",
        "building_type": "mixed_use",
        "floors_above_ground": 6,
        "height_m": 24
      },
      "geometry": {
        "type": "Polygon",
        "coordinates": [
          [
            [
              116.34814999999999,
              39.947406666666666
            ],
            [
              116.34875,
              39.947406666666666
            ],
            [
              116.34875,
              39.946238666666666
            ],
            [
              116.34814999999999,
              39.946238666666666
            ],
            [
              116.34814999999999,
              39.947406666666666
            ]
          ]
        ]
      }
    },
    {
      "type": "Feature",
      "id": "BLDG-0041",
      "properties": {
        "id": "BLDG-0041",
        "layer": "BUILDING_FOOTPRINT",
        "source_type": "agent_generated_design",
        "confidence": "low",
        "geometry_role": "design_proposal",
        "building_type": "mixed_use",
        "floors_above_ground": 6,
        "height_m": 24
      },
      "geometry": {
        "type": "Polygon",
        "coordinates": [
          [
            [
              116.34745,
              39.952696
            ],
            [
              116.34805,
              39.952696
            ],
            [
              116.34805,
              39.951064
            ],
            [
              116.34745,
              39.951064
            ],
            [
              116.34745,
              39.952696
            ]
          ]
        ]
      }
    },
    {
      "type": "Feature",
      "id": "BLDG-0042",
      "properties": {
        "id": "BLDG-0042",
        "layer": "BUILDING_FOOTPRINT",
        "source_type": "agent_generated_design",
        "confidence": "low",
        "geometry_role": "design_proposal",
        "building_type": "mixed_use",
        "floors_above_ground": 6,
        "height_m": 24
      },
      "geometry": {
        "type": "Polygon",
        "coordinates": [
          [
            [
              116.34779999999999,
              39.953648
            ],
            [
              116.3484,
              39.953648
            ],
            [
              116.3484,
              39.952016
            ],
            [
              116.34779999999999,
              39.952016
            ],
            [
              116.34779999999999,
              39.953648
            ]
          ]
        ]
      }
    },
    {
      "type": "Feature",
      "id": "BLDG-0043",
      "properties": {
        "id": "BLDG-0043",
        "layer": "BUILDING_FOOTPRINT",
        "source_type": "agent_generated_design",
        "confidence": "low",
        "geometry_role": "design_proposal",
        "building_type": "mixed_use",
        "floors_above_ground": 6,
        "height_m": 24
      },
      "geometry": {
        "type": "Polygon",
        "coordinates": [
          [
            [
              116.34814999999999,
              39.9546
            ],
            [
              116.34875,
              39.9546
            ],
            [
              116.34875,
              39.952968
            ],
            [
              116.34814999999999,
              39.952968
            ],
            [
              116.34814999999999,
              39.9546
            ]
          ]
        ]
      }
    },
    {
      "type": "Feature",
      "id": "BLDG-0044",
      "properties": {
        "id": "BLDG-0044",
        "layer": "BUILDING_FOOTPRINT",
        "source_type": "agent_generated_design",
        "confidence": "low",
        "geometry_role": "design_proposal",
        "building_type": "mixed_use",
        "floors_above_ground": 6,
        "height_m": 24
      },
      "geometry": {
        "type": "Polygon",
        "coordinates": [
          [
            [
              116.34745,
              39.96045
            ],
            [
              116.34805,
              39.96045
            ],
            [
              116.34805,
              39.95905
            ],
            [
              116.34745,
              39.95905
            ],
            [
              116.34745,
              39.96045
            ]
          ]
        ]
      }
    },
    {
      "type": "Feature",
      "id": "BLDG-0045",
      "properties": {
        "id": "BLDG-0045",
        "layer": "BUILDING_FOOTPRINT",
        "source_type": "agent_generated_design",
        "confidence": "low",
        "geometry_role": "design_proposal",
        "building_type": "mixed_use",
        "floors_above_ground": 6,
        "height_m": 24
      },
      "geometry": {
        "type": "Polygon",
        "coordinates": [
          [
            [
              116.34779999999999,
              39.96126666666667
            ],
            [
              116.3484,
              39.96126666666667
            ],
            [
              116.3484,
              39.95986666666666
            ],
            [
              116.34779999999999,
              39.95986666666666
            ],
            [
              116.34779999999999,
              39.96126666666667
            ]
          ]
        ]
      }
    },
    {
      "type": "Feature",
      "id": "BLDG-0046",
      "properties": {
        "id": "BLDG-0046",
        "layer": "BUILDING_FOOTPRINT",
        "source_type": "agent_generated_design",
        "confidence": "low",
        "geometry_role": "design_proposal",
        "building_type": "mixed_use",
        "floors_above_ground": 6,
        "height_m": 24
      },
      "geometry": {
        "type": "Polygon",
        "coordinates": [
          [
            [
              116.34814999999999,
              39.96208333333334
            ],
            [
              116.34875,
              39.96208333333334
            ],
            [
              116.34875,
              39.960683333333336
            ],
            [
              116.34814999999999,
              39.960683333333336
            ],
            [
              116.34814999999999,
              39.96208333333334
            ]
          ]
        ]
      }
    },
    {
      "type": "Feature",
      "id": "BLDG-0047",
      "properties": {
        "id": "BLDG-0047",
        "layer": "BUILDING_FOOTPRINT",
        "source_type": "agent_generated_design",
        "confidence": "low",
        "geometry_role": "design_proposal",
        "building_type": "mixed_use",
        "floors_above_ground": 6,
        "height_m": 24
      },
      "geometry": {
        "type": "Polygon",
        "coordinates": [
          [
            [
              116.34745,
              39.968500000000006
            ],
            [
              116.34805,
              39.968500000000006
            ],
            [
              116.34805,
              39.9665
            ],
            [
              116.34745,
              39.9665
            ],
            [
              116.34745,
              39.968500000000006
            ]
          ]
        ]
      }
    },
    {
      "type": "Feature",
      "id": "BLDG-0048",
      "properties": {
        "id": "BLDG-0048",
        "layer": "BUILDING_FOOTPRINT",
        "source_type": "agent_generated_design",
        "confidence": "low",
        "geometry_role": "design_proposal",
        "building_type": "mixed_use",
        "floors_above_ground": 6,
        "height_m": 24
      },
      "geometry": {
        "type": "Polygon",
        "coordinates": [
          [
            [
              116.34779999999999,
              39.96966666666667
            ],
            [
              116.3484,
              39.96966666666667
            ],
            [
              116.3484,
              39.967666666666666
            ],
            [
              116.34779999999999,
              39.967666666666666
            ],
            [
              116.34779999999999,
              39.96966666666667
            ]
          ]
        ]
      }
    },
    {
      "type": "Feature",
      "id": "BLDG-0049",
      "properties": {
        "id": "BLDG-0049",
        "layer": "BUILDING_FOOTPRINT",
        "source_type": "agent_generated_design",
        "confidence": "low",
        "geometry_role": "design_proposal",
        "building_type": "mixed_use",
        "floors_above_ground": 6,
        "height_m": 24
      },
      "geometry": {
        "type": "Polygon",
        "coordinates": [
          [
            [
              116.34814999999999,
              39.97083333333334
            ],
            [
              116.34875,
              39.97083333333334
            ],
            [
              116.34875,
              39.968833333333336
            ],
            [
              116.34814999999999,
              39.968833333333336
            ],
            [
              116.34814999999999,
              39.97083333333334
            ]
          ]
        ]
      }
    },
    {
      "type": "Feature",
      "id": "BLDG-0050",
      "properties": {
        "id": "BLDG-0050",
        "layer": "BUILDING_FOOTPRINT",
        "source_type": "agent_generated_design",
        "confidence": "low",
        "geometry_role": "design_proposal",
        "building_type": "mixed_use",
        "floors_above_ground": 6,
        "height_m": 24
      },
      "geometry": {
        "type": "Polygon",
        "coordinates": [
          [
            [
              116.34745,
              39.977975
            ],
            [
              116.34805,
              39.977975
            ],
            [
              116.34805,
              39.976275
            ],
            [
              116.34745,
              39.976275
            ],
            [
              116.34745,
              39.977975
            ]
          ]
        ]
      }
    },
    {
      "type": "Feature",
      "id": "BLDG-0051",
      "properties": {
        "id": "BLDG-0051",
        "layer": "BUILDING_FOOTPRINT",
        "source_type": "agent_generated_design",
        "confidence": "low",
        "geometry_role": "design_proposal",
        "building_type": "mixed_use",
        "floors_above_ground": 6,
        "height_m": 24
      },
      "geometry": {
        "type": "Polygon",
        "coordinates": [
          [
            [
              116.34779999999999,
              39.978966666666665
            ],
            [
              116.3484,
              39.978966666666665
            ],
            [
              116.3484,
              39.977266666666665
            ],
            [
              116.34779999999999,
              39.977266666666665
            ],
            [
              116.34779999999999,
              39.978966666666665
            ]
          ]
        ]
      }
    },
    {
      "type": "Feature",
      "id": "BLDG-0052",
      "properties": {
        "id": "BLDG-0052",
        "layer": "BUILDING_FOOTPRINT",
        "source_type": "agent_generated_design",
        "confidence": "low",
        "geometry_role": "design_proposal",
        "building_type": "mixed_use",
        "floors_above_ground": 6,
        "height_m": 24
      },
      "geometry": {
        "type": "Polygon",
        "coordinates": [
          [
            [
              116.34814999999999,
              39.979958333333336
            ],
            [
              116.34875,
              39.979958333333336
            ],
            [
              116.34875,
              39.978258333333336
            ],
            [
              116.34814999999999,
              39.978258333333336
            ],
            [
              116.34814999999999,
              39.979958333333336
            ]
          ]
        ]
      }
    },
    {
      "type": "Feature",
      "id": "BLDG-0053",
      "properties": {
        "id": "BLDG-0053",
        "layer": "BUILDING_FOOTPRINT",
        "source_type": "agent_generated_design",
        "confidence": "low",
        "geometry_role": "design_proposal",
        "building_type": "mixed_use",
        "floors_above_ground": 6,
        "height_m": 24
      },
      "geometry": {
        "type": "Polygon",
        "coordinates": [
          [
            [
              116.34745,
              39.987
            ],
            [
              116.34805,
              39.987
            ],
            [
              116.34805,
              39.985
            ],
            [
              116.34745,
              39.985
            ],
            [
              116.34745,
              39.987
            ]
          ]
        ]
      }
    },
    {
      "type": "Feature",
      "id": "BLDG-0054",
      "properties": {
        "id": "BLDG-0054",
        "layer": "BUILDING_FOOTPRINT",
        "source_type": "agent_generated_design",
        "confidence": "low",
        "geometry_role": "design_proposal",
        "building_type": "mixed_use",
        "floors_above_ground": 6,
        "height_m": 24
      },
      "geometry": {
        "type": "Polygon",
        "coordinates": [
          [
            [
              116.34779999999999,
              39.988166666666665
            ],
            [
              116.3484,
              39.988166666666665
            ],
            [
              116.3484,
              39.98616666666666
            ],
            [
              116.34779999999999,
              39.98616666666666
            ],
            [
              116.34779999999999,
              39.988166666666665
            ]
          ]
        ]
      }
    },
    {
      "type": "Feature",
      "id": "BLDG-0055",
      "properties": {
        "id": "BLDG-0055",
        "layer": "BUILDING_FOOTPRINT",
        "source_type": "agent_generated_design",
        "confidence": "low",
        "geometry_role": "design_proposal",
        "building_type": "mixed_use",
        "floors_above_ground": 6,
        "height_m": 24
      },
      "geometry": {
        "type": "Polygon",
        "coordinates": [
          [
            [
              116.34814999999999,
              39.989333333333335
            ],
            [
              116.34875,
              39.989333333333335
            ],
            [
              116.34875,
              39.98733333333333
            ],
            [
              116.34814999999999,
              39.98733333333333
            ],
            [
              116.34814999999999,
              39.989333333333335
            ]
          ]
        ]
      }
    },
    {
      "type": "Feature",
      "id": "BLDG-0056",
      "properties": {
        "id": "BLDG-0056",
        "layer": "BUILDING_FOOTPRINT",
        "source_type": "agent_generated_design",
        "confidence": "low",
        "geometry_role": "design_proposal",
        "building_type": "mixed_use",
        "floors_above_ground": 6,
        "height_m": 24
      },
      "geometry": {
        "type": "Polygon",
        "coordinates": [
          [
            [
              116.34745,
              39.99787499999999
            ],
            [
              116.34805,
              39.99787499999999
            ],
            [
              116.34805,
              39.995374999999996
            ],
            [
              116.34745,
              39.995374999999996
            ],
            [
              116.34745,
              39.99787499999999
            ]
          ]
        ]
      }
    },
    {
      "type": "Feature",
      "id": "BLDG-0057",
      "properties": {
        "id": "BLDG-0057",
        "layer": "BUILDING_FOOTPRINT",
        "source_type": "agent_generated_design",
        "confidence": "low",
        "geometry_role": "design_proposal",
        "building_type": "mixed_use",
        "floors_above_ground": 6,
        "height_m": 24
      },
      "geometry": {
        "type": "Polygon",
        "coordinates": [
          [
            [
              116.34779999999999,
              39.99933333333333
            ],
            [
              116.3484,
              39.99933333333333
            ],
            [
              116.3484,
              39.996833333333335
            ],
            [
              116.34779999999999,
              39.996833333333335
            ],
            [
              116.34779999999999,
              39.99933333333333
            ]
          ]
        ]
      }
    },
    {
      "type": "Feature",
      "id": "BLDG-0058",
      "properties": {
        "id": "BLDG-0058",
        "layer": "BUILDING_FOOTPRINT",
        "source_type": "agent_generated_design",
        "confidence": "low",
        "geometry_role": "design_proposal",
        "building_type": "mixed_use",
        "floors_above_ground": 6,
        "height_m": 24
      },
      "geometry": {
        "type": "Polygon",
        "coordinates": [
          [
            [
              116.34814999999999,
              40.000791666666665
            ],
            [
              116.34875,
              40.000791666666665
            ],
            [
              116.34875,
              39.99829166666667
            ],
            [
              116.34814999999999,
              39.99829166666667
            ],
            [
              116.34814999999999,
              40.000791666666665
            ]
          ]
        ]
      }
    },
    {
      "type": "Feature",
      "id": "BLDG-0059",
      "properties": {
        "id": "BLDG-0059",
        "layer": "BUILDING_FOOTPRINT",
        "source_type": "agent_generated_design",
        "confidence": "low",
        "geometry_role": "design_proposal",
        "building_type": "mixed_use",
        "floors_above_ground": 6,
        "height_m": 24
      },
      "geometry": {
        "type": "Polygon",
        "coordinates": [
          [
            [
              116.34745,
              40.006525
            ],
            [
              116.34805,
              40.006525
            ],
            [
              116.34805,
              40.006225
            ],
            [
              116.34745,
              40.006225
            ],
            [
              116.34745,
              40.006525
            ]
          ]
        ]
      }
    },
    {
      "type": "Feature",
      "id": "BLDG-0060",
      "properties": {
        "id": "BLDG-0060",
        "layer": "BUILDING_FOOTPRINT",
        "source_type": "agent_generated_design",
        "confidence": "low",
        "geometry_role": "design_proposal",
        "building_type": "mixed_use",
        "floors_above_ground": 6,
        "height_m": 24
      },
      "geometry": {
        "type": "Polygon",
        "coordinates": [
          [
            [
              116.34797499999999,
              40.0067875
            ],
            [
              116.348575,
              40.0067875
            ],
            [
              116.348575,
              40.0064875
            ],
            [
              116.34797499999999,
              40.0064875
            ],
            [
              116.34797499999999,
              40.0067875
            ]
          ]
        ]
      }
    },
    {
      "type": "Feature",
      "id": "BLDG-0061",
      "properties": {
        "id": "BLDG-0061",
        "layer": "BUILDING_FOOTPRINT",
        "source_type": "agent_generated_design",
        "confidence": "low",
        "geometry_role": "design_proposal",
        "building_type": "mixed_use",
        "floors_above_ground": 6,
        "height_m": 24
      },
      "geometry": {
        "type": "Polygon",
        "coordinates": [
          [
            [
              116.34745,
              40.009075
            ],
            [
              116.34805,
              40.009075
            ],
            [
              116.34805,
              40.008175
            ],
            [
              116.34745,
              40.008175
            ],
            [
              116.34745,
              40.009075
            ]
          ]
        ]
      }
    },
    {
      "type": "Feature",
      "id": "BLDG-0062",
      "properties": {
        "id": "BLDG-0062",
        "layer": "BUILDING_FOOTPRINT",
        "source_type": "agent_generated_design",
        "confidence": "low",
        "geometry_role": "design_proposal",
        "building_type": "mixed_use",
        "floors_above_ground": 6,
        "height_m": 24
      },
      "geometry": {
        "type": "Polygon",
        "coordinates": [
          [
            [
              116.34779999999999,
              40.0096
            ],
            [
              116.3484,
              40.0096
            ],
            [
              116.3484,
              40.0087
            ],
            [
              116.34779999999999,
              40.0087
            ],
            [
              116.34779999999999,
              40.0096
            ]
          ]
        ]
      }
    },
    {
      "type": "Feature",
      "id": "BLDG-0063",
      "properties": {
        "id": "BLDG-0063",
        "layer": "BUILDING_FOOTPRINT",
        "source_type": "agent_generated_design",
        "confidence": "low",
        "geometry_role": "design_proposal",
        "building_type": "mixed_use",
        "floors_above_ground": 6,
        "height_m": 24
      },
      "geometry": {
        "type": "Polygon",
        "coordinates": [
          [
            [
              116.34814999999999,
              40.010125
            ],
            [
              116.34875,
              40.010125
            ],
            [
              116.34875,
              40.009225
            ],
            [
              116.34814999999999,
              40.009225
            ],
            [
              116.34814999999999,
              40.010125
            ]
          ]
        ]
      }
    },
    {
      "type": "Feature",
      "id": "BLDG-0064",
      "properties": {
        "id": "BLDG-0064",
        "layer": "BUILDING_FOOTPRINT",
        "source_type": "agent_generated_design",
        "confidence": "low",
        "geometry_role": "design_proposal",
        "building_type": "mixed_use",
        "floors_above_ground": 6,
        "height_m": 24
      },
      "geometry": {
        "type": "Polygon",
        "coordinates": [
          [
            [
              116.34745,
              40.014275
            ],
            [
              116.34805,
              40.014275
            ],
            [
              116.34805,
              40.012975
            ],
            [
              116.34745,
              40.012975
            ],
            [
              116.34745,
              40.014275
            ]
          ]
        ]
      }
    },
    {
      "type": "Feature",
      "id": "BLDG-0065",
      "properties": {
        "id": "BLDG-0065",
        "layer": "BUILDING_FOOTPRINT",
        "source_type": "agent_generated_design",
        "confidence": "low",
        "geometry_role": "design_proposal",
        "building_type": "mixed_use",
        "floors_above_ground": 6,
        "height_m": 24
      },
      "geometry": {
        "type": "Polygon",
        "coordinates": [
          [
            [
              116.34779999999999,
              40.015033333333335
            ],
            [
              116.3484,
              40.015033333333335
            ],
            [
              116.3484,
              40.013733333333334
            ],
            [
              116.34779999999999,
              40.013733333333334
            ],
            [
              116.34779999999999,
              40.015033333333335
            ]
          ]
        ]
      }
    },
    {
      "type": "Feature",
      "id": "BLDG-0066",
      "properties": {
        "id": "BLDG-0066",
        "layer": "BUILDING_FOOTPRINT",
        "source_type": "agent_generated_design",
        "confidence": "low",
        "geometry_role": "design_proposal",
        "building_type": "mixed_use",
        "floors_above_ground": 6,
        "height_m": 24
      },
      "geometry": {
        "type": "Polygon",
        "coordinates": [
          [
            [
              116.34814999999999,
              40.01579166666667
            ],
            [
              116.34875,
              40.01579166666667
            ],
            [
              116.34875,
              40.01449166666667
            ],
            [
              116.34814999999999,
              40.01449166666667
            ],
            [
              116.34814999999999,
              40.01579166666667
            ]
          ]
        ]
      }
    },
    {
      "type": "Feature",
      "id": "BLDG-0067",
      "properties": {
        "id": "BLDG-0067",
        "layer": "BUILDING_FOOTPRINT",
        "source_type": "agent_generated_design",
        "confidence": "low",
        "geometry_role": "design_proposal",
        "building_type": "mixed_use",
        "floors_above_ground": 6,
        "height_m": 24
      },
      "geometry": {
        "type": "Polygon",
        "coordinates": [
          [
            [
              116.34745,
              40.0213
            ],
            [
              116.34805,
              40.0213
            ],
            [
              116.34805,
              40.0197
            ],
            [
              116.34745,
              40.0197
            ],
            [
              116.34745,
              40.0213
            ]
          ]
        ]
      }
    },
    {
      "type": "Feature",
      "id": "BLDG-0068",
      "properties": {
        "id": "BLDG-0068",
        "layer": "BUILDING_FOOTPRINT",
        "source_type": "agent_generated_design",
        "confidence": "low",
        "geometry_role": "design_proposal",
        "building_type": "mixed_use",
        "floors_above_ground": 6,
        "height_m": 24
      },
      "geometry": {
        "type": "Polygon",
        "coordinates": [
          [
            [
              116.34779999999999,
              40.02223333333333
            ],
            [
              116.3484,
              40.02223333333333
            ],
            [
              116.3484,
              40.020633333333336
            ],
            [
              116.34779999999999,
              40.020633333333336
            ],
            [
              116.34779999999999,
              40.02223333333333
            ]
          ]
        ]
      }
    },
    {
      "type": "Feature",
      "id": "BLDG-0069",
      "properties": {
        "id": "BLDG-0069",
        "layer": "BUILDING_FOOTPRINT",
        "source_type": "agent_generated_design",
        "confidence": "low",
        "geometry_role": "design_proposal",
        "building_type": "mixed_use",
        "floors_above_ground": 6,
        "height_m": 24
      },
      "geometry": {
        "type": "Polygon",
        "coordinates": [
          [
            [
              116.34814999999999,
              40.02316666666666
            ],
            [
              116.34875,
              40.02316666666666
            ],
            [
              116.34875,
              40.021566666666665
            ],
            [
              116.34814999999999,
              40.021566666666665
            ],
            [
              116.34814999999999,
              40.02316666666666
            ]
          ]
        ]
      }
    },
    {
      "type": "Feature",
      "id": "BLDG-0070",
      "properties": {
        "id": "BLDG-0070",
        "layer": "BUILDING_FOOTPRINT",
        "source_type": "agent_generated_design",
        "confidence": "low",
        "geometry_role": "design_proposal",
        "building_type": "mixed_use",
        "floors_above_ground": 6,
        "height_m": 24
      },
      "geometry": {
        "type": "Polygon",
        "coordinates": [
          [
            [
              116.35079499999999,
              39.94075
            ],
            [
              116.35185499999999,
              39.94075
            ],
            [
              116.35185499999999,
              39.939750000000004
            ],
            [
              116.35079499999999,
              39.939750000000004
            ],
            [
              116.35079499999999,
              39.94075
            ]
          ]
        ]
      }
    },
    {
      "type": "Feature",
      "id": "BLDG-0071",
      "properties": {
        "id": "BLDG-0071",
        "layer": "BUILDING_FOOTPRINT",
        "source_type": "agent_generated_design",
        "confidence": "low",
        "geometry_role": "design_proposal",
        "building_type": "mixed_use",
        "floors_above_ground": 6,
        "height_m": 24
      },
      "geometry": {
        "type": "Polygon",
        "coordinates": [
          [
            [
              116.35141333333333,
              39.94133333333333
            ],
            [
              116.35247333333332,
              39.94133333333333
            ],
            [
              116.35247333333332,
              39.940333333333335
            ],
            [
              116.35141333333333,
              39.940333333333335
            ],
            [
              116.35141333333333,
              39.94133333333333
            ]
          ]
        ]
      }
    },
    {
      "type": "Feature",
      "id": "BLDG-0072",
      "properties": {
        "id": "BLDG-0072",
        "layer": "BUILDING_FOOTPRINT",
        "source_type": "agent_generated_design",
        "confidence": "low",
        "geometry_role": "design_proposal",
        "building_type": "mixed_use",
        "floors_above_ground": 6,
        "height_m": 24
      },
      "geometry": {
        "type": "Polygon",
        "coordinates": [
          [
            [
              116.35203166666666,
              39.941916666666664
            ],
            [
              116.35309166666666,
              39.941916666666664
            ],
            [
              116.35309166666666,
              39.940916666666666
            ],
            [
              116.35203166666666,
              39.940916666666666
            ],
            [
              116.35203166666666,
              39.941916666666664
            ]
          ]
        ]
      }
    },
    {
      "type": "Feature",
      "id": "BLDG-0073",
      "properties": {
        "id": "BLDG-0073",
        "layer": "BUILDING_FOOTPRINT",
        "source_type": "agent_generated_design",
        "confidence": "low",
        "geometry_role": "design_proposal",
        "building_type": "mixed_use",
        "floors_above_ground": 6,
        "height_m": 24
      },
      "geometry": {
        "type": "Polygon",
        "coordinates": [
          [
            [
              116.35079499999999,
              39.946044
            ],
            [
              116.35185499999999,
              39.946044
            ],
            [
              116.35185499999999,
              39.944876
            ],
            [
              116.35079499999999,
              39.944876
            ],
            [
              116.35079499999999,
              39.946044
            ]
          ]
        ]
      }
    },
    {
      "type": "Feature",
      "id": "BLDG-0074",
      "properties": {
        "id": "BLDG-0074",
        "layer": "BUILDING_FOOTPRINT",
        "source_type": "agent_generated_design",
        "confidence": "low",
        "geometry_role": "design_proposal",
        "building_type": "mixed_use",
        "floors_above_ground": 6,
        "height_m": 24
      },
      "geometry": {
        "type": "Polygon",
        "coordinates": [
          [
            [
              116.35141333333333,
              39.94672533333333
            ],
            [
              116.35247333333332,
              39.94672533333333
            ],
            [
              116.35247333333332,
              39.94555733333333
            ],
            [
              116.35141333333333,
              39.94555733333333
            ],
            [
              116.35141333333333,
              39.94672533333333
            ]
          ]
        ]
      }
    },
    {
      "type": "Feature",
      "id": "BLDG-0075",
      "properties": {
        "id": "BLDG-0075",
        "layer": "BUILDING_FOOTPRINT",
        "source_type": "agent_generated_design",
        "confidence": "low",
        "geometry_role": "design_proposal",
        "building_type": "mixed_use",
        "floors_above_ground": 6,
        "height_m": 24
      },
      "geometry": {
        "type": "Polygon",
        "coordinates": [
          [
            [
              116.35203166666666,
              39.947406666666666
            ],
            [
              116.35309166666666,
              39.947406666666666
            ],
            [
              116.35309166666666,
              39.946238666666666
            ],
            [
              116.35203166666666,
              39.946238666666666
            ],
            [
              116.35203166666666,
              39.947406666666666
            ]
          ]
        ]
      }
    },
    {
      "type": "Feature",
      "id": "BLDG-0076",
      "properties": {
        "id": "BLDG-0076",
        "layer": "BUILDING_FOOTPRINT",
        "source_type": "agent_generated_design",
        "confidence": "low",
        "geometry_role": "design_proposal",
        "building_type": "mixed_use",
        "floors_above_ground": 6,
        "height_m": 24
      },
      "geometry": {
        "type": "Polygon",
        "coordinates": [
          [
            [
              116.35079499999999,
              39.952696
            ],
            [
              116.35185499999999,
              39.952696
            ],
            [
              116.35185499999999,
              39.951064
            ],
            [
              116.35079499999999,
              39.951064
            ],
            [
              116.35079499999999,
              39.952696
            ]
          ]
        ]
      }
    },
    {
      "type": "Feature",
      "id": "BLDG-0077",
      "properties": {
        "id": "BLDG-0077",
        "layer": "BUILDING_FOOTPRINT",
        "source_type": "agent_generated_design",
        "confidence": "low",
        "geometry_role": "design_proposal",
        "building_type": "mixed_use",
        "floors_above_ground": 6,
        "height_m": 24
      },
      "geometry": {
        "type": "Polygon",
        "coordinates": [
          [
            [
              116.35141333333333,
              39.953648
            ],
            [
              116.35247333333332,
              39.953648
            ],
            [
              116.35247333333332,
              39.952016
            ],
            [
              116.35141333333333,
              39.952016
            ],
            [
              116.35141333333333,
              39.953648
            ]
          ]
        ]
      }
    },
    {
      "type": "Feature",
      "id": "BLDG-0078",
      "properties": {
        "id": "BLDG-0078",
        "layer": "BUILDING_FOOTPRINT",
        "source_type": "agent_generated_design",
        "confidence": "low",
        "geometry_role": "design_proposal",
        "building_type": "mixed_use",
        "floors_above_ground": 6,
        "height_m": 24
      },
      "geometry": {
        "type": "Polygon",
        "coordinates": [
          [
            [
              116.35203166666666,
              39.9546
            ],
            [
              116.35309166666666,
              39.9546
            ],
            [
              116.35309166666666,
              39.952968
            ],
            [
              116.35203166666666,
              39.952968
            ],
            [
              116.35203166666666,
              39.9546
            ]
          ]
        ]
      }
    },
    {
      "type": "Feature",
      "id": "BLDG-0079",
      "properties": {
        "id": "BLDG-0079",
        "layer": "BUILDING_FOOTPRINT",
        "source_type": "agent_generated_design",
        "confidence": "low",
        "geometry_role": "design_proposal",
        "building_type": "mixed_use",
        "floors_above_ground": 6,
        "height_m": 24
      },
      "geometry": {
        "type": "Polygon",
        "coordinates": [
          [
            [
              116.35079499999999,
              39.96045
            ],
            [
              116.35185499999999,
              39.96045
            ],
            [
              116.35185499999999,
              39.95905
            ],
            [
              116.35079499999999,
              39.95905
            ],
            [
              116.35079499999999,
              39.96045
            ]
          ]
        ]
      }
    },
    {
      "type": "Feature",
      "id": "BLDG-0080",
      "properties": {
        "id": "BLDG-0080",
        "layer": "BUILDING_FOOTPRINT",
        "source_type": "agent_generated_design",
        "confidence": "low",
        "geometry_role": "design_proposal",
        "building_type": "mixed_use",
        "floors_above_ground": 6,
        "height_m": 24
      },
      "geometry": {
        "type": "Polygon",
        "coordinates": [
          [
            [
              116.35141333333333,
              39.96126666666667
            ],
            [
              116.35247333333332,
              39.96126666666667
            ],
            [
              116.35247333333332,
              39.95986666666666
            ],
            [
              116.35141333333333,
              39.95986666666666
            ],
            [
              116.35141333333333,
              39.96126666666667
            ]
          ]
        ]
      }
    },
    {
      "type": "Feature",
      "id": "BLDG-0081",
      "properties": {
        "id": "BLDG-0081",
        "layer": "BUILDING_FOOTPRINT",
        "source_type": "agent_generated_design",
        "confidence": "low",
        "geometry_role": "design_proposal",
        "building_type": "mixed_use",
        "floors_above_ground": 6,
        "height_m": 24
      },
      "geometry": {
        "type": "Polygon",
        "coordinates": [
          [
            [
              116.35203166666666,
              39.96208333333334
            ],
            [
              116.35309166666666,
              39.96208333333334
            ],
            [
              116.35309166666666,
              39.960683333333336
            ],
            [
              116.35203166666666,
              39.960683333333336
            ],
            [
              116.35203166666666,
              39.96208333333334
            ]
          ]
        ]
      }
    },
    {
      "type": "Feature",
      "id": "BLDG-0082",
      "properties": {
        "id": "BLDG-0082",
        "layer": "BUILDING_FOOTPRINT",
        "source_type": "agent_generated_design",
        "confidence": "low",
        "geometry_role": "design_proposal",
        "building_type": "mixed_use",
        "floors_above_ground": 6,
        "height_m": 24
      },
      "geometry": {
        "type": "Polygon",
        "coordinates": [
          [
            [
              116.35079499999999,
              39.968500000000006
            ],
            [
              116.35185499999999,
              39.968500000000006
            ],
            [
              116.35185499999999,
              39.9665
            ],
            [
              116.35079499999999,
              39.9665
            ],
            [
              116.35079499999999,
              39.968500000000006
            ]
          ]
        ]
      }
    },
    {
      "type": "Feature",
      "id": "BLDG-0083",
      "properties": {
        "id": "BLDG-0083",
        "layer": "BUILDING_FOOTPRINT",
        "source_type": "agent_generated_design",
        "confidence": "low",
        "geometry_role": "design_proposal",
        "building_type": "mixed_use",
        "floors_above_ground": 6,
        "height_m": 24
      },
      "geometry": {
        "type": "Polygon",
        "coordinates": [
          [
            [
              116.35141333333333,
              39.96966666666667
            ],
            [
              116.35247333333332,
              39.96966666666667
            ],
            [
              116.35247333333332,
              39.967666666666666
            ],
            [
              116.35141333333333,
              39.967666666666666
            ],
            [
              116.35141333333333,
              39.96966666666667
            ]
          ]
        ]
      }
    },
    {
      "type": "Feature",
      "id": "BLDG-0084",
      "properties": {
        "id": "BLDG-0084",
        "layer": "BUILDING_FOOTPRINT",
        "source_type": "agent_generated_design",
        "confidence": "low",
        "geometry_role": "design_proposal",
        "building_type": "mixed_use",
        "floors_above_ground": 6,
        "height_m": 24
      },
      "geometry": {
        "type": "Polygon",
        "coordinates": [
          [
            [
              116.35203166666666,
              39.97083333333334
            ],
            [
              116.35309166666666,
              39.97083333333334
            ],
            [
              116.35309166666666,
              39.968833333333336
            ],
            [
              116.35203166666666,
              39.968833333333336
            ],
            [
              116.35203166666666,
              39.97083333333334
            ]
          ]
        ]
      }
    },
    {
      "type": "Feature",
      "id": "BLDG-0085",
      "properties": {
        "id": "BLDG-0085",
        "layer": "BUILDING_FOOTPRINT",
        "source_type": "agent_generated_design",
        "confidence": "low",
        "geometry_role": "design_proposal",
        "building_type": "mixed_use",
        "floors_above_ground": 6,
        "height_m": 24
      },
      "geometry": {
        "type": "Polygon",
        "coordinates": [
          [
            [
              116.350675,
              39.977975
            ],
            [
              116.351575,
              39.977975
            ],
            [
              116.351575,
              39.976275
            ],
            [
              116.350675,
              39.976275
            ],
            [
              116.350675,
              39.977975
            ]
          ]
        ]
      }
    },
    {
      "type": "Feature",
      "id": "BLDG-0086",
      "properties": {
        "id": "BLDG-0086",
        "layer": "BUILDING_FOOTPRINT",
        "source_type": "agent_generated_design",
        "confidence": "low",
        "geometry_role": "design_proposal",
        "building_type": "mixed_use",
        "floors_above_ground": 6,
        "height_m": 24
      },
      "geometry": {
        "type": "Polygon",
        "coordinates": [
          [
            [
              116.35119999999999,
              39.978966666666665
            ],
            [
              116.3521,
              39.978966666666665
            ],
            [
              116.3521,
              39.977266666666665
            ],
            [
              116.35119999999999,
              39.977266666666665
            ],
            [
              116.35119999999999,
              39.978966666666665
            ]
          ]
        ]
      }
    },
    {
      "type": "Feature",
      "id": "BLDG-0087",
      "properties": {
        "id": "BLDG-0087",
        "layer": "BUILDING_FOOTPRINT",
        "source_type": "agent_generated_design",
        "confidence": "low",
        "geometry_role": "design_proposal",
        "building_type": "mixed_use",
        "floors_above_ground": 6,
        "height_m": 24
      },
      "geometry": {
        "type": "Polygon",
        "coordinates": [
          [
            [
              116.351725,
              39.979958333333336
            ],
            [
              116.352625,
              39.979958333333336
            ],
            [
              116.352625,
              39.978258333333336
            ],
            [
              116.351725,
              39.978258333333336
            ],
            [
              116.351725,
              39.979958333333336
            ]
          ]
        ]
      }
    },
    {
      "type": "Feature",
      "id": "BLDG-0088",
      "properties": {
        "id": "BLDG-0088",
        "layer": "BUILDING_FOOTPRINT",
        "source_type": "agent_generated_design",
        "confidence": "low",
        "geometry_role": "design_proposal",
        "building_type": "mixed_use",
        "floors_above_ground": 6,
        "height_m": 24
      },
      "geometry": {
        "type": "Polygon",
        "coordinates": [
          [
            [
              116.350573,
              39.987
            ],
            [
              116.351337,
              39.987
            ],
            [
              116.351337,
              39.985
            ],
            [
              116.350573,
              39.985
            ],
            [
              116.350573,
              39.987
            ]
          ]
        ]
      }
    },
    {
      "type": "Feature",
      "id": "BLDG-0089",
      "properties": {
        "id": "BLDG-0089",
        "layer": "BUILDING_FOOTPRINT",
        "source_type": "agent_generated_design",
        "confidence": "low",
        "geometry_role": "design_proposal",
        "building_type": "mixed_use",
        "floors_above_ground": 6,
        "height_m": 24
      },
      "geometry": {
        "type": "Polygon",
        "coordinates": [
          [
            [
              116.35101866666666,
              39.988166666666665
            ],
            [
              116.35178266666667,
              39.988166666666665
            ],
            [
              116.35178266666667,
              39.98616666666666
            ],
            [
              116.35101866666666,
              39.98616666666666
            ],
            [
              116.35101866666666,
              39.988166666666665
            ]
          ]
        ]
      }
    },
    {
      "type": "Feature",
      "id": "BLDG-0090",
      "properties": {
        "id": "BLDG-0090",
        "layer": "BUILDING_FOOTPRINT",
        "source_type": "agent_generated_design",
        "confidence": "low",
        "geometry_role": "design_proposal",
        "building_type": "mixed_use",
        "floors_above_ground": 6,
        "height_m": 24
      },
      "geometry": {
        "type": "Polygon",
        "coordinates": [
          [
            [
              116.35146433333333,
              39.989333333333335
            ],
            [
              116.35222833333333,
              39.989333333333335
            ],
            [
              116.35222833333333,
              39.98733333333333
            ],
            [
              116.35146433333333,
              39.98733333333333
            ],
            [
              116.35146433333333,
              39.989333333333335
            ]
          ]
        ]
      }
    },
    {
      "type": "Feature",
      "id": "BLDG-0091",
      "properties": {
        "id": "BLDG-0091",
        "layer": "BUILDING_FOOTPRINT",
        "source_type": "agent_generated_design",
        "confidence": "low",
        "geometry_role": "design_proposal",
        "building_type": "mixed_use",
        "floors_above_ground": 6,
        "height_m": 24
      },
      "geometry": {
        "type": "Polygon",
        "coordinates": [
          [
            [
              116.35062650684931,
              39.99787499999999
            ],
            [
              116.35146184931506,
              39.99787499999999
            ],
            [
              116.35146184931506,
              39.995374999999996
            ],
            [
              116.35062650684931,
              39.995374999999996
            ],
            [
              116.35062650684931,
              39.99787499999999
            ]
          ]
        ]
      }
    },
    {
      "type": "Feature",
      "id": "BLDG-0092",
      "properties": {
        "id": "BLDG-0092",
        "layer": "BUILDING_FOOTPRINT",
        "source_type": "agent_generated_design",
        "confidence": "low",
        "geometry_role": "design_proposal",
        "building_type": "mixed_use",
        "floors_above_ground": 6,
        "height_m": 24
      },
      "geometry": {
        "type": "Polygon",
        "coordinates": [
          [
            [
              116.35111378995434,
              39.99933333333333
            ],
            [
              116.35194913242009,
              39.99933333333333
            ],
            [
              116.35194913242009,
              39.996833333333335
            ],
            [
              116.35111378995434,
              39.996833333333335
            ],
            [
              116.35111378995434,
              39.99933333333333
            ]
          ]
        ]
      }
    },
    {
      "type": "Feature",
      "id": "BLDG-0093",
      "properties": {
        "id": "BLDG-0093",
        "layer": "BUILDING_FOOTPRINT",
        "source_type": "agent_generated_design",
        "confidence": "low",
        "geometry_role": "design_proposal",
        "building_type": "mixed_use",
        "floors_above_ground": 6,
        "height_m": 24
      },
      "geometry": {
        "type": "Polygon",
        "coordinates": [
          [
            [
              116.35160107305936,
              40.000791666666665
            ],
            [
              116.3524364155251,
              40.000791666666665
            ],
            [
              116.3524364155251,
              39.99829166666667
            ],
            [
              116.35160107305936,
              39.99829166666667
            ],
            [
              116.35160107305936,
              40.000791666666665
            ]
          ]
        ]
      }
    },
    {
      "type": "Feature",
      "id": "BLDG-0094",
      "properties": {
        "id": "BLDG-0094",
        "layer": "BUILDING_FOOTPRINT",
        "source_type": "agent_generated_design",
        "confidence": "low",
        "geometry_role": "design_proposal",
        "building_type": "mixed_use",
        "floors_above_ground": 6,
        "height_m": 24
      },
      "geometry": {
        "type": "Polygon",
        "coordinates": [
          [
            [
              116.35063883561644,
              40.006525
            ],
            [
              116.35149061643835,
              40.006525
            ],
            [
              116.35149061643835,
              40.006225
            ],
            [
              116.35063883561644,
              40.006225
            ],
            [
              116.35063883561644,
              40.006525
            ]
          ]
        ]
      }
    },
    {
      "type": "Feature",
      "id": "BLDG-0095",
      "properties": {
        "id": "BLDG-0095",
        "layer": "BUILDING_FOOTPRINT",
        "source_type": "agent_generated_design",
        "confidence": "low",
        "geometry_role": "design_proposal",
        "building_type": "mixed_use",
        "floors_above_ground": 6,
        "height_m": 24
      },
      "geometry": {
        "type": "Polygon",
        "coordinates": [
          [
            [
              116.35138414383562,
              40.0067875
            ],
            [
              116.35223592465753,
              40.0067875
            ],
            [
              116.35223592465753,
              40.0064875
            ],
            [
              116.35138414383562,
              40.0064875
            ],
            [
              116.35138414383562,
              40.0067875
            ]
          ]
        ]
      }
    },
    {
      "type": "Feature",
      "id": "BLDG-0096",
      "properties": {
        "id": "BLDG-0096",
        "layer": "BUILDING_FOOTPRINT",
        "source_type": "agent_generated_design",
        "confidence": "low",
        "geometry_role": "design_proposal",
        "building_type": "mixed_use",
        "floors_above_ground": 6,
        "height_m": 24
      },
      "geometry": {
        "type": "Polygon",
        "coordinates": [
          [
            [
              116.3506758219178,
              40.009075
            ],
            [
              116.35157691780822,
              40.009075
            ],
            [
              116.35157691780822,
              40.008175
            ],
            [
              116.3506758219178,
              40.008175
            ],
            [
              116.3506758219178,
              40.009075
            ]
          ]
        ]
      }
    },
    {
      "type": "Feature",
      "id": "BLDG-0097",
      "properties": {
        "id": "BLDG-0097",
        "layer": "BUILDING_FOOTPRINT",
        "source_type": "agent_generated_design",
        "confidence": "low",
        "geometry_role": "design_proposal",
        "building_type": "mixed_use",
        "floors_above_ground": 6,
        "height_m": 24
      },
      "geometry": {
        "type": "Polygon",
        "coordinates": [
          [
            [
              116.35120146118722,
              40.0096
            ],
            [
              116.35210255707763,
              40.0096
            ],
            [
              116.35210255707763,
              40.0087
            ],
            [
              116.35120146118722,
              40.0087
            ],
            [
              116.35120146118722,
              40.0096
            ]
          ]
        ]
      }
    },
    {
      "type": "Feature",
      "id": "BLDG-0098",
      "properties": {
        "id": "BLDG-0098",
        "layer": "BUILDING_FOOTPRINT",
        "source_type": "agent_generated_design",
        "confidence": "low",
        "geometry_role": "design_proposal",
        "building_type": "mixed_use",
        "floors_above_ground": 6,
        "height_m": 24
      },
      "geometry": {
        "type": "Polygon",
        "coordinates": [
          [
            [
              116.35172710045661,
              40.010125
            ],
            [
              116.35262819634703,
              40.010125
            ],
            [
              116.35262819634703,
              40.009225
            ],
            [
              116.35172710045661,
              40.009225
            ],
            [
              116.35172710045661,
              40.010125
            ]
          ]
        ]
      }
    },
    {
      "type": "Feature",
      "id": "BLDG-0099",
      "properties": {
        "id": "BLDG-0099",
        "layer": "BUILDING_FOOTPRINT",
        "source_type": "agent_generated_design",
        "confidence": "low",
        "geometry_role": "design_proposal",
        "building_type": "mixed_use",
        "floors_above_ground": 6,
        "height_m": 24
      },
      "geometry": {
        "type": "Polygon",
        "coordinates": [
          [
            [
              116.35072924657534,
              40.014275
            ],
            [
              116.35170157534246,
              40.014275
            ],
            [
              116.35170157534246,
              40.012975
            ],
            [
              116.35072924657534,
              40.012975
            ],
            [
              116.35072924657534,
              40.014275
            ]
          ]
        ]
      }
    },
    {
      "type": "Feature",
      "id": "BLDG-0100",
      "properties": {
        "id": "BLDG-0100",
        "layer": "BUILDING_FOOTPRINT",
        "source_type": "agent_generated_design",
        "confidence": "low",
        "geometry_role": "design_proposal",
        "building_type": "mixed_use",
        "floors_above_ground": 6,
        "height_m": 24
      },
      "geometry": {
        "type": "Polygon",
        "coordinates": [
          [
            [
              116.35129643835616,
              40.015033333333335
            ],
            [
              116.35226876712328,
              40.015033333333335
            ],
            [
              116.35226876712328,
              40.013733333333334
            ],
            [
              116.35129643835616,
              40.013733333333334
            ],
            [
              116.35129643835616,
              40.015033333333335
            ]
          ]
        ]
      }
    },
    {
      "type": "Feature",
      "id": "BLDG-0101",
      "properties": {
        "id": "BLDG-0101",
        "layer": "BUILDING_FOOTPRINT",
        "source_type": "agent_generated_design",
        "confidence": "low",
        "geometry_role": "design_proposal",
        "building_type": "mixed_use",
        "floors_above_ground": 6,
        "height_m": 24
      },
      "geometry": {
        "type": "Polygon",
        "coordinates": [
          [
            [
              116.35186363013699,
              40.01579166666667
            ],
            [
              116.35283595890411,
              40.01579166666667
            ],
            [
              116.35283595890411,
              40.01449166666667
            ],
            [
              116.35186363013699,
              40.01449166666667
            ],
            [
              116.35186363013699,
              40.01579166666667
            ]
          ]
        ]
      }
    },
    {
      "type": "Feature",
      "id": "BLDG-0102",
      "properties": {
        "id": "BLDG-0102",
        "layer": "BUILDING_FOOTPRINT",
        "source_type": "agent_generated_design",
        "confidence": "low",
        "geometry_role": "design_proposal",
        "building_type": "mixed_use",
        "floors_above_ground": 6,
        "height_m": 24
      },
      "geometry": {
        "type": "Polygon",
        "coordinates": [
          [
            [
              116.35079499999999,
              40.0213
            ],
            [
              116.35185499999999,
              40.0213
            ],
            [
              116.35185499999999,
              40.0197
            ],
            [
              116.35079499999999,
              40.0197
            ],
            [
              116.35079499999999,
              40.0213
            ]
          ]
        ]
      }
    },
    {
      "type": "Feature",
      "id": "BLDG-0103",
      "properties": {
        "id": "BLDG-0103",
        "layer": "BUILDING_FOOTPRINT",
        "source_type": "agent_generated_design",
        "confidence": "low",
        "geometry_role": "design_proposal",
        "building_type": "mixed_use",
        "floors_above_ground": 6,
        "height_m": 24
      },
      "geometry": {
        "type": "Polygon",
        "coordinates": [
          [
            [
              116.35141333333333,
              40.02223333333333
            ],
            [
              116.35247333333332,
              40.02223333333333
            ],
            [
              116.35247333333332,
              40.020633333333336
            ],
            [
              116.35141333333333,
              40.020633333333336
            ],
            [
              116.35141333333333,
              40.02223333333333
            ]
          ]
        ]
      }
    },
    {
      "type": "Feature",
      "id": "BLDG-0104",
      "properties": {
        "id": "BLDG-0104",
        "layer": "BUILDING_FOOTPRINT",
        "source_type": "agent_generated_design",
        "confidence": "low",
        "geometry_role": "design_proposal",
        "building_type": "mixed_use",
        "floors_above_ground": 6,
        "height_m": 24
      },
      "geometry": {
        "type": "Polygon",
        "coordinates": [
          [
            [
              116.35203166666666,
              40.02316666666666
            ],
            [
              116.35309166666666,
              40.02316666666666
            ],
            [
              116.35309166666666,
              40.021566666666665
            ],
            [
              116.35203166666666,
              40.021566666666665
            ],
            [
              116.35203166666666,
              40.02316666666666
            ]
          ]
        ]
      }
    }
  ]
}