{
  "type": "FeatureCollection",
  "name": "green_space_design",
  "features": [
    {
      "type": "Feature",
      "id": "GREEN-0013",
      "properties": {
        "id": "GREEN-0013",
        "layer": "GREEN_SPACE",
        "source_type": "agent_generated_design",
        "confidence": "medium",
        "geometry_role": "design_proposal",
        "land_use_code": "1401",
        "name_zh": "公园绿地与开敞空间"
      },
      "geometry": {
        "type": "Polygon",
        "coordinates": [
          [
            [
              116.344,
              39.939
            ],
            [
              116.344,
              39.944
            ],
            [
              116.347,
              39.944
            ],
            [
              116.347,
              39.939
            ],
            [
              116.344,
              39.939
            ]
          ]
        ]
      }
    },
    {
      "type": "Feature",
      "id": "GREEN-0014",
      "properties": {
        "id": "GREEN-0014",
        "layer": "GREEN_SPACE",
        "source_type": "agent_generated_design",
        "confidence": "medium",
        "geometry_role": "design_proposal",
        "land_use_code": "1401",
        "name_zh": "公园绿地与开敞空间"
      },
      "geometry": {
        "type": "Polygon",
        "coordinates": [
          [
            [
              116.344,
              39.94984
            ],
            [
              116.347,
              39.94984
            ],
            [
              116.347,
              39.944
            ],
            [
              116.344,
              39.944
            ],
            [
              116.344,
              39.94984
            ]
          ]
        ]
      }
    },
    {
      "type": "Feature",
      "id": "GREEN-0015",
      "properties": {
        "id": "GREEN-0015",
        "layer": "GREEN_SPACE",
        "source_type": "agent_generated_design",
        "confidence": "medium",
        "geometry_role": "design_proposal",
        "land_use_code": "1401",
        "name_zh": "公园绿地与开敞空间"
      },
      "geometry": {
        "type": "Polygon",
        "coordinates": [
          [
            [
              116.344,
              39.958
            ],
            [
              116.347,
              39.958
            ],
            [
              116.347,
              39.94984
            ],
            [
              116.344,
              39.94984
            ],
            [
              116.344,
              39.958
            ]
          ]
        ]
      }
    },
    {
      "type": "Feature",
      "id": "GREEN-0016",
      "properties": {
        "id": "GREEN-0016",
        "layer": "GREEN_SPACE",
        "source_type": "agent_generated_design",
        "confidence": "medium",
        "geometry_role": "design_proposal",
        "land_use_code": "1401",
        "name_zh": "公园绿地与开敞空间"
      },
      "geometry": {
        "type": "Polygon",
        "coordinates": [
          [
            [
              116.344,
              39.965
            ],
            [
              116.347,
              39.965
            ],
            [
              116.347,
              39.958
            ],
            [
              116.344,
              39.958
            ],
            [
              116.344,
              39.965
            ]
          ]
        ]
      }
    },
    {
      "type": "Feature",
      "id": "GREEN-0017",
      "properties": {
        "id": "GREEN-0017",
        "layer": "GREEN_SPACE",
        "source_type": "agent_generated_design",
        "confidence": "medium",
        "geometry_role": "design_proposal",
        "land_use_code": "1401",
        "name_zh": "公园绿地与开敞空间"
      },
      "geometry": {
        "type": "Polygon",
        "coordinates": [
          [
            [
              116.344,
              39.975
            ],
            [
              116.347,
              39.975
            ],
            [
              116.347,
              39.965
            ],
            [
              116.344,
              39.965
            ],
            [
              116.344,
              39.975
            ]
          ]
        ]
      }
    },
    {
      "type": "Feature",
      "id": "GREEN-0018",
      "properties": {
        "id": "GREEN-0018",
        "layer": "GREEN_SPACE",
        "source_type": "agent_generated_design",
        "confidence": "medium",
        "geometry_role": "design_proposal",
        "land_use_code": "1401",
        "name_zh": "公园绿地与开敞空间"
      },
      "geometry": {
        "type": "Polygon",
        "coordinates": [
          [
            [
              116.344,
              39.9835
            ],
            [
              116.347,
              39.9835
            ],
            [
              116.347,
              39.975
            ],
            [
              116.344,
              39.975
            ],
            [
              116.344,
              39.9835
            ]
          ]
        ]
      }
    },
    {
      "type": "Feature",
      "id": "GREEN-0019",
      "properties": {
        "id": "GREEN-0019",
        "layer": "GREEN_SPACE",
        "source_type": "agent_generated_design",
        "confidence": "medium",
        "geometry_role": "design_proposal",
        "land_use_code": "1401",
        "name_zh": "公园绿地与开敞空间"
      },
      "geometry": {
        "type": "Polygon",
        "coordinates": [
          [
            [
              116.344,
              39.9935
            ],
            [
              116.347,
              39.9935
            ],
            [
              116.347,
              39.9835
            ],
            [
              116.344,
              39.9835
            ],
            [
              116.344,
              39.9935
            ]
          ]
        ]
      }
    },
    {
      "type": "Feature",
      "id": "GREEN-0020",
      "properties": {
        "id": "GREEN-0020",
        "layer": "GREEN_SPACE",
        "source_type": "agent_generated_design",
        "confidence": "medium",
        "geometry_role": "design_proposal",
        "land_use_code": "1401",
        "name_zh": "公园绿地与开敞空间"
      },
      "geometry": {
        "type": "Polygon",
        "coordinates": [
          [
            [
              116.344,
              40.006
            ],
            [
              116.347,
              40.006
            ],
            [
              116.347,
              39.9935
            ],
            [
              116.344,
              39.9935
            ],
            [
              116.344,
              40.006
            ]
          ]
        ]
      }
    },
    {
      "type": "Feature",
      "id": "GREEN-0021",
      "properties": {
        "id": "GREEN-0021",
        "layer": "GREEN_SPACE",
        "source_type": "agent_generated_design",
        "confidence": "medium",
        "geometry_role": "design_proposal",
        "land_use_code": "1401",
        "name_zh": "公园绿地与开敞空间"
      },
      "geometry": {
        "type": "Polygon",
        "coordinates": [
          [
            [
              116.344,
              40.0075
            ],
            [
              116.347,
              40.0075
            ],
            [
              116.347,
              40.006
            ],
            [
              116.344,
              40.006
            ],
            [
              116.344,
              40.0075
            ]
          ]
        ]
      }
    },
    {
      "type": "Feature",
      "id": "GREEN-0022",
      "properties": {
        "id": "GREEN-0022",
        "layer": "GREEN_SPACE",
        "source_type": "agent_generated_design",
        "confidence": "medium",
        "geometry_role": "design_proposal",
        "land_use_code": "1401",
        "name_zh": "公园绿地与开敞空间"
      },
      "geometry": {
        "type": "Polygon",
        "coordinates": [
          [
            [
              116.344,
              40.012
            ],
            [
              116.347,
              40.012
            ],
            [
              116.347,
              40.0075
            ],
            [
              116.344,
              40.0075
            ],
            [
              116.344,
              40.012
            ]
          ]
        ]
      }
    },
    {
      "type": "Feature",
      "id": "GREEN-0023",
      "properties": {
        "id": "GREEN-0023",
        "layer": "GREEN_SPACE",
        "source_type": "agent_generated_design",
        "confidence": "medium",
        "geometry_role": "design_proposal",
        "land_use_code": "1401",
        "name_zh": "公园绿地与开敞空间"
      },
      "geometry": {
        "type": "Polygon",
        "coordinates": [
          [
            [
              116.344,
              40.0185
            ],
            [
              116.347,
              40.0185
            ],
            [
              116.347,
              40.012
            ],
            [
              116.344,
              40.012
            ],
            [
              116.344,
              40.0185
            ]
          ]
        ]
      }
    },
    {
      "type": "Feature",
      "id": "GREEN-0024",
      "properties": {
        "id": "GREEN-0024",
        "layer": "GREEN_SPACE",
        "source_type": "agent_generated_design",
        "confidence": "medium",
        "geometry_role": "design_proposal",
        "land_use_code": "1401",
        "name_zh": "公园绿地与开敞空间"
      },
      "geometry": {
        "type": "Polygon",
        "coordinates": [
          [
            [
              116.347,
              40.0185
            ],
            [
              116.344,
              40.0185
            ],
            [
              116.344,
              40.0265
            ],
            [
              116.347,
              40.0265
            ],
            [
              116.347,
              40.0185
            ]
          ]
        ]
      }
    }
  ]
}