{
  "type": "FeatureCollection",
  "name": "phasing_design",
  "features": [
    {
      "type": "Feature",
      "id": "PHASE-001",
      "properties": {
        "id": "PHASE-001",
        "layer": "PHASE",
        "source_type": "agent_generated_design",
        "confidence": "medium",
        "geometry_role": "design_proposal",
        "phase_order": 1,
        "phase_name_zh": "近期启动（1-3年）",
        "phase_name_en": "Near-term (1-3 years)"
      },
      "geometry": {
        "type": "Polygon",
        "coordinates": [
          [
            [
              116.343,
              40.0075
            ],
            [
              116.354,
              40.0075
            ],
            [
              116.354,
              40.026
            ],
            [
              116.343,
              40.026
            ],
            [
              116.343,
              40.0075
            ]
          ]
        ]
      }
    },
    {
      "type": "Feature",
      "id": "PHASE-002",
      "properties": {
        "id": "PHASE-002",
        "layer": "PHASE",
        "source_type": "agent_generated_design",
        "confidence": "medium",
        "geometry_role": "design_proposal",
        "phase_order": 1,
        "phase_name_zh": "近期启动（1-3年）",
        "phase_name_en": "Near-term (1-3 years)"
      },
      "geometry": {
        "type": "Polygon",
        "coordinates": [
          [
            [
              116.342,
              39.9835
            ],
            [
              116.353,
              39.9835
            ],
            [
              116.353,
              39.9935
            ],
            [
              116.342,
              39.9935
            ],
            [
              116.342,
              39.9835
            ]
          ]
        ]
      }
    },
    {
      "type": "Feature",
      "id": "PHASE-003",
      "properties": {
        "id": "PHASE-003",
        "layer": "PHASE",
        "source_type": "agent_generated_design",
        "confidence": "medium",
        "geometry_role": "design_proposal",
        "phase_order": 1,
        "phase_name_zh": "近期启动（1-3年）",
        "phase_name_en": "Near-term (1-3 years)"
      },
      "geometry": {
        "type": "Polygon",
        "coordinates": [
          [
            [
              116.342,
              39.944
            ],
            [
              116.355,
              39.944
            ],
            [
              116.355,
              39.94984
            ],
            [
              116.342,
              39.94984
            ],
            [
              116.342,
              39.944
            ]
          ]
        ]
      }
    },
    {
      "type": "Feature",
      "id": "PHASE-0004",
      "properties": {
        "id": "PHASE-0004",
        "layer": "PHASE",
        "source_type": "agent_generated_design",
        "confidence": "low",
        "geometry_role": "design_proposal",
        "phase_order": 2,
        "phase_name_zh": "中期推进（3-7年）",
        "phase_name_en": "Medium-term (3-7 years)"
      },
      "geometry": {
        "type": "Polygon",
        "coordinates": [
          [
            [
              116.344,
              39.970000000000006
            ],
            [
              116.347,
              39.970000000000006
            ],
            [
              116.347,
              39.96
            ],
            [
              116.344,
              39.96
            ],
            [
              116.344,
              39.970000000000006
            ]
          ]
        ]
      }
    },
    {
      "type": "Feature",
      "id": "PHASE-0005",
      "properties": {
        "id": "PHASE-0005",
        "layer": "PHASE",
        "source_type": "agent_generated_design",
        "confidence": "low",
        "geometry_role": "design_proposal",
        "phase_order": 2,
        "phase_name_zh": "中期推进（3-7年）",
        "phase_name_en": "Medium-term (3-7 years)"
      },
      "geometry": {
        "type": "Polygon",
        "coordinates": [
          [
            [
              116.344,
              39.980000000000004
            ],
            [
              116.347,
              39.980000000000004
            ],
            [
              116.347,
              39.97
            ],
            [
              116.344,
              39.97
            ],
            [
              116.344,
              39.980000000000004
            ]
          ]
        ]
      }
    },
    {
      "type": "Feature",
      "id": "PHASE-0006",
      "properties": {
        "id": "PHASE-0006",
        "layer": "PHASE",
        "source_type": "agent_generated_design",
        "confidence": "low",
        "geometry_role": "design_proposal",
        "phase_order": 2,
        "phase_name_zh": "中期推进（3-7年）",
        "phase_name_en": "Medium-term (3-7 years)"
      },
      "geometry": {
        "type": "Polygon",
        "coordinates": [
          [
            [
              116.344,
              39.9885
            ],
            [
              116.347,
              39.9885
            ],
            [
              116.347,
              39.9785
            ],
            [
              116.344,
              39.9785
            ],
            [
              116.344,
              39.9885
            ]
          ]
        ]
      }
    },
    {
      "type": "Feature",
      "id": "PHASE-0007",
      "properties": {
        "id": "PHASE-0007",
        "layer": "PHASE",
        "source_type": "agent_generated_design",
        "confidence": "low",
        "geometry_role": "design_proposal",
        "phase_order": 2,
        "phase_name_zh": "中期推进（3-7年）",
        "phase_name_en": "Medium-term (3-7 years)"
      },
      "geometry": {
        "type": "Polygon",
        "coordinates": [
          [
            [
              116.344,
              40.011
            ],
            [
              116.347,
              40.011
            ],
            [
              116.347,
              40.001
            ],
            [
              116.344,
              40.001
            ],
            [
              116.344,
              40.011
            ]
          ]
        ]
      }
    },
    {
      "type": "Feature",
      "id": "PHASE-0008",
      "properties": {
        "id": "PHASE-0008",
        "layer": "PHASE",
        "source_type": "agent_generated_design",
        "confidence": "low",
        "geometry_role": "design_proposal",
        "phase_order": 3,
        "phase_name_zh": "远期发展（7-15年）",
        "phase_name_en": "Long-term (7-15 years)"
      },
      "geometry": {
        "type": "Polygon",
        "coordinates": [
          [
            [
              116.3397,
              39.975
            ],
            [
              116.3417,
              40.006
            ],
            [
              116.3427,
              40.0265
            ],
            [
              116.3553,
              40.0265
            ],
            [
              116.3533,
              39.99
            ],
            [
              116.3553,
              39.965
            ],
            [
              116.3553,
              39.939
            ],
            [
              116.3407,
              39.939
            ],
            [
              116.3397,
              39.975
            ]
          ],
          [
            [
              116.342,
              39.94984
            ],
            [
              116.342,
              39.944
            ],
            [
              116.355,
              39.944
            ],
            [
              116.355,
              39.94984
            ],
            [
              116.342,
              39.94984
            ]
          ],
          [
            [
              116.347,
              39.96
            ],
            [
              116.347,
              39.97
            ],
            [
              116.347,
              39.970000000000006
            ],
            [
              116.347,
              39.9785
            ],
            [
              116.347,
              39.980000000000004
            ],
            [
              116.347,
              39.9835
            ],
            [
              116.353,
              39.9835
            ],
            [
              116.353,
              39.9935
            ],
            [
              116.342,
              39.9935
            ],
            [
              116.342,
              39.9835
            ],
            [
              116.344,
              39.9835
            ],
            [
              116.344,
              39.980000000000004
            ],
            [
              116.344,
              39.9785
            ],
            [
              116.344,
              39.970000000000006
            ],
            [
              116.344,
              39.97
            ],
            [
              116.344,
              39.96
            ],
            [
              116.347,
              39.96
            ]
          ],
          [
            [
              116.344,
              40.001
            ],
            [
              116.347,
              40.001
            ],
            [
              116.347,
              40.0075
            ],
            [
              116.354,
              40.0075
            ],
            [
              116.354,
              40.026
            ],
            [
              116.343,
              40.026
            ],
            [
              116.343,
              40.0075
            ],
            [
              116.344,
              40.0075
            ],
            [
              116.344,
              40.001
            ]
          ]
        ]
      }
    }
  ]
}