{
  "type": "FeatureCollection",
  "name": "public_space_design",
  "features": [
    {
      "type": "Feature",
      "id": "PUBLIC-0019",
      "properties": {
        "id": "PUBLIC-0019",
        "layer": "PUBLIC_SPACE",
        "source_type": "agent_generated_design",
        "confidence": "medium",
        "geometry_role": "design_proposal",
        "land_use_code": "1401",
        "name_zh": "公园绿地与开敞空间"
      },
      "geometry": {
        "type": "Polygon",
        "coordinates": [
          [
            [
              116.344,
              39.9935
            ],
            [
              116.347,
              39.9935
            ],
            [
              116.347,
              39.9835
            ],
            [
              116.344,
              39.9835
            ],
            [
              116.344,
              39.9935
            ]
          ]
        ]
      }
    },
    {
      "type": "Feature",
      "id": "PUBLIC-0026",
      "properties": {
        "id": "PUBLIC-0026",
        "layer": "PUBLIC_SPACE",
        "source_type": "agent_generated_design",
        "confidence": "medium",
        "geometry_role": "design_proposal",
        "land_use_code": "0901",
        "name_zh": "商业用地"
      },
      "geometry": {
        "type": "Polygon",
        "coordinates": [
          [
            [
              116.347,
              39.94984
            ],
            [
              116.35,
              39.94984
            ],
            [
              116.35,
              39.944
            ],
            [
              116.347,
              39.944
            ],
            [
              116.347,
              39.94984
            ]
          ]
        ]
      }
    }
  ]
}