{
 "type": "FeatureCollection",
 "name": "phasing.geojson",
 "features": [
  {
   "type": "Feature",
   "id": "PHASE-1",
   "properties": {
    "id": "PHASE-1",
    "layer": "PHASE",
    "source_type": "agent_generated_design",
    "confidence": "medium",
    "geometry_role": "design_proposal",
    "area_sqm_declared": 4524010.272,
    "phase_label_zh": "近期（大钟寺—西直门段 + 遗址公园南段）",
    "phase_note_zh": "概念分期建议，非实施时序承诺。"
   },
   "geometry": {
    "type": "MultiPolygon",
    "coordinates": [
     [
      [
       [
        116.34466412746038,
        39.94612150878325
       ],
       [
        116.34432890306817,
        39.94611961338439
       ],
       [
        116.34431600654703,
        39.94747046701254
       ],
       [
        116.34471327980003,
        39.94747271319951
       ],
       [
        116.34476621892692,
        39.948927968230485
       ],
       [
        116.34821755035213,
        39.948947423399325
       ],
       [
        116.34831193513067,
        39.939000229407426
       ],
       [
        116.34070000000001,
        39.93899999999999
       ],
       [
        116.34042503798426,
        39.94890335106769
       ],
       [
        116.3404235682647,
        39.94895627657344
       ],
       [
        116.34041953668921,
        39.94910145556302
       ],
       [
        116.34005011574156,
        39.962401217653685
       ],
       [
        116.34004630950282,
        39.962538214894394
       ],
       [
        116.34004461174777,
        39.96259932165399
       ],
       [
        116.3397,
        39.975
       ],
       [
        116.33975801283708,
        39.97589955444704
       ],
       [
        116.33977079556067,
        39.9760977621334
       ],
       [
        116.34442759175728,
        39.97612419334613
       ],
       [
        116.34441768399172,
        39.975926002401856
       ],
       [
        116.34392292697389,
        39.96602781580353
       ],
       [
        116.34372822493982,
        39.96262023428557
       ],
       [
        116.34371690076708,
        39.96242203481523
       ],
       [
        116.34312321168976,
        39.952029667476246
       ],
       [
        116.34312270823347,
        39.95201889483288
       ],
       [
        116.3430171828055,
        39.949116205488075
       ],
       [
        116.34300997848572,
        39.9489180288491
       ],
       [
        116.3427228487095,
        39.9410188929804
       ],
       [
        116.34447715089863,
        39.94098110037911
       ],
       [
        116.34466412746038,
        39.94612150878325
       ]
      ]
     ],
     [
      [
       [
        116.34487709535739,
        39.95197571065822
       ],
       [
        116.34541127607524,
        39.96132234402059
       ],
       [
        116.34492870624902,
        39.9613196180639
       ],
       [
        116.34491581459059,
        39.962670468301674
       ],
       [
        116.34548851991916,
        39.96267370328644
       ],
       [
        116.3456769662936,
        39.96597032134752
       ],
       [
        116.34567716524414,
        39.965974034181976
       ],
       [
        116.34617536194038,
        39.97593593019525
       ],
       [
        116.34796113482231,
        39.97594598937836
       ],
       [
        116.34808750429626,
        39.96264483157591
       ],
       [
        116.3466717251966,
        39.96263686099989
       ],
       [
        116.34667361095734,
        39.96243873624769
       ],
       [
        116.34808938597124,
        39.962446706768084
       ],
       [
        116.34821566994583,
        39.949145548674956
       ],
       [
        116.34477342831711,
        39.94912614480098
       ],
       [
        116.34487709535739,
        39.95197571065822
       ]
      ]
     ],
     [
      [
       [
        116.35519560112677,
        39.949184580696276
       ],
       [
        116.3529045238071,
        39.94917181524531
       ],
       [
        116.35277914814829,
        39.96247298564776
       ],
       [
        116.3550706692923,
        39.962485757081
       ],
       [
        116.35506880776468,
        39.96268388216133
       ],
       [
        116.35277728000754,
        39.96267111063898
       ],
       [
        116.35265181946426,
        39.975972280755556
       ],
       [
        116.35442162395466,
        39.97598215121976
       ],
       [
        116.35501336153565,
        39.96858420250024
       ],
       [
        116.3553,
        39.965
       ],
       [
        116.3553,
        39.939
       ],
       [
        116.35529120390447,
        39.93900000055353
       ],
       [
        116.35300034489161,
        39.93900012199312
       ],
       [
        116.3529063906883,
        39.94897368978637
       ],
       [
        116.3551974613993,
        39.94898645514824
       ],
       [
        116.35519560112677,
        39.949184580696276
       ]
      ]
     ],
     [
      [
       [
        116.34849913361997,
        39.939000228752604
       ],
       [
        116.3484047659644,
        39.948948475796385
       ],
       [
        116.35271917484019,
        39.948972644658035
       ],
       [
        116.35281314630448,
        39.93900012991598
       ],
       [
        116.34849913361997,
        39.939000228752604
       ]
      ]
     ],
     [
      [
       [
        116.35271730741893,
        39.94917077010969
       ],
       [
        116.34840288609811,
        39.94914660107936
       ],
       [
        116.3482766383906,
        39.962447759665665
       ],
       [
        116.35259189549286,
        39.96247194002234
       ],
       [
        116.35271730741893,
        39.94917077010969
       ]
      ]
     ],
     [
      [
       [
        116.3481484240737,
        39.97594704277668
       ],
       [
        116.35246452997663,
        39.97597123463288
       ],
       [
        116.35259002681173,
        39.96267006500626
       ],
       [
        116.34827475725604,
        39.962645884480835
       ],
       [
        116.3481484240737,
        39.97594704277668
       ]
      ]
     ]
    ]
   }
  },
  {
   "type": "Feature",
   "id": "PHASE-2",
   "properties": {
    "id": "PHASE-2",
    "layer": "PHASE",
    "source_type": "agent_generated_design",
    "confidence": "medium",
    "geometry_role": "design_proposal",
    "area_sqm_declared": 4943291.335,
    "phase_label_zh": "中期（AI 原点社区段 + 五道口节点）",
    "phase_note_zh": "概念分期建议，非实施时序承诺。"
   },
   "geometry": {
    "type": "Polygon",
    "coordinates": [
     [
      [
       116.3463215950706,
       40.02401258520501
      ],
      [
       116.3480784046968,
       40.02398740813352
      ],
      [
       116.34802229500754,
       40.02167445509289
      ],
      [
       116.34731506882635,
       40.02167047388179
      ],
      [
       116.34732794011747,
       40.02031963678951
      ],
      [
       116.34798952023114,
       40.020323361070304
      ],
      [
       116.34793665530528,
       40.01814399729616
      ],
      [
       116.35206585606575,
       40.018167158324815
      ],
      [
       116.35198702496955,
       40.026500132764
      ],
      [
       116.35216560427335,
       40.026500128022924
      ],
      [
       116.35217446250492,
       40.02650012778059
      ],
      [
       116.3522532608439,
       40.01816820600311
      ],
      [
       116.35454664360545,
       40.01818100251067
      ],
      [
       116.35454851030278,
       40.01798287935351
      ],
      [
       116.35225513417274,
       40.01797008293522
      ],
      [
       116.35235251148416,
       40.00766875650671
      ],
      [
       116.35426850167435,
       40.007679448059996
      ],
      [
       116.35425764189512,
       40.00748125364185
      ],
      [
       116.35350129363404,
       39.99367516451367
      ],
      [
       116.35349043774829,
       39.993476969581586
      ],
      [
       116.3533,
       39.99
      ],
      [
       116.3538060016848,
       39.98367685925046
      ],
      [
       116.35382184846021,
       39.98347881287888
      ],
      [
       116.35440578093238,
       39.97618019795617
      ],
      [
       116.35442162395466,
       39.97598215121976
      ],
      [
       116.35265181946426,
       39.975972280755556
      ],
      [
       116.35277728000754,
       39.96267111063898
      ],
      [
       116.35506880776468,
       39.96268388216133
      ],
      [
       116.3550706692923,
       39.962485757081
      ],
      [
       116.35277914814829,
       39.96247298564776
      ],
      [
       116.3529045238071,
       39.94917181524531
      ],
      [
       116.35519560112677,
       39.949184580696276
      ],
      [
       116.3551974613993,
       39.94898645514824
      ],
      [
       116.3529063906883,
       39.94897368978637
      ],
      [
       116.35300034489161,
       39.93900012199312
      ],
      [
       116.35292416379505,
       39.93900012525384
      ],
      [
       116.35281314630448,
       39.93900012991598
      ],
      [
       116.35271917484019,
       39.948972644658035
      ],
      [
       116.3484047659644,
       39.948948475796385
      ],
      [
       116.34849913361997,
       39.939000228752604
      ],
      [
       116.34831193513067,
       39.939000229407426
      ],
      [
       116.34821755035213,
       39.948947423399325
      ],
      [
       116.34476621892692,
       39.948927968230485
      ],
      [
       116.34477223452451,
       39.94909332909112
      ],
      [
       116.34471327980003,
       39.94747271319951
      ],
      [
       116.34431600654703,
       39.94747046701254
      ],
      [
       116.34432890306817,
       39.94611961338439
      ],
      [
       116.34466412746038,
       39.94612150878325
      ],
      [
       116.34447715089863,
       39.94098110037911
      ],
      [
       116.3427228487095,
       39.9410188929804
      ],
      [
       116.34312270823347,
       39.95201889483288
      ],
      [
       116.34312321168976,
       39.952029667476246
      ],
      [
       116.34392292697389,
       39.96602781580353
      ],
      [
       116.34462265530514,
       39.980025962966174
      ],
      [
       116.34442759175728,
       39.97612419334613
      ],
      [
       116.33977079556067,
       39.9760977621334
      ],
      [
       116.34024192366473,
       39.98340230999629
      ],
      [
       116.34025045964387,
       39.98353464211836
      ],
      [
       116.34025470888776,
       39.98360051739637
      ],
      [
       116.34088728629233,
       39.99340598215098
      ],
      [
       116.34089761954623,
       39.99356613503704
      ],
      [
       116.3409000748503,
       39.99360418916928
      ],
      [
       116.34169999999999,
       40.00600000000001
      ],
      [
       116.34176881231876,
       40.00741099302589
      ],
      [
       116.34591837001223,
       40.00743448723286
      ],
      [
       116.34592192370079,
       40.00751741716321
      ],
      [
       116.3463215950706,
       40.02401258520501
      ]
     ],
     [
      [
       116.34780398865495,
       40.012674352850155
      ],
      [
       116.34711518433478,
       40.01267047430891
      ],
      [
       116.34712805546806,
       40.01131963516617
      ],
      [
       116.34777122008418,
       40.011323256743665
      ],
      [
       116.34781201148958,
       40.01132348631447
      ],
      [
       116.34784703426158,
       40.007643490340804
      ],
      [
       116.35216513541609,
       40.00766770921567
      ],
      [
       116.35206772993648,
       40.01796903526423
      ],
      [
       116.34793184863688,
       40.01794583673919
      ],
      [
       116.34793503068977,
       40.01807702070496
      ],
      [
       116.34780398865495,
       40.012674352850155
      ]
     ],
     [
      [
       116.34727917272004,
       39.99817815709532
      ],
      [
       116.3476642495778,
       40.00716011200005
      ],
      [
       116.34767786878234,
       40.007477744710584
      ],
      [
       116.34727917272004,
       39.99817815709532
      ]
     ],
     [
      [
       116.34655698391201,
       39.983438083984076
      ],
      [
       116.34656726226656,
       39.98363627659793
      ],
      [
       116.34694012491127,
       39.990825331404615
      ],
      [
       116.34655698391201,
       39.983438083984076
      ]
     ],
     [
      [
       116.34567716524414,
       39.965974034181976
      ],
      [
       116.3456769662936,
       39.96597032134752
      ],
      [
       116.34548851991916,
       39.96267370328644
      ],
      [
       116.34491581459059,
       39.962670468301674
      ],
      [
       116.34492870624902,
       39.9613196180639
      ],
      [
       116.34541127607524,
       39.96132234402059
      ],
      [
       116.34487709535739,
       39.95197571065822
      ],
      [
       116.34477342831711,
       39.94912614480098
      ],
      [
       116.34821566994583,
       39.949145548674956
      ],
      [
       116.34808938597124,
       39.962446706768084
      ],
      [
       116.34667361095734,
       39.96243873624769
      ],
      [
       116.3466717251966,
       39.96263686099989
      ],
      [
       116.34808750429626,
       39.96264483157591
      ],
      [
       116.34796113482231,
       39.97594598937836
      ],
      [
       116.34617536194038,
       39.97593593019525
      ],
      [
       116.3461852747867,
       39.976134121029865
      ],
      [
       116.34567716524414,
       39.965974034181976
      ]
     ],
     [
      [
       116.3448092716409,
       39.9836263525169
      ],
      [
       116.34479899836953,
       39.9834281597878
      ],
      [
       116.34462270371385,
       39.98002691377662
      ],
      [
       116.34499403792215,
       39.98719070650809
      ],
      [
       116.3448092716409,
       39.9836263525169
      ]
     ],
     [
      [
       116.34532689493423,
       39.9936292789959
      ],
      [
       116.3453224100271,
       39.993524581898235
      ],
      [
       116.34569125063254,
       40.00213400916649
      ],
      [
       116.34532689493423,
       39.9936292789959
      ]
     ],
     [
      [
       116.3482766383906,
       39.962447759665665
      ],
      [
       116.34840288609811,
       39.94914660107936
      ],
      [
       116.35271730741893,
       39.94917077010969
      ],
      [
       116.35259189549286,
       39.96247194002234
      ],
      [
       116.3482766383906,
       39.962447759665665
      ]
     ],
     [
      [
       116.35246452997663,
       39.97597123463288
      ],
      [
       116.3481484240737,
       39.97594704277668
      ],
      [
       116.34827475725604,
       39.962645884480835
      ],
      [
       116.35259002681173,
       39.96267006500626
      ],
      [
       116.35246452997663,
       39.97597123463288
      ]
     ]
    ]
   }
  },
  {
   "type": "Feature",
   "id": "PHASE-3",
   "properties": {
    "id": "PHASE-3",
    "layer": "PHASE",
    "source_type": "agent_generated_design",
    "confidence": "medium",
    "geometry_role": "design_proposal",
    "area_sqm_declared": 1945523.778,
    "phase_label_zh": "远期（众智园加速区段）",
    "phase_note_zh": "概念分期建议，非实施时序承诺。"
   },
   "geometry": {
    "type": "MultiPolygon",
    "coordinates": [
     [
      [
       [
        116.34176881231876,
        40.00741099302589
       ],
       [
        116.34177847792493,
        40.00760918174794
       ],
       [
        116.34228110288105,
        40.01791390258006
       ],
       [
        116.3422907710359,
        40.01811209092543
       ],
       [
        116.34270000000001,
        40.026500000000006
       ],
       [
        116.34748006826277,
        40.02650016129567
       ],
       [
        116.3475073848007,
        40.026500161650766
       ],
       [
        116.34766750569982,
        40.02650016360271
       ],
       [
        116.35198702496955,
        40.026500132764
       ],
       [
        116.35206585606575,
        40.018167158324815
       ],
       [
        116.34793665530528,
        40.01814399729616
       ],
       [
        116.34798952023114,
        40.020323361070304
       ],
       [
        116.34732794011747,
        40.02031963678951
       ],
       [
        116.34731506882635,
        40.02167047388179
       ],
       [
        116.34802229500754,
        40.02167445509289
       ],
       [
        116.3480784046968,
        40.02398740813352
       ],
       [
        116.34769138582914,
        40.02399295684176
       ],
       [
        116.34750392963296,
        40.02399564394521
       ],
       [
        116.3463215950706,
        40.02401258520501
       ],
       [
        116.34617914556449,
        40.018134094636196
       ],
       [
        116.34617434398136,
        40.017935934046825
       ],
       [
        116.34592471542958,
        40.00763265689808
       ],
       [
        116.34592192370079,
        40.00751741716321
       ],
       [
        116.34591837001223,
        40.00743448723286
       ],
       [
        116.34176881231876,
        40.00741099302589
       ]
      ]
     ],
     [
      [
       [
        116.34711518433478,
        40.01267047430891
       ],
       [
        116.34780398865495,
        40.012674352850155
       ],
       [
        116.34793184863688,
        40.01794583673919
       ],
       [
        116.35206772993648,
        40.01796903526423
       ],
       [
        116.35216513541609,
        40.00766770921567
       ],
       [
        116.34784703426158,
        40.007643490340804
       ],
       [
        116.34781201148958,
        40.01132348631447
       ],
       [
        116.34712805546806,
        40.01131963516617
       ],
       [
        116.34711518433478,
        40.01267047430891
       ]
      ]
     ],
     [
      [
       [
        116.35454851030278,
        40.01798287935351
       ],
       [
        116.35454664360545,
        40.01818100251067
       ],
       [
        116.3522532608439,
        40.01816820600311
       ],
       [
        116.35217446250492,
        40.02650012778059
       ],
       [
        116.35446824566914,
        40.02650004223692
       ],
       [
        116.3553,
        40.02649999999999
       ],
       [
        116.35459026042865,
        40.01355118761257
       ],
       [
        116.35426850167435,
        40.007679448059996
       ],
       [
        116.35235251148416,
        40.00766875650671
       ],
       [
        116.35225513417274,
        40.01797008293522
       ],
       [
        116.35454851030278,
        40.01798287935351
       ]
      ]
     ]
    ]
   }
  }
 ]
}