{
 "type": "FeatureCollection",
 "name": "public_space.geojson",
 "features": [
  {
   "type": "Feature",
   "id": "PS-001",
   "properties": {
    "id": "PS-001",
    "layer": "PUBLIC_SPACE",
    "source_type": "agent_generated_design",
    "confidence": "medium",
    "geometry_role": "design_proposal",
    "area_sqm_declared": 22500.0,
    "space_type": "plaza",
    "name_zh": "AI 公共客厅广场 001"
   },
   "geometry": {
    "type": "Polygon",
    "coordinates": [
     [
      [
       116.34431600654703,
       39.94747046701254
      ],
      [
       116.34607111418929,
       39.94748038012998
      ],
      [
       116.34608397619556,
       39.94612952603013
      ],
      [
       116.34432890306817,
       39.94611961338439
      ],
      [
       116.34431600654703,
       39.94747046701254
      ]
     ]
    ]
   }
  },
  {
   "type": "Feature",
   "id": "PS-002",
   "properties": {
    "id": "PS-002",
    "layer": "PUBLIC_SPACE",
    "source_type": "agent_generated_design",
    "confidence": "medium",
    "geometry_role": "design_proposal",
    "area_sqm_declared": 22500.0,
    "space_type": "plaza",
    "name_zh": "AI 公共客厅广场 002"
   },
   "geometry": {
    "type": "Polygon",
    "coordinates": [
     [
      [
       116.34491581459059,
       39.962670468301674
      ],
      [
       116.34667131102151,
       39.962680375446745
      ],
      [
       116.34668416813886,
       39.96132952473761
      ],
      [
       116.34492870624902,
       39.9613196180639
      ],
      [
       116.34491581459059,
       39.962670468301674
      ]
     ]
    ]
   }
  },
  {
   "type": "Feature",
   "id": "PS-003",
   "properties": {
    "id": "PS-003",
    "layer": "PUBLIC_SPACE",
    "source_type": "agent_generated_design",
    "confidence": "medium",
    "geometry_role": "design_proposal",
    "area_sqm_declared": 22500.0,
    "space_type": "plaza",
    "name_zh": "AI 公共客厅广场 003"
   },
   "geometry": {
    "type": "Polygon",
    "coordinates": [
     [
      [
       116.34591544004346,
       39.99217046954378
      ],
      [
       116.3476716918191,
       39.99218036757164
      ],
      [
       116.34768454266053,
       39.99082952348879
      ],
      [
       116.34592832547695,
       39.990819625931785
      ],
      [
       116.34591544004346,
       39.99217046954378
      ]
     ]
    ]
   }
  },
  {
   "type": "Feature",
   "id": "PS-004",
   "properties": {
    "id": "PS-004",
    "layer": "PUBLIC_SPACE",
    "source_type": "agent_generated_design",
    "confidence": "medium",
    "geometry_role": "design_proposal",
    "area_sqm_declared": 22500.0,
    "space_type": "plaza",
    "name_zh": "AI 公共客厅广场 004"
   },
   "geometry": {
    "type": "Polygon",
    "coordinates": [
     [
      [
       116.3459153618297,
       39.998170468229105
      ],
      [
       116.34767176730026,
       39.99818036748227
      ],
      [
       116.3476846208691,
       39.99682952480205
      ],
      [
       116.34592825000098,
       39.99681962601979
      ],
      [
       116.3459153618297,
       39.998170468229105
      ]
     ]
    ]
   }
  },
  {
   "type": "Feature",
   "id": "PS-005",
   "properties": {
    "id": "PS-005",
    "layer": "PUBLIC_SPACE",
    "source_type": "agent_generated_design",
    "confidence": "medium",
    "geometry_role": "design_proposal",
    "area_sqm_declared": 22500.0,
    "space_type": "plaza",
    "name_zh": "AI 公共客厅广场 005"
   },
   "geometry": {
    "type": "Polygon",
    "coordinates": [
     [
      [
       116.34711518433478,
       40.01267047430891
      ],
      [
       116.34887196184572,
       40.01268035833209
      ],
      [
       116.34888479835143,
       40.01132951871923
      ],
      [
       116.34712805546806,
       40.01131963516617
      ],
      [
       116.34711518433478,
       40.01267047430891
      ]
     ]
    ]
   }
  },
  {
   "type": "Feature",
   "id": "PS-006",
   "properties": {
    "id": "PS-006",
    "layer": "PUBLIC_SPACE",
    "source_type": "agent_generated_design",
    "confidence": "medium",
    "geometry_role": "design_proposal",
    "area_sqm_declared": 22500.0,
    "space_type": "plaza",
    "name_zh": "AI 公共客厅广场 006"
   },
   "geometry": {
    "type": "Polygon",
    "coordinates": [
     [
      [
       116.34731506882635,
       40.02167047388179
      ],
      [
       116.34907207720411,
       40.02168035670659
      ],
      [
       116.34908491385207,
       40.020329519144276
      ],
      [
       116.34732794011747,
       40.02031963678951
      ],
      [
       116.34731506882635,
       40.02167047388179
      ]
     ]
    ]
   }
  }
 ]
}