{
 "type": "FeatureCollection",
 "name": "roads.geojson",
 "features": [
  {
   "type": "Feature",
   "id": "RD-EW-01-1",
   "properties": {
    "id": "RD-EW-01-1",
    "layer": "ROAD_CENTERLINE",
    "source_type": "agent_generated_design",
    "confidence": "medium",
    "geometry_role": "design_proposal",
    "road_class": "secondary",
    "name_zh": "建议次干路 RD-EW-01",
    "length_m_declared": 1273.5
   },
   "geometry": {
    "type": "LineString",
    "coordinates": [
     [
      116.340410585232,
      39.94900233673809
     ],
     [
      116.35531171701913,
      39.94908615851964
     ]
    ]
   }
  },
  {
   "type": "Feature",
   "id": "RD-EW-02-1",
   "properties": {
    "id": "RD-EW-02-1",
    "layer": "ROAD_CENTERLINE",
    "source_type": "agent_generated_design",
    "confidence": "medium",
    "geometry_role": "design_proposal",
    "road_class": "secondary",
    "name_zh": "建议次干路 RD-EW-02",
    "length_m_declared": 1305.3
   },
   "geometry": {
    "type": "LineString",
    "coordinates": [
     [
      116.34003565934007,
      39.96250020302015
     ],
     [
      116.35531170919097,
      39.96258616556594
     ]
    ]
   }
  },
  {
   "type": "Feature",
   "id": "RD-EW-03-1",
   "properties": {
    "id": "RD-EW-03-1",
    "layer": "ROAD_CENTERLINE",
    "source_type": "agent_generated_design",
    "confidence": "medium",
    "geometry_role": "design_proposal",
    "road_class": "secondary",
    "name_zh": "建议次干路 RD-EW-03",
    "length_m_declared": 1253.5
   },
   "geometry": {
    "type": "LineString",
    "coordinates": [
     [
      116.33975267959538,
      39.97599859150756
     ],
     [
      116.35442542530423,
      39.97608123987999
     ]
    ]
   }
  },
  {
   "type": "Feature",
   "id": "RD-EW-04-1",
   "properties": {
    "id": "RD-EW-04-1",
    "layer": "ROAD_CENTERLINE",
    "source_type": "agent_generated_design",
    "confidence": "medium",
    "geometry_role": "design_proposal",
    "road_class": "secondary",
    "name_zh": "建议次干路 RD-EW-04",
    "length_m_declared": 1160.8
   },
   "geometry": {
    "type": "LineString",
    "coordinates": [
     [
      116.34023659038927,
      39.98350134695227
     ],
     [
      116.35382564921296,
      39.983577901427466
     ]
    ]
   }
  },
  {
   "type": "Feature",
   "id": "RD-EW-05-1",
   "properties": {
    "id": "RD-EW-05-1",
    "layer": "ROAD_CENTERLINE",
    "source_type": "agent_generated_design",
    "confidence": "medium",
    "geometry_role": "design_proposal",
    "road_class": "secondary",
    "name_zh": "建议次干路 RD-EW-05",
    "length_m_declared": 1078.3
   },
   "geometry": {
    "type": "LineString",
    "coordinates": [
     [
      116.34088195297225,
      39.99350501896759
     ],
     [
      116.35350758856008,
      39.993576132439266
     ]
    ]
   }
  },
  {
   "type": "Feature",
   "id": "RD-EW-06-1",
   "properties": {
    "id": "RD-EW-06-1",
    "layer": "ROAD_CENTERLINE",
    "source_type": "agent_generated_design",
    "confidence": "medium",
    "geometry_role": "design_proposal",
    "road_class": "secondary",
    "name_zh": "建议次干路 RD-EW-06",
    "length_m_declared": 1068.5
   },
   "geometry": {
    "type": "LineString",
    "coordinates": [
     [
      116.34176192236343,
      40.00751002080521
     ],
     [
      116.35427479705054,
      40.00758041618385
     ]
    ]
   }
  },
  {
   "type": "Feature",
   "id": "RD-EW-07-1",
   "properties": {
    "id": "RD-EW-07-1",
    "layer": "ROAD_CENTERLINE",
    "source_type": "agent_generated_design",
    "confidence": "medium",
    "geometry_role": "design_proposal",
    "road_class": "secondary",
    "name_zh": "建议次干路 RD-EW-07",
    "length_m_declared": 1073.7
   },
   "geometry": {
    "type": "LineString",
    "coordinates": [
     [
      116.34227421240185,
      40.01801293020844
     ],
     [
      116.35485038524973,
      40.01808362713255
     ]
    ]
   }
  },
  {
   "type": "Feature",
   "id": "RD-NS-01-1",
   "properties": {
    "id": "RD-NS-01-1",
    "layer": "ROAD_CENTERLINE",
    "source_type": "agent_generated_design",
    "confidence": "medium",
    "geometry_role": "design_proposal",
    "road_class": "branch",
    "name_zh": "建议支路 RD-NS-01",
    "length_m_declared": 9718.1
   },
   "geometry": {
    "type": "LineString",
    "coordinates": [
     [
      116.34840561979492,
      39.938991223167136
     ],
     [
      116.34757370118632,
      40.02650916830004
     ]
    ]
   }
  },
  {
   "type": "Feature",
   "id": "RD-NS-02-1",
   "properties": {
    "id": "RD-NS-02-1",
    "layer": "ROAD_CENTERLINE",
    "source_type": "agent_generated_design",
    "confidence": "medium",
    "geometry_role": "design_proposal",
    "road_class": "branch",
    "name_zh": "建议支路 RD-NS-02",
    "length_m_declared": 9718.1
   },
   "geometry": {
    "type": "LineString",
    "coordinates": [
     [
      116.35290683042761,
      39.93899112003363
     ],
     [
      116.35208065853492,
      40.02650913613119
     ]
    ]
   }
  },
  {
   "type": "Feature",
   "id": "GW-JZ-01",
   "properties": {
    "id": "GW-JZ-01",
    "layer": "ROAD_CENTERLINE",
    "source_type": "agent_generated_design",
    "confidence": "medium",
    "geometry_role": "design_proposal",
    "road_class": "greenway",
    "name_zh": "京张遗址绿道（heritage greenway）"
   },
   "geometry": {
    "type": "LineString",
    "coordinates": [
     [
      116.3436,
      39.941
     ],
     [
      116.34400000000001,
      39.95199999999999
     ],
     [
      116.3448,
      39.965999999999994
     ],
     [
      116.3455,
      39.980000000000004
     ],
     [
      116.3462,
      39.99349999999999
     ],
     [
      116.3468,
      40.00749999999999
     ],
     [
      116.34720000000002,
      40.023999999999994
     ]
    ]
   }
  },
  {
   "type": "Feature",
   "id": "CW-JZ-01",
   "properties": {
    "id": "CW-JZ-01",
    "layer": "ROAD_CENTERLINE",
    "source_type": "agent_generated_design",
    "confidence": "medium",
    "geometry_role": "design_proposal",
    "road_class": "cycleway",
    "name_zh": "智轨骑行通勤道"
   },
   "geometry": {
    "type": "LineString",
    "coordinates": [
     [
      116.34390000000002,
      39.94149999999999
     ],
     [
      116.3474,
      40.0235
     ]
    ]
   }
  },
  {
   "type": "Feature",
   "id": "TC-DZS",
   "properties": {
    "id": "TC-DZS",
    "layer": "ROAD_CENTERLINE",
    "source_type": "agent_generated_design",
    "confidence": "medium",
    "geometry_role": "design_proposal",
    "road_class": "transit_connection",
    "name_zh": "轨道站点接驳通道（大钟寺站，概念建议）"
   },
   "geometry": {
    "type": "LineString",
    "coordinates": [
     [
      116.3451,
      39.946799999999996
     ],
     [
      116.3519,
      39.94740000000001
     ]
    ]
   }
  },
  {
   "type": "Feature",
   "id": "TC-WDK",
   "properties": {
    "id": "TC-WDK",
    "layer": "ROAD_CENTERLINE",
    "source_type": "agent_generated_design",
    "confidence": "medium",
    "geometry_role": "design_proposal",
    "road_class": "transit_connection",
    "name_zh": "轨道站点接驳通道（五道口站，概念建议）"
   },
   "geometry": {
    "type": "LineString",
    "coordinates": [
     [
      116.346,
      39.9915
     ],
     [
      116.3375,
      39.992900000000006
     ]
    ]
   }
  },
  {
   "type": "Feature",
   "id": "TC-SHL",
   "properties": {
    "id": "TC-SHL",
    "layer": "ROAD_CENTERLINE",
    "source_type": "agent_generated_design",
    "confidence": "medium",
    "geometry_role": "design_proposal",
    "road_class": "transit_connection",
    "name_zh": "轨道站点接驳通道（上地/清河方向，概念建议）"
   },
   "geometry": {
    "type": "LineString",
    "coordinates": [
     [
      116.34699999999998,
      40.012
     ],
     [
      116.3353,
      40.023
     ]
    ]
   }
  }
 ]
}