{
  "type": "FeatureCollection",
  "name": "green_space_temporal_stitch",
  "features": [
    {
      "type": "Feature",
      "id": "GREEN-001",
      "properties": {
        "id": "GREEN-001",
        "layer": "GREEN_SPACE",
        "source_type": "agent_generated_design",
        "confidence": "medium",
        "geometry_role": "design_proposal",
        "land_use_code": "1401",
        "name_zh": "京张遗址公园绿色主廊",
        "name_en": "Jingzhang Heritage Park Main Green Corridor",
        "type": "linear_park",
        "width_m_approx": 150,
        "length_m_approx": 9000,
        "area_sqm_declared": 1612414.367,
        "temporal_role": "Primary spine connecting all 9 suture nodes; seasonal planting program varies by segment",
        "area_sqm": 1612414.367
      },
      "geometry": {
        "type": "Polygon",
        "coordinates": [
          [
            [
              116.3465,
              39.94
            ],
            [
              116.3485,
              39.94
            ],
            [
              116.3488,
              39.96
            ],
            [
              116.349,
              39.98
            ],
            [
              116.3488,
              40.0
            ],
            [
              116.3485,
              40.015
            ],
            [
              116.3483,
              40.025
            ],
            [
              116.3463,
              40.025
            ],
            [
              116.3465,
              40.015
            ],
            [
              116.3468,
              40.0
            ],
            [
              116.347,
              39.98
            ],
            [
              116.3468,
              39.96
            ],
            [
              116.3465,
              39.94
            ]
          ]
        ]
      }
    },
    {
      "type": "Feature",
      "id": "GREEN-002",
      "properties": {
        "id": "GREEN-002",
        "layer": "GREEN_SPACE",
        "source_type": "agent_generated_design",
        "confidence": "medium",
        "geometry_role": "design_proposal",
        "land_use_code": "1401",
        "name_zh": "清河滨水绿带（北段生态缓冲）",
        "name_en": "Qinghe Riverside Green Belt",
        "type": "riverside_buffer",
        "area_sqm_declared": 436045.606,
        "temporal_role": "Winter wind shelter corridor; summer shading canopy zone",
        "area_sqm": 436045.606
      },
      "geometry": {
        "type": "Polygon",
        "coordinates": [
          [
            [
              116.343,
              40.021
            ],
            [
              116.3545,
              40.021
            ],
            [
              116.3545,
              40.025
            ],
            [
              116.343,
              40.025
            ],
            [
              116.343,
              40.021
            ]
          ]
        ]
      }
    },
    {
      "type": "Feature",
      "id": "GREEN-003",
      "properties": {
        "id": "GREEN-003",
        "layer": "GREEN_SPACE",
        "source_type": "agent_generated_design",
        "confidence": "medium",
        "geometry_role": "design_proposal",
        "land_use_code": "1401",
        "name_zh": "小月河场景赋能翼绿带",
        "name_en": "Xiaoyuehe Scenario Empowerment Green Belt",
        "type": "ecological_corridor",
        "area_sqm_declared": 371636.721,
        "temporal_role": "Stormwater retention in summer; AI fitness trail in winter",
        "area_sqm": 371636.721
      },
      "geometry": {
        "type": "Polygon",
        "coordinates": [
          [
            [
              116.351,
              39.98
            ],
            [
              116.351,
              39.995
            ],
            [
              116.35357397260275,
              39.995
            ],
            [
              116.3533,
              39.99
            ],
            [
              116.3541,
              39.98
            ],
            [
              116.351,
              39.98
            ]
          ]
        ]
      }
    },
    {
      "type": "Feature",
      "id": "GREEN-004",
      "properties": {
        "id": "GREEN-004",
        "layer": "GREEN_SPACE",
        "source_type": "agent_generated_design",
        "confidence": "medium",
        "geometry_role": "design_proposal",
        "land_use_code": "1401",
        "name_zh": "缝合节点口袋公园群（9处）",
        "name_en": "Suture Node Pocket Park Cluster (9 sites)",
        "type": "pocket_park_cluster",
        "node_count": 9,
        "avg_node_area_sqm": 8000,
        "area_sqm_declared": 239035.645,
        "temporal_role": "Each node operates 3 temporal programs: morning community, midday commuter, evening recreation",
        "area_sqm": 239035.645
      },
      "geometry": {
        "type": "MultiPolygon",
        "coordinates": [
          [
            [
              [
                116.3478,
                40.004
              ],
              [
                116.3492,
                40.004
              ],
              [
                116.3492,
                40.006
              ],
              [
                116.3478,
                40.006
              ],
              [
                116.3478,
                40.004
              ]
            ]
          ],
          [
            [
              [
                116.3476,
                39.997
              ],
              [
                116.349,
                39.997
              ],
              [
                116.349,
                39.999
              ],
              [
                116.3476,
                39.999
              ],
              [
                116.3476,
                39.997
              ]
            ]
          ],
          [
            [
              [
                116.3477,
                39.99
              ],
              [
                116.3491,
                39.99
              ],
              [
                116.3491,
                39.992
              ],
              [
                116.3477,
                39.992
              ],
              [
                116.3477,
                39.99
              ]
            ]
          ],
          [
            [
              [
                116.3476,
                39.983
              ],
              [
                116.349,
                39.983
              ],
              [
                116.349,
                39.985
              ],
              [
                116.3476,
                39.985
              ],
              [
                116.3476,
                39.983
              ]
            ]
          ],
          [
            [
              [
                116.3475,
                39.976
              ],
              [
                116.3489,
                39.976
              ],
              [
                116.3489,
                39.978
              ],
              [
                116.3475,
                39.978
              ],
              [
                116.3475,
                39.976
              ]
            ]
          ],
          [
            [
              [
                116.3474,
                39.969
              ],
              [
                116.3488,
                39.969
              ],
              [
                116.3488,
                39.971
              ],
              [
                116.3474,
                39.971
              ],
              [
                116.3474,
                39.969
              ]
            ]
          ],
          [
            [
              [
                116.3473,
                39.962
              ],
              [
                116.3487,
                39.962
              ],
              [
                116.3487,
                39.964
              ],
              [
                116.3473,
                39.964
              ],
              [
                116.3473,
                39.962
              ]
            ]
          ],
          [
            [
              [
                116.3472,
                39.955
              ],
              [
                116.3486,
                39.955
              ],
              [
                116.3486,
                39.957
              ],
              [
                116.3472,
                39.957
              ],
              [
                116.3472,
                39.955
              ]
            ]
          ],
          [
            [
              [
                116.3471,
                39.948
              ],
              [
                116.3485,
                39.948
              ],
              [
                116.3485,
                39.95
              ],
              [
                116.3471,
                39.95
              ],
              [
                116.3471,
                39.948
              ]
            ]
          ]
        ]
      }
    },
    {
      "type": "Feature",
      "id": "GREEN-005",
      "properties": {
        "id": "GREEN-005",
        "layer": "GREEN_SPACE",
        "source_type": "agent_generated_design",
        "confidence": "low",
        "geometry_role": "design_proposal",
        "land_use_code": "1401",
        "name_zh": "西侧校园渗透绿地",
        "name_en": "West-side Campus Permeation Green Space",
        "type": "campus_buffer",
        "area_sqm_declared": 397048.649,
        "temporal_role": "Open to community on weekends; campus use on weekdays",
        "area_sqm": 397048.649
      },
      "geometry": {
        "type": "Polygon",
        "coordinates": [
          [
            [
              116.344,
              40.005
            ],
            [
              116.344,
              39.99
            ],
            [
              116.341,
              39.99
            ],
            [
              116.341,
              39.99514999999991
            ],
            [
              116.34163548387097,
              40.005
            ],
            [
              116.344,
              40.005
            ]
          ]
        ]
      }
    }
  ]
}