{
  "type": "FeatureCollection",
  "name": "phasing_temporal_stitch",
  "features": [
    {
      "type": "Feature",
      "id": "PHASE-001",
      "properties": {
        "id": "PHASE-001",
        "layer": "PHASE",
        "source_type": "agent_generated_design",
        "confidence": "medium",
        "geometry_role": "design_proposal",
        "phase": "phase_1",
        "name_zh": "一期：文化锚固与数据基础（1-3年）",
        "name_en": "Phase 1: Cultural Anchor & Data Foundation (Year 1-3)",
        "priority_nodes": [
          "node-07-memory",
          "node-06-commercial",
          "node-09-data"
        ],
        "rationale": "Start with heritage storytelling, commercial activation, and sensor infrastructure to build community trust and data baseline",
        "area_sqm_declared": 4477613.049,
        "area_sqm": 4477613.049
      },
      "geometry": {
        "type": "Polygon",
        "coordinates": [
          [
            [
              116.341,
              39.939
            ],
            [
              116.3553,
              39.939
            ],
            [
              116.3553,
              39.972
            ],
            [
              116.341,
              39.972
            ],
            [
              116.341,
              39.939
            ]
          ]
        ]
      }
    },
    {
      "type": "Feature",
      "id": "PHASE-002",
      "properties": {
        "id": "PHASE-002",
        "layer": "PHASE",
        "source_type": "agent_generated_design",
        "confidence": "medium",
        "geometry_role": "design_proposal",
        "phase": "phase_2",
        "name_zh": "二期：创新生态与知识缝合（3-5年）",
        "name_en": "Phase 2: Innovation Ecosystem & Knowledge Stitching (Year 3-5)",
        "priority_nodes": [
          "node-01-knowledge",
          "node-02-tidal",
          "node-03-innovation"
        ],
        "rationale": "Leverage established data baseline to program innovation nodes; AI scheduling system fully operational",
        "area_sqm_declared": 4599429.567,
        "area_sqm": 4599429.567
      },
      "geometry": {
        "type": "Polygon",
        "coordinates": [
          [
            [
              116.3427,
              39.988
            ],
            [
              116.3553,
              39.988
            ],
            [
              116.3553,
              40.0265
            ],
            [
              116.3427,
              40.0265
            ],
            [
              116.3427,
              39.988
            ]
          ]
        ]
      }
    },
    {
      "type": "Feature",
      "id": "PHASE-003",
      "properties": {
        "id": "PHASE-003",
        "layer": "PHASE",
        "source_type": "agent_generated_design",
        "confidence": "medium",
        "geometry_role": "design_proposal",
        "phase": "phase_3",
        "name_zh": "三期：社区融合与生态完善（5-10年）",
        "name_en": "Phase 3: Community Integration & Ecological Completion (Year 5-10)",
        "priority_nodes": [
          "node-04-intergenerational",
          "node-05-natural",
          "node-08-health"
        ],
        "rationale": "Complete community-oriented nodes once AI system proves trustworthy and temporal programs are validated by residents",
        "area_sqm_declared": 2246079.808,
        "area_sqm": 2246079.808
      },
      "geometry": {
        "type": "Polygon",
        "coordinates": [
          [
            [
              116.3397,
              39.972
            ],
            [
              116.3545,
              39.972
            ],
            [
              116.3545,
              39.988
            ],
            [
              116.3397,
              39.988
            ],
            [
              116.3397,
              39.972
            ]
          ]
        ]
      }
    }
  ]
}