{
  "type": "FeatureCollection",
  "name": "public_space_temporal_stitch",
  "features": [
    {
      "type": "Feature",
      "id": "PUBLIC-001",
      "properties": {
        "id": "PUBLIC-001",
        "layer": "PUBLIC_SPACE",
        "source_type": "agent_generated_design",
        "confidence": "medium",
        "geometry_role": "design_proposal",
        "name_zh": "缝合节点01：知识渗透广场",
        "name_en": "Suture Node 01: Knowledge Permeation Plaza",
        "node_type": "knowledge_permeation",
        "suture_direction": "east-west",
        "temporal_program": {
          "morning": "Community morning exercise and elder activities",
          "midday": "University-community knowledge exchange lectures",
          "afternoon": "Student study and research sharing",
          "evening": "Night market for innovation products"
        },
        "area_sqm_declared": 151707.446,
        "area_sqm": 151707.446
      },
      "geometry": {
        "type": "Polygon",
        "coordinates": [
          [
            [
              116.346,
              40.003
            ],
            [
              116.35,
              40.003
            ],
            [
              116.35,
              40.007
            ],
            [
              116.346,
              40.007
            ],
            [
              116.346,
              40.003
            ]
          ]
        ]
      }
    },
    {
      "type": "Feature",
      "id": "PUBLIC-002",
      "properties": {
        "id": "PUBLIC-002",
        "layer": "PUBLIC_SPACE",
        "source_type": "agent_generated_design",
        "confidence": "medium",
        "geometry_role": "design_proposal",
        "name_zh": "缝合节点02：潮汐交织广场",
        "name_en": "Suture Node 02: Tidal Weave Plaza",
        "node_type": "tidal_weave",
        "suture_direction": "east-west",
        "temporal_program": {
          "morning_rush": "Commuter flow priority east-west passage",
          "midday": "Pop-up food market and rest zone",
          "evening_rush": "Reverse commuter flow with AI wayfinding",
          "night": "Open-air cinema and community gathering"
        },
        "area_sqm_declared": 136550.481,
        "area_sqm": 136550.481
      },
      "geometry": {
        "type": "Polygon",
        "coordinates": [
          [
            [
              116.3462,
              39.996
            ],
            [
              116.3498,
              39.996
            ],
            [
              116.3498,
              40.0
            ],
            [
              116.3462,
              40.0
            ],
            [
              116.3462,
              39.996
            ]
          ]
        ]
      }
    },
    {
      "type": "Feature",
      "id": "PUBLIC-003",
      "properties": {
        "id": "PUBLIC-003",
        "layer": "PUBLIC_SPACE",
        "source_type": "agent_generated_design",
        "confidence": "medium",
        "geometry_role": "design_proposal",
        "name_zh": "缝合节点03：创业孵化广场",
        "name_en": "Suture Node 03: Innovation Incubation Plaza",
        "node_type": "innovation_incubation",
        "suture_direction": "east-west",
        "temporal_program": {
          "weekday_day": "Open-air co-working and startup demo",
          "weekday_evening": "Networking and pitch events",
          "weekend": "Maker market and family innovation activities"
        },
        "area_sqm_declared": 128977.356,
        "area_sqm": 128977.356
      },
      "geometry": {
        "type": "Polygon",
        "coordinates": [
          [
            [
              116.3463,
              39.989
            ],
            [
              116.3497,
              39.989
            ],
            [
              116.3497,
              39.993
            ],
            [
              116.3463,
              39.993
            ],
            [
              116.3463,
              39.989
            ]
          ]
        ]
      }
    },
    {
      "type": "Feature",
      "id": "PUBLIC-004",
      "properties": {
        "id": "PUBLIC-004",
        "layer": "PUBLIC_SPACE",
        "source_type": "agent_generated_design",
        "confidence": "medium",
        "geometry_role": "design_proposal",
        "name_zh": "缝合节点04：代际编织广场",
        "name_en": "Suture Node 04: Intergenerational Weave Plaza",
        "node_type": "intergenerational_weave",
        "suture_direction": "east-west",
        "temporal_program": {
          "morning": "Elder tai chi and exercise",
          "school_hours": "Student outdoor classroom",
          "after_school": "Intergenerational games and learning",
          "evening": "Family dinner zone and storytelling"
        },
        "area_sqm_declared": 121402.698,
        "area_sqm": 121402.698
      },
      "geometry": {
        "type": "Polygon",
        "coordinates": [
          [
            [
              116.3464,
              39.982
            ],
            [
              116.3496,
              39.982
            ],
            [
              116.3496,
              39.986
            ],
            [
              116.3464,
              39.986
            ],
            [
              116.3464,
              39.982
            ]
          ]
        ]
      }
    },
    {
      "type": "Feature",
      "id": "PUBLIC-005",
      "properties": {
        "id": "PUBLIC-005",
        "layer": "PUBLIC_SPACE",
        "source_type": "agent_generated_design",
        "confidence": "medium",
        "geometry_role": "design_proposal",
        "name_zh": "缝合节点05：自然渗透广场",
        "name_en": "Suture Node 05: Natural Permeation Plaza",
        "node_type": "natural_permeation",
        "suture_direction": "east-west",
        "temporal_program": {
          "dry_season": "Ecological education and nature observation",
          "wet_season": "Rainwater collection demonstration and splash play",
          "daily_cycle": "Morning birdwatching, afternoon ecology class, evening firefly garden"
        },
        "area_sqm_declared": 136591.809,
        "area_sqm": 136591.809
      },
      "geometry": {
        "type": "Polygon",
        "coordinates": [
          [
            [
              116.3462,
              39.975
            ],
            [
              116.3498,
              39.975
            ],
            [
              116.3498,
              39.979
            ],
            [
              116.3462,
              39.979
            ],
            [
              116.3462,
              39.975
            ]
          ]
        ]
      }
    },
    {
      "type": "Feature",
      "id": "PUBLIC-006",
      "properties": {
        "id": "PUBLIC-006",
        "layer": "PUBLIC_SPACE",
        "source_type": "agent_generated_design",
        "confidence": "medium",
        "geometry_role": "design_proposal",
        "name_zh": "缝合节点06：商业缝合广场",
        "name_en": "Suture Node 06: Commercial Suture Plaza",
        "node_type": "commercial_suture",
        "suture_direction": "east-west",
        "temporal_program": {
          "weekday_morning": "Fresh produce market from local farms",
          "weekday_afternoon": "AI retail experience pop-ups",
          "weekend": "Full-day craft and tech bazaar",
          "evening": "Night dining and live music"
        },
        "area_sqm_declared": 129016.382,
        "area_sqm": 129016.382
      },
      "geometry": {
        "type": "Polygon",
        "coordinates": [
          [
            [
              116.3463,
              39.968
            ],
            [
              116.3497,
              39.968
            ],
            [
              116.3497,
              39.972
            ],
            [
              116.3463,
              39.972
            ],
            [
              116.3463,
              39.968
            ]
          ]
        ]
      }
    },
    {
      "type": "Feature",
      "id": "PUBLIC-007",
      "properties": {
        "id": "PUBLIC-007",
        "layer": "PUBLIC_SPACE",
        "source_type": "agent_generated_design",
        "confidence": "medium",
        "geometry_role": "design_proposal",
        "name_zh": "缝合节点07：记忆锚固广场",
        "name_en": "Suture Node 07: Memory Anchor Plaza",
        "node_type": "memory_anchor",
        "suture_direction": "east-west",
        "temporal_program": {
          "daily": "Heritage interpretation with AR storytelling",
          "weekly_saturday": "Railway history guided walk",
          "seasonal": "Zhan Tianyou birthday memorial (April), Mid-Autumn railway lantern festival",
          "annual": "Centennial celebration and community memory collection"
        },
        "area_sqm_declared": 136619.351,
        "area_sqm": 136619.351
      },
      "geometry": {
        "type": "Polygon",
        "coordinates": [
          [
            [
              116.3462,
              39.961
            ],
            [
              116.3498,
              39.961
            ],
            [
              116.3498,
              39.965
            ],
            [
              116.3462,
              39.965
            ],
            [
              116.3462,
              39.961
            ]
          ]
        ]
      }
    },
    {
      "type": "Feature",
      "id": "PUBLIC-008",
      "properties": {
        "id": "PUBLIC-008",
        "layer": "PUBLIC_SPACE",
        "source_type": "agent_generated_design",
        "confidence": "medium",
        "geometry_role": "design_proposal",
        "name_zh": "缝合节点08：健康缝合广场",
        "name_en": "Suture Node 08: Health Suture Plaza",
        "node_type": "health_suture",
        "suture_direction": "east-west",
        "temporal_program": {
          "early_morning": "Senior fitness and health monitoring",
          "midday": "Outdoor rehabilitation and therapy garden",
          "afternoon": "Children's sports and movement classes",
          "evening": "Night running station with AI coaching"
        },
        "area_sqm_declared": 129042.39,
        "area_sqm": 129042.39
      },
      "geometry": {
        "type": "Polygon",
        "coordinates": [
          [
            [
              116.3463,
              39.954
            ],
            [
              116.3497,
              39.954
            ],
            [
              116.3497,
              39.958
            ],
            [
              116.3463,
              39.958
            ],
            [
              116.3463,
              39.954
            ]
          ]
        ]
      }
    },
    {
      "type": "Feature",
      "id": "PUBLIC-009",
      "properties": {
        "id": "PUBLIC-009",
        "layer": "PUBLIC_SPACE",
        "source_type": "agent_generated_design",
        "confidence": "medium",
        "geometry_role": "design_proposal",
        "name_zh": "缝合节点09：数据缝合广场",
        "name_en": "Suture Node 09: Data Suture Plaza",
        "node_type": "data_suture",
        "suture_direction": "east-west",
        "temporal_program": {
          "always_on": "Environmental sensor dashboard public display",
          "weekday": "Tech demos and digital twin experiences",
          "weekend": "Citizen data workshops and feedback collection",
          "monthly": "AI governance public consultation"
        },
        "area_sqm_declared": 121463.897,
        "area_sqm": 121463.897
      },
      "geometry": {
        "type": "Polygon",
        "coordinates": [
          [
            [
              116.3464,
              39.947
            ],
            [
              116.3496,
              39.947
            ],
            [
              116.3496,
              39.951
            ],
            [
              116.3464,
              39.951
            ],
            [
              116.3464,
              39.947
            ]
          ]
        ]
      }
    }
  ]
}