{
  "type": "FeatureCollection",
  "name": "roads_temporal_stitch",
  "features": [
    {
      "type": "Feature",
      "id": "ROAD-001",
      "properties": {
        "id": "ROAD-001",
        "layer": "ROAD_CENTERLINE",
        "source_type": "agent_generated_design",
        "confidence": "medium",
        "geometry_role": "design_proposal",
        "road_class": "arterial",
        "name_zh": "学院路（东侧南北主干道）",
        "name_en": "Xueyuan Road",
        "length_m": 4341.779
      },
      "geometry": {
        "type": "MultiLineString",
        "coordinates": [
          [
            [
              116.354,
              39.94
            ],
            [
              116.3545,
              39.97
            ],
            [
              116.35454444444444,
              39.97444444444445
            ]
          ],
          [
            [
              116.35496276346605,
              40.020345433255315
            ],
            [
              116.355,
              40.025
            ]
          ]
        ]
      }
    },
    {
      "type": "Feature",
      "id": "ROAD-002",
      "properties": {
        "id": "ROAD-002",
        "layer": "ROAD_CENTERLINE",
        "source_type": "agent_generated_design",
        "confidence": "medium",
        "geometry_role": "design_proposal",
        "road_class": "arterial",
        "name_zh": "大钟寺东路/荷清路（西侧南北主干道）",
        "name_en": "Dazhongsi East Road / Heqing Road",
        "length_m": 9441.87
      },
      "geometry": {
        "type": "LineString",
        "coordinates": [
          [
            116.341,
            39.94
          ],
          [
            116.3405,
            39.97
          ],
          [
            116.3415,
            40.0
          ],
          [
            116.3428,
            40.025
          ]
        ]
      }
    },
    {
      "type": "Feature",
      "id": "ROAD-003",
      "properties": {
        "id": "ROAD-003",
        "layer": "ROAD_CENTERLINE",
        "source_type": "agent_generated_design",
        "confidence": "medium",
        "geometry_role": "design_proposal",
        "road_class": "pedestrian",
        "name_zh": "缝合支路01：知识渗透通道",
        "name_en": "Suture Crossing 01: Knowledge Permeation",
        "suture_node": "node-01",
        "length_m": 1066.228
      },
      "geometry": {
        "type": "LineString",
        "coordinates": [
          [
            116.34163548387097,
            40.005
          ],
          [
            116.3475,
            40.005
          ],
          [
            116.35412191780823,
            40.005
          ]
        ]
      }
    },
    {
      "type": "Feature",
      "id": "ROAD-004",
      "properties": {
        "id": "ROAD-004",
        "layer": "ROAD_CENTERLINE",
        "source_type": "agent_generated_design",
        "confidence": "medium",
        "geometry_role": "design_proposal",
        "road_class": "pedestrian",
        "name_zh": "缝合支路02：潮汐交织通道",
        "name_en": "Suture Crossing 02: Tidal Weave",
        "suture_node": "node-02",
        "length_m": 1045.151
      },
      "geometry": {
        "type": "LineString",
        "coordinates": [
          [
            116.3415,
            39.998
          ],
          [
            116.3475,
            39.998
          ],
          [
            116.35373835616438,
            39.998
          ]
        ]
      }
    },
    {
      "type": "Feature",
      "id": "ROAD-005",
      "properties": {
        "id": "ROAD-005",
        "layer": "ROAD_CENTERLINE",
        "source_type": "agent_generated_design",
        "confidence": "medium",
        "geometry_role": "design_proposal",
        "road_class": "pedestrian",
        "name_zh": "缝合支路03：创业孵化通道",
        "name_en": "Suture Crossing 03: Innovation Incubation",
        "suture_node": "node-03",
        "length_m": 1012.498
      },
      "geometry": {
        "type": "LineString",
        "coordinates": [
          [
            116.3415,
            39.991
          ],
          [
            116.3475,
            39.991
          ],
          [
            116.35335479452056,
            39.991
          ]
        ]
      }
    },
    {
      "type": "Feature",
      "id": "ROAD-006",
      "properties": {
        "id": "ROAD-006",
        "layer": "ROAD_CENTERLINE",
        "source_type": "agent_generated_design",
        "confidence": "medium",
        "geometry_role": "design_proposal",
        "road_class": "pedestrian",
        "name_zh": "缝合支路04：代际编织通道",
        "name_en": "Suture Crossing 04: Intergenerational Weave",
        "suture_node": "node-04",
        "length_m": 1048.921
      },
      "geometry": {
        "type": "LineString",
        "coordinates": [
          [
            116.3415,
            39.984
          ],
          [
            116.3475,
            39.984
          ],
          [
            116.35378,
            39.984
          ]
        ]
      }
    },
    {
      "type": "Feature",
      "id": "ROAD-007",
      "properties": {
        "id": "ROAD-007",
        "layer": "ROAD_CENTERLINE",
        "source_type": "agent_generated_design",
        "confidence": "medium",
        "geometry_role": "design_proposal",
        "road_class": "pedestrian",
        "name_zh": "缝合支路05：自然渗透通道",
        "name_en": "Suture Crossing 05: Natural Permeation",
        "suture_node": "node-05",
        "length_m": 1096.867
      },
      "geometry": {
        "type": "LineString",
        "coordinates": [
          [
            116.3415,
            39.977
          ],
          [
            116.3475,
            39.977
          ],
          [
            116.35434000000001,
            39.977
          ]
        ]
      }
    },
    {
      "type": "Feature",
      "id": "ROAD-008",
      "properties": {
        "id": "ROAD-008",
        "layer": "ROAD_CENTERLINE",
        "source_type": "agent_generated_design",
        "confidence": "medium",
        "geometry_role": "design_proposal",
        "road_class": "pedestrian",
        "name_zh": "缝合支路06：商业缝合通道",
        "name_en": "Suture Crossing 06: Commercial Suture",
        "suture_node": "node-06",
        "length_m": 1110.648
      },
      "geometry": {
        "type": "LineString",
        "coordinates": [
          [
            116.3415,
            39.97
          ],
          [
            116.3475,
            39.97
          ],
          [
            116.3545,
            39.97
          ]
        ]
      }
    },
    {
      "type": "Feature",
      "id": "ROAD-009",
      "properties": {
        "id": "ROAD-009",
        "layer": "ROAD_CENTERLINE",
        "source_type": "agent_generated_design",
        "confidence": "medium",
        "geometry_role": "design_proposal",
        "road_class": "pedestrian",
        "name_zh": "缝合支路07：记忆锚固通道",
        "name_en": "Suture Crossing 07: Memory Anchor",
        "suture_node": "node-07",
        "length_m": 1110.761
      },
      "geometry": {
        "type": "LineString",
        "coordinates": [
          [
            116.3415,
            39.963
          ],
          [
            116.3475,
            39.963
          ],
          [
            116.3545,
            39.963
          ]
        ]
      }
    },
    {
      "type": "Feature",
      "id": "ROAD-010",
      "properties": {
        "id": "ROAD-010",
        "layer": "ROAD_CENTERLINE",
        "source_type": "agent_generated_design",
        "confidence": "medium",
        "geometry_role": "design_proposal",
        "road_class": "pedestrian",
        "name_zh": "缝合支路08：健康缝合通道",
        "name_en": "Suture Crossing 08: Health Suture",
        "suture_node": "node-08",
        "length_m": 1110.875
      },
      "geometry": {
        "type": "LineString",
        "coordinates": [
          [
            116.3415,
            39.956
          ],
          [
            116.3475,
            39.956
          ],
          [
            116.3545,
            39.956
          ]
        ]
      }
    },
    {
      "type": "Feature",
      "id": "ROAD-011",
      "properties": {
        "id": "ROAD-011",
        "layer": "ROAD_CENTERLINE",
        "source_type": "agent_generated_design",
        "confidence": "medium",
        "geometry_role": "design_proposal",
        "road_class": "pedestrian",
        "name_zh": "缝合支路09：数据缝合通道",
        "name_en": "Suture Crossing 09: Data Suture",
        "suture_node": "node-09",
        "length_m": 1110.988
      },
      "geometry": {
        "type": "LineString",
        "coordinates": [
          [
            116.3415,
            39.949
          ],
          [
            116.3475,
            39.949
          ],
          [
            116.3545,
            39.949
          ]
        ]
      }
    },
    {
      "type": "Feature",
      "id": "ROAD-012",
      "properties": {
        "id": "ROAD-012",
        "layer": "ROAD_CENTERLINE",
        "source_type": "agent_generated_design",
        "confidence": "medium",
        "geometry_role": "design_proposal",
        "road_class": "greenway",
        "name_zh": "遗址公园慢行主通道",
        "name_en": "Heritage Park Main Greenway",
        "length_m": 9438.427
      },
      "geometry": {
        "type": "LineString",
        "coordinates": [
          [
            116.3475,
            39.94
          ],
          [
            116.3477,
            39.96
          ],
          [
            116.3478,
            39.98
          ],
          [
            116.3477,
            40.0
          ],
          [
            116.3475,
            40.025
          ]
        ]
      }
    }
  ]
}