{
  "type": "FeatureCollection",
  "name": "conceptual_care_facilities",
  "features": [
    {
      "type": "Feature",
      "id": "BLDG-001",
      "properties": {
        "id": "BLDG-001",
        "layer": "BUILDING_FOOTPRINT",
        "source_type": "agent_generated_design",
        "confidence": "medium",
        "geometry_role": "design_proposal",
        "name_zh": "可逆更新照护载体",
        "name_en": "Reversible-renewal care facility",
        "intervention": "renovate_or_reuse_subject_to_survey",
        "area_sqm_declared": 8759.623
      },
      "geometry": {
        "type": "Polygon",
        "coordinates": [
          [
            [
              116.34615,
              40.01717
            ],
            [
              116.34725,
              40.01717
            ],
            [
              116.34725,
              40.01633
            ],
            [
              116.34615,
              40.01633
            ],
            [
              116.34615,
              40.01717
            ]
          ]
        ]
      }
    },
    {
      "type": "Feature",
      "id": "BLDG-002",
      "properties": {
        "id": "BLDG-002",
        "layer": "BUILDING_FOOTPRINT",
        "source_type": "agent_generated_design",
        "confidence": "medium",
        "geometry_role": "design_proposal",
        "name_zh": "可逆更新照护载体",
        "name_en": "Reversible-renewal care facility",
        "intervention": "renovate_or_reuse_subject_to_survey",
        "area_sqm_declared": 8759.616
      },
      "geometry": {
        "type": "Polygon",
        "coordinates": [
          [
            [
              116.34975,
              40.01717
            ],
            [
              116.35085000000001,
              40.01717
            ],
            [
              116.35085000000001,
              40.01633
            ],
            [
              116.34975,
              40.01633
            ],
            [
              116.34975,
              40.01717
            ]
          ]
        ]
      }
    },
    {
      "type": "Feature",
      "id": "BLDG-003",
      "properties": {
        "id": "BLDG-003",
        "layer": "BUILDING_FOOTPRINT",
        "source_type": "agent_generated_design",
        "confidence": "medium",
        "geometry_role": "design_proposal",
        "name_zh": "可逆更新照护载体",
        "name_en": "Reversible-renewal care facility",
        "intervention": "renovate_or_reuse_subject_to_survey",
        "area_sqm_declared": 8763.194
      },
      "geometry": {
        "type": "Polygon",
        "coordinates": [
          [
            [
              116.34514999999999,
              39.98892
            ],
            [
              116.34625,
              39.98892
            ],
            [
              116.34625,
              39.988080000000004
            ],
            [
              116.34514999999999,
              39.988080000000004
            ],
            [
              116.34514999999999,
              39.98892
            ]
          ]
        ]
      }
    },
    {
      "type": "Feature",
      "id": "BLDG-004",
      "properties": {
        "id": "BLDG-004",
        "layer": "BUILDING_FOOTPRINT",
        "source_type": "agent_generated_design",
        "confidence": "medium",
        "geometry_role": "design_proposal",
        "name_zh": "可逆更新照护载体",
        "name_en": "Reversible-renewal care facility",
        "intervention": "renovate_or_reuse_subject_to_survey",
        "area_sqm_declared": 8763.186
      },
      "geometry": {
        "type": "Polygon",
        "coordinates": [
          [
            [
              116.34875,
              39.98892
            ],
            [
              116.34985,
              39.98892
            ],
            [
              116.34985,
              39.988080000000004
            ],
            [
              116.34875,
              39.988080000000004
            ],
            [
              116.34875,
              39.98892
            ]
          ]
        ]
      }
    },
    {
      "type": "Feature",
      "id": "BLDG-005",
      "properties": {
        "id": "BLDG-005",
        "layer": "BUILDING_FOOTPRINT",
        "source_type": "agent_generated_design",
        "confidence": "medium",
        "geometry_role": "design_proposal",
        "name_zh": "可逆更新照护载体",
        "name_en": "Reversible-renewal care facility",
        "intervention": "renovate_or_reuse_subject_to_survey",
        "area_sqm_declared": 8768.44
      },
      "geometry": {
        "type": "Polygon",
        "coordinates": [
          [
            [
              116.34615,
              39.947340000000004
            ],
            [
              116.34725,
              39.947340000000004
            ],
            [
              116.34725,
              39.94650000000001
            ],
            [
              116.34615,
              39.94650000000001
            ],
            [
              116.34615,
              39.947340000000004
            ]
          ]
        ]
      }
    },
    {
      "type": "Feature",
      "id": "BLDG-006",
      "properties": {
        "id": "BLDG-006",
        "layer": "BUILDING_FOOTPRINT",
        "source_type": "agent_generated_design",
        "confidence": "medium",
        "geometry_role": "design_proposal",
        "name_zh": "可逆更新照护载体",
        "name_en": "Reversible-renewal care facility",
        "intervention": "renovate_or_reuse_subject_to_survey",
        "area_sqm_declared": 8768.433
      },
      "geometry": {
        "type": "Polygon",
        "coordinates": [
          [
            [
              116.34975,
              39.947340000000004
            ],
            [
              116.35085000000001,
              39.947340000000004
            ],
            [
              116.35085000000001,
              39.94650000000001
            ],
            [
              116.34975,
              39.94650000000001
            ],
            [
              116.34975,
              39.947340000000004
            ]
          ]
        ]
      }
    }
  ]
}
