{
  "type": "FeatureCollection",
  "name": "climate_care_green_corridor",
  "features": [
    {
      "type": "Feature",
      "id": "GREEN-001",
      "properties": {
        "id": "GREEN-001",
        "layer": "GREEN_SPACE",
        "source_type": "agent_generated_design",
        "confidence": "medium",
        "geometry_role": "design_proposal",
        "name_zh": "气候照护与康复绿廊",
        "name_en": "Climate-care and rehabilitation green corridor",
        "land_use_code": "1401",
        "area_sqm_declared": 1779000.944
      },
      "geometry": {
        "type": "Polygon",
        "coordinates": [
          [
            [
              116.34605028037468,
              40.02347460741932
            ],
            [
              116.34834971962532,
              40.02352539258068
            ],
            [
              116.34924971962532,
              39.98277539258068
            ],
            [
              116.3492488797301,
              39.9826992519383
            ],
            [
              116.3474488797301,
              39.941949251938304
            ],
            [
              116.3451511202699,
              39.942050748061696
            ],
            [
              116.34694943925055,
              39.98276269165116
            ],
            [
              116.34605028037468,
              40.02347460741932
            ]
          ]
        ]
      }
    }
  ]
}
