{
  "type": "FeatureCollection",
  "name": "land_use_topology_partition",
  "features": [
    {
      "type": "Feature",
      "id": "LU-001",
      "properties": {
        "id": "LU-001",
        "layer": "LAND_USE",
        "source_type": "agent_generated_design",
        "confidence": "medium",
        "geometry_role": "design_proposal",
        "land_use_code": "0806",
        "name_zh": "健康服务与医患协同用地概念分区",
        "area_sqm_declared": 2674562.492,
        "name_en": "Conceptual health-service and co-care zone",
        "design_note": "Conceptual partition only; statutory land use remains pending official data."
      },
      "geometry": {
        "type": "Polygon",
        "coordinates": [
          [
            [
              116.3407,
              39.939
            ],
            [
              116.3397,
              39.975
            ],
            [
              116.3417,
              40.006
            ],
            [
              116.3427,
              40.0265
            ],
            [
              116.344068,
              40.0265
            ],
            [
              116.344068,
              39.939
            ],
            [
              116.3407,
              39.939
            ]
          ]
        ]
      }
    },
    {
      "type": "Feature",
      "id": "LU-002",
      "properties": {
        "id": "LU-002",
        "layer": "LAND_USE",
        "source_type": "agent_generated_design",
        "confidence": "medium",
        "geometry_role": "design_proposal",
        "land_use_code": "1401",
        "name_zh": "康复公园与气候照护绿廊",
        "area_sqm_declared": 2589339.239,
        "name_en": "Rehabilitation park and climate-care green corridor",
        "design_note": "Conceptual partition only; statutory land use remains pending official data."
      },
      "geometry": {
        "type": "Polygon",
        "coordinates": [
          [
            [
              116.344068,
              39.939
            ],
            [
              116.344068,
              40.0265
            ],
            [
              116.347188,
              40.0265
            ],
            [
              116.347188,
              39.939
            ],
            [
              116.344068,
              39.939
            ]
          ]
        ]
      }
    },
    {
      "type": "Feature",
      "id": "LU-003",
      "properties": {
        "id": "LU-003",
        "layer": "LAND_USE",
        "source_type": "agent_generated_design",
        "confidence": "medium",
        "geometry_role": "design_proposal",
        "land_use_code": "0802",
        "name_zh": "医疗AI、机器人与可信验证研发区",
        "area_sqm_declared": 3366138.181,
        "name_en": "Health-AI, robotics and trusted-validation R&D zone",
        "design_note": "Conceptual partition only; statutory land use remains pending official data."
      },
      "geometry": {
        "type": "Polygon",
        "coordinates": [
          [
            [
              116.347188,
              39.939
            ],
            [
              116.347188,
              40.0265
            ],
            [
              116.351244,
              40.0265
            ],
            [
              116.351244,
              39.939
            ],
            [
              116.347188,
              39.939
            ]
          ]
        ]
      }
    },
    {
      "type": "Feature",
      "id": "LU-004",
      "properties": {
        "id": "LU-004",
        "layer": "LAND_USE",
        "source_type": "agent_generated_design",
        "confidence": "medium",
        "geometry_role": "design_proposal",
        "land_use_code": "0702",
        "name_zh": "社区照护、文化与生活服务区",
        "area_sqm_declared": 2782792.823,
        "name_en": "Community care, culture and daily-service zone",
        "design_note": "Conceptual partition only; statutory land use remains pending official data."
      },
      "geometry": {
        "type": "Polygon",
        "coordinates": [
          [
            [
              116.3553,
              40.0265
            ],
            [
              116.3533,
              39.99
            ],
            [
              116.3553,
              39.965
            ],
            [
              116.3553,
              39.939
            ],
            [
              116.351244,
              39.939
            ],
            [
              116.351244,
              40.0265
            ],
            [
              116.3553,
              40.0265
            ]
          ]
        ]
      }
    }
  ]
}
