{
  "type": "FeatureCollection",
  "name": "care_commons_nodes",
  "features": [
    {
      "type": "Feature",
      "id": "PUBLIC-001",
      "properties": {
        "id": "PUBLIC-001",
        "layer": "PUBLIC_SPACE",
        "source_type": "agent_generated_design",
        "confidence": "medium",
        "geometry_role": "design_proposal",
        "name_zh": "验证花园",
        "name_en": "Validation Garden",
        "public_space_type": "care_commons",
        "area_sqm_declared": 85826.227
      },
      "geometry": {
        "type": "Polygon",
        "coordinates": [
          [
            [
              116.35018545626434,
              40.01652810547323
            ],
            [
              116.35014207390469,
              40.016310007623325
            ],
            [
              116.35007059520527,
              40.01609943816498
            ],
            [
              116.34997224318643,
              40.0159
            ],
            [
              116.34984870067849,
              40.015715105570685
            ],
            [
              116.34970208152802,
              40.01554791847199
            ],
            [
              116.34953489442931,
              40.0154012993215
            ],
            [
              116.34935,
              40.01527775681357
            ],
            [
              116.34915056183502,
              40.01517940479473
            ],
            [
              116.34893999237667,
              40.01510792609531
            ],
            [
              116.34872189452678,
              40.01506454373567
            ],
            [
              116.3485,
              40.01505
            ],
            [
              116.34827810547323,
              40.01506454373567
            ],
            [
              116.34806000762333,
              40.01510792609531
            ],
            [
              116.34784943816499,
              40.01517940479473
            ],
            [
              116.34765,
              40.01527775681357
            ],
            [
              116.34746510557069,
              40.0154012993215
            ],
            [
              116.34729791847198,
              40.01554791847199
            ],
            [
              116.34715129932151,
              40.015715105570685
            ],
            [
              116.34702775681357,
              40.0159
            ],
            [
              116.34692940479474,
              40.01609943816498
            ],
            [
              116.34685792609531,
              40.016310007623325
            ],
            [
              116.34681454373566,
              40.01652810547323
            ],
            [
              116.3468,
              40.01675
            ],
            [
              116.34681454373566,
              40.016971894526776
            ],
            [
              116.34685792609531,
              40.01718999237668
            ],
            [
              116.34692940479474,
              40.017400561835025
            ],
            [
              116.34702775681357,
              40.0176
            ],
            [
              116.34715129932151,
              40.01778489442932
            ],
            [
              116.34729791847198,
              40.017952081528016
            ],
            [
              116.34746510557069,
              40.0180987006785
            ],
            [
              116.34765,
              40.018222243186436
            ],
            [
              116.34784943816499,
              40.018320595205275
            ],
            [
              116.34806000762333,
              40.01839207390469
            ],
            [
              116.34827810547323,
              40.018435456264335
            ],
            [
              116.3485,
              40.01845
            ],
            [
              116.34872189452678,
              40.018435456264335
            ],
            [
              116.34893999237667,
              40.01839207390469
            ],
            [
              116.34915056183502,
              40.018320595205275
            ],
            [
              116.34935,
              40.018222243186436
            ],
            [
              116.34953489442931,
              40.0180987006785
            ],
            [
              116.34970208152802,
              40.017952081528016
            ],
            [
              116.34984870067849,
              40.01778489442932
            ],
            [
              116.34997224318643,
              40.0176
            ],
            [
              116.35007059520527,
              40.017400561835025
            ],
            [
              116.35014207390469,
              40.01718999237668
            ],
            [
              116.35018545626434,
              40.016971894526776
            ],
            [
              116.3502,
              40.01675
            ],
            [
              116.35018545626434,
              40.01652810547323
            ]
          ]
        ]
      }
    },
    {
      "type": "Feature",
      "id": "PUBLIC-002",
      "properties": {
        "id": "PUBLIC-002",
        "layer": "PUBLIC_SPACE",
        "source_type": "agent_generated_design",
        "confidence": "medium",
        "geometry_role": "design_proposal",
        "name_zh": "共诊客厅",
        "name_en": "Co-Care Forum",
        "public_space_type": "care_commons",
        "area_sqm_declared": 85861.212
      },
      "geometry": {
        "type": "Polygon",
        "coordinates": [
          [
            [
              116.34918545626434,
              39.98827810547323
            ],
            [
              116.34914207390469,
              39.988060007623325
            ],
            [
              116.34907059520526,
              39.98784943816498
            ],
            [
              116.34897224318642,
              39.98765
            ],
            [
              116.34884870067849,
              39.987465105570685
            ],
            [
              116.34870208152802,
              39.98729791847199
            ],
            [
              116.3485348944293,
              39.9871512993215
            ],
            [
              116.34835,
              39.98702775681357
            ],
            [
              116.34815056183501,
              39.98692940479473
            ],
            [
              116.34793999237667,
              39.98685792609531
            ],
            [
              116.34772189452677,
              39.98681454373567
            ],
            [
              116.3475,
              39.9868
            ],
            [
              116.34727810547322,
              39.98681454373567
            ],
            [
              116.34706000762333,
              39.98685792609531
            ],
            [
              116.34684943816498,
              39.98692940479473
            ],
            [
              116.34665,
              39.98702775681357
            ],
            [
              116.34646510557069,
              39.9871512993215
            ],
            [
              116.34629791847198,
              39.98729791847199
            ],
            [
              116.3461512993215,
              39.987465105570685
            ],
            [
              116.34602775681357,
              39.98765
            ],
            [
              116.34592940479473,
              39.98784943816498
            ],
            [
              116.3458579260953,
              39.988060007623325
            ],
            [
              116.34581454373566,
              39.98827810547323
            ],
            [
              116.3458,
              39.9885
            ],
            [
              116.34581454373566,
              39.988721894526776
            ],
            [
              116.3458579260953,
              39.98893999237668
            ],
            [
              116.34592940479473,
              39.989150561835025
            ],
            [
              116.34602775681357,
              39.98935
            ],
            [
              116.3461512993215,
              39.98953489442932
            ],
            [
              116.34629791847198,
              39.989702081528016
            ],
            [
              116.34646510557069,
              39.9898487006785
            ],
            [
              116.34665,
              39.989972243186436
            ],
            [
              116.34684943816498,
              39.990070595205275
            ],
            [
              116.34706000762333,
              39.99014207390469
            ],
            [
              116.34727810547322,
              39.990185456264335
            ],
            [
              116.3475,
              39.9902
            ],
            [
              116.34772189452677,
              39.990185456264335
            ],
            [
              116.34793999237667,
              39.99014207390469
            ],
            [
              116.34815056183501,
              39.990070595205275
            ],
            [
              116.34835,
              39.989972243186436
            ],
            [
              116.3485348944293,
              39.9898487006785
            ],
            [
              116.34870208152802,
              39.989702081528016
            ],
            [
              116.34884870067849,
              39.98953489442932
            ],
            [
              116.34897224318642,
              39.98935
            ],
            [
              116.34907059520526,
              39.989150561835025
            ],
            [
              116.34914207390469,
              39.98893999237668
            ],
            [
              116.34918545626434,
              39.988721894526776
            ],
            [
              116.3492,
              39.9885
            ],
            [
              116.34918545626434,
              39.98827810547323
            ]
          ]
        ]
      }
    },
    {
      "type": "Feature",
      "id": "PUBLIC-003",
      "properties": {
        "id": "PUBLIC-003",
        "layer": "PUBLIC_SPACE",
        "source_type": "agent_generated_design",
        "confidence": "medium",
        "geometry_role": "design_proposal",
        "name_zh": "日常复健广场",
        "name_en": "Everyday Rehabilitation Plaza",
        "public_space_type": "care_commons",
        "area_sqm_declared": 85912.616
      },
      "geometry": {
        "type": "Polygon",
        "coordinates": [
          [
            [
              116.35018545626434,
              39.94669810547323
            ],
            [
              116.35014207390469,
              39.94648000762333
            ],
            [
              116.35007059520527,
              39.94626943816498
            ],
            [
              116.34997224318643,
              39.946070000000006
            ],
            [
              116.34984870067849,
              39.94588510557069
            ],
            [
              116.34970208152802,
              39.94571791847199
            ],
            [
              116.34953489442931,
              39.94557129932151
            ],
            [
              116.34935,
              39.94544775681357
            ],
            [
              116.34915056183502,
              39.94534940479473
            ],
            [
              116.34893999237667,
              39.945277926095315
            ],
            [
              116.34872189452678,
              39.94523454373567
            ],
            [
              116.3485,
              39.945220000000006
            ],
            [
              116.34827810547323,
              39.94523454373567
            ],
            [
              116.34806000762333,
              39.945277926095315
            ],
            [
              116.34784943816499,
              39.94534940479473
            ],
            [
              116.34765,
              39.94544775681357
            ],
            [
              116.34746510557069,
              39.94557129932151
            ],
            [
              116.34729791847198,
              39.94571791847199
            ],
            [
              116.34715129932151,
              39.94588510557069
            ],
            [
              116.34702775681357,
              39.946070000000006
            ],
            [
              116.34692940479474,
              39.94626943816498
            ],
            [
              116.34685792609531,
              39.94648000762333
            ],
            [
              116.34681454373566,
              39.94669810547323
            ],
            [
              116.3468,
              39.946920000000006
            ],
            [
              116.34681454373566,
              39.94714189452678
            ],
            [
              116.34685792609531,
              39.94735999237668
            ],
            [
              116.34692940479474,
              39.94757056183503
            ],
            [
              116.34702775681357,
              39.947770000000006
            ],
            [
              116.34715129932151,
              39.94795489442932
            ],
            [
              116.34729791847198,
              39.94812208152802
            ],
            [
              116.34746510557069,
              39.948268700678504
            ],
            [
              116.34765,
              39.94839224318644
            ],
            [
              116.34784943816499,
              39.94849059520528
            ],
            [
              116.34806000762333,
              39.9485620739047
            ],
            [
              116.34827810547323,
              39.94860545626434
            ],
            [
              116.3485,
              39.948620000000005
            ],
            [
              116.34872189452678,
              39.94860545626434
            ],
            [
              116.34893999237667,
              39.9485620739047
            ],
            [
              116.34915056183502,
              39.94849059520528
            ],
            [
              116.34935,
              39.94839224318644
            ],
            [
              116.34953489442931,
              39.948268700678504
            ],
            [
              116.34970208152802,
              39.94812208152802
            ],
            [
              116.34984870067849,
              39.94795489442932
            ],
            [
              116.34997224318643,
              39.947770000000006
            ],
            [
              116.35007059520527,
              39.94757056183503
            ],
            [
              116.35014207390469,
              39.94735999237668
            ],
            [
              116.35018545626434,
              39.94714189452678
            ],
            [
              116.3502,
              39.946920000000006
            ],
            [
              116.35018545626434,
              39.94669810547323
            ]
          ]
        ]
      }
    }
  ]
}
