{
  "type": "FeatureCollection",
  "name": "room_for_error_buildings",
  "features": [
    {
      "type": "Feature",
      "id": "BLDG-001",
      "properties": {
        "id": "BLDG-001",
        "layer": "BUILDING_FOOTPRINT",
        "source_type": "agent_generated_design",
        "confidence": "medium",
        "geometry_role": "design_proposal",
        "building_type": "ai_r_and_d",
        "name_zh": "可逆小单元载体 01",
        "design_status": "conceptual_carrier_only",
        "retain_renovate_demolish": "pending_building_survey",
        "area_sqm_declared": 33000.0
      },
      "geometry": {
        "type": "Polygon",
        "coordinates": [
          [
            [
              116.3420488958581,
              39.945273542829035
            ],
            [
              116.3420299154589,
              39.9472547940918
            ],
            [
              116.34378501678655,
              39.9472647417726
            ],
            [
              116.34380394656537,
              39.94528348981558
            ],
            [
              116.3420488958581,
              39.945273542829035
            ]
          ]
        ]
      }
    },
    {
      "type": "Feature",
      "id": "BLDG-002",
      "properties": {
        "id": "BLDG-002",
        "layer": "BUILDING_FOOTPRINT",
        "source_type": "agent_generated_design",
        "confidence": "medium",
        "geometry_role": "design_proposal",
        "building_type": "incubator",
        "name_zh": "可逆小单元载体 02",
        "design_status": "conceptual_carrier_only",
        "retain_renovate_demolish": "pending_building_survey",
        "area_sqm_declared": 33000.0
      },
      "geometry": {
        "type": "Polygon",
        "coordinates": [
          [
            [
              116.35212903884685,
              39.94530201518907
            ],
            [
              116.3521103492057,
              39.947283270423654
            ],
            [
              116.35386545478158,
              39.947293065509626
            ],
            [
              116.3538840938019,
              39.945311809591445
            ],
            [
              116.35212903884685,
              39.94530201518907
            ]
          ]
        ]
      }
    },
    {
      "type": "Feature",
      "id": "BLDG-003",
      "properties": {
        "id": "BLDG-003",
        "layer": "BUILDING_FOOTPRINT",
        "source_type": "agent_generated_design",
        "confidence": "medium",
        "geometry_role": "design_proposal",
        "building_type": "education",
        "name_zh": "可逆小单元载体 03",
        "design_status": "conceptual_carrier_only",
        "retain_renovate_demolish": "pending_building_survey",
        "area_sqm_declared": 33000.0
      },
      "geometry": {
        "type": "Polygon",
        "coordinates": [
          [
            [
              116.34177724852589,
              39.959826147893054
            ],
            [
              116.34175825050662,
              39.96180739405925
            ],
            [
              116.34351372375637,
              39.96181734884237
            ],
            [
              116.34353267111847,
              39.9598361019815
            ],
            [
              116.34177724852589,
              39.959826147893054
            ]
          ]
        ]
      }
    },
    {
      "type": "Feature",
      "id": "BLDG-004",
      "properties": {
        "id": "BLDG-004",
        "layer": "BUILDING_FOOTPRINT",
        "source_type": "agent_generated_design",
        "confidence": "medium",
        "geometry_role": "design_proposal",
        "building_type": "community_service",
        "name_zh": "可逆小单元载体 04",
        "design_status": "conceptual_carrier_only",
        "retain_renovate_demolish": "pending_building_survey",
        "area_sqm_declared": 33000.0
      },
      "geometry": {
        "type": "Polygon",
        "coordinates": [
          [
            [
              116.34700824743412,
              39.959855731745265
            ],
            [
              116.3469894003688,
              39.961836979976056
            ],
            [
              116.34874487621005,
              39.96184685555073
            ],
            [
              116.34876367261789,
              39.95986560663081
            ],
            [
              116.34700824743412,
              39.959855731745265
            ]
          ]
        ]
      }
    },
    {
      "type": "Feature",
      "id": "BLDG-005",
      "properties": {
        "id": "BLDG-005",
        "layer": "BUILDING_FOOTPRINT",
        "source_type": "agent_generated_design",
        "confidence": "medium",
        "geometry_role": "design_proposal",
        "building_type": "cultural",
        "name_zh": "可逆小单元载体 05",
        "design_status": "conceptual_carrier_only",
        "retain_renovate_demolish": "pending_building_survey",
        "area_sqm_declared": 33000.0
      },
      "geometry": {
        "type": "Polygon",
        "coordinates": [
          [
            [
              116.35206746969008,
              39.95828891374748
            ],
            [
              116.3520487696782,
              39.96027016450624
            ],
            [
              116.35380420721341,
              39.96027996315076
            ],
            [
              116.35382285657158,
              39.958298711708224
            ],
            [
              116.35206746969008,
              39.95828891374748
            ]
          ]
        ]
      }
    },
    {
      "type": "Feature",
      "id": "BLDG-006",
      "properties": {
        "id": "BLDG-006",
        "layer": "BUILDING_FOOTPRINT",
        "source_type": "agent_generated_design",
        "confidence": "medium",
        "geometry_role": "design_proposal",
        "building_type": "mixed_use",
        "name_zh": "可逆小单元载体 06",
        "design_status": "conceptual_carrier_only",
        "retain_renovate_demolish": "pending_building_survey",
        "area_sqm_declared": 33000.0
      },
      "geometry": {
        "type": "Polygon",
        "coordinates": [
          [
            [
              116.3416178903677,
              39.97786910565666
            ],
            [
              116.34159887560978,
              39.9798503455739
            ],
            [
              116.34335481042433,
              39.979860306477256
            ],
            [
              116.3433737744794,
              39.97787906586499
            ],
            [
              116.3416178903677,
              39.97786910565666
            ]
          ]
        ]
      }
    },
    {
      "type": "Feature",
      "id": "BLDG-007",
      "properties": {
        "id": "BLDG-007",
        "layer": "BUILDING_FOOTPRINT",
        "source_type": "agent_generated_design",
        "confidence": "medium",
        "geometry_role": "design_proposal",
        "building_type": "ai_r_and_d",
        "name_zh": "可逆小单元载体 07",
        "design_status": "conceptual_carrier_only",
        "retain_renovate_demolish": "pending_building_survey",
        "area_sqm_declared": 33000.0
      },
      "geometry": {
        "type": "Polygon",
        "coordinates": [
          [
            [
              116.34686937119933,
              39.974450115213635
            ],
            [
              116.34685051038552,
              39.97643135838634
            ],
            [
              116.34860635953758,
              39.97644123903868
            ],
            [
              116.348625169657,
              39.974459995176524
            ],
            [
              116.34686937119933,
              39.974450115213635
            ]
          ]
        ]
      }
    },
    {
      "type": "Feature",
      "id": "BLDG-008",
      "properties": {
        "id": "BLDG-008",
        "layer": "BUILDING_FOOTPRINT",
        "source_type": "agent_generated_design",
        "confidence": "medium",
        "geometry_role": "design_proposal",
        "building_type": "incubator",
        "name_zh": "可逆小单元载体 08",
        "design_status": "conceptual_carrier_only",
        "retain_renovate_demolish": "pending_building_survey",
        "area_sqm_declared": 33000.0
      },
      "geometry": {
        "type": "Polygon",
        "coordinates": [
          [
            [
              116.35157142526506,
              39.97447651413803
            ],
            [
              116.35155270021178,
              39.97645775915289
            ],
            [
              116.35330855167705,
              39.97646756858448
            ],
            [
              116.35332722603565,
              39.97448632288516
            ],
            [
              116.35157142526506,
              39.97447651413803
            ]
          ]
        ]
      }
    },
    {
      "type": "Feature",
      "id": "BLDG-009",
      "properties": {
        "id": "BLDG-009",
        "layer": "BUILDING_FOOTPRINT",
        "source_type": "agent_generated_design",
        "confidence": "medium",
        "geometry_role": "design_proposal",
        "building_type": "education",
        "name_zh": "可逆小单元载体 09",
        "design_status": "conceptual_carrier_only",
        "retain_renovate_demolish": "pending_building_survey",
        "area_sqm_declared": 33000.0
      },
      "geometry": {
        "type": "Polygon",
        "coordinates": [
          [
            [
              116.3510051537997,
              39.99268126562024
            ],
            [
              116.3509864003158,
              39.99466250417134
            ],
            [
              116.35274271768984,
              39.99467232586673
            ],
            [
              116.35276142043296,
              39.99269108663041
            ],
            [
              116.3510051537997,
              39.99268126562024
            ]
          ]
        ]
      }
    },
    {
      "type": "Feature",
      "id": "BLDG-010",
      "properties": {
        "id": "BLDG-010",
        "layer": "BUILDING_FOOTPRINT",
        "source_type": "agent_generated_design",
        "confidence": "medium",
        "geometry_role": "design_proposal",
        "building_type": "community_service",
        "name_zh": "可逆小单元载体 10",
        "design_status": "conceptual_carrier_only",
        "retain_renovate_demolish": "pending_building_survey",
        "area_sqm_declared": 33000.0
      },
      "geometry": {
        "type": "Polygon",
        "coordinates": [
          [
            [
              116.34659131471494,
              40.003638770364844
            ],
            [
              116.3465724263705,
              40.00562000341994
            ],
            [
              116.3483290229614,
              40.005629894233984
            ],
            [
              116.3483478605374,
              40.00364866048886
            ],
            [
              116.34659131471494,
              40.003638770364844
            ]
          ]
        ]
      }
    },
    {
      "type": "Feature",
      "id": "BLDG-011",
      "properties": {
        "id": "BLDG-011",
        "layer": "BUILDING_FOOTPRINT",
        "source_type": "agent_generated_design",
        "confidence": "medium",
        "geometry_role": "design_proposal",
        "building_type": "cultural",
        "name_zh": "可逆小单元载体 11",
        "design_status": "conceptual_carrier_only",
        "retain_renovate_demolish": "pending_building_survey",
        "area_sqm_declared": 33000.0
      },
      "geometry": {
        "type": "Polygon",
        "coordinates": [
          [
            [
              116.34262230130975,
              40.01820612912626
            ],
            [
              116.34260328843843,
              40.02018735561244
            ],
            [
              116.34436025712317,
              40.02019730957116
            ],
            [
              116.34437921918928,
              40.01821608239063
            ],
            [
              116.34262230130975,
              40.01820612912626
            ]
          ]
        ]
      }
    },
    {
      "type": "Feature",
      "id": "BLDG-012",
      "properties": {
        "id": "BLDG-012",
        "layer": "BUILDING_FOOTPRINT",
        "source_type": "agent_generated_design",
        "confidence": "medium",
        "geometry_role": "design_proposal",
        "building_type": "mixed_use",
        "name_zh": "可逆小单元载体 12",
        "design_status": "conceptual_carrier_only",
        "retain_renovate_demolish": "pending_building_survey",
        "area_sqm_declared": 33000.0
      },
      "geometry": {
        "type": "Polygon",
        "coordinates": [
          [
            [
              116.34645232816409,
              40.01821272116349
            ],
            [
              116.34643342605673,
              40.020193949166114
            ],
            [
              116.34819039625486,
              40.020203845057125
            ],
            [
              116.34820924755685,
              40.01822261636419
            ],
            [
              116.34645232816409,
              40.01821272116349
            ]
          ]
        ]
      }
    },
    {
      "type": "Feature",
      "id": "BLDG-013",
      "properties": {
        "id": "BLDG-013",
        "layer": "BUILDING_FOOTPRINT",
        "source_type": "agent_generated_design",
        "confidence": "medium",
        "geometry_role": "design_proposal",
        "building_type": "ai_r_and_d",
        "name_zh": "可逆小单元载体 13",
        "design_status": "conceptual_carrier_only",
        "retain_renovate_demolish": "pending_building_survey",
        "area_sqm_declared": 33000.0
      },
      "geometry": {
        "type": "Polygon",
        "coordinates": [
          [
            [
              116.35158369239076,
              40.018226475450724
            ],
            [
              116.35156493867885,
              40.02020770546946
            ],
            [
              116.35332191101853,
              40.02021752356383
            ],
            [
              116.35334061392483,
              40.01823629286023
            ],
            [
              116.35158369239076,
              40.018226475450724
            ]
          ]
        ]
      }
    }
  ]
}
