{
  "type": "FeatureCollection",
  "name": "room_for_error_scenario_nodes",
  "features": [
    {
      "type": "Feature",
      "id": "SCENARIO-01",
      "properties": {
        "id": "SCENARIO-01",
        "layer": "SCENARIO_NODE",
        "source_type": "agent_generated_design",
        "confidence": "medium",
        "geometry_role": "design_proposal",
        "constraint_type": "ai_scenario_node",
        "name_zh": "模型红队公开窗",
        "name_en": "Public model red-team window",
        "testing_validation": true,
        "human_review_required": true,
        "no_ai_equivalent_required": true,
        "exit_condition_required": true,
        "personal_data_policy": "minimum_deidentified_purpose_bound"
      },
      "geometry": {
        "type": "Point",
        "coordinates": [
          116.34646425211764,
          39.94500210446766
        ]
      }
    },
    {
      "type": "Feature",
      "id": "SCENARIO-02",
      "properties": {
        "id": "SCENARIO-02",
        "layer": "SCENARIO_NODE",
        "source_type": "agent_generated_design",
        "confidence": "medium",
        "geometry_role": "design_proposal",
        "constraint_type": "ai_scenario_node",
        "name_zh": "低速机器人共享庭",
        "name_en": "Shared low-speed robot court",
        "testing_validation": true,
        "human_review_required": true,
        "no_ai_equivalent_required": true,
        "exit_condition_required": true,
        "personal_data_policy": "minimum_deidentified_purpose_bound"
      },
      "geometry": {
        "type": "Point",
        "coordinates": [
          116.35078214172893,
          39.951885969356525
        ]
      }
    },
    {
      "type": "Feature",
      "id": "SCENARIO-03",
      "properties": {
        "id": "SCENARIO-03",
        "layer": "SCENARIO_NODE",
        "source_type": "agent_generated_design",
        "confidence": "medium",
        "geometry_role": "design_proposal",
        "constraint_type": "ai_scenario_node",
        "name_zh": "端侧节能算力舱",
        "name_en": "Edge-compute energy cabin",
        "testing_validation": true,
        "human_review_required": true,
        "no_ai_equivalent_required": true,
        "exit_condition_required": true,
        "personal_data_policy": "minimum_deidentified_purpose_bound"
      },
      "geometry": {
        "type": "Point",
        "coordinates": [
          116.34685270917544,
          39.958734679572636
        ]
      }
    },
    {
      "type": "Feature",
      "id": "SCENARIO-04",
      "properties": {
        "id": "SCENARIO-04",
        "layer": "SCENARIO_NODE",
        "source_type": "agent_generated_design",
        "confidence": "medium",
        "geometry_role": "design_proposal",
        "constraint_type": "ai_scenario_node",
        "name_zh": "开源成果转译台",
        "name_en": "Open-source translation desk",
        "testing_validation": false,
        "human_review_required": true,
        "no_ai_equivalent_required": true,
        "exit_condition_required": true,
        "personal_data_policy": "minimum_deidentified_purpose_bound"
      },
      "geometry": {
        "type": "Point",
        "coordinates": [
          116.35012744445191,
          39.96561280251944
        ]
      }
    },
    {
      "type": "Feature",
      "id": "SCENARIO-05",
      "properties": {
        "id": "SCENARIO-05",
        "layer": "SCENARIO_NODE",
        "source_type": "agent_generated_design",
        "confidence": "medium",
        "geometry_role": "design_proposal",
        "constraint_type": "ai_scenario_node",
        "name_zh": "无障碍慢行助手",
        "name_en": "Accessible route assistant",
        "testing_validation": false,
        "human_review_required": true,
        "no_ai_equivalent_required": true,
        "exit_condition_required": true,
        "personal_data_policy": "minimum_deidentified_purpose_bound"
      },
      "geometry": {
        "type": "Point",
        "coordinates": [
          116.34546773660436,
          39.97243530415308
        ]
      }
    },
    {
      "type": "Feature",
      "id": "SCENARIO-06",
      "properties": {
        "id": "SCENARIO-06",
        "layer": "SCENARIO_NODE",
        "source_type": "agent_generated_design",
        "confidence": "medium",
        "geometry_role": "design_proposal",
        "constraint_type": "ai_scenario_node",
        "name_zh": "公共空间预约器",
        "name_en": "Public-space booking aid",
        "testing_validation": false,
        "human_review_required": true,
        "no_ai_equivalent_required": true,
        "exit_condition_required": true,
        "personal_data_policy": "minimum_deidentified_purpose_bound"
      },
      "geometry": {
        "type": "Point",
        "coordinates": [
          116.3487454134734,
          39.97931359420925
        ]
      }
    },
    {
      "type": "Feature",
      "id": "SCENARIO-07",
      "properties": {
        "id": "SCENARIO-07",
        "layer": "SCENARIO_NODE",
        "source_type": "agent_generated_design",
        "confidence": "medium",
        "geometry_role": "design_proposal",
        "constraint_type": "ai_scenario_node",
        "name_zh": "社区服务副驾驶",
        "name_en": "Community-service copilot",
        "testing_validation": false,
        "human_review_required": true,
        "no_ai_equivalent_required": true,
        "exit_condition_required": true,
        "personal_data_policy": "minimum_deidentified_purpose_bound"
      },
      "geometry": {
        "type": "Point",
        "coordinates": [
          116.34481955410787,
          39.98616210691664
        ]
      }
    },
    {
      "type": "Feature",
      "id": "SCENARIO-08",
      "properties": {
        "id": "SCENARIO-08",
        "layer": "SCENARIO_NODE",
        "source_type": "agent_generated_design",
        "confidence": "medium",
        "geometry_role": "design_proposal",
        "constraint_type": "ai_scenario_node",
        "name_zh": "智能终端试用台",
        "name_en": "Smart-device trial desk",
        "testing_validation": false,
        "human_review_required": true,
        "no_ai_equivalent_required": true,
        "exit_condition_required": true,
        "personal_data_policy": "minimum_deidentified_purpose_bound"
      },
      "geometry": {
        "type": "Point",
        "coordinates": [
          116.34913224776722,
          39.99304621759858
        ]
      }
    },
    {
      "type": "Feature",
      "id": "SCENARIO-09",
      "properties": {
        "id": "SCENARIO-09",
        "layer": "SCENARIO_NODE",
        "source_type": "agent_generated_design",
        "confidence": "medium",
        "geometry_role": "design_proposal",
        "constraint_type": "ai_scenario_node",
        "name_zh": "内容来源说明廊",
        "name_en": "Content provenance gallery",
        "testing_validation": false,
        "human_review_required": true,
        "no_ai_equivalent_required": true,
        "exit_condition_required": true,
        "personal_data_policy": "minimum_deidentified_purpose_bound"
      },
      "geometry": {
        "type": "Point",
        "coordinates": [
          116.3459411227875,
          39.99987693977729
        ]
      }
    },
    {
      "type": "Feature",
      "id": "SCENARIO-10",
      "properties": {
        "id": "SCENARIO-10",
        "layer": "SCENARIO_NODE",
        "source_type": "agent_generated_design",
        "confidence": "medium",
        "geometry_role": "design_proposal",
        "constraint_type": "ai_scenario_node",
        "name_zh": "公共维护巡检助手",
        "name_en": "Public-maintenance assistant",
        "testing_validation": false,
        "human_review_required": true,
        "no_ai_equivalent_required": true,
        "exit_condition_required": true,
        "personal_data_policy": "minimum_deidentified_purpose_bound"
      },
      "geometry": {
        "type": "Point",
        "coordinates": [
          116.35025722294306,
          40.00676088772524
        ]
      }
    },
    {
      "type": "Feature",
      "id": "SCENARIO-11",
      "properties": {
        "id": "SCENARIO-11",
        "layer": "SCENARIO_NODE",
        "source_type": "agent_generated_design",
        "confidence": "medium",
        "geometry_role": "design_proposal",
        "constraint_type": "ai_scenario_node",
        "name_zh": "京张记忆共译导览",
        "name_en": "Co-translated memory walk",
        "testing_validation": false,
        "human_review_required": true,
        "no_ai_equivalent_required": true,
        "exit_condition_required": true,
        "personal_data_policy": "minimum_deidentified_purpose_bound"
      },
      "geometry": {
        "type": "Point",
        "coordinates": [
          116.3463352882519,
          40.01360955055834
        ]
      }
    },
    {
      "type": "Feature",
      "id": "SCENARIO-12",
      "properties": {
        "id": "SCENARIO-12",
        "layer": "SCENARIO_NODE",
        "source_type": "agent_generated_design",
        "confidence": "medium",
        "geometry_role": "design_proposal",
        "constraint_type": "ai_scenario_node",
        "name_zh": "全球余量周",
        "name_en": "Global Margin Week",
        "testing_validation": false,
        "human_review_required": true,
        "no_ai_equivalent_required": true,
        "exit_condition_required": true,
        "personal_data_policy": "minimum_deidentified_purpose_bound"
      },
      "geometry": {
        "type": "Point",
        "coordinates": [
          116.34960740275277,
          40.0204874851625
        ]
      }
    }
  ]
}
