{
  "type": "FeatureCollection",
  "name": "constraints",
  "features": [
    {
      "type": "Feature",
      "id": "CONSTRAINT-001",
      "properties": {
        "id": "CONSTRAINT-001",
        "layer": "HERITAGE_PROTECTION",
        "source_type": "agent_inferred_from_public_data",
        "confidence": "medium",
        "geometry_role": "provisional_constraint",
        "constraint_type": "heritage_protection_zone",
        "name_zh": "清华园火车站旧址文保控制范围",
        "name_en": "Qinghua Garden Station Heritage Protection Zone",
        "official_boundary": false,
        "boundary_precision": "provisional_rough",
        "description_zh": "依据公开资料推断的清华园火车站旧址文保控制范围，具体边界以文物主管部门公布为准。",
        "description_en": "Inferred heritage protection zone for the Qinghua Garden Station site based on public data; precise boundary subject to official designation."
      },
      "geometry": {
        "type": "Polygon",
        "coordinates": [
          [
            [116.345, 39.978],
            [116.345, 39.982],
            [116.348, 39.982],
            [116.348, 39.978],
            [116.345, 39.978]
          ]
        ]
      }
    },
    {
      "type": "Feature",
      "id": "CONSTRAINT-002",
      "properties": {
        "id": "CONSTRAINT-002",
        "layer": "EXISTING_RAIL",
        "source_type": "agent_inferred_from_public_data",
        "confidence": "medium",
        "geometry_role": "provisional_constraint",
        "constraint_type": "railway_protection_corridor",
        "name_zh": "京张铁路走廊保护带",
        "name_en": "Jingzhang Railway Corridor Protection Buffer",
        "official_boundary": false,
        "boundary_precision": "provisional_rough",
        "description_zh": "京张铁路沿线保护控制带，宽度按公开技术规范推算，具体以铁路管理部门公布为准。",
        "description_en": "Protection corridor along the Jingzhang Railway; width estimated from public technical standards, subject to railway authority confirmation."
      },
      "geometry": {
        "type": "Polygon",
        "coordinates": [
          [
            [116.344, 39.940],
            [116.344, 39.960],
            [116.346, 39.960],
            [116.346, 39.940],
            [116.344, 39.940]
          ]
        ]
      }
    },
    {
      "type": "Feature",
      "id": "CONSTRAINT-003",
      "properties": {
        "id": "CONSTRAINT-003",
        "layer": "REGULATORY_CONTROL",
        "source_type": "agent_inferred_from_public_data",
        "confidence": "medium",
        "geometry_role": "provisional_constraint",
        "constraint_type": "tod_station_influence",
        "name_zh": "轨道站点TOD影响范围",
        "name_en": "Transit Station TOD Influence Area",
        "official_boundary": false,
        "boundary_precision": "provisional_rough",
        "description_zh": "依据公开站点位置推算的TOD影响范围（约500米半径），用于AI场景和端侧算力节点选址约束。",
        "description_en": "TOD influence area (approx. 500m radius) based on public station locations, constraining AI scenario and edge-compute node placement."
      },
      "geometry": {
        "type": "Polygon",
        "coordinates": [
          [
            [116.344, 39.970],
            [116.344, 39.980],
            [116.352, 39.980],
            [116.352, 39.970],
            [116.344, 39.970]
          ]
        ]
      }
    }
  ]
}
