{
  "type": "FeatureCollection",
  "name": "road_network",
  "features": [
    {
      "type": "Feature",
      "id": "ROAD-001",
      "properties": {
        "id": "ROAD-001",
        "layer": "ROAD_CENTERLINE",
        "source_type": "agent_generated_design",
        "confidence": "medium",
        "geometry_role": "design_proposal",
        "road_class": "greenway",
        "name_zh": "慢行与创新服务廊道",
        "name_en": "Slow-Mobility and Innovation Service Corridor"
      },
      "geometry": {
        "type": "LineString",
        "coordinates": [
          [116.340948, 39.9845],
          [116.344, 39.9845],
          [116.347, 39.985],
          [116.350, 39.9845],
          [116.35374, 39.9845]
        ]
      }
    },
    {
      "type": "Feature",
      "id": "ROAD-002",
      "properties": {
        "id": "ROAD-002",
        "layer": "ROAD_CENTERLINE",
        "source_type": "agent_generated_design",
        "confidence": "medium",
        "geometry_role": "design_proposal",
        "road_class": "pedestrian",
        "name_zh": "智脊南北慢行主轴",
        "name_en": "AI Spine North-South Slow-Mobility Axis"
      },
      "geometry": {
        "type": "LineString",
        "coordinates": [
          [116.346, 39.942],
          [116.346, 39.955],
          [116.3465, 39.970],
          [116.3465, 39.985],
          [116.347, 40.010],
          [116.347, 40.020]
        ]
      }
    },
    {
      "type": "Feature",
      "id": "ROAD-003",
      "properties": {
        "id": "ROAD-003",
        "layer": "ROAD_CENTERLINE",
        "source_type": "agent_generated_design",
        "confidence": "medium",
        "geometry_role": "design_proposal",
        "road_class": "transit_connection",
        "name_zh": "轨道站点接驳路径",
        "name_en": "Transit Station Connection Path"
      },
      "geometry": {
        "type": "LineString",
        "coordinates": [
          [116.340, 39.972],
          [116.343, 39.973],
          [116.346, 39.975],
          [116.349, 39.976],
          [116.353, 39.977]
        ]
      }
    },
    {
      "type": "Feature",
      "id": "ROAD-004",
      "properties": {
        "id": "ROAD-004",
        "layer": "ROAD_CENTERLINE",
        "source_type": "agent_generated_design",
        "confidence": "medium",
        "geometry_role": "design_proposal",
        "road_class": "secondary",
        "name_zh": "东西向连接路径",
        "name_en": "East-West Connector Path"
      },
      "geometry": {
        "type": "LineString",
        "coordinates": [
          [116.341, 40.008],
          [116.344, 40.009],
          [116.347, 40.010],
          [116.350, 40.009],
          [116.353, 40.008]
        ]
      }
    },
    {
      "type": "Feature",
      "id": "ROAD-005",
      "properties": {
        "id": "ROAD-005",
        "layer": "ROAD_CENTERLINE",
        "source_type": "agent_generated_design",
        "confidence": "medium",
        "geometry_role": "design_proposal",
        "road_class": "cycleway",
        "name_zh": "蓝绿环线",
        "name_en": "Blue-Green Loop Path"
      },
      "geometry": {
        "type": "LineString",
        "coordinates": [
          [116.342, 39.960],
          [116.344, 39.965],
          [116.346, 39.970],
          [116.349, 39.972],
          [116.352, 39.970],
          [116.353, 39.965],
          [116.352, 39.960],
          [116.349, 39.958],
          [116.346, 39.957],
          [116.342, 39.960]
        ]
      }
    }
  ]
}
