{
 "type": "FeatureCollection",
 "name": "buildings",
 "features": [
  {
   "type": "Feature",
   "id": "BLDG-001",
   "properties": {
    "id": "BLDG-001",
    "layer": "BUILDING_FOOTPRINT",
    "source_type": "agent_generated_design",
    "confidence": "medium",
    "geometry_role": "design_proposal",
    "name_zh": "建筑基底1",
    "area_sqm_declared": 27119.438
   },
   "geometry": {
    "type": "Polygon",
    "coordinates": [
     [
      [
       116.3477,
       39.94435
      ],
      [
       116.3477,
       39.94565
      ],
      [
       116.34989999999999,
       39.94565
      ],
      [
       116.34989999999999,
       39.94435
      ],
      [
       116.3477,
       39.94435
      ]
     ]
    ]
   }
  },
  {
   "type": "Feature",
   "id": "BLDG-002",
   "properties": {
    "id": "BLDG-002",
    "layer": "BUILDING_FOOTPRINT",
    "source_type": "agent_generated_design",
    "confidence": "medium",
    "geometry_role": "design_proposal",
    "name_zh": "建筑基底2",
    "area_sqm_declared": 27116.706
   },
   "geometry": {
    "type": "Polygon",
    "coordinates": [
     [
      [
       116.3477,
       39.95135
      ],
      [
       116.3477,
       39.95265
      ],
      [
       116.34989999999999,
       39.95265
      ],
      [
       116.34989999999999,
       39.95135
      ],
      [
       116.3477,
       39.95135
      ]
     ]
    ]
   }
  },
  {
   "type": "Feature",
   "id": "BLDG-003",
   "properties": {
    "id": "BLDG-003",
    "layer": "BUILDING_FOOTPRINT",
    "source_type": "agent_generated_design",
    "confidence": "medium",
    "geometry_role": "design_proposal",
    "name_zh": "建筑基底3",
    "area_sqm_declared": 4929.883
   },
   "geometry": {
    "type": "Polygon",
    "coordinates": [
     [
      [
       116.34949999999999,
       39.95735
      ],
      [
       116.34949999999999,
       39.95865
      ],
      [
       116.34989999999999,
       39.95865
      ],
      [
       116.34989999999999,
       39.95735
      ],
      [
       116.34949999999999,
       39.95735
      ]
     ]
    ]
   }
  },
  {
   "type": "Feature",
   "id": "BLDG-004",
   "properties": {
    "id": "BLDG-004",
    "layer": "BUILDING_FOOTPRINT",
    "source_type": "agent_generated_design",
    "confidence": "medium",
    "geometry_role": "design_proposal",
    "name_zh": "建筑基底4",
    "area_sqm_declared": 3628.636
   },
   "geometry": {
    "type": "Polygon",
    "coordinates": [
     [
      [
       116.34001468871595,
       39.963671206225676
      ],
      [
       116.33998749999999,
       39.96465
      ],
      [
       116.34029999999998,
       39.96465
      ],
      [
       116.34029999999998,
       39.96335
      ],
      [
       116.3400236111111,
       39.96335
      ],
      [
       116.34001468871595,
       39.963671206225676
      ]
     ]
    ]
   }
  },
  {
   "type": "Feature",
   "id": "BLDG-005",
   "properties": {
    "id": "BLDG-005",
    "layer": "BUILDING_FOOTPRINT",
    "source_type": "agent_generated_design",
    "confidence": "medium",
    "geometry_role": "design_proposal",
    "name_zh": "建筑基底5",
    "area_sqm_declared": 27112.023
   },
   "geometry": {
    "type": "Polygon",
    "coordinates": [
     [
      [
       116.3477,
       39.96335
      ],
      [
       116.3477,
       39.96465
      ],
      [
       116.34989999999999,
       39.96465
      ],
      [
       116.34989999999999,
       39.96335
      ],
      [
       116.3477,
       39.96335
      ]
     ]
    ]
   }
  },
  {
   "type": "Feature",
   "id": "BLDG-006",
   "properties": {
    "id": "BLDG-006",
    "layer": "BUILDING_FOOTPRINT",
    "source_type": "agent_generated_design",
    "confidence": "medium",
    "geometry_role": "design_proposal",
    "name_zh": "建筑基底6",
    "area_sqm_declared": 5682.09
   },
   "geometry": {
    "type": "Polygon",
    "coordinates": [
     [
      [
       116.3398439347914,
       39.96981834750911
      ],
      [
       116.33982083333333,
       39.97065
      ],
      [
       116.34029999999998,
       39.97065
      ],
      [
       116.34029999999998,
       39.96935
      ],
      [
       116.33985694444443,
       39.96935
      ],
      [
       116.3398439347914,
       39.96981834750911
      ]
     ]
    ]
   }
  },
  {
   "type": "Feature",
   "id": "BLDG-007",
   "properties": {
    "id": "BLDG-007",
    "layer": "BUILDING_FOOTPRINT",
    "source_type": "agent_generated_design",
    "confidence": "medium",
    "geometry_role": "design_proposal",
    "name_zh": "建筑基底7",
    "area_sqm_declared": 4929.032
   },
   "geometry": {
    "type": "Polygon",
    "coordinates": [
     [
      [
       116.34949999999999,
       39.96935
      ],
      [
       116.34949999999999,
       39.97065
      ],
      [
       116.34989999999999,
       39.97065
      ],
      [
       116.34989999999999,
       39.96935
      ],
      [
       116.34949999999999,
       39.96935
      ]
     ]
    ]
   }
  },
  {
   "type": "Feature",
   "id": "BLDG-008",
   "properties": {
    "id": "BLDG-008",
    "layer": "BUILDING_FOOTPRINT",
    "source_type": "agent_generated_design",
    "confidence": "medium",
    "geometry_role": "design_proposal",
    "name_zh": "建筑基底8",
    "area_sqm_declared": 6597.992
   },
   "geometry": {
    "type": "Polygon",
    "coordinates": [
     [
      [
       116.3398064516129,
       39.97665
      ],
      [
       116.34029999999998,
       39.97665
      ],
      [
       116.34029999999998,
       39.97535
      ],
      [
       116.33972258064516,
       39.97535
      ],
      [
       116.3398064516129,
       39.97665
      ]
     ]
    ]
   }
  },
  {
   "type": "Feature",
   "id": "BLDG-009",
   "properties": {
    "id": "BLDG-009",
    "layer": "BUILDING_FOOTPRINT",
    "source_type": "agent_generated_design",
    "confidence": "medium",
    "geometry_role": "design_proposal",
    "name_zh": "建筑基底9",
    "area_sqm_declared": 27107.338
   },
   "geometry": {
    "type": "Polygon",
    "coordinates": [
     [
      [
       116.3477,
       39.97535
      ],
      [
       116.3477,
       39.97665
      ],
      [
       116.34989999999999,
       39.97665
      ],
      [
       116.34989999999999,
       39.97535
      ],
      [
       116.3477,
       39.97535
      ]
     ]
    ]
   }
  },
  {
   "type": "Feature",
   "id": "BLDG-010",
   "properties": {
    "id": "BLDG-010",
    "layer": "BUILDING_FOOTPRINT",
    "source_type": "agent_generated_design",
    "confidence": "medium",
    "geometry_role": "design_proposal",
    "name_zh": "建筑基底10",
    "area_sqm_declared": 27102.652
   },
   "geometry": {
    "type": "Polygon",
    "coordinates": [
     [
      [
       116.3477,
       39.98735
      ],
      [
       116.3477,
       39.98865
      ],
      [
       116.34989999999999,
       39.98865
      ],
      [
       116.34989999999999,
       39.98735
      ],
      [
       116.3477,
       39.98735
      ]
     ]
    ]
   }
  },
  {
   "type": "Feature",
   "id": "BLDG-011",
   "properties": {
    "id": "BLDG-011",
    "layer": "BUILDING_FOOTPRINT",
    "source_type": "agent_generated_design",
    "confidence": "medium",
    "geometry_role": "design_proposal",
    "name_zh": "建筑基底11",
    "area_sqm_declared": 27100.308
   },
   "geometry": {
    "type": "Polygon",
    "coordinates": [
     [
      [
       116.3477,
       39.99335
      ],
      [
       116.3477,
       39.99465
      ],
      [
       116.34989999999999,
       39.99465
      ],
      [
       116.34989999999999,
       39.99335
      ],
      [
       116.3477,
       39.99335
      ]
     ]
    ]
   }
  },
  {
   "type": "Feature",
   "id": "BLDG-012",
   "properties": {
    "id": "BLDG-012",
    "layer": "BUILDING_FOOTPRINT",
    "source_type": "agent_generated_design",
    "confidence": "medium",
    "geometry_role": "design_proposal",
    "name_zh": "建筑基底12",
    "area_sqm_declared": 27097.964
   },
   "geometry": {
    "type": "Polygon",
    "coordinates": [
     [
      [
       116.3477,
       39.99935
      ],
      [
       116.3477,
       40.00065
      ],
      [
       116.34989999999999,
       40.00065
      ],
      [
       116.34989999999999,
       39.99935
      ],
      [
       116.3477,
       39.99935
      ]
     ]
    ]
   }
  },
  {
   "type": "Feature",
   "id": "BLDG-013",
   "properties": {
    "id": "BLDG-013",
    "layer": "BUILDING_FOOTPRINT",
    "source_type": "agent_generated_design",
    "confidence": "medium",
    "geometry_role": "design_proposal",
    "name_zh": "建筑基底13",
    "area_sqm_declared": 3126.444
   },
   "geometry": {
    "type": "Polygon",
    "coordinates": [
     [
      [
       116.3477,
       40.0055
      ],
      [
       116.34989999999999,
       40.0055
      ],
      [
       116.34989999999999,
       40.00535
      ],
      [
       116.3477,
       40.00535
      ],
      [
       116.3477,
       40.0055
      ]
     ]
    ]
   }
  },
  {
   "type": "Feature",
   "id": "BLDG-014",
   "properties": {
    "id": "BLDG-014",
    "layer": "BUILDING_FOOTPRINT",
    "source_type": "agent_generated_design",
    "confidence": "medium",
    "geometry_role": "design_proposal",
    "name_zh": "建筑基底14",
    "area_sqm_declared": 4926.049
   },
   "geometry": {
    "type": "Polygon",
    "coordinates": [
     [
      [
       116.34949999999999,
       40.01135
      ],
      [
       116.34949999999999,
       40.01265
      ],
      [
       116.34989999999999,
       40.01265
      ],
      [
       116.34989999999999,
       40.01135
      ],
      [
       116.34949999999999,
       40.01135
      ]
     ]
    ]
   }
  },
  {
   "type": "Feature",
   "id": "BLDG-015",
   "properties": {
    "id": "BLDG-015",
    "layer": "BUILDING_FOOTPRINT",
    "source_type": "agent_generated_design",
    "confidence": "medium",
    "geometry_role": "design_proposal",
    "name_zh": "建筑基底15",
    "area_sqm_declared": 27090.931
   },
   "geometry": {
    "type": "Polygon",
    "coordinates": [
     [
      [
       116.3477,
       40.01735
      ],
      [
       116.3477,
       40.01865
      ],
      [
       116.34989999999999,
       40.01865
      ],
      [
       116.34989999999999,
       40.01735
      ],
      [
       116.3477,
       40.01735
      ]
     ]
    ]
   }
  }
 ]
}