{
 "type": "FeatureCollection",
 "name": "green_space",
 "features": [
  {
   "type": "Feature",
   "id": "GREEN-001",
   "properties": {
    "id": "GREEN-001",
    "layer": "GREEN_SPACE",
    "source_type": "agent_generated_design",
    "confidence": "medium",
    "geometry_role": "design_proposal",
    "name_zh": "京张遗址公园主绿带",
    "area_sqm_declared": 2359239.208
   },
   "geometry": {
    "type": "Polygon",
    "coordinates": [
     [
      [
       116.34549999999999,
       40.024
      ],
      [
       116.34549999999999,
       39.941
      ],
      [
       116.3425,
       39.941
      ],
      [
       116.3425,
       40.02240000000012
      ],
      [
       116.34257804878048,
       40.024
      ],
      [
       116.34549999999999,
       40.024
      ]
     ]
    ]
   }
  },
  {
   "type": "Feature",
   "id": "GREEN-002",
   "properties": {
    "id": "GREEN-002",
    "layer": "GREEN_SPACE",
    "source_type": "agent_generated_design",
    "confidence": "medium",
    "geometry_role": "design_proposal",
    "name_zh": "清河滨水绿带",
    "area_sqm_declared": 348217.159
   },
   "geometry": {
    "type": "Polygon",
    "coordinates": [
     [
      [
       116.354,
       40.0085
      ],
      [
       116.354,
       40.0055
      ],
      [
       116.34166774193548,
       40.0055
      ],
      [
       116.3417,
       40.006
      ],
      [
       116.34182195121952,
       40.0085
      ],
      [
       116.354,
       40.0085
      ]
     ]
    ]
   }
  },
  {
   "type": "Feature",
   "id": "GREEN-003",
   "properties": {
    "id": "GREEN-003",
    "layer": "GREEN_SPACE",
    "source_type": "agent_generated_design",
    "confidence": "medium",
    "geometry_role": "design_proposal",
    "name_zh": "小月河滨水绿带",
    "area_sqm_declared": 305164.29
   },
   "geometry": {
    "type": "Polygon",
    "coordinates": [
     [
      [
       116.341,
       39.9815
      ],
      [
       116.341,
       39.984
      ],
      [
       116.35378,
       39.984
      ],
      [
       116.35398,
       39.9815
      ],
      [
       116.341,
       39.9815
      ]
     ]
    ]
   }
  }
 ]
}