{
 "type": "FeatureCollection",
 "name": "land_use",
 "features": [
  {
   "type": "Feature",
   "id": "LU-001",
   "properties": {
    "id": "LU-001",
    "layer": "LAND_USE",
    "source_type": "agent_generated_design",
    "confidence": "medium",
    "geometry_role": "design_proposal",
    "name_zh": "众智园AI自主创新加速区"
   },
   "geometry": {
    "type": "Polygon",
    "coordinates": [
     [
      [
       116.3553,
       40.0265
      ],
      [
       116.35373835616438,
       39.998
      ],
      [
       116.34118387096774,
       39.998
      ],
      [
       116.3417,
       40.006
      ],
      [
       116.3427,
       40.0265
      ],
      [
       116.3553,
       40.0265
      ]
     ]
    ]
   }
  },
  {
   "type": "Feature",
   "id": "LU-002",
   "properties": {
    "id": "LU-002",
    "layer": "LAND_USE",
    "source_type": "agent_generated_design",
    "confidence": "medium",
    "geometry_role": "design_proposal",
    "name_zh": "过渡衔接带北段"
   },
   "geometry": {
    "type": "Polygon",
    "coordinates": [
     [
      [
       116.35373835616438,
       39.998
      ],
      [
       116.3533,
       39.99
      ],
      [
       116.34066774193548,
       39.99
      ],
      [
       116.34118387096774,
       39.998
      ],
      [
       116.35373835616438,
       39.998
      ]
     ]
    ]
   }
  },
  {
   "type": "Feature",
   "id": "LU-003",
   "properties": {
    "id": "LU-003",
    "layer": "LAND_USE",
    "source_type": "agent_generated_design",
    "confidence": "medium",
    "geometry_role": "design_proposal",
    "name_zh": "北京AI原点社区"
   },
   "geometry": {
    "type": "Polygon",
    "coordinates": [
     [
      [
       116.3533,
       39.99
      ],
      [
       116.35458,
       39.974
      ],
      [
       116.33972777777777,
       39.974
      ],
      [
       116.3397,
       39.975
      ],
      [
       116.34066774193548,
       39.99
      ],
      [
       116.3533,
       39.99
      ]
     ]
    ]
   }
  },
  {
   "type": "Feature",
   "id": "LU-004",
   "properties": {
    "id": "LU-004",
    "layer": "LAND_USE",
    "source_type": "agent_generated_design",
    "confidence": "medium",
    "geometry_role": "design_proposal",
    "name_zh": "过渡衔接带南段"
   },
   "geometry": {
    "type": "Polygon",
    "coordinates": [
     [
      [
       116.35458,
       39.974
      ],
      [
       116.3553,
       39.965
      ],
      [
       116.3553,
       39.958
      ],
      [
       116.34017222222222,
       39.958
      ],
      [
       116.33972777777777,
       39.974
      ],
      [
       116.35458,
       39.974
      ]
     ]
    ]
   }
  },
  {
   "type": "Feature",
   "id": "LU-005",
   "properties": {
    "id": "LU-005",
    "layer": "LAND_USE",
    "source_type": "agent_generated_design",
    "confidence": "medium",
    "geometry_role": "design_proposal",
    "name_zh": "大钟寺AI产业集聚区"
   },
   "geometry": {
    "type": "Polygon",
    "coordinates": [
     [
      [
       116.3553,
       39.958
      ],
      [
       116.3553,
       39.939
      ],
      [
       116.3407,
       39.939
      ],
      [
       116.34017222222222,
       39.958
      ],
      [
       116.3553,
       39.958
      ]
     ]
    ]
   }
  }
 ]
}