{
 "type": "FeatureCollection",
 "name": "public_space",
 "features": [
  {
   "type": "Feature",
   "id": "PUBLIC-001",
   "properties": {
    "id": "PUBLIC-001",
    "layer": "PUBLIC_SPACE",
    "source_type": "agent_generated_design",
    "confidence": "medium",
    "geometry_role": "design_proposal",
    "name_zh": "众智园创新广场",
    "area_sqm_declared": 52963.31
   },
   "geometry": {
    "type": "Polygon",
    "coordinates": [
     [
      [
       116.34275,
       40.0075
      ],
      [
       116.34275,
       40.002500000000005
      ],
      [
       116.3414741935484,
       40.002500000000005
      ],
      [
       116.3417,
       40.006
      ],
      [
       116.34177317073171,
       40.0075
      ],
      [
       116.34275,
       40.0075
      ]
     ]
    ]
   }
  },
  {
   "type": "Feature",
   "id": "PUBLIC-002",
   "properties": {
    "id": "PUBLIC-002",
    "layer": "PUBLIC_SPACE",
    "source_type": "agent_generated_design",
    "confidence": "medium",
    "geometry_role": "design_proposal",
    "name_zh": "原点社区开源广场",
    "area_sqm_declared": 213237.1
   },
   "geometry": {
    "type": "Polygon",
    "coordinates": [
     [
      [
       116.3455,
       39.98475
      ],
      [
       116.3505,
       39.98475
      ],
      [
       116.3505,
       39.980250000000005
      ],
      [
       116.3455,
       39.980250000000005
      ],
      [
       116.3455,
       39.98475
      ]
     ]
    ]
   }
  },
  {
   "type": "Feature",
   "id": "PUBLIC-003",
   "properties": {
    "id": "PUBLIC-003",
    "layer": "PUBLIC_SPACE",
    "source_type": "agent_generated_design",
    "confidence": "medium",
    "geometry_role": "design_proposal",
    "name_zh": "大钟寺国际交往广场",
    "area_sqm_declared": 83918.607
   },
   "geometry": {
    "type": "Polygon",
    "coordinates": [
     [
      [
       116.34249999999999,
       39.94725
      ],
      [
       116.34249999999999,
       39.942750000000004
      ],
      [
       116.34059583333332,
       39.942750000000004
      ],
      [
       116.34047083333333,
       39.94725
      ],
      [
       116.34249999999999,
       39.94725
      ]
     ]
    ]
   }
  },
  {
   "type": "Feature",
   "id": "PUBLIC-004",
   "properties": {
    "id": "PUBLIC-004",
    "layer": "PUBLIC_SPACE",
    "source_type": "agent_generated_design",
    "confidence": "medium",
    "geometry_role": "design_proposal",
    "name_zh": "沿线公共节点A",
    "area_sqm_declared": 56883.293
   },
   "geometry": {
    "type": "Polygon",
    "coordinates": [
     [
      [
       116.3465,
       39.958999999999996
      ],
      [
       116.34949999999999,
       39.958999999999996
      ],
      [
       116.34949999999999,
       39.957
      ],
      [
       116.3465,
       39.957
      ],
      [
       116.3465,
       39.958999999999996
      ]
     ]
    ]
   }
  },
  {
   "type": "Feature",
   "id": "PUBLIC-005",
   "properties": {
    "id": "PUBLIC-005",
    "layer": "PUBLIC_SPACE",
    "source_type": "agent_generated_design",
    "confidence": "medium",
    "geometry_role": "design_proposal",
    "name_zh": "沿线公共节点B",
    "area_sqm_declared": 56873.466
   },
   "geometry": {
    "type": "Polygon",
    "coordinates": [
     [
      [
       116.3465,
       39.971
      ],
      [
       116.34949999999999,
       39.971
      ],
      [
       116.34949999999999,
       39.969
      ],
      [
       116.3465,
       39.969
      ],
      [
       116.3465,
       39.971
      ]
     ]
    ]
   }
  },
  {
   "type": "Feature",
   "id": "PUBLIC-006",
   "properties": {
    "id": "PUBLIC-006",
    "layer": "PUBLIC_SPACE",
    "source_type": "agent_generated_design",
    "confidence": "medium",
    "geometry_role": "design_proposal",
    "name_zh": "沿线公共节点C",
    "area_sqm_declared": 56857.082
   },
   "geometry": {
    "type": "Polygon",
    "coordinates": [
     [
      [
       116.3465,
       39.991
      ],
      [
       116.34949999999999,
       39.991
      ],
      [
       116.34949999999999,
       39.989000000000004
      ],
      [
       116.3465,
       39.989000000000004
      ],
      [
       116.3465,
       39.991
      ]
     ]
    ]
   }
  },
  {
   "type": "Feature",
   "id": "PUBLIC-007",
   "properties": {
    "id": "PUBLIC-007",
    "layer": "PUBLIC_SPACE",
    "source_type": "agent_generated_design",
    "confidence": "medium",
    "geometry_role": "design_proposal",
    "name_zh": "沿线公共节点D",
    "area_sqm_declared": 56839.051
   },
   "geometry": {
    "type": "Polygon",
    "coordinates": [
     [
      [
       116.3465,
       40.013
      ],
      [
       116.34949999999999,
       40.013
      ],
      [
       116.34949999999999,
       40.011
      ],
      [
       116.3465,
       40.011
      ],
      [
       116.3465,
       40.013
      ]
     ]
    ]
   }
  }
 ]
}