{
 "type": "FeatureCollection",
 "name": "roads",
 "features": [
  {
   "type": "Feature",
   "id": "ROAD-001",
   "properties": {
    "id": "ROAD-001",
    "layer": "ROAD_CENTERLINE",
    "source_type": "agent_generated_design",
    "confidence": "medium",
    "geometry_role": "design_proposal",
    "name_zh": "京张智脉南北主轴"
   },
   "geometry": {
    "type": "LineString",
    "coordinates": [
     [
      116.344,
      39.939
     ],
     [
      116.344,
      40.0265
     ]
    ]
   }
  },
  {
   "type": "Feature",
   "id": "ROAD-002",
   "properties": {
    "id": "ROAD-002",
    "layer": "ROAD_CENTERLINE",
    "source_type": "agent_generated_design",
    "confidence": "medium",
    "geometry_role": "design_proposal",
    "name_zh": "东西连接-众智园"
   },
   "geometry": {
    "type": "LineString",
    "coordinates": [
     [
      116.341,
      40.005
     ],
     [
      116.354,
      40.005
     ]
    ]
   }
  },
  {
   "type": "Feature",
   "id": "ROAD-003",
   "properties": {
    "id": "ROAD-003",
    "layer": "ROAD_CENTERLINE",
    "source_type": "agent_generated_design",
    "confidence": "medium",
    "geometry_role": "design_proposal",
    "name_zh": "东西连接-原点社区"
   },
   "geometry": {
    "type": "LineString",
    "coordinates": [
     [
      116.341,
      39.9825
     ],
     [
      116.354,
      39.9825
     ]
    ]
   }
  },
  {
   "type": "Feature",
   "id": "ROAD-004",
   "properties": {
    "id": "ROAD-004",
    "layer": "ROAD_CENTERLINE",
    "source_type": "agent_generated_design",
    "confidence": "medium",
    "geometry_role": "design_proposal",
    "name_zh": "东西连接-大钟寺"
   },
   "geometry": {
    "type": "LineString",
    "coordinates": [
     [
      116.341,
      39.945
     ],
     [
      116.354,
      39.945
     ]
    ]
   }
  }
 ]
}