{
  "type": "FeatureCollection",
  "name": "constraints_scaffold",
  "features": [
    {
      "type": "Feature",
      "id": "CONSTRAINTS",
      "properties": {
        "id": "CONSTRAINTS",
        "layer": "REGULATORY_CONTROL",
        "source_type": "agent_inferred_from_public_data",
        "confidence": "low",
        "geometry_role": "provisional_constraint",
        "official_boundary": false,
        "name_zh": "待确认管控条件范围(占位)",
        "constraint_status": "pending_official_data",
        "pending_items_zh": [
          "官方总体设计红线与三处重点区精确边界",
          "控规指标(容积率/建筑高度/建筑密度/退线)",
          "道路红线与市政管线条件",
          "文物保护范围与建设控制地带(含清华园车站旧址)",
          "小月河河道蓝线与防洪条件",
          "无人配送车具体测试路段(划定权在试点区政府)"
        ],
        "usage_note": "本要素只标记'该范围内的法定管控条件尚未取得',几何沿用总体设计范围临时边界,不表达任何具体管控线位或指标;取得官方条件后须整体替换并重算。",
        "source_note": "几何来源同 site_boundary.geojson(brief/site-package/geometry/provisional_boundaries.geojson);待确认事项清单依据 data/processed/missing_data_checklist.csv 与本方案 assumptions"
      },
      "geometry": {
        "type": "Polygon",
        "coordinates": [
          [
            [
              116.3407,
              39.939
            ],
            [
              116.3553,
              39.939
            ],
            [
              116.3553,
              39.965
            ],
            [
              116.3533,
              39.99
            ],
            [
              116.3553,
              40.0265
            ],
            [
              116.3427,
              40.0265
            ],
            [
              116.3417,
              40.006
            ],
            [
              116.3397,
              39.975
            ],
            [
              116.3407,
              39.939
            ]
          ]
        ]
      }
    }
  ]
}
