{
  "type": "FeatureCollection",
  "name": "public_space_scaffold",
  "features": [
    {
      "type": "Feature",
      "id": "PUBLIC-001",
      "properties": {
        "id": "PUBLIC-001",
        "layer": "PUBLIC_SPACE",
        "source_type": "agent_generated_design",
        "confidence": "medium",
        "geometry_role": "design_proposal",
        "name_zh": "公共活动界面",
        "area_sqm_declared": 836345.643
      },
      "geometry": {
        "type": "Polygon",
        "coordinates": [
          [
            [
              116.34734399999999,
              39.967
            ],
            [
              116.34734399999999,
              40.00025
            ],
            [
              116.349996,
              40.00025
            ],
            [
              116.349996,
              39.967
            ],
            [
              116.34734399999999,
              39.967
            ]
          ]
        ]
      }
    },
    {
      "type": "Feature",
      "id": "elderly-poi-00",
      "properties": {
        "id": "elderly-poi-00",
        "layer": "SCENARIO_NODE",
        "source_type": "osm",
        "confidence": "medium",
        "geometry_role": "existing_condition",
        "name_zh": "清华园老龄大学",
        "boundary_membership": [
          "PROV-RESEARCH-001"
        ],
        "source_note": "OpenStreetMap contributors, Overpass API, accessed 2026-08-10, ODbL"
      },
      "geometry": {
        "type": "Point",
        "coordinates": [
          116.321,
          39.9984
        ]
      }
    },
    {
      "type": "Feature",
      "id": "elderly-poi-01",
      "properties": {
        "id": "elderly-poi-01",
        "layer": "SCENARIO_NODE",
        "source_type": "osm",
        "confidence": "medium",
        "geometry_role": "existing_condition",
        "name_zh": "老年活动中心",
        "boundary_membership": [
          "PROV-RESEARCH-001"
        ],
        "source_note": "OpenStreetMap contributors, Overpass API, accessed 2026-08-10, ODbL"
      },
      "geometry": {
        "type": "Point",
        "coordinates": [
          116.3539,
          39.9955
        ]
      }
    },
    {
      "type": "Feature",
      "id": "elderly-poi-02",
      "properties": {
        "id": "elderly-poi-02",
        "layer": "SCENARIO_NODE",
        "source_type": "osm",
        "confidence": "medium",
        "geometry_role": "existing_condition",
        "name_zh": "11号楼(旭诚养老院)",
        "boundary_membership": [
          "PROV-RESEARCH-001"
        ],
        "source_note": "OpenStreetMap contributors, Overpass API, accessed 2026-08-10, ODbL"
      },
      "geometry": {
        "type": "Point",
        "coordinates": [
          116.3384,
          40.0157
        ]
      }
    },
    {
      "type": "Feature",
      "id": "elderly-poi-03",
      "properties": {
        "id": "elderly-poi-03",
        "layer": "SCENARIO_NODE",
        "source_type": "osm",
        "confidence": "medium",
        "geometry_role": "existing_condition",
        "name_zh": "老年活动中心和离退休处",
        "boundary_membership": [],
        "source_note": "OpenStreetMap contributors, Overpass API, accessed 2026-08-10, ODbL"
      },
      "geometry": {
        "type": "Point",
        "coordinates": [
          116.3174,
          39.9958
        ]
      }
    },
    {
      "type": "Feature",
      "id": "elderly-poi-04",
      "properties": {
        "id": "elderly-poi-04",
        "layer": "SCENARIO_NODE",
        "source_type": "osm",
        "confidence": "medium",
        "geometry_role": "existing_condition",
        "name_zh": "修德颐养园",
        "boundary_membership": [
          "PROV-RESEARCH-001"
        ],
        "source_note": "OpenStreetMap contributors, Overpass API, accessed 2026-08-10, ODbL"
      },
      "geometry": {
        "type": "Point",
        "coordinates": [
          116.3623,
          40.0142
        ]
      }
    },
    {
      "type": "Feature",
      "id": "anchor-dongpan-innovation-center",
      "properties": {
        "id": "anchor-dongpan-innovation-center",
        "layer": "AI_SERVICE_ZONE",
        "source_type": "agent_inferred_from_public_data",
        "confidence": "medium",
        "geometry_role": "existing_condition",
        "name_zh": "东畔科创中心(中关村东升科技园三期)",
        "boundary_membership": [
          "PROV-RESEARCH-001"
        ],
        "in_overall_design_scope": false,
        "note": "用地5.93公顷,建筑面积约25.48万平方米;地址即小月河东畔路16号院",
        "source_note": "地址/揭牌信息来自公开报道,坐标为人工核实的街道地址定位,非官方测绘点"
      },
      "geometry": {
        "type": "Point",
        "coordinates": [
          116.3598,
          40.0021
        ]
      }
    },
    {
      "type": "Feature",
      "id": "anchor-embodied-ai-industrial-park",
      "properties": {
        "id": "anchor-embodied-ai-industrial-park",
        "layer": "AI_SERVICE_ZONE",
        "source_type": "agent_inferred_from_public_data",
        "confidence": "low",
        "geometry_role": "existing_condition",
        "name_zh": "中关村(海淀)具身智能创新产业园",
        "boundary_membership": [
          "PROV-RESEARCH-001"
        ],
        "in_overall_design_scope": false,
        "note": "全国首家具身智能创新产业园,2025-02-27揭牌;坐标与东畔科创中心同址,来源为文字地址而非独立测绘点,精度较低",
        "source_note": "地址/揭牌信息来自公开报道,坐标为人工核实的街道地址定位,非官方测绘点"
      },
      "geometry": {
        "type": "Point",
        "coordinates": [
          116.3598,
          40.0021
        ]
      }
    },
    {
      "type": "Feature",
      "id": "university-existing-1367428477",
      "properties": {
        "id": "university-existing-1367428477",
        "layer": "PUBLIC_SPACE",
        "source_type": "osm",
        "confidence": "medium",
        "geometry_role": "existing_condition",
        "name_zh": "北京市海淀区职业学校",
        "osm_id": 1367428477,
        "osm_tag": "college",
        "boundary_membership": [
          "PROV-RESEARCH-001"
        ],
        "source_note": "OpenStreetMap contributors, Overpass API, accessed 2026-08-10, ODbL"
      },
      "geometry": {
        "type": "Point",
        "coordinates": [
          116.3383913,
          39.98586
        ]
      }
    },
    {
      "type": "Feature",
      "id": "university-existing-1732799822",
      "properties": {
        "id": "university-existing-1732799822",
        "layer": "PUBLIC_SPACE",
        "source_type": "osm",
        "confidence": "medium",
        "geometry_role": "existing_condition",
        "name_zh": "中国人民大学继续教育学院",
        "osm_id": 1732799822,
        "osm_tag": "college",
        "boundary_membership": [
          "PROV-RESEARCH-001"
        ],
        "source_note": "OpenStreetMap contributors, Overpass API, accessed 2026-08-10, ODbL"
      },
      "geometry": {
        "type": "Point",
        "coordinates": [
          116.3577135,
          40.0006343
        ]
      }
    },
    {
      "type": "Feature",
      "id": "university-existing-1743112504",
      "properties": {
        "id": "university-existing-1743112504",
        "layer": "PUBLIC_SPACE",
        "source_type": "osm",
        "confidence": "medium",
        "geometry_role": "existing_condition",
        "name_zh": "首都体育学院",
        "osm_id": 1743112504,
        "osm_tag": "college",
        "boundary_membership": [
          "PROV-SITE-001",
          "PROV-RESEARCH-001"
        ],
        "source_note": "OpenStreetMap contributors, Overpass API, accessed 2026-08-10, ODbL"
      },
      "geometry": {
        "type": "Point",
        "coordinates": [
          116.3430913,
          39.9687626
        ]
      }
    },
    {
      "type": "Feature",
      "id": "university-existing-3196516822",
      "properties": {
        "id": "university-existing-3196516822",
        "layer": "PUBLIC_SPACE",
        "source_type": "osm",
        "confidence": "medium",
        "geometry_role": "existing_condition",
        "name_zh": "中国科学院大学中关村校区",
        "osm_id": 3196516822,
        "osm_tag": "university",
        "boundary_membership": [
          "PROV-RESEARCH-001"
        ],
        "source_note": "OpenStreetMap contributors, Overpass API, accessed 2026-08-10, ODbL"
      },
      "geometry": {
        "type": "Point",
        "coordinates": [
          116.328872,
          39.9813631
        ]
      }
    },
    {
      "type": "Feature",
      "id": "university-existing-5261588232",
      "properties": {
        "id": "university-existing-5261588232",
        "layer": "PUBLIC_SPACE",
        "source_type": "osm",
        "confidence": "medium",
        "geometry_role": "existing_condition",
        "name_zh": "北京大学BSL-3实验室",
        "osm_id": 5261588232,
        "osm_tag": "university",
        "boundary_membership": [
          "PROV-SITE-001",
          "PROV-RESEARCH-001"
        ],
        "source_note": "OpenStreetMap contributors, Overpass API, accessed 2026-08-10, ODbL"
      },
      "geometry": {
        "type": "Point",
        "coordinates": [
          116.3505061,
          39.9821615
        ]
      }
    },
    {
      "type": "Feature",
      "id": "university-existing-8948382442",
      "properties": {
        "id": "university-existing-8948382442",
        "layer": "PUBLIC_SPACE",
        "source_type": "osm",
        "confidence": "medium",
        "geometry_role": "existing_condition",
        "name_zh": "土地科学技术学院",
        "osm_id": 8948382442,
        "osm_tag": "college",
        "boundary_membership": [
          "PROV-SITE-001",
          "PROV-RESEARCH-001",
          "PROV-KEY-SCOPE-001",
          "beijing_ai_origin_community"
        ],
        "source_note": "OpenStreetMap contributors, Overpass API, accessed 2026-08-10, ODbL"
      },
      "geometry": {
        "type": "Point",
        "coordinates": [
          116.3450304,
          39.9913956
        ]
      }
    },
    {
      "type": "Feature",
      "id": "university-existing-10198894138",
      "properties": {
        "id": "university-existing-10198894138",
        "layer": "PUBLIC_SPACE",
        "source_type": "osm",
        "confidence": "medium",
        "geometry_role": "existing_condition",
        "name_zh": "清华园老龄大学",
        "osm_id": 10198894138,
        "osm_tag": "university",
        "boundary_membership": [
          "PROV-RESEARCH-001"
        ],
        "source_note": "OpenStreetMap contributors, Overpass API, accessed 2026-08-10, ODbL"
      },
      "geometry": {
        "type": "Point",
        "coordinates": [
          116.3210052,
          39.99839
        ]
      }
    },
    {
      "type": "Feature",
      "id": "university-existing-12171070459",
      "properties": {
        "id": "university-existing-12171070459",
        "layer": "PUBLIC_SPACE",
        "source_type": "osm",
        "confidence": "medium",
        "geometry_role": "existing_condition",
        "name_zh": "公共卫生学院",
        "osm_id": 12171070459,
        "osm_tag": "college",
        "boundary_membership": [
          "PROV-SITE-001",
          "PROV-RESEARCH-001"
        ],
        "source_note": "OpenStreetMap contributors, Overpass API, accessed 2026-08-10, ODbL"
      },
      "geometry": {
        "type": "Point",
        "coordinates": [
          116.348702,
          39.9811638
        ]
      }
    },
    {
      "type": "Feature",
      "id": "university-existing-12171070460",
      "properties": {
        "id": "university-existing-12171070460",
        "layer": "PUBLIC_SPACE",
        "source_type": "osm",
        "confidence": "medium",
        "geometry_role": "existing_condition",
        "name_zh": "护理学院",
        "osm_id": 12171070460,
        "osm_tag": "college",
        "boundary_membership": [
          "PROV-SITE-001",
          "PROV-RESEARCH-001"
        ],
        "source_note": "OpenStreetMap contributors, Overpass API, accessed 2026-08-10, ODbL"
      },
      "geometry": {
        "type": "Point",
        "coordinates": [
          116.3486768,
          39.981778
        ]
      }
    },
    {
      "type": "Feature",
      "id": "university-existing-12172339777",
      "properties": {
        "id": "university-existing-12172339777",
        "layer": "PUBLIC_SPACE",
        "source_type": "osm",
        "confidence": "medium",
        "geometry_role": "existing_condition",
        "name_zh": "医学人文学院",
        "osm_id": 12172339777,
        "osm_tag": "college",
        "boundary_membership": [
          "PROV-SITE-001",
          "PROV-RESEARCH-001"
        ],
        "source_note": "OpenStreetMap contributors, Overpass API, accessed 2026-08-10, ODbL"
      },
      "geometry": {
        "type": "Point",
        "coordinates": [
          116.3524606,
          39.982945
        ]
      }
    },
    {
      "type": "Feature",
      "id": "university-existing-12172339778",
      "properties": {
        "id": "university-existing-12172339778",
        "layer": "PUBLIC_SPACE",
        "source_type": "osm",
        "confidence": "medium",
        "geometry_role": "existing_condition",
        "name_zh": "药学院",
        "osm_id": 12172339778,
        "osm_tag": "college",
        "boundary_membership": [
          "PROV-SITE-001",
          "PROV-RESEARCH-001"
        ],
        "source_note": "OpenStreetMap contributors, Overpass API, accessed 2026-08-10, ODbL"
      },
      "geometry": {
        "type": "Point",
        "coordinates": [
          116.3516307,
          39.9822771
        ]
      }
    },
    {
      "type": "Feature",
      "id": "university-existing-12610171692",
      "properties": {
        "id": "university-existing-12610171692",
        "layer": "PUBLIC_SPACE",
        "source_type": "osm",
        "confidence": "medium",
        "geometry_role": "existing_condition",
        "name_zh": "明志斋",
        "osm_id": 12610171692,
        "osm_tag": "university",
        "boundary_membership": [
          "PROV-RESEARCH-001"
        ],
        "source_note": "OpenStreetMap contributors, Overpass API, accessed 2026-08-10, ODbL"
      },
      "geometry": {
        "type": "Point",
        "coordinates": [
          116.3340431,
          40.0091858
        ]
      }
    },
    {
      "type": "Feature",
      "id": "university-existing-12610171693",
      "properties": {
        "id": "university-existing-12610171693",
        "layer": "PUBLIC_SPACE",
        "source_type": "osm",
        "confidence": "medium",
        "geometry_role": "existing_condition",
        "name_zh": "清华大学继续教育学院（双清综合楼）",
        "osm_id": 12610171693,
        "osm_tag": "university",
        "boundary_membership": [
          "PROV-RESEARCH-001"
        ],
        "source_note": "OpenStreetMap contributors, Overpass API, accessed 2026-08-10, ODbL"
      },
      "geometry": {
        "type": "Point",
        "coordinates": [
          116.3340124,
          40.0091199
        ]
      }
    },
    {
      "type": "Feature",
      "id": "university-existing-12865883372",
      "properties": {
        "id": "university-existing-12865883372",
        "layer": "PUBLIC_SPACE",
        "source_type": "osm",
        "confidence": "medium",
        "geometry_role": "existing_condition",
        "name_zh": "人工智能学院",
        "osm_id": 12865883372,
        "osm_tag": "college",
        "boundary_membership": [
          "PROV-RESEARCH-001"
        ],
        "source_note": "OpenStreetMap contributors, Overpass API, accessed 2026-08-10, ODbL"
      },
      "geometry": {
        "type": "Point",
        "coordinates": [
          116.3614957,
          39.9600594
        ]
      }
    },
    {
      "type": "Feature",
      "id": "university-existing-13094881806",
      "properties": {
        "id": "university-existing-13094881806",
        "layer": "PUBLIC_SPACE",
        "source_type": "osm",
        "confidence": "medium",
        "geometry_role": "existing_condition",
        "name_zh": "中国政法大学研究生院",
        "osm_id": 13094881806,
        "osm_tag": "college",
        "boundary_membership": [
          "PROV-SITE-001",
          "PROV-RESEARCH-001"
        ],
        "source_note": "OpenStreetMap contributors, Overpass API, accessed 2026-08-10, ODbL"
      },
      "geometry": {
        "type": "Point",
        "coordinates": [
          116.3434319,
          39.9653813
        ]
      }
    },
    {
      "type": "Feature",
      "id": "university-existing-13094881807",
      "properties": {
        "id": "university-existing-13094881807",
        "layer": "PUBLIC_SPACE",
        "source_type": "osm",
        "confidence": "medium",
        "geometry_role": "existing_condition",
        "name_zh": "中国政法大学博士后流动站",
        "osm_id": 13094881807,
        "osm_tag": "college",
        "boundary_membership": [
          "PROV-SITE-001",
          "PROV-RESEARCH-001"
        ],
        "source_note": "OpenStreetMap contributors, Overpass API, accessed 2026-08-10, ODbL"
      },
      "geometry": {
        "type": "Point",
        "coordinates": [
          116.3435376,
          39.9653824
        ]
      }
    },
    {
      "type": "Feature",
      "id": "university-existing-13094881808",
      "properties": {
        "id": "university-existing-13094881808",
        "layer": "PUBLIC_SPACE",
        "source_type": "osm",
        "confidence": "medium",
        "geometry_role": "existing_condition",
        "name_zh": "司法考试学院",
        "osm_id": 13094881808,
        "osm_tag": "college",
        "boundary_membership": [
          "PROV-SITE-001",
          "PROV-RESEARCH-001"
        ],
        "source_note": "OpenStreetMap contributors, Overpass API, accessed 2026-08-10, ODbL"
      },
      "geometry": {
        "type": "Point",
        "coordinates": [
          116.3435638,
          39.9650595
        ]
      }
    },
    {
      "type": "Feature",
      "id": "university-existing-13094881833",
      "properties": {
        "id": "university-existing-13094881833",
        "layer": "PUBLIC_SPACE",
        "source_type": "osm",
        "confidence": "medium",
        "geometry_role": "existing_condition",
        "name_zh": "网络教育学院",
        "osm_id": 13094881833,
        "osm_tag": "college",
        "boundary_membership": [
          "PROV-SITE-001",
          "PROV-RESEARCH-001"
        ],
        "source_note": "OpenStreetMap contributors, Overpass API, accessed 2026-08-10, ODbL"
      },
      "geometry": {
        "type": "Point",
        "coordinates": [
          116.3436182,
          39.9650727
        ]
      }
    },
    {
      "type": "Feature",
      "id": "university-existing-13094881858",
      "properties": {
        "id": "university-existing-13094881858",
        "layer": "PUBLIC_SPACE",
        "source_type": "osm",
        "confidence": "medium",
        "geometry_role": "existing_condition",
        "name_zh": "社会学院",
        "osm_id": 13094881858,
        "osm_tag": "college",
        "boundary_membership": [
          "PROV-SITE-001",
          "PROV-RESEARCH-001"
        ],
        "source_note": "OpenStreetMap contributors, Overpass API, accessed 2026-08-10, ODbL"
      },
      "geometry": {
        "type": "Point",
        "coordinates": [
          116.3447745,
          39.9644787
        ]
      }
    },
    {
      "type": "Feature",
      "id": "university-existing-14063263901",
      "properties": {
        "id": "university-existing-14063263901",
        "layer": "PUBLIC_SPACE",
        "source_type": "osm",
        "confidence": "medium",
        "geometry_role": "existing_condition",
        "name_zh": "中国科学院软件研究所",
        "osm_id": 14063263901,
        "osm_tag": "college",
        "boundary_membership": [
          "PROV-RESEARCH-001"
        ],
        "source_note": "OpenStreetMap contributors, Overpass API, accessed 2026-08-10, ODbL"
      },
      "geometry": {
        "type": "Point",
        "coordinates": [
          116.330889,
          39.9784058
        ]
      }
    },
    {
      "type": "Feature",
      "id": "university-existing-14074228232",
      "properties": {
        "id": "university-existing-14074228232",
        "layer": "PUBLIC_SPACE",
        "source_type": "osm",
        "confidence": "medium",
        "geometry_role": "existing_condition",
        "name_zh": "马克思主义学院",
        "osm_id": 14074228232,
        "osm_tag": "college",
        "boundary_membership": [
          "PROV-RESEARCH-001"
        ],
        "source_note": "OpenStreetMap contributors, Overpass API, accessed 2026-08-10, ODbL"
      },
      "geometry": {
        "type": "Point",
        "coordinates": [
          116.3362494,
          39.9523348
        ]
      }
    },
    {
      "type": "Feature",
      "id": "university-existing-30784020",
      "properties": {
        "id": "university-existing-30784020",
        "layer": "PUBLIC_SPACE",
        "source_type": "osm",
        "confidence": "medium",
        "geometry_role": "existing_condition",
        "name_zh": "北京师范大学",
        "osm_id": 30784020,
        "osm_tag": "university",
        "boundary_membership": [
          "PROV-RESEARCH-001"
        ],
        "source_note": "OpenStreetMap contributors, Overpass API, accessed 2026-08-10, ODbL"
      },
      "geometry": {
        "type": "Point",
        "coordinates": [
          116.3597548,
          39.9603271
        ]
      }
    },
    {
      "type": "Feature",
      "id": "university-existing-55816439",
      "properties": {
        "id": "university-existing-55816439",
        "layer": "PUBLIC_SPACE",
        "source_type": "osm",
        "confidence": "medium",
        "geometry_role": "existing_condition",
        "name_zh": "中国农业大学东校区",
        "osm_id": 55816439,
        "osm_tag": "university",
        "boundary_membership": [
          "PROV-SITE-001",
          "PROV-RESEARCH-001"
        ],
        "source_note": "OpenStreetMap contributors, Overpass API, accessed 2026-08-10, ODbL"
      },
      "geometry": {
        "type": "Point",
        "coordinates": [
          116.3518912,
          40.0032746
        ]
      }
    },
    {
      "type": "Feature",
      "id": "university-existing-169065601",
      "properties": {
        "id": "university-existing-169065601",
        "layer": "PUBLIC_SPACE",
        "source_type": "osm",
        "confidence": "medium",
        "geometry_role": "existing_condition",
        "name_zh": "信息与电气工程学院",
        "osm_id": 169065601,
        "osm_tag": "college",
        "boundary_membership": [
          "PROV-SITE-001",
          "PROV-RESEARCH-001"
        ],
        "source_note": "OpenStreetMap contributors, Overpass API, accessed 2026-08-10, ODbL"
      },
      "geometry": {
        "type": "Point",
        "coordinates": [
          116.3502473,
          40.0052251
        ]
      }
    },
    {
      "type": "Feature",
      "id": "university-existing-245164271",
      "properties": {
        "id": "university-existing-245164271",
        "layer": "PUBLIC_SPACE",
        "source_type": "osm",
        "confidence": "medium",
        "geometry_role": "existing_condition",
        "name_zh": "中国地质大学（北京）",
        "osm_id": 245164271,
        "osm_tag": "university",
        "boundary_membership": [
          "PROV-SITE-001",
          "PROV-RESEARCH-001"
        ],
        "source_note": "OpenStreetMap contributors, Overpass API, accessed 2026-08-10, ODbL"
      },
      "geometry": {
        "type": "Point",
        "coordinates": [
          116.340587,
          39.9886771
        ]
      }
    },
    {
      "type": "Feature",
      "id": "university-existing-248393687",
      "properties": {
        "id": "university-existing-248393687",
        "layer": "PUBLIC_SPACE",
        "source_type": "osm",
        "confidence": "medium",
        "geometry_role": "existing_condition",
        "name_zh": "中央财经大学",
        "osm_id": 248393687,
        "osm_tag": "university",
        "boundary_membership": [
          "PROV-RESEARCH-001"
        ],
        "source_note": "OpenStreetMap contributors, Overpass API, accessed 2026-08-10, ODbL"
      },
      "geometry": {
        "type": "Point",
        "coordinates": [
          116.3362178,
          39.9581712
        ]
      }
    },
    {
      "type": "Feature",
      "id": "university-existing-256753335",
      "properties": {
        "id": "university-existing-256753335",
        "layer": "PUBLIC_SPACE",
        "source_type": "osm",
        "confidence": "medium",
        "geometry_role": "existing_condition",
        "name_zh": "北京语言大学",
        "osm_id": 256753335,
        "osm_tag": "university",
        "boundary_membership": [
          "PROV-SITE-001",
          "PROV-RESEARCH-001"
        ],
        "source_note": "OpenStreetMap contributors, Overpass API, accessed 2026-08-10, ODbL"
      },
      "geometry": {
        "type": "Point",
        "coordinates": [
          116.3417712,
          39.9935185
        ]
      }
    },
    {
      "type": "Feature",
      "id": "university-existing-266297360",
      "properties": {
        "id": "university-existing-266297360",
        "layer": "PUBLIC_SPACE",
        "source_type": "osm",
        "confidence": "medium",
        "geometry_role": "existing_condition",
        "name_zh": "北京交通大学东校区",
        "osm_id": 266297360,
        "osm_tag": "university",
        "boundary_membership": [
          "PROV-SITE-001",
          "PROV-RESEARCH-001"
        ],
        "source_note": "OpenStreetMap contributors, Overpass API, accessed 2026-08-10, ODbL"
      },
      "geometry": {
        "type": "Point",
        "coordinates": [
          116.3408706,
          39.9456404
        ]
      }
    },
    {
      "type": "Feature",
      "id": "university-existing-266512538",
      "properties": {
        "id": "university-existing-266512538",
        "layer": "PUBLIC_SPACE",
        "source_type": "osm",
        "confidence": "medium",
        "geometry_role": "existing_condition",
        "name_zh": "北京交通大学主校区",
        "osm_id": 266512538,
        "osm_tag": "university",
        "boundary_membership": [
          "PROV-RESEARCH-001"
        ],
        "source_note": "OpenStreetMap contributors, Overpass API, accessed 2026-08-10, ODbL"
      },
      "geometry": {
        "type": "Point",
        "coordinates": [
          116.3368969,
          39.9504733
        ]
      }
    },
    {
      "type": "Feature",
      "id": "university-existing-277989175",
      "properties": {
        "id": "university-existing-277989175",
        "layer": "PUBLIC_SPACE",
        "source_type": "osm",
        "confidence": "medium",
        "geometry_role": "existing_condition",
        "name_zh": "北京科技大学",
        "osm_id": 277989175,
        "osm_tag": "university",
        "boundary_membership": [
          "PROV-SITE-001",
          "PROV-RESEARCH-001"
        ],
        "source_note": "OpenStreetMap contributors, Overpass API, accessed 2026-08-10, ODbL"
      },
      "geometry": {
        "type": "Point",
        "coordinates": [
          116.3531931,
          39.9890463
        ]
      }
    },
    {
      "type": "Feature",
      "id": "university-existing-279281877",
      "properties": {
        "id": "university-existing-279281877",
        "layer": "PUBLIC_SPACE",
        "source_type": "osm",
        "confidence": "medium",
        "geometry_role": "existing_condition",
        "name_zh": "工学院",
        "osm_id": 279281877,
        "osm_tag": "college",
        "boundary_membership": [
          "PROV-SITE-001",
          "PROV-RESEARCH-001"
        ],
        "source_note": "OpenStreetMap contributors, Overpass API, accessed 2026-08-10, ODbL"
      },
      "geometry": {
        "type": "Point",
        "coordinates": [
          116.3513426,
          40.0045496
        ]
      }
    },
    {
      "type": "Feature",
      "id": "university-existing-279303636",
      "properties": {
        "id": "university-existing-279303636",
        "layer": "PUBLIC_SPACE",
        "source_type": "osm",
        "confidence": "medium",
        "geometry_role": "existing_condition",
        "name_zh": "北京邮电大学",
        "osm_id": 279303636,
        "osm_tag": "university",
        "boundary_membership": [
          "PROV-SITE-001",
          "PROV-RESEARCH-001"
        ],
        "source_note": "OpenStreetMap contributors, Overpass API, accessed 2026-08-10, ODbL"
      },
      "geometry": {
        "type": "Point",
        "coordinates": [
          116.351917,
          39.9602522
        ]
      }
    },
    {
      "type": "Feature",
      "id": "university-existing-298041155",
      "properties": {
        "id": "university-existing-298041155",
        "layer": "PUBLIC_SPACE",
        "source_type": "osm",
        "confidence": "medium",
        "geometry_role": "existing_condition",
        "name_zh": "北京培黎职业学院",
        "osm_id": 298041155,
        "osm_tag": "college",
        "boundary_membership": [
          "PROV-RESEARCH-001"
        ],
        "source_note": "OpenStreetMap contributors, Overpass API, accessed 2026-08-10, ODbL"
      },
      "geometry": {
        "type": "Point",
        "coordinates": [
          116.3390971,
          40.0195347
        ]
      }
    },
    {
      "type": "Feature",
      "id": "university-existing-378420724",
      "properties": {
        "id": "university-existing-378420724",
        "layer": "PUBLIC_SPACE",
        "source_type": "osm",
        "confidence": "medium",
        "geometry_role": "existing_condition",
        "name_zh": "中国政法大学（学院路校区）",
        "osm_id": 378420724,
        "osm_tag": "university",
        "boundary_membership": [
          "PROV-SITE-001",
          "PROV-RESEARCH-001"
        ],
        "source_note": "OpenStreetMap contributors, Overpass API, accessed 2026-08-10, ODbL"
      },
      "geometry": {
        "type": "Point",
        "coordinates": [
          116.3449877,
          39.9640009
        ]
      }
    },
    {
      "type": "Feature",
      "id": "university-existing-388355720",
      "properties": {
        "id": "university-existing-388355720",
        "layer": "PUBLIC_SPACE",
        "source_type": "osm",
        "confidence": "medium",
        "geometry_role": "existing_condition",
        "name_zh": "北京电影学院",
        "osm_id": 388355720,
        "osm_tag": "college",
        "boundary_membership": [
          "PROV-SITE-001",
          "PROV-RESEARCH-001"
        ],
        "source_note": "OpenStreetMap contributors, Overpass API, accessed 2026-08-10, ODbL"
      },
      "geometry": {
        "type": "Point",
        "coordinates": [
          116.3495305,
          39.9702007
        ]
      }
    },
    {
      "type": "Feature",
      "id": "university-existing-389714442",
      "properties": {
        "id": "university-existing-389714442",
        "layer": "PUBLIC_SPACE",
        "source_type": "osm",
        "confidence": "medium",
        "geometry_role": "existing_condition",
        "name_zh": "中国科学院大学（中关村校区）",
        "osm_id": 389714442,
        "osm_tag": "university",
        "boundary_membership": [
          "PROV-RESEARCH-001"
        ],
        "source_note": "OpenStreetMap contributors, Overpass API, accessed 2026-08-10, ODbL"
      },
      "geometry": {
        "type": "Point",
        "coordinates": [
          116.3300232,
          39.9828705
        ]
      }
    },
    {
      "type": "Feature",
      "id": "university-existing-412323504",
      "properties": {
        "id": "university-existing-412323504",
        "layer": "PUBLIC_SPACE",
        "source_type": "osm",
        "confidence": "medium",
        "geometry_role": "existing_condition",
        "name_zh": "北京林业大学",
        "osm_id": 412323504,
        "osm_tag": "university",
        "boundary_membership": [
          "PROV-RESEARCH-001"
        ],
        "source_note": "OpenStreetMap contributors, Overpass API, accessed 2026-08-10, ODbL"
      },
      "geometry": {
        "type": "Point",
        "coordinates": [
          116.3383562,
          40.0029223
        ]
      }
    },
    {
      "type": "Feature",
      "id": "university-existing-412323507",
      "properties": {
        "id": "university-existing-412323507",
        "layer": "PUBLIC_SPACE",
        "source_type": "osm",
        "confidence": "medium",
        "geometry_role": "existing_condition",
        "name_zh": "北京联合大学学院路校区",
        "osm_id": 412323507,
        "osm_tag": "university",
        "boundary_membership": [
          "PROV-SITE-001",
          "PROV-RESEARCH-001"
        ],
        "source_note": "OpenStreetMap contributors, Overpass API, accessed 2026-08-10, ODbL"
      },
      "geometry": {
        "type": "Point",
        "coordinates": [
          116.3491834,
          39.9761185
        ]
      }
    },
    {
      "type": "Feature",
      "id": "university-existing-412323508",
      "properties": {
        "id": "university-existing-412323508",
        "layer": "PUBLIC_SPACE",
        "source_type": "osm",
        "confidence": "medium",
        "geometry_role": "existing_condition",
        "name_zh": "中国农业大学",
        "osm_id": 412323508,
        "osm_tag": "university",
        "boundary_membership": [
          "PROV-SITE-001",
          "PROV-RESEARCH-001",
          "PROV-KEY-SCOPE-001",
          "zhongzhiyuan_ai_acceleration_area"
        ],
        "source_note": "OpenStreetMap contributors, Overpass API, accessed 2026-08-10, ODbL"
      },
      "geometry": {
        "type": "Point",
        "coordinates": [
          116.3501865,
          40.0087941
        ]
      }
    },
    {
      "type": "Feature",
      "id": "university-existing-543831707",
      "properties": {
        "id": "university-existing-543831707",
        "layer": "PUBLIC_SPACE",
        "source_type": "osm",
        "confidence": "medium",
        "geometry_role": "existing_condition",
        "name_zh": "北京大学医学部",
        "osm_id": 543831707,
        "osm_tag": "university",
        "boundary_membership": [
          "PROV-SITE-001",
          "PROV-RESEARCH-001"
        ],
        "source_note": "OpenStreetMap contributors, Overpass API, accessed 2026-08-10, ODbL"
      },
      "geometry": {
        "type": "Point",
        "coordinates": [
          116.3522817,
          39.9828581
        ]
      }
    },
    {
      "type": "Feature",
      "id": "university-existing-638127847",
      "properties": {
        "id": "university-existing-638127847",
        "layer": "PUBLIC_SPACE",
        "source_type": "osm",
        "confidence": "medium",
        "geometry_role": "existing_condition",
        "name_zh": "清华大学五道口金融学院",
        "osm_id": 638127847,
        "osm_tag": "university",
        "boundary_membership": [
          "PROV-RESEARCH-001"
        ],
        "source_note": "OpenStreetMap contributors, Overpass API, accessed 2026-08-10, ODbL"
      },
      "geometry": {
        "type": "Point",
        "coordinates": [
          116.3295211,
          39.9921937
        ]
      }
    },
    {
      "type": "Feature",
      "id": "university-existing-868296013",
      "properties": {
        "id": "university-existing-868296013",
        "layer": "PUBLIC_SPACE",
        "source_type": "osm",
        "confidence": "medium",
        "geometry_role": "existing_condition",
        "name_zh": "海淀区职业技校东校区",
        "osm_id": 868296013,
        "osm_tag": "college",
        "boundary_membership": [
          "PROV-RESEARCH-001"
        ],
        "source_note": "OpenStreetMap contributors, Overpass API, accessed 2026-08-10, ODbL"
      },
      "geometry": {
        "type": "Point",
        "coordinates": [
          116.3384589,
          39.9859036
        ]
      }
    },
    {
      "type": "Feature",
      "id": "university-existing-868296014",
      "properties": {
        "id": "university-existing-868296014",
        "layer": "PUBLIC_SPACE",
        "source_type": "osm",
        "confidence": "medium",
        "geometry_role": "existing_condition",
        "name_zh": "中关村学院",
        "osm_id": 868296014,
        "osm_tag": "college",
        "boundary_membership": [
          "PROV-RESEARCH-001"
        ],
        "source_note": "OpenStreetMap contributors, Overpass API, accessed 2026-08-10, ODbL"
      },
      "geometry": {
        "type": "Point",
        "coordinates": [
          116.3393373,
          39.9859206
        ]
      }
    },
    {
      "type": "Feature",
      "id": "university-existing-868296015",
      "properties": {
        "id": "university-existing-868296015",
        "layer": "PUBLIC_SPACE",
        "source_type": "osm",
        "confidence": "medium",
        "geometry_role": "existing_condition",
        "name_zh": "北京城市学院",
        "osm_id": 868296015,
        "osm_tag": "college",
        "boundary_membership": [
          "PROV-SITE-001",
          "PROV-RESEARCH-001"
        ],
        "source_note": "OpenStreetMap contributors, Overpass API, accessed 2026-08-10, ODbL"
      },
      "geometry": {
        "type": "Point",
        "coordinates": [
          116.3409998,
          39.9863775
        ]
      }
    },
    {
      "type": "Feature",
      "id": "university-existing-917379043",
      "properties": {
        "id": "university-existing-917379043",
        "layer": "PUBLIC_SPACE",
        "source_type": "osm",
        "confidence": "medium",
        "geometry_role": "existing_condition",
        "name_zh": "北京交通大学-向阳办公区",
        "osm_id": 917379043,
        "osm_tag": "university",
        "boundary_membership": [
          "PROV-RESEARCH-001"
        ],
        "source_note": "OpenStreetMap contributors, Overpass API, accessed 2026-08-10, ODbL"
      },
      "geometry": {
        "type": "Point",
        "coordinates": [
          116.3361236,
          39.9525819
        ]
      }
    },
    {
      "type": "Feature",
      "id": "university-existing-917379046",
      "properties": {
        "id": "university-existing-917379046",
        "layer": "PUBLIC_SPACE",
        "source_type": "osm",
        "confidence": "medium",
        "geometry_role": "existing_condition",
        "name_zh": "国防大学军事文化学院",
        "osm_id": 917379046,
        "osm_tag": "university",
        "boundary_membership": [
          "PROV-RESEARCH-001"
        ],
        "source_note": "OpenStreetMap contributors, Overpass API, accessed 2026-08-10, ODbL"
      },
      "geometry": {
        "type": "Point",
        "coordinates": [
          116.3189754,
          39.9538788
        ]
      }
    },
    {
      "type": "Feature",
      "id": "university-existing-1003833559",
      "properties": {
        "id": "university-existing-1003833559",
        "layer": "PUBLIC_SPACE",
        "source_type": "osm",
        "confidence": "medium",
        "geometry_role": "existing_condition",
        "name_zh": "中国矿业大学（北京）",
        "osm_id": 1003833559,
        "osm_tag": "university",
        "boundary_membership": [
          "PROV-SITE-001",
          "PROV-RESEARCH-001"
        ],
        "source_note": "OpenStreetMap contributors, Overpass API, accessed 2026-08-10, ODbL"
      },
      "geometry": {
        "type": "Point",
        "coordinates": [
          116.3422257,
          39.9971249
        ]
      }
    },
    {
      "type": "Feature",
      "id": "university-existing-18849853",
      "properties": {
        "id": "university-existing-18849853",
        "layer": "PUBLIC_SPACE",
        "source_type": "osm",
        "confidence": "medium",
        "geometry_role": "existing_condition",
        "name_zh": "北京航空航天大学(学院路校区)",
        "osm_id": 18849853,
        "osm_tag": "university",
        "boundary_membership": [
          "PROV-SITE-001",
          "PROV-RESEARCH-001"
        ],
        "source_note": "OpenStreetMap contributors, Overpass API, accessed 2026-08-10, ODbL"
      },
      "geometry": {
        "type": "Point",
        "coordinates": [
          116.3410053,
          39.9804245
        ]
      }
    },
    {
      "type": "Feature",
      "id": "university-existing-18849854",
      "properties": {
        "id": "university-existing-18849854",
        "layer": "PUBLIC_SPACE",
        "source_type": "osm",
        "confidence": "medium",
        "geometry_role": "existing_condition",
        "name_zh": "北航学院路校区教学区",
        "osm_id": 18849854,
        "osm_tag": "college",
        "boundary_membership": [
          "PROV-SITE-001",
          "PROV-RESEARCH-001"
        ],
        "source_note": "OpenStreetMap contributors, Overpass API, accessed 2026-08-10, ODbL"
      },
      "geometry": {
        "type": "Point",
        "coordinates": [
          116.3444673,
          39.9827013
        ]
      }
    },
    {
      "type": "Feature",
      "id": "university-existing-18988158",
      "properties": {
        "id": "university-existing-18988158",
        "layer": "PUBLIC_SPACE",
        "source_type": "osm",
        "confidence": "medium",
        "geometry_role": "existing_condition",
        "name_zh": null,
        "osm_id": 18988158,
        "osm_tag": "university",
        "boundary_membership": [
          "PROV-RESEARCH-001"
        ],
        "source_note": "OpenStreetMap contributors, Overpass API, accessed 2026-08-10, ODbL"
      },
      "geometry": {
        "type": "Point",
        "coordinates": [
          116.3597548,
          39.9603271
        ]
      }
    }
  ]
}
