{
  "type": "FeatureCollection",
  "name": "land_use",
  "features": [
    {
      "type": "Feature",
      "id": "LU-001",
      "properties": {
        "id": "LU-001",
        "layer": "LAND_USE",
        "land_use_code": "0802",
        "name_zh": "AI研发创新用地",
        "source_type": "agent_generated_design",
        "confidence": "medium",
        "geometry_role": "design_proposal",
        "area_sqm_declared": 2933496.437
      },
      "geometry": {
        "type": "Polygon",
        "coordinates": [
          [
            [
              116.34438,
              39.939
            ],
            [
              116.3407,
              39.939
            ],
            [
              116.3397,
              39.975
            ],
            [
              116.3417,
              40.006
            ],
            [
              116.3427,
              40.0265
            ],
            [
              116.34438,
              40.0265
            ],
            [
              116.34438,
              39.939
            ]
          ]
        ]
      }
    },
    {
      "type": "Feature",
      "id": "LU-002",
      "properties": {
        "id": "LU-002",
        "layer": "LAND_USE",
        "land_use_code": "1401",
        "name_zh": "京张蓝绿公园脊",
        "source_type": "agent_generated_design",
        "confidence": "medium",
        "geometry_role": "design_proposal",
        "area_sqm_declared": 2848272.85
      },
      "geometry": {
        "type": "Polygon",
        "coordinates": [
          [
            [
              116.34781199999999,
              39.939
            ],
            [
              116.34438,
              39.939
            ],
            [
              116.34438,
              40.0265
            ],
            [
              116.34781199999999,
              40.0265
            ],
            [
              116.34781199999999,
              39.939
            ]
          ]
        ]
      }
    },
    {
      "type": "Feature",
      "id": "LU-003",
      "properties": {
        "id": "LU-003",
        "layer": "LAND_USE",
        "land_use_code": "09",
        "name_zh": "产业服务与商业服务复合用地",
        "source_type": "agent_generated_design",
        "confidence": "medium",
        "geometry_role": "design_proposal",
        "area_sqm_declared": 4272404.986
      },
      "geometry": {
        "type": "Polygon",
        "coordinates": [
          [
            [
              116.35296,
              39.939
            ],
            [
              116.34781199999999,
              39.939
            ],
            [
              116.34781199999999,
              40.0265
            ],
            [
              116.35296,
              40.0265
            ],
            [
              116.35296,
              39.939
            ]
          ]
        ]
      }
    },
    {
      "type": "Feature",
      "id": "LU-004",
      "properties": {
        "id": "LU-004",
        "layer": "LAND_USE",
        "land_use_code": "0702",
        "name_zh": "社区服务与配套用地",
        "source_type": "agent_generated_design",
        "confidence": "medium",
        "geometry_role": "design_proposal",
        "area_sqm_declared": 1358658.398
      },
      "geometry": {
        "type": "Polygon",
        "coordinates": [
          [
            [
              116.3553,
              39.939
            ],
            [
              116.35296,
              39.939
            ],
            [
              116.35296,
              40.0265
            ],
            [
              116.3553,
              40.0265
            ],
            [
              116.3533,
              39.99
            ],
            [
              116.3553,
              39.965
            ],
            [
              116.3553,
              39.939
            ]
          ]
        ]
      }
    }
  ]
}
