{
  "type": "FeatureCollection",
  "name": "official_constraint_data_gaps",
  "features": [],
  "evidence_status": {
    "verified_at": "2026-08-20",
    "frozen_main_sha": "ce2c6bcee348accc3c354f585c9ad45e39ff2db7",
    "site_evidence_register": "visual/assets/site-evidence-register.json",
    "verification_script": "visual/assets/site-evidence-audit.js",
    "constraint_feature_count": 0,
    "provisional_scope_geometry_is_elsewhere": [
      "geometry/site_boundary.geojson#SITE-001",
      "geometry/key_areas.geojson#PROV-KEY-001",
      "geometry/key_areas.geojson#PROV-KEY-002",
      "geometry/key_areas.geojson#PROV-KEY-003"
    ]
  },
  "data_gap": {
    "status": "official_constraint_geometry_unavailable",
    "declared_by": "participant_submission",
    "verified_at": "2026-08-20",
    "source_ids": [
      "SITE-PACKAGE",
      "SOURCE-REGISTRY",
      "OFFICIAL-ANNOUNCEMENT"
    ],
    "source_hashes": {
      "brief/site-package/geometry/provisional_boundaries.geojson": "0b9ae36bae6eca68157e7124e027c09615f04da5690ea636a70551584acf2306",
      "brief/site-package/geometry/provisional_boundaries_basis.md": "295869f7aafeae28c521eb45961ddc1c75d97692f7063ffed91b079a14e94910",
      "data/source_registry.json": "4784e80d2d3662be2f4d8c46451ddb9b11e06058150786a784a870cd92a91c66"
    },
    "assumption_ids": [
      "A-CONTROLS-001"
    ],
    "missing_layers": [
      "REGULATORY_CONTROL",
      "HERITAGE_PROTECTION",
      "PARCEL",
      "EXISTING_PRIMARY_ROAD",
      "EXISTING_RAIL",
      "EXISTING_WATER"
    ],
    "replacement_rule": "Only add a feature after an official or rights-cleared geometry file is obtained and its publisher, URL/path, publication date, version, coordinate system, license/reuse terms, transformation and file hash are recorded; then regenerate geometry, metrics, figures, HTML and PDFs together.",
    "forbidden_substitutes": [
      "copying provisional site or key-area polygons into this file",
      "turning announcement text extents into road redlines",
      "promoting OSM or other background geometry into statutory controls",
      "drawing inferred heritage, parcel, rail, water or utility lines"
    ],
    "note_zh": "本图层刻意保持空集合。控规控制线、文物保护范围与建设控制地带、道路红线、权属地块、轨道与蓝线均属锁定图层，公开场地包中目前没有可引用的官方几何来源。缺口按 assumption A-CONTROLS-001 登记；取得官方或已清权几何前，不得以推定线条冒充 official_constraint，空集合优于编造。",
    "note_en": "This layer is intentionally an empty set. Regulatory control lines, heritage protection and construction-control zones, road redlines, cadastral parcels, rail and blue lines are locked layers with no citable official geometry in the public site package. The gap is registered as assumption A-CONTROLS-001; until official or cleared geometry is available, inferred lines must not be presented as an official_constraint - an empty set is preferred over fabrication."
  }
}
