{
  "type": "FeatureCollection",
  "name": "constraints",
  "features": [
    {
      "type": "Feature",
      "id": "CONSTRAINT-HERITAGE-CORRIDOR",
      "properties": {
        "id": "CONSTRAINT-HERITAGE-CORRIDOR",
        "layer": "HERITAGE_PROTECTION",
        "source_type": "agent_inferred_from_public_data",
        "confidence": "low",
        "geometry_role": "provisional_constraint",
        "official_boundary": false,
        "boundary_precision": "provisional_rough",
        "name_zh": "京张铁路遗址廊道（近似范围，待核）",
        "name_en": "Jingzhang railway heritage corridor (approximate, pending confirmation)",
        "derived_from_source_ids": [
          "DATA-SRC-PROVISIONAL-BOUNDARIES-20260605"
        ],
        "usage_limitation_zh": "遗产保护控制范围以文物部门正式公布为准；此处仅为设计自约束。",
        "area_sqm_declared": 2914837.372
      },
      "geometry": {
        "type": "Polygon",
        "coordinates": [
          [
            [
              116.34632129574159,
              39.939000217673524
            ],
            [
              116.34548688794185,
              40.02650011800813
            ],
            [
              116.3490013397497,
              40.02650017126425
            ],
            [
              116.34983126727995,
              39.93900021536405
            ],
            [
              116.34632129574159,
              39.939000217673524
            ]
          ]
        ]
      }
    },
    {
      "type": "Feature",
      "id": "CONSTRAINT-HERITAGE-STATION",
      "properties": {
        "id": "CONSTRAINT-HERITAGE-STATION",
        "layer": "HERITAGE_PROTECTION",
        "source_type": "agent_inferred_from_public_data",
        "confidence": "low",
        "geometry_role": "provisional_constraint",
        "official_boundary": false,
        "boundary_precision": "provisional_rough",
        "name_zh": "清华园火车站历史环境范围（近似待核）",
        "name_en": "Tsinghuayuan Station historic setting (approximate, pending confirmation)",
        "derived_from_source_ids": [
          "DATA-SRC-PROVISIONAL-BOUNDARIES-20260605"
        ],
        "usage_limitation_zh": "近似位置，仅供概念设计避让参考。",
        "area_sqm_declared": 120000.0
      },
      "geometry": {
        "type": "Polygon",
        "coordinates": [
          [
            [
              116.3464889553112,
              39.958269129157046
            ],
            [
              116.34644608671638,
              39.96277196582184
            ],
            [
              116.34925488643188,
              39.9627877674509
            ],
            [
              116.3492975708207,
              39.958284928280136
            ],
            [
              116.3464889553112,
              39.958269129157046
            ]
          ]
        ]
      }
    },
    {
      "type": "Feature",
      "id": "CONSTRAINT-BLUE-QINGHE",
      "properties": {
        "id": "CONSTRAINT-BLUE-QINGHE",
        "layer": "WATER_SYSTEM",
        "source_type": "agent_inferred_from_public_data",
        "confidence": "low",
        "geometry_role": "provisional_constraint",
        "official_boundary": false,
        "boundary_precision": "provisional_rough",
        "name_zh": "清河蓝线（近似）",
        "name_en": "Qinghe blue line (approx.)",
        "derived_from_source_ids": [
          "DATA-SRC-PROVISIONAL-BOUNDARIES-20260605"
        ],
        "usage_limitation_zh": "蓝线位置以水务部门公布为准；此处仅作设计避让提示。"
      },
      "geometry": {
        "type": "LineString",
        "coordinates": [
          [
            116.34158205754039,
            40.00417259227553
          ],
          [
            116.35408021010555,
            40.00424292360701
          ]
        ]
      }
    },
    {
      "type": "Feature",
      "id": "CONSTRAINT-BLUE-XIAOYUEHE",
      "properties": {
        "id": "CONSTRAINT-BLUE-XIAOYUEHE",
        "layer": "WATER_SYSTEM",
        "source_type": "agent_inferred_from_public_data",
        "confidence": "low",
        "geometry_role": "provisional_constraint",
        "official_boundary": false,
        "boundary_precision": "provisional_rough",
        "name_zh": "小月河蓝线（近似，东翼纵向）",
        "name_en": "Xiaoyue River blue line (approx., east)",
        "derived_from_source_ids": [
          "DATA-SRC-PROVISIONAL-BOUNDARIES-20260605"
        ],
        "usage_limitation_zh": "蓝线位置以水务部门公布为准；此处仅作设计避让提示。"
      },
      "geometry": {
        "type": "LineString",
        "coordinates": [
          [
            116.3546153853244,
            39.94991190005125
          ],
          [
            116.35436336033825,
            39.97671047321972
          ]
        ]
      }
    }
  ]
}
