{
  "type": "FeatureCollection",
  "name": "green_space",
  "features": [
    {
      "type": "Feature",
      "id": "GREEN-B01",
      "properties": {
        "id": "GREEN-B01",
        "layer": "GREEN_SPACE",
        "source_type": "agent_generated_design",
        "confidence": "medium",
        "geometry_role": "design_proposal",
        "land_use_code": "1401",
        "green_type": "公园绿地",
        "name_zh": "京张遗址公园·北站门户段",
        "name_en": "Jingzhang Heritage Park / North Station Gateway",
        "derived_from_source_ids": [
          "DATA-SRC-PROVISIONAL-BOUNDARIES-20260605",
          "DATA-SRC-OFFICIAL-ANNOUNCEMENT-20260509"
        ],
        "design_note_zh": "遗址公园中廊分段，承载慢行主脉、雨洪调蓄与全天候公共生活；概念性设计建议，供专业团队深化；不构成法定规划或实施结论。",
        "area_sqm_declared": 165153.938
      },
      "geometry": {
        "type": "Polygon",
        "coordinates": [
          [
            [
              116.34632129574159,
              39.939000217673524
            ],
            [
              116.34627420976877,
              39.94394810631612
            ],
            [
              116.34978424728067,
              39.94396784526133
            ],
            [
              116.34983126727995,
              39.93900021536405
            ],
            [
              116.34632129574159,
              39.939000217673524
            ]
          ]
        ]
      }
    },
    {
      "type": "Feature",
      "id": "GREEN-B02",
      "properties": {
        "id": "GREEN-B02",
        "layer": "GREEN_SPACE",
        "source_type": "agent_generated_design",
        "confidence": "medium",
        "geometry_role": "design_proposal",
        "land_use_code": "1401",
        "green_type": "公园绿地",
        "name_zh": "京张遗址公园·大钟寺段",
        "name_en": "Jingzhang Heritage Park / Dazhongsi",
        "derived_from_source_ids": [
          "DATA-SRC-PROVISIONAL-BOUNDARIES-20260605",
          "DATA-SRC-OFFICIAL-ANNOUNCEMENT-20260509"
        ],
        "design_note_zh": "遗址公园中廊分段，承载慢行主脉、雨洪调蓄与全天候公共生活；概念性设计建议，供专业团队深化；不构成法定规划或实施结论。",
        "area_sqm_declared": 197100.0
      },
      "geometry": {
        "type": "Polygon",
        "coordinates": [
          [
            [
              116.34627420976877,
              39.94394810631612
            ],
            [
              116.34621788849486,
              39.949864847368644
            ],
            [
              116.34972822835945,
              39.949884590428326
            ],
            [
              116.34978424728067,
              39.94396784526133
            ],
            [
              116.34627420976877,
              39.94394810631612
            ]
          ]
        ]
      }
    },
    {
      "type": "Feature",
      "id": "GREEN-B03",
      "properties": {
        "id": "GREEN-B03",
        "layer": "GREEN_SPACE",
        "source_type": "agent_generated_design",
        "confidence": "medium",
        "geometry_role": "design_proposal",
        "land_use_code": "1401",
        "green_type": "公园绿地",
        "name_zh": "京张遗址公园·学院路段",
        "name_en": "Jingzhang Heritage Park / Xueyuan Road",
        "derived_from_source_ids": [
          "DATA-SRC-PROVISIONAL-BOUNDARIES-20260605",
          "DATA-SRC-OFFICIAL-ANNOUNCEMENT-20260509"
        ],
        "design_note_zh": "遗址公园中廊分段，承载慢行主脉、雨洪调蓄与全天候公共生活；概念性设计建议，供专业团队深化；不构成法定规划或实施结论。",
        "area_sqm_declared": 489900.0
      },
      "geometry": {
        "type": "Polygon",
        "coordinates": [
          [
            [
              116.34621788849486,
              39.949864847368644
            ],
            [
              116.34607782755774,
              39.964571119380714
            ],
            [
              116.34958891931929,
              39.96459087267015
            ],
            [
              116.34972822835945,
              39.949884590428326
            ],
            [
              116.34621788849486,
              39.949864847368644
            ]
          ]
        ]
      }
    },
    {
      "type": "Feature",
      "id": "GREEN-B04",
      "properties": {
        "id": "GREEN-B04",
        "layer": "GREEN_SPACE",
        "source_type": "agent_generated_design",
        "confidence": "medium",
        "geometry_role": "design_proposal",
        "land_use_code": "1401",
        "green_type": "公园绿地",
        "name_zh": "京张遗址公园·知春路段",
        "name_en": "Jingzhang Heritage Park / Zhichun Road",
        "derived_from_source_ids": [
          "DATA-SRC-PROVISIONAL-BOUNDARIES-20260605",
          "DATA-SRC-OFFICIAL-ANNOUNCEMENT-20260509"
        ],
        "design_note_zh": "遗址公园中廊分段，承载慢行主脉、雨洪调蓄与全天候公共生活；概念性设计建议，供专业团队深化；不构成法定规划或实施结论。",
        "area_sqm_declared": 450000.0
      },
      "geometry": {
        "type": "Polygon",
        "coordinates": [
          [
            [
              116.34607782755774,
              39.964571119380714
            ],
            [
              116.34594908319613,
              39.978079602895846
            ],
            [
              116.3494608661032,
              39.978099365585685
            ],
            [
              116.34958891931929,
              39.96459087267015
            ],
            [
              116.34607782755774,
              39.964571119380714
            ]
          ]
        ]
      }
    },
    {
      "type": "Feature",
      "id": "GREEN-B05",
      "properties": {
        "id": "GREEN-B05",
        "layer": "GREEN_SPACE",
        "source_type": "agent_generated_design",
        "confidence": "medium",
        "geometry_role": "design_proposal",
        "land_use_code": "1401",
        "green_type": "公园绿地",
        "name_zh": "京张遗址公园·原点社区段",
        "name_en": "Jingzhang Heritage Park / AI Origin Community",
        "derived_from_source_ids": [
          "DATA-SRC-PROVISIONAL-BOUNDARIES-20260605",
          "DATA-SRC-OFFICIAL-ANNOUNCEMENT-20260509"
        ],
        "design_note_zh": "遗址公园中廊分段，承载慢行主脉、雨洪调蓄与全天候公共生活；概念性设计建议，供专业团队深化；不构成法定规划或实施结论。",
        "area_sqm_declared": 514500.0
      },
      "geometry": {
        "type": "Polygon",
        "coordinates": [
          [
            [
              116.34594908319613,
              39.978079602895846
            ],
            [
              116.34580177895815,
              39.99352426326585
            ],
            [
              116.34931435264662,
              39.99354403670796
            ],
            [
              116.3494608661032,
              39.978099365585685
            ],
            [
              116.34594908319613,
              39.978079602895846
            ]
          ]
        ]
      }
    },
    {
      "type": "Feature",
      "id": "GREEN-B06",
      "properties": {
        "id": "GREEN-B06",
        "layer": "GREEN_SPACE",
        "source_type": "agent_generated_design",
        "confidence": "medium",
        "geometry_role": "design_proposal",
        "land_use_code": "1401",
        "green_type": "公园绿地",
        "name_zh": "京张遗址公园·清河滨水段",
        "name_en": "Jingzhang Heritage Park / Qinghe Waterfront",
        "derived_from_source_ids": [
          "DATA-SRC-PROVISIONAL-BOUNDARIES-20260605",
          "DATA-SRC-OFFICIAL-ANNOUNCEMENT-20260509"
        ],
        "design_note_zh": "遗址公园中廊分段，承载慢行主脉、雨洪调蓄与全天候公共生活；概念性设计建议，供专业团队深化；不构成法定规划或实施结论。",
        "area_sqm_declared": 464100.0
      },
      "geometry": {
        "type": "Polygon",
        "coordinates": [
          [
            [
              116.34580177895815,
              39.99352426326585
            ],
            [
              116.34566880695714,
              40.00745594151082
            ],
            [
              116.34918209448642,
              40.007475724656025
            ],
            [
              116.34931435264662,
              39.99354403670796
            ],
            [
              116.34580177895815,
              39.99352426326585
            ]
          ]
        ]
      }
    },
    {
      "type": "Feature",
      "id": "GREEN-B07",
      "properties": {
        "id": "GREEN-B07",
        "layer": "GREEN_SPACE",
        "source_type": "agent_generated_design",
        "confidence": "medium",
        "geometry_role": "design_proposal",
        "land_use_code": "1401",
        "green_type": "公园绿地",
        "name_zh": "京张遗址公园·众智园段",
        "name_en": "Jingzhang Heritage Park / Zhongzhiyuan",
        "derived_from_source_ids": [
          "DATA-SRC-PROVISIONAL-BOUNDARIES-20260605",
          "DATA-SRC-OFFICIAL-ANNOUNCEMENT-20260509"
        ],
        "design_note_zh": "遗址公园中廊分段，承载慢行主脉、雨洪调蓄与全天候公共生活；概念性设计建议，供专业团队深化；不构成法定规划或实施结论。",
        "area_sqm_declared": 618300.0
      },
      "geometry": {
        "type": "Polygon",
        "coordinates": [
          [
            [
              116.34566880695714,
              40.00745594151082
            ],
            [
              116.34549151031538,
              40.02601645039078
            ],
            [
              116.34900574963575,
              40.02603624646904
            ],
            [
              116.34918209448642,
              40.007475724656025
            ],
            [
              116.34566880695714,
              40.00745594151082
            ]
          ]
        ]
      }
    },
    {
      "type": "Feature",
      "id": "GREEN-B06-E",
      "properties": {
        "id": "GREEN-B06-E",
        "layer": "GREEN_SPACE",
        "source_type": "agent_generated_design",
        "confidence": "medium",
        "geometry_role": "design_proposal",
        "land_use_code": "1402",
        "green_type": "防护绿地",
        "name_zh": "清河滨水防护绿带",
        "name_en": "Qinghe waterfront buffer green",
        "derived_from_source_ids": [
          "DATA-SRC-PROVISIONAL-BOUNDARIES-20260605",
          "DATA-SRC-OFFICIAL-ANNOUNCEMENT-20260509"
        ],
        "design_note_zh": "滨水缓冲与雨洪调蓄绿带；概念性设计建议，供专业团队深化；不构成法定规划或实施结论。",
        "area_sqm_declared": 611528.84
      },
      "geometry": {
        "type": "Polygon",
        "coordinates": [
          [
            [
              116.35349539284095,
              39.99356743438948
            ],
            [
              116.34931435264662,
              39.99354403670796
            ],
            [
              116.34918209448642,
              40.007475724656025
            ],
            [
              116.35425889502437,
              40.007504123700016
            ],
            [
              116.35349539284095,
              39.99356743438948
            ]
          ]
        ]
      }
    }
  ]
}
