{
  "type": "FeatureCollection",
  "name": "roads",
  "features": [
    {
      "type": "Feature",
      "id": "ROAD-SPINE",
      "properties": {
        "id": "ROAD-SPINE",
        "layer": "ROAD_CENTERLINE",
        "source_type": "agent_generated_design",
        "confidence": "medium",
        "geometry_role": "design_proposal",
        "road_class": "greenway",
        "name_zh": "京张门口慢行主脉（遗址步道）",
        "name_en": "Jingzhang Doorstep Slow-Mobility Spine",
        "length_m_declared": 9663.5,
        "design_note_zh": "沿遗址中廊的连续步行骑行主脉，串联 12 处民生服务节点；概念性设计建议，供专业团队深化；不构成法定规划或实施结论。"
      },
      "geometry": {
        "type": "LineString",
        "coordinates": [
          [
            116.34807410297105,
            39.939229779589596
          ],
          [
            116.3472464454029,
            40.02625551829379
          ]
        ]
      }
    },
    {
      "type": "Feature",
      "id": "ROAD-CYCLE-E",
      "properties": {
        "id": "ROAD-CYCLE-E",
        "layer": "ROAD_CENTERLINE",
        "source_type": "agent_generated_design",
        "confidence": "medium",
        "geometry_role": "design_proposal",
        "road_class": "cycleway",
        "name_zh": "东翼通勤自行车道",
        "name_en": "East commuter cycleway",
        "length_m_declared": 9603.5,
        "design_note_zh": "服务通勤与通学的连续自行车道；概念性设计建议，供专业团队深化；不构成法定规划或实施结论。"
      },
      "geometry": {
        "type": "LineString",
        "coordinates": [
          [
            116.35029441930224,
            39.93951242892663
          ],
          [
            116.34947470468644,
            40.02599786724511
          ]
        ]
      }
    },
    {
      "type": "Feature",
      "id": "ROAD-STITCH-01",
      "properties": {
        "id": "ROAD-STITCH-01",
        "layer": "ROAD_CENTERLINE",
        "source_type": "agent_generated_design",
        "confidence": "medium",
        "geometry_role": "design_proposal",
        "road_class": "pedestrian",
        "name_zh": "东西缝合步道·大钟寺段北界",
        "name_en": "East-west stitch walk / Dazhongsi north edge",
        "length_m_declared": 1247.8,
        "design_note_zh": "缝合遗址两侧街区的东西向无障碍步行联系；概念性设计建议，供专业团队深化；不构成法定规划或实施结论。"
      },
      "geometry": {
        "type": "LineString",
        "coordinates": [
          [
            116.34070095551144,
            39.943916546384436
          ],
          [
            116.3553000102666,
            39.943998648825854
          ]
        ]
      }
    },
    {
      "type": "Feature",
      "id": "ROAD-STITCH-02",
      "properties": {
        "id": "ROAD-STITCH-02",
        "layer": "ROAD_CENTERLINE",
        "source_type": "agent_generated_design",
        "confidence": "medium",
        "geometry_role": "design_proposal",
        "road_class": "pedestrian",
        "name_zh": "东西缝合步道·学院路段北界",
        "name_en": "East-west stitch walk / Xueyuan Road north edge",
        "length_m_declared": 1252.5,
        "design_note_zh": "缝合遗址两侧街区的东西向无障碍步行联系；概念性设计建议，供专业团队深化；不构成法定规划或实施结论。"
      },
      "geometry": {
        "type": "LineString",
        "coordinates": [
          [
            116.34064415416229,
            39.94983328085844
          ],
          [
            116.35530001610384,
            39.94991570934151
          ]
        ]
      }
    },
    {
      "type": "Feature",
      "id": "ROAD-STITCH-03",
      "properties": {
        "id": "ROAD-STITCH-03",
        "layer": "ROAD_CENTERLINE",
        "source_type": "agent_generated_design",
        "confidence": "medium",
        "geometry_role": "design_proposal",
        "road_class": "pedestrian",
        "name_zh": "东西缝合步道·知春路段北界",
        "name_en": "East-west stitch walk / Zhichun Road north edge",
        "length_m_declared": 1254.0,
        "design_note_zh": "缝合遗址两侧街区的东西向无障碍步行联系；概念性设计建议，供专业团队深化；不构成法定规划或实施结论。"
      },
      "geometry": {
        "type": "LineString",
        "coordinates": [
          [
            116.34050289936388,
            39.96453953651452
          ],
          [
            116.35517934281769,
            39.96462210473318
          ]
        ]
      }
    },
    {
      "type": "Feature",
      "id": "ROAD-STITCH-04",
      "properties": {
        "id": "ROAD-STITCH-04",
        "layer": "ROAD_CENTERLINE",
        "source_type": "agent_generated_design",
        "confidence": "medium",
        "geometry_role": "design_proposal",
        "road_class": "pedestrian",
        "name_zh": "东西缝合步道·原点社区段北界",
        "name_en": "East-west stitch walk / AI Origin Community north edge",
        "length_m_declared": 1185.5,
        "design_note_zh": "缝合遗址两侧街区的东西向无障碍步行联系；概念性设计建议，供专业团队深化；不构成法定规划或实施结论。"
      },
      "geometry": {
        "type": "LineString",
        "coordinates": [
          [
            116.34037305760215,
            39.97804800499968
          ],
          [
            116.35425010683994,
            39.9781261457148
          ]
        ]
      }
    },
    {
      "type": "Feature",
      "id": "ROAD-STITCH-05",
      "properties": {
        "id": "ROAD-STITCH-05",
        "layer": "ROAD_CENTERLINE",
        "source_type": "agent_generated_design",
        "confidence": "medium",
        "geometry_role": "design_proposal",
        "road_class": "pedestrian",
        "name_zh": "东西缝合步道·清河滨水段北界",
        "name_en": "East-west stitch walk / Qinghe Waterfront north edge",
        "length_m_declared": 1076.3,
        "design_note_zh": "缝合遗址两侧街区的东西向无障碍步行联系；概念性设计建议，供专业团队深化；不构成法定规划或实施结论。"
      },
      "geometry": {
        "type": "LineString",
        "coordinates": [
          [
            116.34089312353947,
            39.993496452475604
          ],
          [
            116.35349539284095,
            39.99356743438948
          ]
        ]
      }
    },
    {
      "type": "Feature",
      "id": "ROAD-STITCH-06",
      "properties": {
        "id": "ROAD-STITCH-06",
        "layer": "ROAD_CENTERLINE",
        "source_type": "agent_generated_design",
        "confidence": "medium",
        "geometry_role": "design_proposal",
        "road_class": "pedestrian",
        "name_zh": "东西缝合步道·众智园段北界",
        "name_en": "East-west stitch walk / Zhongzhiyuan north edge",
        "length_m_declared": 1066.4,
        "design_note_zh": "缝合遗址两侧街区的东西向无障碍步行联系；概念性设计建议，供专业团队深化；不构成法定规划或实施结论。"
      },
      "geometry": {
        "type": "LineString",
        "coordinates": [
          [
            116.3417699276503,
            40.007433862426765
          ],
          [
            116.35425889502437,
            40.007504123700016
          ]
        ]
      }
    },
    {
      "type": "Feature",
      "id": "ROAD-QINGHE",
      "properties": {
        "id": "ROAD-QINGHE",
        "layer": "ROAD_CENTERLINE",
        "source_type": "agent_generated_design",
        "confidence": "medium",
        "geometry_role": "design_proposal",
        "road_class": "greenway",
        "name_zh": "清河滨水绿道",
        "name_en": "Qinghe waterfront greenway",
        "length_m_declared": 1066.5,
        "design_note_zh": "滨水健身与通游绿道；概念性设计建议，供专业团队深化；不构成法定规划或实施结论。"
      },
      "geometry": {
        "type": "LineString",
        "coordinates": [
          [
            116.34164020421103,
            40.00507353133855
          ],
          [
            116.35412956908836,
            40.00514380780749
          ]
        ]
      }
    }
  ]
}
