{
  "type": "FeatureCollection",
  "name": "site_boundary",
  "features": [
    {
      "type": "Feature",
      "id": "SITE-BOUNDARY-001",
      "properties": {
        "id": "SITE-BOUNDARY-001",
        "layer": "SITE_BOUNDARY",
        "source_type": "agent_inferred_from_public_data",
        "confidence": "low",
        "geometry_role": "provisional_constraint",
        "official_boundary": false,
        "boundary_precision": "provisional_rough",
        "name_zh": "总体设计范围（暂定边界，非官方红线）",
        "name_en": "Overall design area (provisional boundary, not an official redline)",
        "derived_from_source_ids": [
          "DATA-SRC-PROVISIONAL-BOUNDARIES-20260605",
          "DATA-SRC-OFFICIAL-ANNOUNCEMENT-20260509"
        ],
        "usage_limitation_zh": "仅用于概念生成、可视化与自检；不得作为官方红线或精确面积依据。",
        "area_sqm_declared": 11412825.386
      },
      "geometry": {
        "type": "Polygon",
        "coordinates": [
          [
            [
              116.34070000000001,
              39.93899999999999
            ],
            [
              116.3553,
              39.939
            ],
            [
              116.3553,
              39.965
            ],
            [
              116.3533,
              39.989999999999995
            ],
            [
              116.3553,
              40.0265
            ],
            [
              116.34270000000001,
              40.0265
            ],
            [
              116.34169999999999,
              40.006
            ],
            [
              116.3397,
              39.97500000000001
            ],
            [
              116.34070000000001,
              39.93899999999999
            ]
          ]
        ]
      }
    }
  ]
}
