{
  "type": "FeatureCollection",
  "name": "three_candidate_reversible_trial_envelopes",
  "features": [
    {
      "type": "Feature",
      "id": "P02-ENV",
      "properties": {
        "id": "P02-ENV",
        "layer": "BUILDING_FOOTPRINT",
        "source_type": "agent_generated_design",
        "confidence": "low",
        "geometry_role": "design_proposal",
        "building_type": "lab",
        "name_zh": "SP-C路缘验证台候选包络",
        "area_sqm_declared": 72,
        "usage_note": "Candidate reversible trial envelope only; not an existing building footprint, property boundary, or construction conclusion."
      },
      "geometry": {
        "type": "Polygon",
        "coordinates": [
          [
            [
              116.34842941176471,
              40.01672297297298
            ],
            [
              116.34857058823529,
              40.01672297297298
            ],
            [
              116.34857058823529,
              40.016777027027025
            ],
            [
              116.34842941176471,
              40.016777027027025
            ],
            [
              116.34842941176471,
              40.01672297297298
            ]
          ]
        ]
      }
    },
    {
      "type": "Feature",
      "id": "P03-ENV",
      "properties": {
        "id": "P03-ENV",
        "layer": "BUILDING_FOOTPRINT",
        "source_type": "agent_generated_design",
        "confidence": "low",
        "geometry_role": "design_proposal",
        "building_type": "community_service",
        "name_zh": "SP-B首层转换间候选包络",
        "area_sqm_declared": 216,
        "usage_note": "Candidate reversible trial envelope only; not an existing building footprint, property boundary, or construction conclusion."
      },
      "geometry": {
        "type": "Polygon",
        "coordinates": [
          [
            [
              116.34739411764706,
              39.98844594594595
            ],
            [
              116.34760588235294,
              39.98844594594595
            ],
            [
              116.34760588235294,
              39.988554054054056
            ],
            [
              116.34739411764706,
              39.988554054054056
            ],
            [
              116.34739411764706,
              39.98844594594595
            ]
          ]
        ]
      }
    },
    {
      "type": "Feature",
      "id": "P04-ENV",
      "properties": {
        "id": "P04-ENV",
        "layer": "BUILDING_FOOTPRINT",
        "source_type": "agent_generated_design",
        "confidence": "low",
        "geometry_role": "design_proposal",
        "building_type": "mobility_hub",
        "name_zh": "SP-A轨旁公共客厅候选包络",
        "area_sqm_declared": 432,
        "usage_note": "Candidate reversible trial envelope only; not an existing building footprint, property boundary, or construction conclusion."
      },
      "geometry": {
        "type": "Polygon",
        "coordinates": [
          [
            [
              116.34835882352941,
              39.94683891891892
            ],
            [
              116.3486411764706,
              39.94683891891892
            ],
            [
              116.3486411764706,
              39.947001081081076
            ],
            [
              116.34835882352941,
              39.947001081081076
            ],
            [
              116.34835882352941,
              39.94683891891892
            ]
          ]
        ]
      }
    }
  ]
}