{
  "type": "FeatureCollection",
  "name": "conceptual_movement_connections",
  "features": [
    {
      "type": "Feature",
      "id": "ROAD-NS-001",
      "properties": {
        "id": "ROAD-NS-001",
        "layer": "ROAD_CENTERLINE",
        "source_type": "agent_generated_design",
        "confidence": "low",
        "geometry_role": "design_proposal",
        "road_class": "greenway",
        "name_zh": "京张连续通行设计基线",
        "usage_note": "Conceptual movement connection; not an existing road, road redline, or engineering alignment."
      },
      "geometry": {
        "type": "LineString",
        "coordinates": [
          [
            116.3485,
            39.941
          ],
          [
            116.3485,
            40.028
          ]
        ]
      }
    },
    {
      "type": "Feature",
      "id": "ROAD-EW-001",
      "properties": {
        "id": "ROAD-EW-001",
        "layer": "ROAD_CENTERLINE",
        "source_type": "agent_generated_design",
        "confidence": "low",
        "geometry_role": "design_proposal",
        "road_class": "pedestrian",
        "name_zh": "重点区1东西缝合候选线",
        "usage_note": "Conceptual movement connection; not an existing road, road redline, or engineering alignment."
      },
      "geometry": {
        "type": "LineString",
        "coordinates": [
          [
            116.3445,
            40.01675
          ],
          [
            116.3525,
            40.01675
          ]
        ]
      }
    },
    {
      "type": "Feature",
      "id": "ROAD-EW-002",
      "properties": {
        "id": "ROAD-EW-002",
        "layer": "ROAD_CENTERLINE",
        "source_type": "agent_generated_design",
        "confidence": "low",
        "geometry_role": "design_proposal",
        "road_class": "pedestrian",
        "name_zh": "重点区2东西缝合候选线",
        "usage_note": "Conceptual movement connection; not an existing road, road redline, or engineering alignment."
      },
      "geometry": {
        "type": "LineString",
        "coordinates": [
          [
            116.34349999999999,
            39.9885
          ],
          [
            116.3515,
            39.9885
          ]
        ]
      }
    },
    {
      "type": "Feature",
      "id": "ROAD-EW-003",
      "properties": {
        "id": "ROAD-EW-003",
        "layer": "ROAD_CENTERLINE",
        "source_type": "agent_generated_design",
        "confidence": "low",
        "geometry_role": "design_proposal",
        "road_class": "pedestrian",
        "name_zh": "重点区3东西缝合候选线",
        "usage_note": "Conceptual movement connection; not an existing road, road redline, or engineering alignment."
      },
      "geometry": {
        "type": "LineString",
        "coordinates": [
          [
            116.3445,
            39.94692
          ],
          [
            116.3525,
            39.94692
          ]
        ]
      }
    }
  ]
}