{
  "type": "FeatureCollection",
  "name": "site_boundary_provisional",
  "features": [
    {
      "type": "Feature",
      "id": "SITE-001",
      "properties": {
        "id": "SITE-001",
        "layer": "SITE_BOUNDARY",
        "source_type": "agent_inferred_from_public_data",
        "confidence": "medium",
        "geometry_role": "provisional_constraint",
        "scope_id": "overall_design_area",
        "name_zh": "总体设计范围粗略替代边界",
        "official_boundary": false,
        "boundary_precision": "provisional_rough",
        "storage_crs": "EPSG:4326",
        "area_calculation_crs": "EPSG:4548",
        "source_id": "BOUNDARY-SOURCE",
        "derived_from_source_ids": ["OFFICIAL-ANNOUNCEMENT"],
        "source_title": "依据公告文字范围、约11.4平方公里面积约束和仓库 provisional 数据形成的临时粗略范围",
        "derivation_method": "提交坐标按 GeoJSON 经度/纬度存储（EPSG:4326）；面积复算时重投影至 EPSG:4548 后计算并校核至公告约11.4平方公里。道路与站点名称仅用于粗略空间锚定，不代表道路红线、法定地块边界或官方重点区四至。",
        "area_sqm_declared": 11412825.386,
        "area_sqm_calculated": 11412825.386,
        "usage_note": "仅用于 AI agent 生成、展示、概念方案讨论和临时自检；不得作为 official redline、审批依据、征拆依据或官方精确面积。官方边界发布后应整体替换并复算全部派生指标。"
      },
      "geometry": {
        "type": "Polygon",
        "coordinates": [[[116.3407,39.939],[116.3553,39.939],[116.3553,39.965],[116.3533,39.99],[116.3553,40.0265],[116.3427,40.0265],[116.3417,40.006],[116.3397,39.975],[116.3407,39.939]]]
      }
    }
  ]
}
