{
 "type": "FeatureCollection",
 "features": [
  {
   "type": "Feature",
   "id": "CON-001",
   "properties": {
    "source_type": "agent_inferred_from_public_data",
    "confidence": "low",
    "geometry_role": "provisional_constraint",
    "official_boundary": false,
    "boundary_precision": "provisional_rough",
    "source_id": "DATA-SRC-PROVISIONAL-BOUNDARIES-20260605",
    "usage_note": "京张铁路遗址走廊概念示意，非文保划定线；以官方文保数据为准。",
    "id": "CON-001",
    "layer": "HERITAGE_PROTECTION"
   },
   "geometry": {
    "type": "Polygon",
    "coordinates": [
     [
      [
       116.3508,
       39.939
      ],
      [
       116.3508,
       40.0265
      ],
      [
       116.3553,
       40.0265
      ],
      [
       116.3533,
       39.99
      ],
      [
       116.3553,
       39.965
      ],
      [
       116.3553,
       39.939
      ],
      [
       116.3508,
       39.939
      ]
     ]
    ]
   }
  },
  {
   "type": "Feature",
   "id": "CON-002",
   "properties": {
    "source_type": "agent_inferred_from_public_data",
    "confidence": "low",
    "geometry_role": "provisional_constraint",
    "official_boundary": false,
    "usage_note": "京张铁路遗址线位示意，非精确线位。",
    "id": "CON-002",
    "layer": "EXISTING_RAIL"
   },
   "geometry": {
    "type": "LineString",
    "coordinates": [
     [
      116.3505,
      39.9396
     ],
     [
      116.3505,
      40.0259
     ]
    ]
   }
  },
  {
   "type": "Feature",
   "id": "CON-003",
   "properties": {
    "source_type": "agent_inferred_from_public_data",
    "confidence": "low",
    "geometry_role": "provisional_constraint",
    "official_boundary": false,
    "usage_note": "清河蓝线示意。",
    "id": "CON-003",
    "layer": "EXISTING_WATER"
   },
   "geometry": {
    "type": "LineString",
    "coordinates": [
     [
      116.3397,
      40.0255
     ],
     [
      116.3553,
      40.0255
     ]
    ]
   }
  },
  {
   "type": "Feature",
   "id": "CON-004",
   "properties": {
    "source_type": "agent_inferred_from_public_data",
    "confidence": "low",
    "geometry_role": "provisional_constraint",
    "official_boundary": false,
    "usage_note": "小月河蓝线示意。",
    "id": "CON-004",
    "layer": "EXISTING_WATER"
   },
   "geometry": {
    "type": "LineString",
    "coordinates": [
     [
      116.3545,
      39.944
     ],
     [
      116.3538,
      39.98
     ],
     [
      116.3542,
      40.026
     ]
    ]
   }
  }
 ]
}