{
 "type": "FeatureCollection",
 "features": [
  {
   "type": "Feature",
   "id": "LU-001",
   "properties": {
    "land_use_code": "0701",
    "land_use_label_zh": "0701",
    "source_type": "agent_generated_design",
    "confidence": "medium",
    "geometry_role": "design_proposal",
    "area_sqm_declared": 730139.4,
    "note_zh": "概念用地分区：由临时边界推导，供专业团队深化，不构成法定控规。",
    "id": "LU-001",
    "layer": "LAND_USE"
   },
   "geometry": {
    "type": "Polygon",
    "coordinates": [
     [
      [
       116.351,
       40.0075
      ],
      [
       116.351,
       39.9935
      ],
      [
       116.3455,
       39.9935
      ],
      [
       116.3455,
       40.0075
      ],
      [
       116.351,
       40.0075
      ]
     ]
    ]
   }
  },
  {
   "type": "Feature",
   "id": "LU-002",
   "properties": {
    "land_use_code": "0701",
    "land_use_label_zh": "0701",
    "source_type": "agent_generated_design",
    "confidence": "medium",
    "geometry_role": "design_proposal",
    "area_sqm_declared": 353323.6,
    "note_zh": "概念用地分区：由临时边界推导，供专业团队深化，不构成法定控规。",
    "id": "LU-002",
    "layer": "LAND_USE"
   },
   "geometry": {
    "type": "Polygon",
    "coordinates": [
     [
      [
       116.3455,
       39.957
      ],
      [
       116.3455,
       39.94984
      ],
      [
       116.34039888888888,
       39.94984
      ],
      [
       116.3402,
       39.957
      ],
      [
       116.3455,
       39.957
      ]
     ]
    ]
   }
  },
  {
   "type": "Feature",
   "id": "LU-003",
   "properties": {
    "land_use_code": "0701",
    "land_use_label_zh": "0701",
    "source_type": "agent_generated_design",
    "confidence": "medium",
    "geometry_role": "design_proposal",
    "area_sqm_declared": 824205.2,
    "note_zh": "概念用地分区：由临时边界推导，供专业团队深化，不构成法定控规。",
    "id": "LU-003",
    "layer": "LAND_USE"
   },
   "geometry": {
    "type": "Polygon",
    "coordinates": [
     [
      [
       116.3455,
       39.968
      ],
      [
       116.33989444444444,
       39.968
      ],
      [
       116.3397,
       39.975
      ],
      [
       116.34024838709676,
       39.9835
      ],
      [
       116.3455,
       39.9835
      ],
      [
       116.3455,
       39.968
      ]
     ]
    ]
   }
  },
  {
   "type": "Feature",
   "id": "LU-004",
   "properties": {
    "land_use_code": "0802",
    "land_use_label_zh": "0802",
    "source_type": "agent_generated_design",
    "confidence": "medium",
    "geometry_role": "design_proposal",
    "area_sqm_declared": 569066.5,
    "note_zh": "概念用地分区：由临时边界推导，供专业团队深化，不构成法定控规。",
    "id": "LU-004",
    "layer": "LAND_USE"
   },
   "geometry": {
    "type": "Polygon",
    "coordinates": [
     [
      [
       116.3455,
       39.957
      ],
      [
       116.3402,
       39.957
      ],
      [
       116.33989444444444,
       39.968
      ],
      [
       116.3455,
       39.968
      ],
      [
       116.3455,
       39.957
      ]
     ]
    ]
   }
  },
  {
   "type": "Feature",
   "id": "LU-005",
   "properties": {
    "land_use_code": "0802",
    "land_use_label_zh": "0802",
    "source_type": "agent_generated_design",
    "confidence": "medium",
    "geometry_role": "design_proposal",
    "area_sqm_declared": 1330275.4,
    "note_zh": "概念用地分区：由临时边界推导，供专业团队深化，不构成法定控规。",
    "id": "LU-005",
    "layer": "LAND_USE"
   },
   "geometry": {
    "type": "Polygon",
    "coordinates": [
     [
      [
       116.3455,
       39.968
      ],
      [
       116.3455,
       39.9835
      ],
      [
       116.3455,
       39.9935
      ],
      [
       116.351,
       39.9935
      ],
      [
       116.351,
       39.9835
      ],
      [
       116.351,
       39.968
      ],
      [
       116.3455,
       39.968
      ]
     ]
    ]
   }
  },
  {
   "type": "Feature",
   "id": "LU-006",
   "properties": {
    "land_use_code": "0802",
    "land_use_label_zh": "0802",
    "source_type": "agent_generated_design",
    "confidence": "medium",
    "geometry_role": "design_proposal",
    "area_sqm_declared": 1380354.7,
    "note_zh": "概念用地分区：由临时边界推导，供专业团队深化，不构成法定控规。",
    "id": "LU-006",
    "layer": "LAND_USE"
   },
   "geometry": {
    "type": "Polygon",
    "coordinates": [
     [
      [
       116.351,
       40.0075
      ],
      [
       116.3455,
       40.0075
      ],
      [
       116.34177317073171,
       40.0075
      ],
      [
       116.34257804878048,
       40.024
      ],
      [
       116.3455,
       40.024
      ],
      [
       116.351,
       40.024
      ],
      [
       116.351,
       40.0075
      ]
     ]
    ]
   }
  },
  {
   "type": "Feature",
   "id": "LU-007",
   "properties": {
    "land_use_code": "0804",
    "land_use_label_zh": "0804",
    "source_type": "agent_generated_design",
    "confidence": "medium",
    "geometry_role": "design_proposal",
    "area_sqm_declared": 467470.4,
    "note_zh": "概念用地分区：由临时边界推导，供专业团队深化，不构成法定控规。",
    "id": "LU-007",
    "layer": "LAND_USE"
   },
   "geometry": {
    "type": "Polygon",
    "coordinates": [
     [
      [
       116.3408935483871,
       39.9935
      ],
      [
       116.3455,
       39.9935
      ],
      [
       116.3455,
       39.9835
      ],
      [
       116.34024838709676,
       39.9835
      ],
      [
       116.3408935483871,
       39.9935
      ]
     ]
    ]
   }
  },
  {
   "type": "Feature",
   "id": "LU-008",
   "properties": {
    "land_use_code": "0901",
    "land_use_label_zh": "0901",
    "source_type": "agent_generated_design",
    "confidence": "medium",
    "geometry_role": "design_proposal",
    "area_sqm_declared": 573995.1,
    "note_zh": "概念用地分区：由临时边界推导，供专业团队深化，不构成法定控规。",
    "id": "LU-008",
    "layer": "LAND_USE"
   },
   "geometry": {
    "type": "Polygon",
    "coordinates": [
     [
      [
       116.3455,
       39.968
      ],
      [
       116.351,
       39.968
      ],
      [
       116.351,
       39.957
      ],
      [
       116.3455,
       39.957
      ],
      [
       116.3455,
       39.968
      ]
     ]
    ]
   }
  },
  {
   "type": "Feature",
   "id": "LU-009",
   "properties": {
    "land_use_code": "0901",
    "land_use_label_zh": "0901",
    "source_type": "agent_generated_design",
    "confidence": "medium",
    "geometry_role": "design_proposal",
    "area_sqm_declared": 278206.4,
    "note_zh": "概念用地分区：由临时边界推导，供专业团队深化，不构成法定控规。",
    "id": "LU-009",
    "layer": "LAND_USE"
   },
   "geometry": {
    "type": "Polygon",
    "coordinates": [
     [
      [
       116.3455,
       39.94984
      ],
      [
       116.3455,
       39.944
      ],
      [
       116.34056111111111,
       39.944
      ],
      [
       116.34039888888888,
       39.94984
      ],
      [
       116.3455,
       39.94984
      ]
     ]
    ]
   }
  },
  {
   "type": "Feature",
   "id": "LU-010",
   "properties": {
    "land_use_code": "0902",
    "land_use_label_zh": "0902",
    "source_type": "agent_generated_design",
    "confidence": "medium",
    "geometry_role": "design_proposal",
    "area_sqm_declared": 678475.1,
    "note_zh": "概念用地分区：由临时边界推导，供专业团队深化，不构成法定控规。",
    "id": "LU-010",
    "layer": "LAND_USE"
   },
   "geometry": {
    "type": "Polygon",
    "coordinates": [
     [
      [
       116.3455,
       39.94984
      ],
      [
       116.3455,
       39.957
      ],
      [
       116.351,
       39.957
      ],
      [
       116.351,
       39.94984
      ],
      [
       116.351,
       39.944
      ],
      [
       116.3455,
       39.944
      ],
      [
       116.3455,
       39.94984
      ]
     ]
    ]
   }
  },
  {
   "type": "Feature",
   "id": "LU-011",
   "properties": {
    "land_use_code": "0902",
    "land_use_label_zh": "0902",
    "source_type": "agent_generated_design",
    "confidence": "medium",
    "geometry_role": "design_proposal",
    "area_sqm_declared": 551739.0,
    "note_zh": "概念用地分区：由临时边界推导，供专业团队深化，不构成法定控规。",
    "id": "LU-011",
    "layer": "LAND_USE"
   },
   "geometry": {
    "type": "Polygon",
    "coordinates": [
     [
      [
       116.3455,
       40.0075
      ],
      [
       116.3455,
       39.9935
      ],
      [
       116.3408935483871,
       39.9935
      ],
      [
       116.3417,
       40.006
      ],
      [
       116.34177317073171,
       40.0075
      ],
      [
       116.3455,
       40.0075
      ]
     ]
    ]
   }
  },
  {
   "type": "Feature",
   "id": "LU-012",
   "properties": {
    "land_use_code": "0904",
    "land_use_label_zh": "0904",
    "source_type": "agent_generated_design",
    "confidence": "medium",
    "geometry_role": "design_proposal",
    "area_sqm_declared": 231064.9,
    "note_zh": "概念用地分区：由临时边界推导，供专业团队深化，不构成法定控规。",
    "id": "LU-012",
    "layer": "LAND_USE"
   },
   "geometry": {
    "type": "Polygon",
    "coordinates": [
     [
      [
       116.3407,
       39.939
      ],
      [
       116.34056111111111,
       39.944
      ],
      [
       116.3455,
       39.944
      ],
      [
       116.3455,
       39.939
      ],
      [
       116.3407,
       39.939
      ]
     ]
    ]
   }
  },
  {
   "type": "Feature",
   "id": "LU-013",
   "properties": {
    "land_use_code": "1401",
    "land_use_label_zh": "1401",
    "source_type": "agent_generated_design",
    "confidence": "medium",
    "geometry_role": "design_proposal",
    "area_sqm_declared": 1243271.2,
    "note_zh": "概念用地分区：由临时边界推导，供专业团队深化，不构成法定控规。",
    "id": "LU-013",
    "layer": "LAND_USE"
   },
   "geometry": {
    "type": "Polygon",
    "coordinates": [
     [
      [
       116.351,
       39.968
      ],
      [
       116.351,
       39.9835
      ],
      [
       116.35382,
       39.9835
      ],
      [
       116.35506,
       39.968
      ],
      [
       116.3553,
       39.965
      ],
      [
       116.3553,
       39.957
      ],
      [
       116.3553,
       39.94984
      ],
      [
       116.351,
       39.94984
      ],
      [
       116.351,
       39.957
      ],
      [
       116.351,
       39.968
      ]
     ]
    ]
   }
  },
  {
   "type": "Feature",
   "id": "LU-014",
   "properties": {
    "land_use_code": "1401",
    "land_use_label_zh": "1401",
    "source_type": "agent_generated_design",
    "confidence": "medium",
    "geometry_role": "design_proposal",
    "area_sqm_declared": 1260586.7,
    "note_zh": "概念用地分区：由临时边界推导，供专业团队深化，不构成法定控规。",
    "id": "LU-014",
    "layer": "LAND_USE"
   },
   "geometry": {
    "type": "Polygon",
    "coordinates": [
     [
      [
       116.35349178082193,
       39.9935
      ],
      [
       116.351,
       39.9935
      ],
      [
       116.351,
       40.0075
      ],
      [
       116.351,
       40.024
      ],
      [
       116.3455,
       40.024
      ],
      [
       116.34257804878048,
       40.024
      ],
      [
       116.3427,
       40.0265
      ],
      [
       116.3455,
       40.0265
      ],
      [
       116.351,
       40.0265
      ],
      [
       116.3553,
       40.0265
      ],
      [
       116.35516301369863,
       40.024
      ],
      [
       116.35425890410959,
       40.0075
      ],
      [
       116.35349178082193,
       39.9935
      ]
     ]
    ]
   }
  },
  {
   "type": "Feature",
   "id": "LU-015",
   "properties": {
    "land_use_code": "1402",
    "land_use_label_zh": "1402",
    "source_type": "agent_generated_design",
    "confidence": "medium",
    "geometry_role": "design_proposal",
    "area_sqm_declared": 204043.2,
    "note_zh": "概念用地分区：由临时边界推导，供专业团队深化，不构成法定控规。",
    "id": "LU-015",
    "layer": "LAND_USE"
   },
   "geometry": {
    "type": "Polygon",
    "coordinates": [
     [
      [
       116.351,
       39.939
      ],
      [
       116.351,
       39.944
      ],
      [
       116.3553,
       39.944
      ],
      [
       116.3553,
       39.939
      ],
      [
       116.351,
       39.939
      ]
     ]
    ]
   }
  },
  {
   "type": "Feature",
   "id": "LU-016",
   "properties": {
    "land_use_code": "1403",
    "land_use_label_zh": "1403",
    "source_type": "agent_generated_design",
    "confidence": "medium",
    "geometry_role": "design_proposal",
    "area_sqm_declared": 260985.7,
    "note_zh": "概念用地分区：由临时边界推导，供专业团队深化，不构成法定控规。",
    "id": "LU-016",
    "layer": "LAND_USE"
   },
   "geometry": {
    "type": "Polygon",
    "coordinates": [
     [
      [
       116.3455,
       39.944
      ],
      [
       116.351,
       39.944
      ],
      [
       116.351,
       39.939
      ],
      [
       116.3455,
       39.939
      ],
      [
       116.3455,
       39.944
      ]
     ]
    ]
   }
  },
  {
   "type": "Feature",
   "id": "LU-017",
   "properties": {
    "land_use_code": "1403",
    "land_use_label_zh": "1403",
    "source_type": "agent_generated_design",
    "confidence": "medium",
    "geometry_role": "design_proposal",
    "area_sqm_declared": 238303.8,
    "note_zh": "概念用地分区：由临时边界推导，供专业团队深化，不构成法定控规。",
    "id": "LU-017",
    "layer": "LAND_USE"
   },
   "geometry": {
    "type": "Polygon",
    "coordinates": [
     [
      [
       116.351,
       39.944
      ],
      [
       116.351,
       39.94984
      ],
      [
       116.3553,
       39.94984
      ],
      [
       116.3553,
       39.944
      ],
      [
       116.351,
       39.944
      ]
     ]
    ]
   }
  },
  {
   "type": "Feature",
   "id": "LU-018",
   "properties": {
    "land_use_code": "1403",
    "land_use_label_zh": "1403",
    "source_type": "agent_generated_design",
    "confidence": "medium",
    "geometry_role": "design_proposal",
    "area_sqm_declared": 237342.8,
    "note_zh": "概念用地分区：由临时边界推导，供专业团队深化，不构成法定控规。",
    "id": "LU-018",
    "layer": "LAND_USE"
   },
   "geometry": {
    "type": "Polygon",
    "coordinates": [
     [
      [
       116.351,
       39.9835
      ],
      [
       116.351,
       39.9935
      ],
      [
       116.35349178082193,
       39.9935
      ],
      [
       116.3533,
       39.99
      ],
      [
       116.35382,
       39.9835
      ],
      [
       116.351,
       39.9835
      ]
     ]
    ]
   }
  }
 ]
}