{
 "type": "FeatureCollection",
 "features": [
  {
   "type": "Feature",
   "id": "PHASE-001",
   "properties": {
    "phase": "phase_1",
    "phase_label_zh": "近期",
    "source_type": "agent_generated_design",
    "confidence": "medium",
    "geometry_role": "design_proposal",
    "area_sqm_declared": 1226428.5,
    "note_zh": "分期实施范围（概念建议）。",
    "id": "PHASE-001",
    "layer": "PHASE"
   },
   "geometry": {
    "type": "Polygon",
    "coordinates": [
     [
      [
       116.3533,
       39.99
      ],
      [
       116.35382,
       39.9835
      ],
      [
       116.34024838709676,
       39.9835
      ],
      [
       116.3408935483871,
       39.9935
      ],
      [
       116.35349178082193,
       39.9935
      ],
      [
       116.3533,
       39.99
      ]
     ]
    ]
   }
  },
  {
   "type": "Feature",
   "id": "PHASE-002",
   "properties": {
    "phase": "phase_2",
    "phase_label_zh": "中期",
    "source_type": "agent_generated_design",
    "confidence": "medium",
    "geometry_role": "design_proposal",
    "area_sqm_declared": 2259237.6,
    "note_zh": "分期实施范围（概念建议）。",
    "id": "PHASE-002",
    "layer": "PHASE"
   },
   "geometry": {
    "type": "Polygon",
    "coordinates": [
     [
      [
       116.35425890410959,
       40.0075
      ],
      [
       116.34177317073171,
       40.0075
      ],
      [
       116.3427,
       40.0265
      ],
      [
       116.3553,
       40.0265
      ],
      [
       116.35425890410959,
       40.0075
      ]
     ]
    ]
   }
  },
  {
   "type": "Feature",
   "id": "PHASE-003",
   "properties": {
    "phase": "phase_2",
    "phase_label_zh": "中期",
    "source_type": "agent_generated_design",
    "confidence": "medium",
    "geometry_role": "design_proposal",
    "area_sqm_declared": 821318.5,
    "note_zh": "分期实施范围（概念建议）。",
    "id": "PHASE-003",
    "layer": "PHASE"
   },
   "geometry": {
    "type": "Polygon",
    "coordinates": [
     [
      [
       116.3553,
       39.944
      ],
      [
       116.34056111111111,
       39.944
      ],
      [
       116.34039888888888,
       39.94984
      ],
      [
       116.3553,
       39.94984
      ],
      [
       116.3553,
       39.944
      ]
     ]
    ]
   }
  },
  {
   "type": "Feature",
   "id": "PHASE-004",
   "properties": {
    "phase": "phase_3",
    "phase_label_zh": "远期",
    "source_type": "agent_generated_design",
    "confidence": "medium",
    "geometry_role": "design_proposal",
    "area_sqm_declared": 11412825.4,
    "note_zh": "分期实施范围（概念建议）。",
    "id": "PHASE-004",
    "layer": "PHASE"
   },
   "geometry": {
    "type": "Polygon",
    "coordinates": [
     [
      [
       116.3407,
       39.939
      ],
      [
       116.3397,
       39.975
      ],
      [
       116.3417,
       40.006
      ],
      [
       116.3427,
       40.0265
      ],
      [
       116.3553,
       40.0265
      ],
      [
       116.3533,
       39.99
      ],
      [
       116.3553,
       39.965
      ],
      [
       116.3553,
       39.939
      ],
      [
       116.3407,
       39.939
      ]
     ]
    ]
   }
  }
 ]
}