{
 "type": "FeatureCollection",
 "features": [
  {
   "type": "Feature",
   "id": "PUBLIC-001",
   "properties": {
    "public_space_type": "station_plaza",
    "key_area_id": "zhongzhiyuan_ai_acceleration_area",
    "source_type": "agent_generated_design",
    "confidence": "medium",
    "geometry_role": "design_proposal",
    "area_sqm_declared": 109024.6,
    "note_zh": "三站站前广场（概念建议）。",
    "id": "PUBLIC-001",
    "layer": "PUBLIC_SPACE"
   },
   "geometry": {
    "type": "Polygon",
    "coordinates": [
     [
      [
       116.34603810082064,
       40.01383219547251
      ],
      [
       116.34603810082064,
       40.01616780452749
      ],
      [
       116.35096189917937,
       40.01616780452749
      ],
      [
       116.35096189917937,
       40.01383219547251
      ],
      [
       116.34603810082064,
       40.01383219547251
      ]
     ]
    ]
   }
  },
  {
   "type": "Feature",
   "id": "PUBLIC-002",
   "properties": {
    "public_space_type": "station_plaza",
    "key_area_id": "beijing_ai_origin_community",
    "source_type": "agent_generated_design",
    "confidence": "medium",
    "geometry_role": "design_proposal",
    "area_sqm_declared": 137831.1,
    "note_zh": "三站站前广场（概念建议）。",
    "id": "PUBLIC-002",
    "layer": "PUBLIC_SPACE"
   },
   "geometry": {
    "type": "Polygon",
    "coordinates": [
     [
      [
       116.34480363423212,
       39.98715253323751
      ],
      [
       116.34480363423212,
       39.98984746676249
      ],
      [
       116.35019636576787,
       39.98984746676249
      ],
      [
       116.35019636576787,
       39.98715253323751
      ],
      [
       116.34480363423212,
       39.98715253323751
      ]
     ]
    ]
   }
  },
  {
   "type": "Feature",
   "id": "PUBLIC-003",
   "properties": {
    "public_space_type": "station_plaza",
    "key_area_id": "dazhongsi_ai_industry_cluster",
    "source_type": "agent_generated_design",
    "confidence": "medium",
    "geometry_role": "design_proposal",
    "area_sqm_declared": 91142.9,
    "note_zh": "三站站前广场（概念建议）。",
    "id": "PUBLIC-003",
    "layer": "PUBLIC_SPACE"
   },
   "geometry": {
    "type": "Polygon",
    "coordinates": [
     [
      [
       116.34627256740914,
       39.94582202659001
      ],
      [
       116.34627256740914,
       39.94797797340999
      ],
      [
       116.35072743259086,
       39.94797797340999
      ],
      [
       116.35072743259086,
       39.94582202659001
      ],
      [
       116.34627256740914,
       39.94582202659001
      ]
     ]
    ]
   }
  },
  {
   "type": "Feature",
   "id": "PUBLIC-004",
   "properties": {
    "public_space_type": "gateway_plaza",
    "source_type": "agent_generated_design",
    "confidence": "medium",
    "geometry_role": "design_proposal",
    "area_sqm_declared": 147121.4,
    "note_zh": "北京北站门户广场（概念建议）。",
    "id": "PUBLIC-004",
    "layer": "PUBLIC_SPACE"
   },
   "geometry": {
    "type": "Polygon",
    "coordinates": [
     [
      [
       116.34550363423213,
       39.93906270212001
      ],
      [
       116.34550363423213,
       39.94193729787999
      ],
      [
       116.35089636576788,
       39.94193729787999
      ],
      [
       116.35089636576788,
       39.93906270212001
      ],
      [
       116.34550363423213,
       39.93906270212001
      ]
     ]
    ]
   }
  },
  {
   "type": "Feature",
   "id": "PUBLIC-005",
   "properties": {
    "public_space_type": "community_square",
    "source_type": "agent_generated_design",
    "confidence": "medium",
    "geometry_role": "design_proposal",
    "area_sqm_declared": 39957.0,
    "note_zh": "会让站社区广场（概念建议）。",
    "id": "PUBLIC-005",
    "layer": "PUBLIC_SPACE"
   },
   "geometry": {
    "type": "Polygon",
    "coordinates": [
     [
      [
       116.34982766705744,
       39.97710168882501
      ],
      [
       116.34982766705744,
       39.978898311174994
      ],
      [
       116.35217233294256,
       39.978898311174994
      ],
      [
       116.35217233294256,
       39.97710168882501
      ],
      [
       116.34982766705744,
       39.97710168882501
      ]
     ]
    ]
   }
  },
  {
   "type": "Feature",
   "id": "PUBLIC-006",
   "properties": {
    "public_space_type": "community_square",
    "source_type": "agent_generated_design",
    "confidence": "medium",
    "geometry_role": "design_proposal",
    "area_sqm_declared": 39966.3,
    "note_zh": "会让站社区广场（概念建议）。",
    "id": "PUBLIC-006",
    "layer": "PUBLIC_SPACE"
   },
   "geometry": {
    "type": "Polygon",
    "coordinates": [
     [
      [
       116.34982766705744,
       39.96110168882501
      ],
      [
       116.34982766705744,
       39.962898311174996
      ],
      [
       116.35217233294256,
       39.962898311174996
      ],
      [
       116.35217233294256,
       39.96110168882501
      ],
      [
       116.34982766705744,
       39.96110168882501
      ]
     ]
    ]
   }
  }
 ]
}