{
  "type": "FeatureCollection",
  "name": "green_space_design",
  "features": [
    {
      "type": "Feature",
      "id": "GREEN-006",
      "properties": {
        "id": "GREEN-006",
        "layer": "GREEN_SPACE",
        "source_type": "agent_generated_design",
        "confidence": "medium",
        "geometry_role": "design_proposal",
        "land_use_code": "1401",
        "name_zh": "京张遗址公园概念绿带",
        "name_en": "Jingzhang heritage park greenway",
        "area_sqm_declared": 447143.287
      },
      "geometry": {
        "type": "Polygon",
        "coordinates": [
          [
            [
              116.34634536,
              39.9549741
            ],
            [
              116.34617425,
              39.9481356
            ],
            [
              116.3456,
              39.94813236
            ],
            [
              116.34348211,
              39.94812039
            ],
            [
              116.34365448,
              39.95501992
            ],
            [
              116.34365487,
              39.95503186
            ],
            [
              116.34407827,
              39.96562253
            ],
            [
              116.3450368,
              39.96562795
            ],
            [
              116.3467721,
              39.96563774
            ],
            [
              116.34634536,
              39.9549741
            ]
          ]
        ]
      }
    },
    {
      "type": "Feature",
      "id": "GREEN-007",
      "properties": {
        "id": "GREEN-007",
        "layer": "GREEN_SPACE",
        "source_type": "agent_generated_design",
        "confidence": "medium",
        "geometry_role": "design_proposal",
        "land_use_code": "1401",
        "name_zh": "京张遗址公园概念绿带",
        "name_en": "Jingzhang heritage park greenway",
        "area_sqm_declared": 286128.707
      },
      "geometry": {
        "type": "Polygon",
        "coordinates": [
          [
            [
              116.3471769,
              39.97864003
            ],
            [
              116.34694578,
              39.96997875
            ],
            [
              116.34694542,
              39.96996813
            ],
            [
              116.34684421,
              39.96743938
            ],
            [
              116.34415031,
              39.96742417
            ],
            [
              116.34425437,
              39.97002655
            ],
            [
              116.34448347,
              39.97862483
            ],
            [
              116.3471769,
              39.97864003
            ]
          ]
        ]
      }
    },
    {
      "type": "Feature",
      "id": "GREEN-008",
      "properties": {
        "id": "GREEN-008",
        "layer": "GREEN_SPACE",
        "source_type": "agent_generated_design",
        "confidence": "medium",
        "geometry_role": "design_proposal",
        "land_use_code": "1401",
        "name_zh": "京张遗址公园概念绿带",
        "name_en": "Jingzhang heritage park greenway",
        "area_sqm_declared": 426587.433
      },
      "geometry": {
        "type": "Polygon",
        "coordinates": [
          [
            [
              116.34499996,
              39.99712776
            ],
            [
              116.34686173,
              39.99713826
            ],
            [
              116.34734572,
              39.98503184
            ],
            [
              116.34734607,
              39.98497875
            ],
            [
              116.34722497,
              39.98044153
            ],
            [
              116.34453147,
              39.98042633
            ],
            [
              116.34465322,
              39.98499469
            ],
            [
              116.34416787,
              39.99712305
            ],
            [
              116.34499996,
              39.99712776
            ]
          ]
        ]
      }
    },
    {
      "type": "Feature",
      "id": "GREEN-009",
      "properties": {
        "id": "GREEN-009",
        "layer": "GREEN_SPACE",
        "source_type": "agent_generated_design",
        "confidence": "medium",
        "geometry_role": "design_proposal",
        "land_use_code": "1401",
        "name_zh": "京张遗址公园概念绿带",
        "name_en": "Jingzhang heritage park greenway",
        "area_sqm_declared": 298841.166
      },
      "geometry": {
        "type": "Polygon",
        "coordinates": [
          [
            [
              116.34405351,
              40.00001592
            ],
            [
              116.34425296,
              40.00999831
            ],
            [
              116.3442378,
              40.01062345
            ],
            [
              116.34693161,
              40.01063866
            ],
            [
              116.34694661,
              40.01001929
            ],
            [
              116.34694669,
              40.00998407
            ],
            [
              116.34674697,
              40.00000796
            ],
            [
              116.34678971,
              39.99893908
            ],
            [
              116.34409579,
              39.99892387
            ],
            [
              116.34405399,
              39.99996814
            ],
            [
              116.34405351,
              40.00001592
            ]
          ]
        ]
      }
    },
    {
      "type": "Feature",
      "id": "GREEN-010",
      "properties": {
        "id": "GREEN-010",
        "layer": "GREEN_SPACE",
        "source_type": "agent_generated_design",
        "confidence": "medium",
        "geometry_role": "design_proposal",
        "land_use_code": "1401",
        "name_zh": "京张遗址公园概念绿带",
        "name_en": "Jingzhang heritage park greenway",
        "area_sqm_declared": 359347.665
      },
      "geometry": {
        "type": "Polygon",
        "coordinates": [
          [
            [
              116.3465474,
              40.02650014
            ],
            [
              116.346888,
              40.01243963
            ],
            [
              116.34652772,
              40.0124376
            ],
            [
              116.34419411,
              40.01242442
            ],
            [
              116.34385306,
              40.02648069
            ],
            [
              116.34385383,
              40.02650005
            ],
            [
              116.3465474,
              40.02650014
            ]
          ]
        ]
      }
    },
    {
      "type": "Feature",
      "id": "GREEN-011",
      "properties": {
        "id": "GREEN-011",
        "layer": "GREEN_SPACE",
        "source_type": "agent_generated_design",
        "confidence": "medium",
        "geometry_role": "design_proposal",
        "land_use_code": "1401",
        "name_zh": "京张遗址公园概念绿带",
        "name_en": "Jingzhang heritage park greenway",
        "area_sqm_declared": 187139.865
      },
      "geometry": {
        "type": "Polygon",
        "coordinates": [
          [
            [
              116.3432548,
              39.93901991
            ],
            [
              116.34343711,
              39.9463189
            ],
            [
              116.34612919,
              39.94633411
            ],
            [
              116.34594571,
              39.93900021
            ],
            [
              116.34325556,
              39.93900013
            ],
            [
              116.3432548,
              39.93901991
            ]
          ]
        ]
      }
    },
    {
      "type": "Feature",
      "id": "GREEN-041",
      "properties": {
        "id": "GREEN-041",
        "layer": "GREEN_SPACE",
        "source_type": "agent_generated_design",
        "confidence": "medium",
        "geometry_role": "design_proposal",
        "land_use_code": "1401",
        "name_zh": "小月河滨水绿地",
        "name_en": "Xiaoyuehe riverside green space",
        "area_sqm_declared": 223879.494
      },
      "geometry": {
        "type": "Polygon",
        "coordinates": [
          [
            [
              116.35390309,
              39.96747894
            ],
            [
              116.35332901,
              39.96747574
            ],
            [
              116.35179581,
              39.96746717
            ],
            [
              116.35201962,
              39.97866721
            ],
            [
              116.35304195,
              39.97867292
            ],
            [
              116.35412724,
              39.97867897
            ],
            [
              116.35390309,
              39.96747894
            ]
          ]
        ]
      }
    },
    {
      "type": "Feature",
      "id": "GREEN-042",
      "properties": {
        "id": "GREEN-042",
        "layer": "GREEN_SPACE",
        "source_type": "agent_generated_design",
        "confidence": "medium",
        "geometry_role": "design_proposal",
        "land_use_code": "1401",
        "name_zh": "小月河滨水绿地",
        "name_en": "Xiaoyuehe riverside green space",
        "area_sqm_declared": 147790.504
      },
      "geometry": {
        "type": "Polygon",
        "coordinates": [
          [
            [
              116.35211621,
              39.98350004
            ],
            [
              116.353,
              39.9835
            ],
            [
              116.353,
              39.9935
            ],
            [
              116.3522462,
              39.99350003
            ],
            [
              116.35224615,
              39.99716848
            ],
            [
              116.35369309,
              39.99717656
            ],
            [
              116.3533,
              39.99
            ],
            [
              116.3540618,
              39.98047983
            ],
            [
              116.35205562,
              39.98046863
            ],
            [
              116.35211621,
              39.98350004
            ]
          ]
        ]
      }
    },
    {
      "type": "Feature",
      "id": "GREEN-043",
      "properties": {
        "id": "GREEN-043",
        "layer": "GREEN_SPACE",
        "source_type": "agent_generated_design",
        "confidence": "medium",
        "geometry_role": "design_proposal",
        "land_use_code": "1401",
        "name_zh": "小月河滨水绿地",
        "name_en": "Xiaoyuehe riverside green space",
        "area_sqm_declared": 151453.519
      },
      "geometry": {
        "type": "Polygon",
        "coordinates": [
          [
            [
              116.35400001,
              40.01067828
            ],
            [
              116.35416954,
              40.01067922
            ],
            [
              116.35426765,
              40.00766384
            ],
            [
              116.35401931,
              40.00313144
            ],
            [
              116.35379179,
              39.99897833
            ],
            [
              116.35224612,
              39.9989697
            ],
            [
              116.35224602,
              40.00498986
            ],
            [
              116.35216428,
              40.00750007
            ],
            [
              116.354,
              40.0075
            ],
            [
              116.35400001,
              40.01067828
            ]
          ]
        ]
      }
    },
    {
      "type": "Feature",
      "id": "GREEN-044",
      "properties": {
        "id": "GREEN-044",
        "layer": "GREEN_SPACE",
        "source_type": "agent_generated_design",
        "confidence": "medium",
        "geometry_role": "design_proposal",
        "land_use_code": "1401",
        "name_zh": "小月河滨水绿地",
        "name_en": "Xiaoyuehe riverside green space",
        "area_sqm_declared": 1793.074
      },
      "geometry": {
        "type": "Polygon",
        "coordinates": [
          [
            [
              116.35411095,
              40.01248012
            ],
            [
              116.35403705,
              40.0124797
            ],
            [
              116.35400001,
              40.0124795
            ],
            [
              116.35400002,
              40.01588908
            ],
            [
              116.35411095,
              40.01248012
            ]
          ]
        ]
      }
    },
    {
      "type": "Feature",
      "id": "GREEN-045",
      "properties": {
        "id": "GREEN-045",
        "layer": "GREEN_SPACE",
        "source_type": "agent_generated_design",
        "confidence": "medium",
        "geometry_role": "design_proposal",
        "land_use_code": "1401",
        "name_zh": "小月河滨水绿地",
        "name_en": "Xiaoyuehe riverside green space",
        "area_sqm_declared": 9997.589
      },
      "geometry": {
        "type": "Polygon",
        "coordinates": [
          [
            [
              116.35154602,
              40.02647971
            ],
            [
              116.35154666,
              40.02650014
            ],
            [
              116.35365464,
              40.02650007
            ],
            [
              116.35367091,
              40.02600001
            ],
            [
              116.3520837,
              40.02600007
            ],
            [
              116.35156166,
              40.02600009
            ],
            [
              116.35154602,
              40.02647971
            ]
          ]
        ]
      }
    },
    {
      "type": "Feature",
      "id": "GREEN-046",
      "properties": {
        "id": "GREEN-046",
        "layer": "GREEN_SPACE",
        "source_type": "agent_generated_design",
        "confidence": "medium",
        "geometry_role": "design_proposal",
        "land_use_code": "1401",
        "name_zh": "小月河滨水绿地",
        "name_en": "Xiaoyuehe riverside green space",
        "area_sqm_declared": 26128.38
      },
      "geometry": {
        "type": "Polygon",
        "coordinates": [
          [
            [
              116.35385324,
              39.96498753
            ],
            [
              116.35384658,
              39.96490815
            ],
            [
              116.35382983,
              39.96482966
            ],
            [
              116.35380318,
              39.9647528
            ],
            [
              116.35376686,
              39.96467834
            ],
            [
              116.35372123,
              39.96460696
            ],
            [
              116.35366673,
              39.96453937
            ],
            [
              116.35360387,
              39.96447622
            ],
            [
              116.35353328,
              39.96441812
            ],
            [
              116.35345564,
              39.96436561
            ],
            [
              116.35337166,
              39.96431922
            ],
            [
              116.3532822,
              39.96427938
            ],
            [
              116.35318808,
              39.96424648
            ],
            [
              116.35309023,
              39.96422084
            ],
            [
              116.35298958,
              39.9642027
            ],
            [
              116.35288711,
              39.96419225
            ],
            [
              116.35278379,
              39.96418956
            ],
            [
              116.35268064,
              39.96419469
            ],
            [
              116.35257863,
              39.96420756
            ],
            [
              116.35247875,
              39.96422808
            ],
            [
              116.35238198,
              39.96425603
            ],
            [
              116.35228922,
              39.96429114
            ],
            [
              116.35220138,
              39.96433307
            ],
            [
              116.35211931,
              39.96438143
            ],
            [
              116.3520438,
              39.96443575
            ],
            [
              116.35197556,
              39.9644955
            ],
            [
              116.35191527,
              39.96456011
            ],
            [
              116.35186349,
              39.96462896
            ],
            [
              116.35182073,
              39.96470138
            ],
            [
              116.35178741,
              39.96477667
            ],
            [
              116.35176384,
              39.96485412
            ],
            [
              116.35175024,
              39.96493296
            ],
            [
              116.35174676,
              39.96501246
            ],
            [
              116.35175981,
              39.96566574
            ],
            [
              116.35224772,
              39.96566847
            ],
            [
              116.35386704,
              39.96567751
            ],
            [
              116.35385324,
              39.96498753
            ]
          ]
        ]
      }
    },
    {
      "type": "Feature",
      "id": "GREEN-056",
      "properties": {
        "id": "GREEN-056",
        "layer": "GREEN_SPACE",
        "source_type": "agent_generated_design",
        "confidence": "medium",
        "geometry_role": "design_proposal",
        "land_use_code": "1401",
        "name_zh": "清河滨水绿地",
        "name_en": "Qinghe riverside green space",
        "area_sqm_declared": 116044.837
      },
      "geometry": {
        "type": "Polygon",
        "coordinates": [
          [
            [
              116.35365464,
              40.02650007
            ],
            [
              116.3553,
              40.0265
            ],
            [
              116.35459835,
              40.0136987
            ],
            [
              116.35407139,
              40.01369576
            ],
            [
              116.35400002,
              40.01588908
            ],
            [
              116.354,
              40.026
            ],
            [
              116.35367091,
              40.02600001
            ],
            [
              116.35365464,
              40.02650007
            ]
          ]
        ]
      }
    },
    {
      "type": "Feature",
      "id": "GREEN-057",
      "properties": {
        "id": "GREEN-057",
        "layer": "GREEN_SPACE",
        "source_type": "agent_generated_design",
        "confidence": "medium",
        "geometry_role": "design_proposal",
        "land_use_code": "1401",
        "name_zh": "清河滨水绿地",
        "name_en": "Qinghe riverside green space",
        "area_sqm_declared": 20034.286
      },
      "geometry": {
        "type": "Polygon",
        "coordinates": [
          [
            [
              116.35154602,
              40.02647971
            ],
            [
              116.35156166,
              40.02600009
            ],
            [
              116.34733281,
              40.02600012
            ],
            [
              116.3473328,
              40.02600012
            ],
            [
              116.34732069,
              40.02650016
            ],
            [
              116.3496027,
              40.02650017
            ],
            [
              116.35154666,
              40.02650014
            ],
            [
              116.35154602,
              40.02647971
            ]
          ]
        ]
      }
    }
  ]
}