{
 "type": "FeatureCollection",
 "name": "buildings",
 "features": [
  {
   "type": "Feature",
   "id": "BLD-001",
   "properties": {
    "id": "BLD-001",
    "layer": "BUILDING_FOOTPRINT",
    "source_type": "agent_generated_design",
    "confidence": "low",
    "geometry_role": "design_proposal",
    "name_zh": "概念建筑体量（非现状，待控规与现状数据）",
    "status_hint": "concept_volume",
    "area_sqm_declared": 1708.2
   },
   "geometry": {
    "type": "Polygon",
    "coordinates": [
     [
      [
       116.34264999999999,
       39.944250000000004
      ],
      [
       116.34264999999999,
       39.944700000000005
      ],
      [
       116.34224999999999,
       39.944700000000005
      ],
      [
       116.34224999999999,
       39.944250000000004
      ],
      [
       116.34264999999999,
       39.944250000000004
      ]
     ]
    ]
   }
  },
  {
   "type": "Feature",
   "id": "BLD-002",
   "properties": {
    "id": "BLD-002",
    "layer": "BUILDING_FOOTPRINT",
    "source_type": "agent_generated_design",
    "confidence": "low",
    "geometry_role": "design_proposal",
    "name_zh": "概念建筑体量（非现状，待控规与现状数据）",
    "status_hint": "concept_volume",
    "area_sqm_declared": 1708.199
   },
   "geometry": {
    "type": "Polygon",
    "coordinates": [
     [
      [
       116.34339999999999,
       39.944250000000004
      ],
      [
       116.34339999999999,
       39.944700000000005
      ],
      [
       116.34299999999999,
       39.944700000000005
      ],
      [
       116.34299999999999,
       39.944250000000004
      ],
      [
       116.34339999999999,
       39.944250000000004
      ]
     ]
    ]
   }
  },
  {
   "type": "Feature",
   "id": "BLD-003",
   "properties": {
    "id": "BLD-003",
    "layer": "BUILDING_FOOTPRINT",
    "source_type": "agent_generated_design",
    "confidence": "low",
    "geometry_role": "design_proposal",
    "name_zh": "概念建筑体量（非现状，待控规与现状数据）",
    "status_hint": "concept_volume",
    "area_sqm_declared": 1708.199
   },
   "geometry": {
    "type": "Polygon",
    "coordinates": [
     [
      [
       116.34414999999998,
       39.944250000000004
      ],
      [
       116.34414999999998,
       39.944700000000005
      ],
      [
       116.34374999999999,
       39.944700000000005
      ],
      [
       116.34374999999999,
       39.944250000000004
      ],
      [
       116.34414999999998,
       39.944250000000004
      ]
     ]
    ]
   }
  },
  {
   "type": "Feature",
   "id": "BLD-004",
   "properties": {
    "id": "BLD-004",
    "layer": "BUILDING_FOOTPRINT",
    "source_type": "agent_generated_design",
    "confidence": "low",
    "geometry_role": "design_proposal",
    "name_zh": "概念建筑体量（非现状，待控规与现状数据）",
    "status_hint": "concept_volume",
    "area_sqm_declared": 1708.199
   },
   "geometry": {
    "type": "Polygon",
    "coordinates": [
     [
      [
       116.3449,
       39.944250000000004
      ],
      [
       116.3449,
       39.944700000000005
      ],
      [
       116.3445,
       39.944700000000005
      ],
      [
       116.3445,
       39.944250000000004
      ],
      [
       116.3449,
       39.944250000000004
      ]
     ]
    ]
   }
  },
  {
   "type": "Feature",
   "id": "BLD-005",
   "properties": {
    "id": "BLD-005",
    "layer": "BUILDING_FOOTPRINT",
    "source_type": "agent_generated_design",
    "confidence": "low",
    "geometry_role": "design_proposal",
    "name_zh": "概念建筑体量（非现状，待控规与现状数据）",
    "status_hint": "concept_volume",
    "area_sqm_declared": 1708.173
   },
   "geometry": {
    "type": "Polygon",
    "coordinates": [
     [
      [
       116.34264999999999,
       39.945330000000006
      ],
      [
       116.34264999999999,
       39.945780000000006
      ],
      [
       116.34224999999999,
       39.945780000000006
      ],
      [
       116.34224999999999,
       39.945330000000006
      ],
      [
       116.34264999999999,
       39.945330000000006
      ]
     ]
    ]
   }
  },
  {
   "type": "Feature",
   "id": "BLD-006",
   "properties": {
    "id": "BLD-006",
    "layer": "BUILDING_FOOTPRINT",
    "source_type": "agent_generated_design",
    "confidence": "low",
    "geometry_role": "design_proposal",
    "name_zh": "概念建筑体量（非现状，待控规与现状数据）",
    "status_hint": "concept_volume",
    "area_sqm_declared": 1708.173
   },
   "geometry": {
    "type": "Polygon",
    "coordinates": [
     [
      [
       116.34339999999999,
       39.945330000000006
      ],
      [
       116.34339999999999,
       39.945780000000006
      ],
      [
       116.34299999999999,
       39.945780000000006
      ],
      [
       116.34299999999999,
       39.945330000000006
      ],
      [
       116.34339999999999,
       39.945330000000006
      ]
     ]
    ]
   }
  },
  {
   "type": "Feature",
   "id": "BLD-007",
   "properties": {
    "id": "BLD-007",
    "layer": "BUILDING_FOOTPRINT",
    "source_type": "agent_generated_design",
    "confidence": "low",
    "geometry_role": "design_proposal",
    "name_zh": "概念建筑体量（非现状，待控规与现状数据）",
    "status_hint": "concept_volume",
    "area_sqm_declared": 1708.196
   },
   "geometry": {
    "type": "Polygon",
    "coordinates": [
     [
      [
       116.35015,
       39.944250000000004
      ],
      [
       116.35015,
       39.944700000000005
      ],
      [
       116.34975,
       39.944700000000005
      ],
      [
       116.34975,
       39.944250000000004
      ],
      [
       116.35015,
       39.944250000000004
      ]
     ]
    ]
   }
  },
  {
   "type": "Feature",
   "id": "BLD-008",
   "properties": {
    "id": "BLD-008",
    "layer": "BUILDING_FOOTPRINT",
    "source_type": "agent_generated_design",
    "confidence": "low",
    "geometry_role": "design_proposal",
    "name_zh": "概念建筑体量（非现状，待控规与现状数据）",
    "status_hint": "concept_volume",
    "area_sqm_declared": 1708.196
   },
   "geometry": {
    "type": "Polygon",
    "coordinates": [
     [
      [
       116.3509,
       39.944250000000004
      ],
      [
       116.3509,
       39.944700000000005
      ],
      [
       116.3505,
       39.944700000000005
      ],
      [
       116.3505,
       39.944250000000004
      ],
      [
       116.3509,
       39.944250000000004
      ]
     ]
    ]
   }
  },
  {
   "type": "Feature",
   "id": "BLD-009",
   "properties": {
    "id": "BLD-009",
    "layer": "BUILDING_FOOTPRINT",
    "source_type": "agent_generated_design",
    "confidence": "low",
    "geometry_role": "design_proposal",
    "name_zh": "概念建筑体量（非现状，待控规与现状数据）",
    "status_hint": "concept_volume",
    "area_sqm_declared": 1708.196
   },
   "geometry": {
    "type": "Polygon",
    "coordinates": [
     [
      [
       116.35164999999999,
       39.944250000000004
      ],
      [
       116.35164999999999,
       39.944700000000005
      ],
      [
       116.35125,
       39.944700000000005
      ],
      [
       116.35125,
       39.944250000000004
      ],
      [
       116.35164999999999,
       39.944250000000004
      ]
     ]
    ]
   }
  },
  {
   "type": "Feature",
   "id": "BLD-010",
   "properties": {
    "id": "BLD-010",
    "layer": "BUILDING_FOOTPRINT",
    "source_type": "agent_generated_design",
    "confidence": "low",
    "geometry_role": "design_proposal",
    "name_zh": "概念建筑体量（非现状，待控规与现状数据）",
    "status_hint": "concept_volume",
    "area_sqm_declared": 1708.196
   },
   "geometry": {
    "type": "Polygon",
    "coordinates": [
     [
      [
       116.3524,
       39.944250000000004
      ],
      [
       116.3524,
       39.944700000000005
      ],
      [
       116.352,
       39.944700000000005
      ],
      [
       116.352,
       39.944250000000004
      ],
      [
       116.3524,
       39.944250000000004
      ]
     ]
    ]
   }
  },
  {
   "type": "Feature",
   "id": "BLD-011",
   "properties": {
    "id": "BLD-011",
    "layer": "BUILDING_FOOTPRINT",
    "source_type": "agent_generated_design",
    "confidence": "low",
    "geometry_role": "design_proposal",
    "name_zh": "概念建筑体量（非现状，待控规与现状数据）",
    "status_hint": "concept_volume",
    "area_sqm_declared": 1708.17
   },
   "geometry": {
    "type": "Polygon",
    "coordinates": [
     [
      [
       116.35015,
       39.945330000000006
      ],
      [
       116.35015,
       39.945780000000006
      ],
      [
       116.34975,
       39.945780000000006
      ],
      [
       116.34975,
       39.945330000000006
      ],
      [
       116.35015,
       39.945330000000006
      ]
     ]
    ]
   }
  },
  {
   "type": "Feature",
   "id": "BLD-012",
   "properties": {
    "id": "BLD-012",
    "layer": "BUILDING_FOOTPRINT",
    "source_type": "agent_generated_design",
    "confidence": "low",
    "geometry_role": "design_proposal",
    "name_zh": "概念建筑体量（非现状，待控规与现状数据）",
    "status_hint": "concept_volume",
    "area_sqm_declared": 1708.17
   },
   "geometry": {
    "type": "Polygon",
    "coordinates": [
     [
      [
       116.3509,
       39.945330000000006
      ],
      [
       116.3509,
       39.945780000000006
      ],
      [
       116.3505,
       39.945780000000006
      ],
      [
       116.3505,
       39.945330000000006
      ],
      [
       116.3509,
       39.945330000000006
      ]
     ]
    ]
   }
  },
  {
   "type": "Feature",
   "id": "BLD-013",
   "properties": {
    "id": "BLD-013",
    "layer": "BUILDING_FOOTPRINT",
    "source_type": "agent_generated_design",
    "confidence": "low",
    "geometry_role": "design_proposal",
    "name_zh": "概念建筑体量（非现状，待控规与现状数据）",
    "status_hint": "concept_volume",
    "area_sqm_declared": 1708.195
   },
   "geometry": {
    "type": "Polygon",
    "coordinates": [
     [
      [
       116.35364999999999,
       39.944250000000004
      ],
      [
       116.35364999999999,
       39.944700000000005
      ],
      [
       116.35324999999999,
       39.944700000000005
      ],
      [
       116.35324999999999,
       39.944250000000004
      ],
      [
       116.35364999999999,
       39.944250000000004
      ]
     ]
    ]
   }
  },
  {
   "type": "Feature",
   "id": "BLD-014",
   "properties": {
    "id": "BLD-014",
    "layer": "BUILDING_FOOTPRINT",
    "source_type": "agent_generated_design",
    "confidence": "low",
    "geometry_role": "design_proposal",
    "name_zh": "概念建筑体量（非现状，待控规与现状数据）",
    "status_hint": "concept_volume",
    "area_sqm_declared": 1708.195
   },
   "geometry": {
    "type": "Polygon",
    "coordinates": [
     [
      [
       116.35439999999998,
       39.944250000000004
      ],
      [
       116.35439999999998,
       39.944700000000005
      ],
      [
       116.35399999999998,
       39.944700000000005
      ],
      [
       116.35399999999998,
       39.944250000000004
      ],
      [
       116.35439999999998,
       39.944250000000004
      ]
     ]
    ]
   }
  },
  {
   "type": "Feature",
   "id": "BLD-015",
   "properties": {
    "id": "BLD-015",
    "layer": "BUILDING_FOOTPRINT",
    "source_type": "agent_generated_design",
    "confidence": "low",
    "geometry_role": "design_proposal",
    "name_zh": "概念建筑体量（非现状，待控规与现状数据）",
    "status_hint": "concept_volume",
    "area_sqm_declared": 1708.169
   },
   "geometry": {
    "type": "Polygon",
    "coordinates": [
     [
      [
       116.35364999999999,
       39.945330000000006
      ],
      [
       116.35364999999999,
       39.945780000000006
      ],
      [
       116.35324999999999,
       39.945780000000006
      ],
      [
       116.35324999999999,
       39.945330000000006
      ],
      [
       116.35364999999999,
       39.945330000000006
      ]
     ]
    ]
   }
  },
  {
   "type": "Feature",
   "id": "BLD-016",
   "properties": {
    "id": "BLD-016",
    "layer": "BUILDING_FOOTPRINT",
    "source_type": "agent_generated_design",
    "confidence": "low",
    "geometry_role": "design_proposal",
    "name_zh": "概念建筑体量（非现状，待控规与现状数据）",
    "status_hint": "concept_volume",
    "area_sqm_declared": 1708.168
   },
   "geometry": {
    "type": "Polygon",
    "coordinates": [
     [
      [
       116.35439999999998,
       39.945330000000006
      ],
      [
       116.35439999999998,
       39.945780000000006
      ],
      [
       116.35399999999998,
       39.945780000000006
      ],
      [
       116.35399999999998,
       39.945330000000006
      ],
      [
       116.35439999999998,
       39.945330000000006
      ]
     ]
    ]
   }
  },
  {
   "type": "Feature",
   "id": "BLD-017",
   "properties": {
    "id": "BLD-017",
    "layer": "BUILDING_FOOTPRINT",
    "source_type": "agent_generated_design",
    "confidence": "low",
    "geometry_role": "design_proposal",
    "name_zh": "概念建筑体量（非现状，待控规与现状数据）",
    "status_hint": "concept_volume",
    "area_sqm_declared": 1708.128
   },
   "geometry": {
    "type": "Polygon",
    "coordinates": [
     [
      [
       116.34264999999999,
       39.94717
      ],
      [
       116.34264999999999,
       39.94762
      ],
      [
       116.34224999999999,
       39.94762
      ],
      [
       116.34224999999999,
       39.94717
      ],
      [
       116.34264999999999,
       39.94717
      ]
     ]
    ]
   }
  },
  {
   "type": "Feature",
   "id": "BLD-018",
   "properties": {
    "id": "BLD-018",
    "layer": "BUILDING_FOOTPRINT",
    "source_type": "agent_generated_design",
    "confidence": "low",
    "geometry_role": "design_proposal",
    "name_zh": "概念建筑体量（非现状，待控规与现状数据）",
    "status_hint": "concept_volume",
    "area_sqm_declared": 1708.127
   },
   "geometry": {
    "type": "Polygon",
    "coordinates": [
     [
      [
       116.34339999999999,
       39.94717
      ],
      [
       116.34339999999999,
       39.94762
      ],
      [
       116.34299999999999,
       39.94762
      ],
      [
       116.34299999999999,
       39.94717
      ],
      [
       116.34339999999999,
       39.94717
      ]
     ]
    ]
   }
  },
  {
   "type": "Feature",
   "id": "BLD-019",
   "properties": {
    "id": "BLD-019",
    "layer": "BUILDING_FOOTPRINT",
    "source_type": "agent_generated_design",
    "confidence": "low",
    "geometry_role": "design_proposal",
    "name_zh": "概念建筑体量（非现状，待控规与现状数据）",
    "status_hint": "concept_volume",
    "area_sqm_declared": 1708.127
   },
   "geometry": {
    "type": "Polygon",
    "coordinates": [
     [
      [
       116.34414999999998,
       39.94717
      ],
      [
       116.34414999999998,
       39.94762
      ],
      [
       116.34374999999999,
       39.94762
      ],
      [
       116.34374999999999,
       39.94717
      ],
      [
       116.34414999999998,
       39.94717
      ]
     ]
    ]
   }
  },
  {
   "type": "Feature",
   "id": "BLD-020",
   "properties": {
    "id": "BLD-020",
    "layer": "BUILDING_FOOTPRINT",
    "source_type": "agent_generated_design",
    "confidence": "low",
    "geometry_role": "design_proposal",
    "name_zh": "概念建筑体量（非现状，待控规与现状数据）",
    "status_hint": "concept_volume",
    "area_sqm_declared": 1708.127
   },
   "geometry": {
    "type": "Polygon",
    "coordinates": [
     [
      [
       116.3449,
       39.94717
      ],
      [
       116.3449,
       39.94762
      ],
      [
       116.3445,
       39.94762
      ],
      [
       116.3445,
       39.94717
      ],
      [
       116.3449,
       39.94717
      ]
     ]
    ]
   }
  },
  {
   "type": "Feature",
   "id": "BLD-021",
   "properties": {
    "id": "BLD-021",
    "layer": "BUILDING_FOOTPRINT",
    "source_type": "agent_generated_design",
    "confidence": "low",
    "geometry_role": "design_proposal",
    "name_zh": "概念建筑体量（非现状，待控规与现状数据）",
    "status_hint": "concept_volume",
    "area_sqm_declared": 1708.101
   },
   "geometry": {
    "type": "Polygon",
    "coordinates": [
     [
      [
       116.34264999999999,
       39.94825
      ],
      [
       116.34264999999999,
       39.9487
      ],
      [
       116.34224999999999,
       39.9487
      ],
      [
       116.34224999999999,
       39.94825
      ],
      [
       116.34264999999999,
       39.94825
      ]
     ]
    ]
   }
  },
  {
   "type": "Feature",
   "id": "BLD-022",
   "properties": {
    "id": "BLD-022",
    "layer": "BUILDING_FOOTPRINT",
    "source_type": "agent_generated_design",
    "confidence": "low",
    "geometry_role": "design_proposal",
    "name_zh": "概念建筑体量（非现状，待控规与现状数据）",
    "status_hint": "concept_volume",
    "area_sqm_declared": 1708.101
   },
   "geometry": {
    "type": "Polygon",
    "coordinates": [
     [
      [
       116.34339999999999,
       39.94825
      ],
      [
       116.34339999999999,
       39.9487
      ],
      [
       116.34299999999999,
       39.9487
      ],
      [
       116.34299999999999,
       39.94825
      ],
      [
       116.34339999999999,
       39.94825
      ]
     ]
    ]
   }
  },
  {
   "type": "Feature",
   "id": "BLD-023",
   "properties": {
    "id": "BLD-023",
    "layer": "BUILDING_FOOTPRINT",
    "source_type": "agent_generated_design",
    "confidence": "low",
    "geometry_role": "design_proposal",
    "name_zh": "概念建筑体量（非现状，待控规与现状数据）",
    "status_hint": "concept_volume",
    "area_sqm_declared": 1708.125
   },
   "geometry": {
    "type": "Polygon",
    "coordinates": [
     [
      [
       116.35015,
       39.94717
      ],
      [
       116.35015,
       39.94762
      ],
      [
       116.34975,
       39.94762
      ],
      [
       116.34975,
       39.94717
      ],
      [
       116.35015,
       39.94717
      ]
     ]
    ]
   }
  },
  {
   "type": "Feature",
   "id": "BLD-024",
   "properties": {
    "id": "BLD-024",
    "layer": "BUILDING_FOOTPRINT",
    "source_type": "agent_generated_design",
    "confidence": "low",
    "geometry_role": "design_proposal",
    "name_zh": "概念建筑体量（非现状，待控规与现状数据）",
    "status_hint": "concept_volume",
    "area_sqm_declared": 1708.124
   },
   "geometry": {
    "type": "Polygon",
    "coordinates": [
     [
      [
       116.3509,
       39.94717
      ],
      [
       116.3509,
       39.94762
      ],
      [
       116.3505,
       39.94762
      ],
      [
       116.3505,
       39.94717
      ],
      [
       116.3509,
       39.94717
      ]
     ]
    ]
   }
  },
  {
   "type": "Feature",
   "id": "BLD-025",
   "properties": {
    "id": "BLD-025",
    "layer": "BUILDING_FOOTPRINT",
    "source_type": "agent_generated_design",
    "confidence": "low",
    "geometry_role": "design_proposal",
    "name_zh": "概念建筑体量（非现状，待控规与现状数据）",
    "status_hint": "concept_volume",
    "area_sqm_declared": 1708.124
   },
   "geometry": {
    "type": "Polygon",
    "coordinates": [
     [
      [
       116.35164999999999,
       39.94717
      ],
      [
       116.35164999999999,
       39.94762
      ],
      [
       116.35125,
       39.94762
      ],
      [
       116.35125,
       39.94717
      ],
      [
       116.35164999999999,
       39.94717
      ]
     ]
    ]
   }
  },
  {
   "type": "Feature",
   "id": "BLD-026",
   "properties": {
    "id": "BLD-026",
    "layer": "BUILDING_FOOTPRINT",
    "source_type": "agent_generated_design",
    "confidence": "low",
    "geometry_role": "design_proposal",
    "name_zh": "概念建筑体量（非现状，待控规与现状数据）",
    "status_hint": "concept_volume",
    "area_sqm_declared": 1708.124
   },
   "geometry": {
    "type": "Polygon",
    "coordinates": [
     [
      [
       116.3524,
       39.94717
      ],
      [
       116.3524,
       39.94762
      ],
      [
       116.352,
       39.94762
      ],
      [
       116.352,
       39.94717
      ],
      [
       116.3524,
       39.94717
      ]
     ]
    ]
   }
  },
  {
   "type": "Feature",
   "id": "BLD-027",
   "properties": {
    "id": "BLD-027",
    "layer": "BUILDING_FOOTPRINT",
    "source_type": "agent_generated_design",
    "confidence": "low",
    "geometry_role": "design_proposal",
    "name_zh": "概念建筑体量（非现状，待控规与现状数据）",
    "status_hint": "concept_volume",
    "area_sqm_declared": 1708.098
   },
   "geometry": {
    "type": "Polygon",
    "coordinates": [
     [
      [
       116.35015,
       39.94825
      ],
      [
       116.35015,
       39.9487
      ],
      [
       116.34975,
       39.9487
      ],
      [
       116.34975,
       39.94825
      ],
      [
       116.35015,
       39.94825
      ]
     ]
    ]
   }
  },
  {
   "type": "Feature",
   "id": "BLD-028",
   "properties": {
    "id": "BLD-028",
    "layer": "BUILDING_FOOTPRINT",
    "source_type": "agent_generated_design",
    "confidence": "low",
    "geometry_role": "design_proposal",
    "name_zh": "概念建筑体量（非现状，待控规与现状数据）",
    "status_hint": "concept_volume",
    "area_sqm_declared": 1708.098
   },
   "geometry": {
    "type": "Polygon",
    "coordinates": [
     [
      [
       116.3509,
       39.94825
      ],
      [
       116.3509,
       39.9487
      ],
      [
       116.3505,
       39.9487
      ],
      [
       116.3505,
       39.94825
      ],
      [
       116.3509,
       39.94825
      ]
     ]
    ]
   }
  },
  {
   "type": "Feature",
   "id": "BLD-029",
   "properties": {
    "id": "BLD-029",
    "layer": "BUILDING_FOOTPRINT",
    "source_type": "agent_generated_design",
    "confidence": "low",
    "geometry_role": "design_proposal",
    "name_zh": "概念建筑体量（非现状，待控规与现状数据）",
    "status_hint": "concept_volume",
    "area_sqm_declared": 1708.123
   },
   "geometry": {
    "type": "Polygon",
    "coordinates": [
     [
      [
       116.35364999999999,
       39.94717
      ],
      [
       116.35364999999999,
       39.94762
      ],
      [
       116.35324999999999,
       39.94762
      ],
      [
       116.35324999999999,
       39.94717
      ],
      [
       116.35364999999999,
       39.94717
      ]
     ]
    ]
   }
  },
  {
   "type": "Feature",
   "id": "BLD-030",
   "properties": {
    "id": "BLD-030",
    "layer": "BUILDING_FOOTPRINT",
    "source_type": "agent_generated_design",
    "confidence": "low",
    "geometry_role": "design_proposal",
    "name_zh": "概念建筑体量（非现状，待控规与现状数据）",
    "status_hint": "concept_volume",
    "area_sqm_declared": 1708.123
   },
   "geometry": {
    "type": "Polygon",
    "coordinates": [
     [
      [
       116.35439999999998,
       39.94717
      ],
      [
       116.35439999999998,
       39.94762
      ],
      [
       116.35399999999998,
       39.94762
      ],
      [
       116.35399999999998,
       39.94717
      ],
      [
       116.35439999999998,
       39.94717
      ]
     ]
    ]
   }
  },
  {
   "type": "Feature",
   "id": "BLD-031",
   "properties": {
    "id": "BLD-031",
    "layer": "BUILDING_FOOTPRINT",
    "source_type": "agent_generated_design",
    "confidence": "low",
    "geometry_role": "design_proposal",
    "name_zh": "概念建筑体量（非现状，待控规与现状数据）",
    "status_hint": "concept_volume",
    "area_sqm_declared": 1708.097
   },
   "geometry": {
    "type": "Polygon",
    "coordinates": [
     [
      [
       116.35364999999999,
       39.94825
      ],
      [
       116.35364999999999,
       39.9487
      ],
      [
       116.35324999999999,
       39.9487
      ],
      [
       116.35324999999999,
       39.94825
      ],
      [
       116.35364999999999,
       39.94825
      ]
     ]
    ]
   }
  },
  {
   "type": "Feature",
   "id": "BLD-032",
   "properties": {
    "id": "BLD-032",
    "layer": "BUILDING_FOOTPRINT",
    "source_type": "agent_generated_design",
    "confidence": "low",
    "geometry_role": "design_proposal",
    "name_zh": "概念建筑体量（非现状，待控规与现状数据）",
    "status_hint": "concept_volume",
    "area_sqm_declared": 1708.096
   },
   "geometry": {
    "type": "Polygon",
    "coordinates": [
     [
      [
       116.35439999999998,
       39.94825
      ],
      [
       116.35439999999998,
       39.9487
      ],
      [
       116.35399999999998,
       39.9487
      ],
      [
       116.35399999999998,
       39.94825
      ],
      [
       116.35439999999998,
       39.94825
      ]
     ]
    ]
   }
  },
  {
   "type": "Feature",
   "id": "BLD-033",
   "properties": {
    "id": "BLD-033",
    "layer": "BUILDING_FOOTPRINT",
    "source_type": "agent_generated_design",
    "confidence": "low",
    "geometry_role": "design_proposal",
    "name_zh": "概念建筑体量（非现状，待控规与现状数据）",
    "status_hint": "concept_volume",
    "area_sqm_declared": 1707.228
   },
   "geometry": {
    "type": "Polygon",
    "coordinates": [
     [
      [
       116.34264999999999,
       39.98375
      ],
      [
       116.34264999999999,
       39.9842
      ],
      [
       116.34224999999999,
       39.9842
      ],
      [
       116.34224999999999,
       39.98375
      ],
      [
       116.34264999999999,
       39.98375
      ]
     ]
    ]
   }
  },
  {
   "type": "Feature",
   "id": "BLD-034",
   "properties": {
    "id": "BLD-034",
    "layer": "BUILDING_FOOTPRINT",
    "source_type": "agent_generated_design",
    "confidence": "low",
    "geometry_role": "design_proposal",
    "name_zh": "概念建筑体量（非现状，待控规与现状数据）",
    "status_hint": "concept_volume",
    "area_sqm_declared": 1707.228
   },
   "geometry": {
    "type": "Polygon",
    "coordinates": [
     [
      [
       116.34339999999999,
       39.98375
      ],
      [
       116.34339999999999,
       39.9842
      ],
      [
       116.34299999999999,
       39.9842
      ],
      [
       116.34299999999999,
       39.98375
      ],
      [
       116.34339999999999,
       39.98375
      ]
     ]
    ]
   }
  },
  {
   "type": "Feature",
   "id": "BLD-035",
   "properties": {
    "id": "BLD-035",
    "layer": "BUILDING_FOOTPRINT",
    "source_type": "agent_generated_design",
    "confidence": "low",
    "geometry_role": "design_proposal",
    "name_zh": "概念建筑体量（非现状，待控规与现状数据）",
    "status_hint": "concept_volume",
    "area_sqm_declared": 1707.228
   },
   "geometry": {
    "type": "Polygon",
    "coordinates": [
     [
      [
       116.34414999999998,
       39.98375
      ],
      [
       116.34414999999998,
       39.9842
      ],
      [
       116.34374999999999,
       39.9842
      ],
      [
       116.34374999999999,
       39.98375
      ],
      [
       116.34414999999998,
       39.98375
      ]
     ]
    ]
   }
  },
  {
   "type": "Feature",
   "id": "BLD-036",
   "properties": {
    "id": "BLD-036",
    "layer": "BUILDING_FOOTPRINT",
    "source_type": "agent_generated_design",
    "confidence": "low",
    "geometry_role": "design_proposal",
    "name_zh": "概念建筑体量（非现状，待控规与现状数据）",
    "status_hint": "concept_volume",
    "area_sqm_declared": 1707.227
   },
   "geometry": {
    "type": "Polygon",
    "coordinates": [
     [
      [
       116.3449,
       39.98375
      ],
      [
       116.3449,
       39.9842
      ],
      [
       116.3445,
       39.9842
      ],
      [
       116.3445,
       39.98375
      ],
      [
       116.3449,
       39.98375
      ]
     ]
    ]
   }
  },
  {
   "type": "Feature",
   "id": "BLD-037",
   "properties": {
    "id": "BLD-037",
    "layer": "BUILDING_FOOTPRINT",
    "source_type": "agent_generated_design",
    "confidence": "low",
    "geometry_role": "design_proposal",
    "name_zh": "概念建筑体量（非现状，待控规与现状数据）",
    "status_hint": "concept_volume",
    "area_sqm_declared": 1707.202
   },
   "geometry": {
    "type": "Polygon",
    "coordinates": [
     [
      [
       116.34264999999999,
       39.98483
      ],
      [
       116.34264999999999,
       39.98528
      ],
      [
       116.34224999999999,
       39.98528
      ],
      [
       116.34224999999999,
       39.98483
      ],
      [
       116.34264999999999,
       39.98483
      ]
     ]
    ]
   }
  },
  {
   "type": "Feature",
   "id": "BLD-038",
   "properties": {
    "id": "BLD-038",
    "layer": "BUILDING_FOOTPRINT",
    "source_type": "agent_generated_design",
    "confidence": "low",
    "geometry_role": "design_proposal",
    "name_zh": "概念建筑体量（非现状，待控规与现状数据）",
    "status_hint": "concept_volume",
    "area_sqm_declared": 1707.201
   },
   "geometry": {
    "type": "Polygon",
    "coordinates": [
     [
      [
       116.34339999999999,
       39.98483
      ],
      [
       116.34339999999999,
       39.98528
      ],
      [
       116.34299999999999,
       39.98528
      ],
      [
       116.34299999999999,
       39.98483
      ],
      [
       116.34339999999999,
       39.98483
      ]
     ]
    ]
   }
  },
  {
   "type": "Feature",
   "id": "BLD-039",
   "properties": {
    "id": "BLD-039",
    "layer": "BUILDING_FOOTPRINT",
    "source_type": "agent_generated_design",
    "confidence": "low",
    "geometry_role": "design_proposal",
    "name_zh": "概念建筑体量（非现状，待控规与现状数据）",
    "status_hint": "concept_volume",
    "area_sqm_declared": 1707.225
   },
   "geometry": {
    "type": "Polygon",
    "coordinates": [
     [
      [
       116.35015,
       39.98375
      ],
      [
       116.35015,
       39.9842
      ],
      [
       116.34975,
       39.9842
      ],
      [
       116.34975,
       39.98375
      ],
      [
       116.35015,
       39.98375
      ]
     ]
    ]
   }
  },
  {
   "type": "Feature",
   "id": "BLD-040",
   "properties": {
    "id": "BLD-040",
    "layer": "BUILDING_FOOTPRINT",
    "source_type": "agent_generated_design",
    "confidence": "low",
    "geometry_role": "design_proposal",
    "name_zh": "概念建筑体量（非现状，待控规与现状数据）",
    "status_hint": "concept_volume",
    "area_sqm_declared": 1707.225
   },
   "geometry": {
    "type": "Polygon",
    "coordinates": [
     [
      [
       116.3509,
       39.98375
      ],
      [
       116.3509,
       39.9842
      ],
      [
       116.3505,
       39.9842
      ],
      [
       116.3505,
       39.98375
      ],
      [
       116.3509,
       39.98375
      ]
     ]
    ]
   }
  },
  {
   "type": "Feature",
   "id": "BLD-041",
   "properties": {
    "id": "BLD-041",
    "layer": "BUILDING_FOOTPRINT",
    "source_type": "agent_generated_design",
    "confidence": "low",
    "geometry_role": "design_proposal",
    "name_zh": "概念建筑体量（非现状，待控规与现状数据）",
    "status_hint": "concept_volume",
    "area_sqm_declared": 1707.225
   },
   "geometry": {
    "type": "Polygon",
    "coordinates": [
     [
      [
       116.35164999999999,
       39.98375
      ],
      [
       116.35164999999999,
       39.9842
      ],
      [
       116.35125,
       39.9842
      ],
      [
       116.35125,
       39.98375
      ],
      [
       116.35164999999999,
       39.98375
      ]
     ]
    ]
   }
  },
  {
   "type": "Feature",
   "id": "BLD-042",
   "properties": {
    "id": "BLD-042",
    "layer": "BUILDING_FOOTPRINT",
    "source_type": "agent_generated_design",
    "confidence": "low",
    "geometry_role": "design_proposal",
    "name_zh": "概念建筑体量（非现状，待控规与现状数据）",
    "status_hint": "concept_volume",
    "area_sqm_declared": 1707.224
   },
   "geometry": {
    "type": "Polygon",
    "coordinates": [
     [
      [
       116.3524,
       39.98375
      ],
      [
       116.3524,
       39.9842
      ],
      [
       116.352,
       39.9842
      ],
      [
       116.352,
       39.98375
      ],
      [
       116.3524,
       39.98375
      ]
     ]
    ]
   }
  },
  {
   "type": "Feature",
   "id": "BLD-043",
   "properties": {
    "id": "BLD-043",
    "layer": "BUILDING_FOOTPRINT",
    "source_type": "agent_generated_design",
    "confidence": "low",
    "geometry_role": "design_proposal",
    "name_zh": "概念建筑体量（非现状，待控规与现状数据）",
    "status_hint": "concept_volume",
    "area_sqm_declared": 1707.199
   },
   "geometry": {
    "type": "Polygon",
    "coordinates": [
     [
      [
       116.35015,
       39.98483
      ],
      [
       116.35015,
       39.98528
      ],
      [
       116.34975,
       39.98528
      ],
      [
       116.34975,
       39.98483
      ],
      [
       116.35015,
       39.98483
      ]
     ]
    ]
   }
  },
  {
   "type": "Feature",
   "id": "BLD-044",
   "properties": {
    "id": "BLD-044",
    "layer": "BUILDING_FOOTPRINT",
    "source_type": "agent_generated_design",
    "confidence": "low",
    "geometry_role": "design_proposal",
    "name_zh": "概念建筑体量（非现状，待控规与现状数据）",
    "status_hint": "concept_volume",
    "area_sqm_declared": 1707.198
   },
   "geometry": {
    "type": "Polygon",
    "coordinates": [
     [
      [
       116.3509,
       39.98483
      ],
      [
       116.3509,
       39.98528
      ],
      [
       116.3505,
       39.98528
      ],
      [
       116.3505,
       39.98483
      ],
      [
       116.3509,
       39.98483
      ]
     ]
    ]
   }
  },
  {
   "type": "Feature",
   "id": "BLD-045",
   "properties": {
    "id": "BLD-045",
    "layer": "BUILDING_FOOTPRINT",
    "source_type": "agent_generated_design",
    "confidence": "low",
    "geometry_role": "design_proposal",
    "name_zh": "概念建筑体量（非现状，待控规与现状数据）",
    "status_hint": "concept_volume",
    "area_sqm_declared": 1707.105
   },
   "geometry": {
    "type": "Polygon",
    "coordinates": [
     [
      [
       116.34264999999999,
       39.98875
      ],
      [
       116.34264999999999,
       39.989200000000004
      ],
      [
       116.34224999999999,
       39.989200000000004
      ],
      [
       116.34224999999999,
       39.98875
      ],
      [
       116.34264999999999,
       39.98875
      ]
     ]
    ]
   }
  },
  {
   "type": "Feature",
   "id": "BLD-046",
   "properties": {
    "id": "BLD-046",
    "layer": "BUILDING_FOOTPRINT",
    "source_type": "agent_generated_design",
    "confidence": "low",
    "geometry_role": "design_proposal",
    "name_zh": "概念建筑体量（非现状，待控规与现状数据）",
    "status_hint": "concept_volume",
    "area_sqm_declared": 1707.105
   },
   "geometry": {
    "type": "Polygon",
    "coordinates": [
     [
      [
       116.34339999999999,
       39.98875
      ],
      [
       116.34339999999999,
       39.989200000000004
      ],
      [
       116.34299999999999,
       39.989200000000004
      ],
      [
       116.34299999999999,
       39.98875
      ],
      [
       116.34339999999999,
       39.98875
      ]
     ]
    ]
   }
  },
  {
   "type": "Feature",
   "id": "BLD-047",
   "properties": {
    "id": "BLD-047",
    "layer": "BUILDING_FOOTPRINT",
    "source_type": "agent_generated_design",
    "confidence": "low",
    "geometry_role": "design_proposal",
    "name_zh": "概念建筑体量（非现状，待控规与现状数据）",
    "status_hint": "concept_volume",
    "area_sqm_declared": 1707.105
   },
   "geometry": {
    "type": "Polygon",
    "coordinates": [
     [
      [
       116.34414999999998,
       39.98875
      ],
      [
       116.34414999999998,
       39.989200000000004
      ],
      [
       116.34374999999999,
       39.989200000000004
      ],
      [
       116.34374999999999,
       39.98875
      ],
      [
       116.34414999999998,
       39.98875
      ]
     ]
    ]
   }
  },
  {
   "type": "Feature",
   "id": "BLD-048",
   "properties": {
    "id": "BLD-048",
    "layer": "BUILDING_FOOTPRINT",
    "source_type": "agent_generated_design",
    "confidence": "low",
    "geometry_role": "design_proposal",
    "name_zh": "概念建筑体量（非现状，待控规与现状数据）",
    "status_hint": "concept_volume",
    "area_sqm_declared": 1707.104
   },
   "geometry": {
    "type": "Polygon",
    "coordinates": [
     [
      [
       116.3449,
       39.98875
      ],
      [
       116.3449,
       39.989200000000004
      ],
      [
       116.3445,
       39.989200000000004
      ],
      [
       116.3445,
       39.98875
      ],
      [
       116.3449,
       39.98875
      ]
     ]
    ]
   }
  },
  {
   "type": "Feature",
   "id": "BLD-049",
   "properties": {
    "id": "BLD-049",
    "layer": "BUILDING_FOOTPRINT",
    "source_type": "agent_generated_design",
    "confidence": "low",
    "geometry_role": "design_proposal",
    "name_zh": "概念建筑体量（非现状，待控规与现状数据）",
    "status_hint": "concept_volume",
    "area_sqm_declared": 1707.079
   },
   "geometry": {
    "type": "Polygon",
    "coordinates": [
     [
      [
       116.34264999999999,
       39.989830000000005
      ],
      [
       116.34264999999999,
       39.990280000000006
      ],
      [
       116.34224999999999,
       39.990280000000006
      ],
      [
       116.34224999999999,
       39.989830000000005
      ],
      [
       116.34264999999999,
       39.989830000000005
      ]
     ]
    ]
   }
  },
  {
   "type": "Feature",
   "id": "BLD-050",
   "properties": {
    "id": "BLD-050",
    "layer": "BUILDING_FOOTPRINT",
    "source_type": "agent_generated_design",
    "confidence": "low",
    "geometry_role": "design_proposal",
    "name_zh": "概念建筑体量（非现状，待控规与现状数据）",
    "status_hint": "concept_volume",
    "area_sqm_declared": 1707.078
   },
   "geometry": {
    "type": "Polygon",
    "coordinates": [
     [
      [
       116.34339999999999,
       39.989830000000005
      ],
      [
       116.34339999999999,
       39.990280000000006
      ],
      [
       116.34299999999999,
       39.990280000000006
      ],
      [
       116.34299999999999,
       39.989830000000005
      ],
      [
       116.34339999999999,
       39.989830000000005
      ]
     ]
    ]
   }
  },
  {
   "type": "Feature",
   "id": "BLD-051",
   "properties": {
    "id": "BLD-051",
    "layer": "BUILDING_FOOTPRINT",
    "source_type": "agent_generated_design",
    "confidence": "low",
    "geometry_role": "design_proposal",
    "name_zh": "概念建筑体量（非现状，待控规与现状数据）",
    "status_hint": "concept_volume",
    "area_sqm_declared": 1707.102
   },
   "geometry": {
    "type": "Polygon",
    "coordinates": [
     [
      [
       116.35015,
       39.98875
      ],
      [
       116.35015,
       39.989200000000004
      ],
      [
       116.34975,
       39.989200000000004
      ],
      [
       116.34975,
       39.98875
      ],
      [
       116.35015,
       39.98875
      ]
     ]
    ]
   }
  },
  {
   "type": "Feature",
   "id": "BLD-052",
   "properties": {
    "id": "BLD-052",
    "layer": "BUILDING_FOOTPRINT",
    "source_type": "agent_generated_design",
    "confidence": "low",
    "geometry_role": "design_proposal",
    "name_zh": "概念建筑体量（非现状，待控规与现状数据）",
    "status_hint": "concept_volume",
    "area_sqm_declared": 1707.102
   },
   "geometry": {
    "type": "Polygon",
    "coordinates": [
     [
      [
       116.3509,
       39.98875
      ],
      [
       116.3509,
       39.989200000000004
      ],
      [
       116.3505,
       39.989200000000004
      ],
      [
       116.3505,
       39.98875
      ],
      [
       116.3509,
       39.98875
      ]
     ]
    ]
   }
  },
  {
   "type": "Feature",
   "id": "BLD-053",
   "properties": {
    "id": "BLD-053",
    "layer": "BUILDING_FOOTPRINT",
    "source_type": "agent_generated_design",
    "confidence": "low",
    "geometry_role": "design_proposal",
    "name_zh": "概念建筑体量（非现状，待控规与现状数据）",
    "status_hint": "concept_volume",
    "area_sqm_declared": 1707.102
   },
   "geometry": {
    "type": "Polygon",
    "coordinates": [
     [
      [
       116.35164999999999,
       39.98875
      ],
      [
       116.35164999999999,
       39.989200000000004
      ],
      [
       116.35125,
       39.989200000000004
      ],
      [
       116.35125,
       39.98875
      ],
      [
       116.35164999999999,
       39.98875
      ]
     ]
    ]
   }
  },
  {
   "type": "Feature",
   "id": "BLD-054",
   "properties": {
    "id": "BLD-054",
    "layer": "BUILDING_FOOTPRINT",
    "source_type": "agent_generated_design",
    "confidence": "low",
    "geometry_role": "design_proposal",
    "name_zh": "概念建筑体量（非现状，待控规与现状数据）",
    "status_hint": "concept_volume",
    "area_sqm_declared": 1707.101
   },
   "geometry": {
    "type": "Polygon",
    "coordinates": [
     [
      [
       116.3524,
       39.98875
      ],
      [
       116.3524,
       39.989200000000004
      ],
      [
       116.352,
       39.989200000000004
      ],
      [
       116.352,
       39.98875
      ],
      [
       116.3524,
       39.98875
      ]
     ]
    ]
   }
  },
  {
   "type": "Feature",
   "id": "BLD-055",
   "properties": {
    "id": "BLD-055",
    "layer": "BUILDING_FOOTPRINT",
    "source_type": "agent_generated_design",
    "confidence": "low",
    "geometry_role": "design_proposal",
    "name_zh": "概念建筑体量（非现状，待控规与现状数据）",
    "status_hint": "concept_volume",
    "area_sqm_declared": 1707.076
   },
   "geometry": {
    "type": "Polygon",
    "coordinates": [
     [
      [
       116.35015,
       39.989830000000005
      ],
      [
       116.35015,
       39.990280000000006
      ],
      [
       116.34975,
       39.990280000000006
      ],
      [
       116.34975,
       39.989830000000005
      ],
      [
       116.35015,
       39.989830000000005
      ]
     ]
    ]
   }
  },
  {
   "type": "Feature",
   "id": "BLD-056",
   "properties": {
    "id": "BLD-056",
    "layer": "BUILDING_FOOTPRINT",
    "source_type": "agent_generated_design",
    "confidence": "low",
    "geometry_role": "design_proposal",
    "name_zh": "概念建筑体量（非现状，待控规与现状数据）",
    "status_hint": "concept_volume",
    "area_sqm_declared": 1707.075
   },
   "geometry": {
    "type": "Polygon",
    "coordinates": [
     [
      [
       116.3509,
       39.989830000000005
      ],
      [
       116.3509,
       39.990280000000006
      ],
      [
       116.3505,
       39.990280000000006
      ],
      [
       116.3505,
       39.989830000000005
      ],
      [
       116.3509,
       39.989830000000005
      ]
     ]
    ]
   }
  },
  {
   "type": "Feature",
   "id": "BLD-057",
   "properties": {
    "id": "BLD-057",
    "layer": "BUILDING_FOOTPRINT",
    "source_type": "agent_generated_design",
    "confidence": "low",
    "geometry_role": "design_proposal",
    "name_zh": "概念建筑体量（非现状，待控规与现状数据）",
    "status_hint": "concept_volume",
    "area_sqm_declared": 1706.635
   },
   "geometry": {
    "type": "Polygon",
    "coordinates": [
     [
      [
       116.35015,
       40.00775
      ],
      [
       116.35015,
       40.0082
      ],
      [
       116.34975,
       40.0082
      ],
      [
       116.34975,
       40.00775
      ],
      [
       116.35015,
       40.00775
      ]
     ]
    ]
   }
  },
  {
   "type": "Feature",
   "id": "BLD-058",
   "properties": {
    "id": "BLD-058",
    "layer": "BUILDING_FOOTPRINT",
    "source_type": "agent_generated_design",
    "confidence": "low",
    "geometry_role": "design_proposal",
    "name_zh": "概念建筑体量（非现状，待控规与现状数据）",
    "status_hint": "concept_volume",
    "area_sqm_declared": 1706.634
   },
   "geometry": {
    "type": "Polygon",
    "coordinates": [
     [
      [
       116.3509,
       40.00775
      ],
      [
       116.3509,
       40.0082
      ],
      [
       116.3505,
       40.0082
      ],
      [
       116.3505,
       40.00775
      ],
      [
       116.3509,
       40.00775
      ]
     ]
    ]
   }
  },
  {
   "type": "Feature",
   "id": "BLD-059",
   "properties": {
    "id": "BLD-059",
    "layer": "BUILDING_FOOTPRINT",
    "source_type": "agent_generated_design",
    "confidence": "low",
    "geometry_role": "design_proposal",
    "name_zh": "概念建筑体量（非现状，待控规与现状数据）",
    "status_hint": "concept_volume",
    "area_sqm_declared": 1706.634
   },
   "geometry": {
    "type": "Polygon",
    "coordinates": [
     [
      [
       116.35164999999999,
       40.00775
      ],
      [
       116.35164999999999,
       40.0082
      ],
      [
       116.35125,
       40.0082
      ],
      [
       116.35125,
       40.00775
      ],
      [
       116.35164999999999,
       40.00775
      ]
     ]
    ]
   }
  },
  {
   "type": "Feature",
   "id": "BLD-060",
   "properties": {
    "id": "BLD-060",
    "layer": "BUILDING_FOOTPRINT",
    "source_type": "agent_generated_design",
    "confidence": "low",
    "geometry_role": "design_proposal",
    "name_zh": "概念建筑体量（非现状，待控规与现状数据）",
    "status_hint": "concept_volume",
    "area_sqm_declared": 1706.634
   },
   "geometry": {
    "type": "Polygon",
    "coordinates": [
     [
      [
       116.3524,
       40.00775
      ],
      [
       116.3524,
       40.0082
      ],
      [
       116.352,
       40.0082
      ],
      [
       116.352,
       40.00775
      ],
      [
       116.3524,
       40.00775
      ]
     ]
    ]
   }
  },
  {
   "type": "Feature",
   "id": "BLD-061",
   "properties": {
    "id": "BLD-061",
    "layer": "BUILDING_FOOTPRINT",
    "source_type": "agent_generated_design",
    "confidence": "low",
    "geometry_role": "design_proposal",
    "name_zh": "概念建筑体量（非现状，待控规与现状数据）",
    "status_hint": "concept_volume",
    "area_sqm_declared": 1706.608
   },
   "geometry": {
    "type": "Polygon",
    "coordinates": [
     [
      [
       116.35015,
       40.00883
      ],
      [
       116.35015,
       40.009280000000004
      ],
      [
       116.34975,
       40.009280000000004
      ],
      [
       116.34975,
       40.00883
      ],
      [
       116.35015,
       40.00883
      ]
     ]
    ]
   }
  },
  {
   "type": "Feature",
   "id": "BLD-062",
   "properties": {
    "id": "BLD-062",
    "layer": "BUILDING_FOOTPRINT",
    "source_type": "agent_generated_design",
    "confidence": "low",
    "geometry_role": "design_proposal",
    "name_zh": "概念建筑体量（非现状，待控规与现状数据）",
    "status_hint": "concept_volume",
    "area_sqm_declared": 1706.608
   },
   "geometry": {
    "type": "Polygon",
    "coordinates": [
     [
      [
       116.3509,
       40.00883
      ],
      [
       116.3509,
       40.009280000000004
      ],
      [
       116.3505,
       40.009280000000004
      ],
      [
       116.3505,
       40.00883
      ],
      [
       116.3509,
       40.00883
      ]
     ]
    ]
   }
  },
  {
   "type": "Feature",
   "id": "BLD-063",
   "properties": {
    "id": "BLD-063",
    "layer": "BUILDING_FOOTPRINT",
    "source_type": "agent_generated_design",
    "confidence": "low",
    "geometry_role": "design_proposal",
    "name_zh": "概念建筑体量（非现状，待控规与现状数据）",
    "status_hint": "concept_volume",
    "area_sqm_declared": 1706.638
   },
   "geometry": {
    "type": "Polygon",
    "coordinates": [
     [
      [
       116.34264999999999,
       40.00775
      ],
      [
       116.34264999999999,
       40.0082
      ],
      [
       116.34224999999999,
       40.0082
      ],
      [
       116.34224999999999,
       40.00775
      ],
      [
       116.34264999999999,
       40.00775
      ]
     ]
    ]
   }
  },
  {
   "type": "Feature",
   "id": "BLD-064",
   "properties": {
    "id": "BLD-064",
    "layer": "BUILDING_FOOTPRINT",
    "source_type": "agent_generated_design",
    "confidence": "low",
    "geometry_role": "design_proposal",
    "name_zh": "概念建筑体量（非现状，待控规与现状数据）",
    "status_hint": "concept_volume",
    "area_sqm_declared": 1706.637
   },
   "geometry": {
    "type": "Polygon",
    "coordinates": [
     [
      [
       116.34339999999999,
       40.00775
      ],
      [
       116.34339999999999,
       40.0082
      ],
      [
       116.34299999999999,
       40.0082
      ],
      [
       116.34299999999999,
       40.00775
      ],
      [
       116.34339999999999,
       40.00775
      ]
     ]
    ]
   }
  },
  {
   "type": "Feature",
   "id": "BLD-065",
   "properties": {
    "id": "BLD-065",
    "layer": "BUILDING_FOOTPRINT",
    "source_type": "agent_generated_design",
    "confidence": "low",
    "geometry_role": "design_proposal",
    "name_zh": "概念建筑体量（非现状，待控规与现状数据）",
    "status_hint": "concept_volume",
    "area_sqm_declared": 1706.637
   },
   "geometry": {
    "type": "Polygon",
    "coordinates": [
     [
      [
       116.34414999999998,
       40.00775
      ],
      [
       116.34414999999998,
       40.0082
      ],
      [
       116.34374999999999,
       40.0082
      ],
      [
       116.34374999999999,
       40.00775
      ],
      [
       116.34414999999998,
       40.00775
      ]
     ]
    ]
   }
  },
  {
   "type": "Feature",
   "id": "BLD-066",
   "properties": {
    "id": "BLD-066",
    "layer": "BUILDING_FOOTPRINT",
    "source_type": "agent_generated_design",
    "confidence": "low",
    "geometry_role": "design_proposal",
    "name_zh": "概念建筑体量（非现状，待控规与现状数据）",
    "status_hint": "concept_volume",
    "area_sqm_declared": 1706.637
   },
   "geometry": {
    "type": "Polygon",
    "coordinates": [
     [
      [
       116.3449,
       40.00775
      ],
      [
       116.3449,
       40.0082
      ],
      [
       116.3445,
       40.0082
      ],
      [
       116.3445,
       40.00775
      ],
      [
       116.3449,
       40.00775
      ]
     ]
    ]
   }
  },
  {
   "type": "Feature",
   "id": "BLD-067",
   "properties": {
    "id": "BLD-067",
    "layer": "BUILDING_FOOTPRINT",
    "source_type": "agent_generated_design",
    "confidence": "low",
    "geometry_role": "design_proposal",
    "name_zh": "概念建筑体量（非现状，待控规与现状数据）",
    "status_hint": "concept_volume",
    "area_sqm_declared": 1706.611
   },
   "geometry": {
    "type": "Polygon",
    "coordinates": [
     [
      [
       116.34264999999999,
       40.00883
      ],
      [
       116.34264999999999,
       40.009280000000004
      ],
      [
       116.34224999999999,
       40.009280000000004
      ],
      [
       116.34224999999999,
       40.00883
      ],
      [
       116.34264999999999,
       40.00883
      ]
     ]
    ]
   }
  },
  {
   "type": "Feature",
   "id": "BLD-068",
   "properties": {
    "id": "BLD-068",
    "layer": "BUILDING_FOOTPRINT",
    "source_type": "agent_generated_design",
    "confidence": "low",
    "geometry_role": "design_proposal",
    "name_zh": "概念建筑体量（非现状，待控规与现状数据）",
    "status_hint": "concept_volume",
    "area_sqm_declared": 1706.611
   },
   "geometry": {
    "type": "Polygon",
    "coordinates": [
     [
      [
       116.34339999999999,
       40.00883
      ],
      [
       116.34339999999999,
       40.009280000000004
      ],
      [
       116.34299999999999,
       40.009280000000004
      ],
      [
       116.34299999999999,
       40.00883
      ],
      [
       116.34339999999999,
       40.00883
      ]
     ]
    ]
   }
  },
  {
   "type": "Feature",
   "id": "BLD-069",
   "properties": {
    "id": "BLD-069",
    "layer": "BUILDING_FOOTPRINT",
    "source_type": "agent_generated_design",
    "confidence": "low",
    "geometry_role": "design_proposal",
    "name_zh": "概念建筑体量（非现状，待控规与现状数据）",
    "status_hint": "concept_volume",
    "area_sqm_declared": 1706.481
   },
   "geometry": {
    "type": "Polygon",
    "coordinates": [
     [
      [
       116.35015,
       40.014
      ],
      [
       116.35015,
       40.014450000000004
      ],
      [
       116.34975,
       40.014450000000004
      ],
      [
       116.34975,
       40.014
      ],
      [
       116.35015,
       40.014
      ]
     ]
    ]
   }
  },
  {
   "type": "Feature",
   "id": "BLD-070",
   "properties": {
    "id": "BLD-070",
    "layer": "BUILDING_FOOTPRINT",
    "source_type": "agent_generated_design",
    "confidence": "low",
    "geometry_role": "design_proposal",
    "name_zh": "概念建筑体量（非现状，待控规与现状数据）",
    "status_hint": "concept_volume",
    "area_sqm_declared": 1706.481
   },
   "geometry": {
    "type": "Polygon",
    "coordinates": [
     [
      [
       116.3509,
       40.014
      ],
      [
       116.3509,
       40.014450000000004
      ],
      [
       116.3505,
       40.014450000000004
      ],
      [
       116.3505,
       40.014
      ],
      [
       116.3509,
       40.014
      ]
     ]
    ]
   }
  },
  {
   "type": "Feature",
   "id": "BLD-071",
   "properties": {
    "id": "BLD-071",
    "layer": "BUILDING_FOOTPRINT",
    "source_type": "agent_generated_design",
    "confidence": "low",
    "geometry_role": "design_proposal",
    "name_zh": "概念建筑体量（非现状，待控规与现状数据）",
    "status_hint": "concept_volume",
    "area_sqm_declared": 1706.48
   },
   "geometry": {
    "type": "Polygon",
    "coordinates": [
     [
      [
       116.35164999999999,
       40.014
      ],
      [
       116.35164999999999,
       40.014450000000004
      ],
      [
       116.35125,
       40.014450000000004
      ],
      [
       116.35125,
       40.014
      ],
      [
       116.35164999999999,
       40.014
      ]
     ]
    ]
   }
  },
  {
   "type": "Feature",
   "id": "BLD-072",
   "properties": {
    "id": "BLD-072",
    "layer": "BUILDING_FOOTPRINT",
    "source_type": "agent_generated_design",
    "confidence": "low",
    "geometry_role": "design_proposal",
    "name_zh": "概念建筑体量（非现状，待控规与现状数据）",
    "status_hint": "concept_volume",
    "area_sqm_declared": 1706.48
   },
   "geometry": {
    "type": "Polygon",
    "coordinates": [
     [
      [
       116.3524,
       40.014
      ],
      [
       116.3524,
       40.014450000000004
      ],
      [
       116.352,
       40.014450000000004
      ],
      [
       116.352,
       40.014
      ],
      [
       116.3524,
       40.014
      ]
     ]
    ]
   }
  },
  {
   "type": "Feature",
   "id": "BLD-073",
   "properties": {
    "id": "BLD-073",
    "layer": "BUILDING_FOOTPRINT",
    "source_type": "agent_generated_design",
    "confidence": "low",
    "geometry_role": "design_proposal",
    "name_zh": "概念建筑体量（非现状，待控规与现状数据）",
    "status_hint": "concept_volume",
    "area_sqm_declared": 1706.454
   },
   "geometry": {
    "type": "Polygon",
    "coordinates": [
     [
      [
       116.35015,
       40.015080000000005
      ],
      [
       116.35015,
       40.015530000000005
      ],
      [
       116.34975,
       40.015530000000005
      ],
      [
       116.34975,
       40.015080000000005
      ],
      [
       116.35015,
       40.015080000000005
      ]
     ]
    ]
   }
  },
  {
   "type": "Feature",
   "id": "BLD-074",
   "properties": {
    "id": "BLD-074",
    "layer": "BUILDING_FOOTPRINT",
    "source_type": "agent_generated_design",
    "confidence": "low",
    "geometry_role": "design_proposal",
    "name_zh": "概念建筑体量（非现状，待控规与现状数据）",
    "status_hint": "concept_volume",
    "area_sqm_declared": 1706.454
   },
   "geometry": {
    "type": "Polygon",
    "coordinates": [
     [
      [
       116.3509,
       40.015080000000005
      ],
      [
       116.3509,
       40.015530000000005
      ],
      [
       116.3505,
       40.015530000000005
      ],
      [
       116.3505,
       40.015080000000005
      ],
      [
       116.3509,
       40.015080000000005
      ]
     ]
    ]
   }
  },
  {
   "type": "Feature",
   "id": "BLD-075",
   "properties": {
    "id": "BLD-075",
    "layer": "BUILDING_FOOTPRINT",
    "source_type": "agent_generated_design",
    "confidence": "low",
    "geometry_role": "design_proposal",
    "name_zh": "概念建筑体量（非现状，待控规与现状数据）",
    "status_hint": "concept_volume",
    "area_sqm_declared": 1706.633
   },
   "geometry": {
    "type": "Polygon",
    "coordinates": [
     [
      [
       116.35364999999999,
       40.00775
      ],
      [
       116.35364999999999,
       40.0082
      ],
      [
       116.35324999999999,
       40.0082
      ],
      [
       116.35324999999999,
       40.00775
      ],
      [
       116.35364999999999,
       40.00775
      ]
     ]
    ]
   }
  },
  {
   "type": "Feature",
   "id": "BLD-076",
   "properties": {
    "id": "BLD-076",
    "layer": "BUILDING_FOOTPRINT",
    "source_type": "agent_generated_design",
    "confidence": "low",
    "geometry_role": "design_proposal",
    "name_zh": "概念建筑体量（非现状，待控规与现状数据）",
    "status_hint": "concept_volume",
    "area_sqm_declared": 1706.607
   },
   "geometry": {
    "type": "Polygon",
    "coordinates": [
     [
      [
       116.35364999999999,
       40.00883
      ],
      [
       116.35364999999999,
       40.009280000000004
      ],
      [
       116.35324999999999,
       40.009280000000004
      ],
      [
       116.35324999999999,
       40.00883
      ],
      [
       116.35364999999999,
       40.00883
      ]
     ]
    ]
   }
  },
  {
   "type": "Feature",
   "id": "BLD-077",
   "properties": {
    "id": "BLD-077",
    "layer": "BUILDING_FOOTPRINT",
    "source_type": "agent_generated_design",
    "confidence": "low",
    "geometry_role": "design_proposal",
    "name_zh": "概念建筑体量（非现状，待控规与现状数据）",
    "status_hint": "concept_volume",
    "area_sqm_declared": 1706.58
   },
   "geometry": {
    "type": "Polygon",
    "coordinates": [
     [
      [
       116.35364999999999,
       40.009910000000005
      ],
      [
       116.35364999999999,
       40.010360000000006
      ],
      [
       116.35324999999999,
       40.010360000000006
      ],
      [
       116.35324999999999,
       40.009910000000005
      ],
      [
       116.35364999999999,
       40.009910000000005
      ]
     ]
    ]
   }
  },
  {
   "type": "Feature",
   "id": "BLD-078",
   "properties": {
    "id": "BLD-078",
    "layer": "BUILDING_FOOTPRINT",
    "source_type": "agent_generated_design",
    "confidence": "low",
    "geometry_role": "design_proposal",
    "name_zh": "概念建筑体量（非现状，待控规与现状数据）",
    "status_hint": "concept_volume",
    "area_sqm_declared": 1706.554
   },
   "geometry": {
    "type": "Polygon",
    "coordinates": [
     [
      [
       116.35364999999999,
       40.01099
      ],
      [
       116.35364999999999,
       40.01144
      ],
      [
       116.35324999999999,
       40.01144
      ],
      [
       116.35324999999999,
       40.01099
      ],
      [
       116.35364999999999,
       40.01099
      ]
     ]
    ]
   }
  },
  {
   "type": "Feature",
   "id": "BLD-079",
   "properties": {
    "id": "BLD-079",
    "layer": "BUILDING_FOOTPRINT",
    "source_type": "agent_generated_design",
    "confidence": "low",
    "geometry_role": "design_proposal",
    "name_zh": "概念建筑体量（非现状，待控规与现状数据）",
    "status_hint": "concept_volume",
    "area_sqm_declared": 1706.553
   },
   "geometry": {
    "type": "Polygon",
    "coordinates": [
     [
      [
       116.35439999999998,
       40.01099
      ],
      [
       116.35439999999998,
       40.01144
      ],
      [
       116.35399999999998,
       40.01144
      ],
      [
       116.35399999999998,
       40.01099
      ],
      [
       116.35439999999998,
       40.01099
      ]
     ]
    ]
   }
  },
  {
   "type": "Feature",
   "id": "BLD-080",
   "properties": {
    "id": "BLD-080",
    "layer": "BUILDING_FOOTPRINT",
    "source_type": "agent_generated_design",
    "confidence": "low",
    "geometry_role": "design_proposal",
    "name_zh": "概念建筑体量（非现状，待控规与现状数据）",
    "status_hint": "concept_volume",
    "area_sqm_declared": 1706.527
   },
   "geometry": {
    "type": "Polygon",
    "coordinates": [
     [
      [
       116.35364999999999,
       40.01207
      ],
      [
       116.35364999999999,
       40.01252
      ],
      [
       116.35324999999999,
       40.01252
      ],
      [
       116.35324999999999,
       40.01207
      ],
      [
       116.35364999999999,
       40.01207
      ]
     ]
    ]
   }
  }
 ]
}