{
 "type": "FeatureCollection",
 "name": "constraints",
 "features": [
  {
   "type": "Feature",
   "id": "CON-001",
   "properties": {
    "id": "CON-001",
    "layer": "REGULATORY_CONTROL",
    "source_type": "agent_inferred_from_public_data",
    "confidence": "medium",
    "geometry_role": "provisional_constraint",
    "name_zh": "总体设计范围临时粗略边界（provisional，不可作官方红线或精确面积依据）",
    "official_boundary": false,
    "area_sqm_declared": 11412825.386
   },
   "geometry": {
    "type": "Polygon",
    "coordinates": [
     [
      [
       116.3407,
       39.939
      ],
      [
       116.3553,
       39.939
      ],
      [
       116.3553,
       39.965
      ],
      [
       116.3533,
       39.99
      ],
      [
       116.3553,
       40.0265
      ],
      [
       116.3427,
       40.0265
      ],
      [
       116.3417,
       40.006
      ],
      [
       116.3397,
       39.975
      ],
      [
       116.3407,
       39.939
      ]
     ]
    ]
   }
  },
  {
   "type": "Feature",
   "id": "CON-002",
   "properties": {
    "id": "CON-002",
    "layer": "REGULATORY_CONTROL",
    "source_type": "agent_generated_design",
    "confidence": "low",
    "geometry_role": "design_proposal",
    "name_zh": "清华园车站旧址方向文物保护概念待确认区（待官方文保范围数据）",
    "official_boundary": false,
    "area_sqm_declared": 75870.784
   },
   "geometry": {
    "type": "Polygon",
    "coordinates": [
     [
      [
       116.3408,
       39.9875
      ],
      [
       116.3428,
       39.9875
      ],
      [
       116.3428,
       39.9915
      ],
      [
       116.3408,
       39.9915
      ],
      [
       116.3408,
       39.9875
      ]
     ]
    ]
   }
  },
  {
   "type": "Feature",
   "id": "CON-003",
   "properties": {
    "id": "CON-003",
    "layer": "REGULATORY_CONTROL",
    "source_type": "agent_generated_design",
    "confidence": "low",
    "geometry_role": "design_proposal",
    "name_zh": "清河方向蓝绿概念约束带（待官方蓝线数据）",
    "official_boundary": false,
    "area_sqm_declared": 28436.875
   },
   "geometry": {
    "type": "Polygon",
    "coordinates": [
     [
      [
       116.342,
       40.024
      ],
      [
       116.3432,
       40.024
      ],
      [
       116.3432,
       40.0265
      ],
      [
       116.342,
       40.0265
      ],
      [
       116.342,
       40.024
      ]
     ]
    ]
   }
  }
 ]
}