{
 "type": "FeatureCollection",
 "name": "green_space",
 "features": [
  {
   "type": "Feature",
   "id": "GS-001",
   "properties": {
    "id": "GS-001",
    "layer": "GREEN_SPACE",
    "source_type": "agent_generated_design",
    "confidence": "medium",
    "geometry_role": "design_proposal",
    "name_zh": "信任主轴公园绿地（概念廊道）",
    "area_sqm_declared": 189807.843
   },
   "geometry": {
    "type": "Polygon",
    "coordinates": [
     [
      [
       116.3455,
       39.939
      ],
      [
       116.3455,
       39.944
      ],
      [
       116.3495,
       39.944
      ],
      [
       116.3495,
       39.939
      ],
      [
       116.3455,
       39.939
      ]
     ]
    ]
   }
  },
  {
   "type": "Feature",
   "id": "GS-002",
   "properties": {
    "id": "GS-002",
    "layer": "GREEN_SPACE",
    "source_type": "agent_generated_design",
    "confidence": "medium",
    "geometry_role": "design_proposal",
    "name_zh": "信任主轴公园绿地（概念廊道）",
    "area_sqm_declared": 575365.546
   },
   "geometry": {
    "type": "Polygon",
    "coordinates": [
     [
      [
       116.3455,
       39.94984
      ],
      [
       116.3455,
       39.965
      ],
      [
       116.3495,
       39.965
      ],
      [
       116.3495,
       39.94984
      ],
      [
       116.3455,
       39.94984
      ]
     ]
    ]
   }
  },
  {
   "type": "Feature",
   "id": "GS-003",
   "properties": {
    "id": "GS-003",
    "layer": "GREEN_SPACE",
    "source_type": "agent_generated_design",
    "confidence": "medium",
    "geometry_role": "design_proposal",
    "name_zh": "信任主轴公园绿地（概念廊道）",
    "area_sqm_declared": 379459.991
   },
   "geometry": {
    "type": "Polygon",
    "coordinates": [
     [
      [
       116.3455,
       39.965
      ],
      [
       116.3455,
       39.975
      ],
      [
       116.3495,
       39.975
      ],
      [
       116.3495,
       39.965
      ],
      [
       116.3455,
       39.965
      ]
     ]
    ]
   }
  },
  {
   "type": "Feature",
   "id": "GS-004",
   "properties": {
    "id": "GS-004",
    "layer": "GREEN_SPACE",
    "source_type": "agent_generated_design",
    "confidence": "medium",
    "geometry_role": "design_proposal",
    "name_zh": "信任主轴公园绿地（概念廊道）",
    "area_sqm_declared": 322498.023
   },
   "geometry": {
    "type": "Polygon",
    "coordinates": [
     [
      [
       116.3455,
       39.975
      ],
      [
       116.3455,
       39.9835
      ],
      [
       116.3495,
       39.9835
      ],
      [
       116.3495,
       39.975
      ],
      [
       116.3455,
       39.975
      ]
     ]
    ]
   }
  },
  {
   "type": "Feature",
   "id": "GS-005",
   "properties": {
    "id": "GS-005",
    "layer": "GREEN_SPACE",
    "source_type": "agent_generated_design",
    "confidence": "medium",
    "geometry_role": "design_proposal",
    "name_zh": "信任主轴公园绿地（概念廊道）",
    "area_sqm_declared": 474121.708
   },
   "geometry": {
    "type": "Polygon",
    "coordinates": [
     [
      [
       116.3455,
       39.9935
      ],
      [
       116.3455,
       40.006
      ],
      [
       116.3495,
       40.006
      ],
      [
       116.3495,
       39.9935
      ],
      [
       116.3455,
       39.9935
      ]
     ]
    ]
   }
  },
  {
   "type": "Feature",
   "id": "GS-006",
   "properties": {
    "id": "GS-006",
    "layer": "GREEN_SPACE",
    "source_type": "agent_generated_design",
    "confidence": "medium",
    "geometry_role": "design_proposal",
    "name_zh": "信任主轴公园绿地（概念廊道）",
    "area_sqm_declared": 3746.35
   },
   "geometry": {
    "type": "Polygon",
    "coordinates": [
     [
      [
       116.34177317073171,
       40.0075
      ],
      [
       116.342,
       40.0075
      ],
      [
       116.342,
       40.006
      ],
      [
       116.3417,
       40.006
      ],
      [
       116.34177317073171,
       40.0075
      ]
     ]
    ]
   }
  },
  {
   "type": "Feature",
   "id": "GS-007",
   "properties": {
    "id": "GS-007",
    "layer": "GREEN_SPACE",
    "source_type": "agent_generated_design",
    "confidence": "medium",
    "geometry_role": "design_proposal",
    "name_zh": "信任主轴公园绿地（概念廊道）",
    "area_sqm_declared": 56888.863
   },
   "geometry": {
    "type": "Polygon",
    "coordinates": [
     [
      [
       116.3455,
       40.006
      ],
      [
       116.3455,
       40.0075
      ],
      [
       116.3495,
       40.0075
      ],
      [
       116.3495,
       40.006
      ],
      [
       116.3455,
       40.006
      ]
     ]
    ]
   }
  },
  {
   "type": "Feature",
   "id": "GS-008",
   "properties": {
    "id": "GS-008",
    "layer": "GREEN_SPACE",
    "source_type": "agent_generated_design",
    "confidence": "medium",
    "geometry_role": "design_proposal",
    "name_zh": "信任主轴公园绿地（概念廊道）",
    "area_sqm_declared": 5000.277
   },
   "geometry": {
    "type": "Polygon",
    "coordinates": [
     [
      [
       116.342,
       40.01214999999997
      ],
      [
       116.342,
       40.0075
      ],
      [
       116.34177317073171,
       40.0075
      ],
      [
       116.342,
       40.01214999999997
      ]
     ]
    ]
   }
  },
  {
   "type": "Feature",
   "id": "GS-009",
   "properties": {
    "id": "GS-009",
    "layer": "GREEN_SPACE",
    "source_type": "agent_generated_design",
    "confidence": "medium",
    "geometry_role": "design_proposal",
    "name_zh": "信任主轴公园绿地（概念廊道）",
    "area_sqm_declared": 199064.182
   },
   "geometry": {
    "type": "Polygon",
    "coordinates": [
     [
      [
       116.353,
       40.026
      ],
      [
       116.353,
       40.02
      ],
      [
       116.3495,
       40.02
      ],
      [
       116.3495,
       40.026
      ],
      [
       116.353,
       40.026
      ]
     ]
    ]
   }
  },
  {
   "type": "Feature",
   "id": "GS-010",
   "properties": {
    "id": "GS-010",
    "layer": "GREEN_SPACE",
    "source_type": "agent_generated_design",
    "confidence": "medium",
    "geometry_role": "design_proposal",
    "name_zh": "信任主轴公园绿地（概念廊道）",
    "area_sqm_declared": 18957.621
   },
   "geometry": {
    "type": "Polygon",
    "coordinates": [
     [
      [
       116.3495,
       40.0265
      ],
      [
       116.3495,
       40.026
      ],
      [
       116.3455,
       40.026
      ],
      [
       116.3455,
       40.0265
      ],
      [
       116.3495,
       40.0265
      ]
     ]
    ]
   }
  }
 ]
}