{
 "type": "FeatureCollection",
 "name": "phasing",
 "features": [
  {
   "type": "Feature",
   "id": "PH-001",
   "properties": {
    "id": "PH-001",
    "layer": "PHASE",
    "source_type": "agent_generated_design",
    "confidence": "low",
    "geometry_role": "design_proposal",
    "name_zh": "近期（2026-2028）",
    "phase_label": "近期（2026-2028）",
    "area_sqm_declared": 916335.177
   },
   "geometry": {
    "type": "Polygon",
    "coordinates": [
     [
      [
       116.342,
       39.944
      ],
      [
       116.342,
       39.94984
      ],
      [
       116.3455,
       39.94984
      ],
      [
       116.3455,
       39.95
      ],
      [
       116.3495,
       39.95
      ],
      [
       116.3495,
       39.94984
      ],
      [
       116.355,
       39.94984
      ],
      [
       116.355,
       39.944
      ],
      [
       116.3495,
       39.944
      ],
      [
       116.3495,
       39.939
      ],
      [
       116.3455,
       39.939
      ],
      [
       116.3455,
       39.944
      ],
      [
       116.342,
       39.944
      ]
     ]
    ]
   }
  },
  {
   "type": "Feature",
   "id": "PH-002",
   "properties": {
    "id": "PH-002",
    "layer": "PHASE",
    "source_type": "agent_generated_design",
    "confidence": "low",
    "geometry_role": "design_proposal",
    "name_zh": "中期（2028-2031）",
    "phase_label": "中期（2028-2031）",
    "area_sqm_declared": 2561041.275
   },
   "geometry": {
    "type": "Polygon",
    "coordinates": [
     [
      [
       116.342,
       39.9835
      ],
      [
       116.342,
       39.9935
      ],
      [
       116.3455,
       39.9935
      ],
      [
       116.3455,
       40.0
      ],
      [
       116.3495,
       40.0
      ],
      [
       116.3495,
       39.9935
      ],
      [
       116.353,
       39.9935
      ],
      [
       116.353,
       39.9835
      ],
      [
       116.3495,
       39.9835
      ],
      [
       116.3495,
       39.95
      ],
      [
       116.3455,
       39.95
      ],
      [
       116.3455,
       39.9835
      ],
      [
       116.342,
       39.9835
      ]
     ]
    ]
   }
  },
  {
   "type": "Feature",
   "id": "PH-003",
   "properties": {
    "id": "PH-003",
    "layer": "PHASE",
    "source_type": "agent_generated_design",
    "confidence": "low",
    "geometry_role": "design_proposal",
    "name_zh": "远期（2031-2035）",
    "phase_label": "远期（2031-2035）",
    "area_sqm_declared": 2232616.12
   },
   "geometry": {
    "type": "Polygon",
    "coordinates": [
     [
      [
       116.343,
       40.0075
      ],
      [
       116.343,
       40.026
      ],
      [
       116.3455,
       40.026
      ],
      [
       116.3455,
       40.0265
      ],
      [
       116.3495,
       40.0265
      ],
      [
       116.3495,
       40.026
      ],
      [
       116.354,
       40.026
      ],
      [
       116.354,
       40.0075
      ],
      [
       116.3495,
       40.0075
      ],
      [
       116.3495,
       40.0
      ],
      [
       116.3455,
       40.0
      ],
      [
       116.3455,
       40.0075
      ],
      [
       116.343,
       40.0075
      ]
     ]
    ]
   }
  }
 ]
}