{
 "type": "FeatureCollection",
 "name": "public_space",
 "features": [
  {
   "type": "Feature",
   "id": "PS-001",
   "properties": {
    "id": "PS-001",
    "layer": "PUBLIC_SPACE",
    "source_type": "agent_generated_design",
    "confidence": "medium",
    "geometry_role": "design_proposal",
    "name_zh": "信任站广场（公共空间）",
    "area_sqm_declared": 110841.465
   },
   "geometry": {
    "type": "Polygon",
    "coordinates": [
     [
      [
       116.3455,
       39.944
      ],
      [
       116.3455,
       39.94692
      ],
      [
       116.3495,
       39.94692
      ],
      [
       116.3495,
       39.944
      ],
      [
       116.3455,
       39.944
      ]
     ]
    ]
   }
  },
  {
   "type": "Feature",
   "id": "PS-002",
   "properties": {
    "id": "PS-002",
    "layer": "PUBLIC_SPACE",
    "source_type": "agent_generated_design",
    "confidence": "medium",
    "geometry_role": "design_proposal",
    "name_zh": "信任站广场（公共空间）",
    "area_sqm_declared": 110836.808
   },
   "geometry": {
    "type": "Polygon",
    "coordinates": [
     [
      [
       116.3495,
       39.94984
      ],
      [
       116.3495,
       39.94692
      ],
      [
       116.3455,
       39.94692
      ],
      [
       116.3455,
       39.94984
      ],
      [
       116.3495,
       39.94984
      ]
     ]
    ]
   }
  },
  {
   "type": "Feature",
   "id": "PS-003",
   "properties": {
    "id": "PS-003",
    "layer": "PUBLIC_SPACE",
    "source_type": "agent_generated_design",
    "confidence": "medium",
    "geometry_role": "design_proposal",
    "name_zh": "信任站广场（公共空间）",
    "area_sqm_declared": 189686.272
   },
   "geometry": {
    "type": "Polygon",
    "coordinates": [
     [
      [
       116.3455,
       39.9835
      ],
      [
       116.3455,
       39.9885
      ],
      [
       116.3495,
       39.9885
      ],
      [
       116.3495,
       39.9835
      ],
      [
       116.3455,
       39.9835
      ]
     ]
    ]
   }
  },
  {
   "type": "Feature",
   "id": "PS-004",
   "properties": {
    "id": "PS-004",
    "layer": "PUBLIC_SPACE",
    "source_type": "agent_generated_design",
    "confidence": "medium",
    "geometry_role": "design_proposal",
    "name_zh": "信任站广场（公共空间）",
    "area_sqm_declared": 189672.605
   },
   "geometry": {
    "type": "Polygon",
    "coordinates": [
     [
      [
       116.3495,
       39.9935
      ],
      [
       116.3495,
       39.9885
      ],
      [
       116.3455,
       39.9885
      ],
      [
       116.3455,
       39.9935
      ],
      [
       116.3495,
       39.9935
      ]
     ]
    ]
   }
  },
  {
   "type": "Feature",
   "id": "PS-005",
   "properties": {
    "id": "PS-005",
    "layer": "PUBLIC_SPACE",
    "source_type": "agent_generated_design",
    "confidence": "medium",
    "geometry_role": "design_proposal",
    "name_zh": "信任站广场（公共空间）",
    "area_sqm_declared": 237023.684
   },
   "geometry": {
    "type": "Polygon",
    "coordinates": [
     [
      [
       116.3455,
       40.0075
      ],
      [
       116.3455,
       40.01375
      ],
      [
       116.3495,
       40.01375
      ],
      [
       116.3495,
       40.0075
      ],
      [
       116.3455,
       40.0075
      ]
     ]
    ]
   }
  },
  {
   "type": "Feature",
   "id": "PS-006",
   "properties": {
    "id": "PS-006",
    "layer": "PUBLIC_SPACE",
    "source_type": "agent_generated_design",
    "confidence": "medium",
    "geometry_role": "design_proposal",
    "name_zh": "信任站广场（公共空间）",
    "area_sqm_declared": 237002.318
   },
   "geometry": {
    "type": "Polygon",
    "coordinates": [
     [
      [
       116.3455,
       40.02
      ],
      [
       116.3495,
       40.02
      ],
      [
       116.3495,
       40.01375
      ],
      [
       116.3455,
       40.01375
      ],
      [
       116.3455,
       40.02
      ]
     ]
    ]
   }
  },
  {
   "type": "Feature",
   "id": "PS-007",
   "properties": {
    "id": "PS-007",
    "layer": "PUBLIC_SPACE",
    "source_type": "agent_generated_design",
    "confidence": "medium",
    "geometry_role": "design_proposal",
    "name_zh": "信任站广场（公共空间）",
    "area_sqm_declared": 227502.122
   },
   "geometry": {
    "type": "Polygon",
    "coordinates": [
     [
      [
       116.3495,
       40.026
      ],
      [
       116.3495,
       40.02
      ],
      [
       116.3455,
       40.02
      ],
      [
       116.3455,
       40.026
      ],
      [
       116.3495,
       40.026
      ]
     ]
    ]
   }
  }
 ]
}