{
 "type": "FeatureCollection",
 "name": "roads",
 "features": [
  {
   "type": "Feature",
   "id": "RD-001",
   "properties": {
    "id": "RD-001",
    "layer": "ROAD_CENTERLINE",
    "source_type": "agent_generated_design",
    "confidence": "low",
    "geometry_role": "design_proposal",
    "name_zh": "信任主轴慢行廊道（概念线，非道路红线）",
    "note": "概念慢行与联系线，非道路红线、非轨道线位"
   },
   "geometry": {
    "type": "LineString",
    "coordinates": [
     [
      116.3475,
      39.939
     ],
     [
      116.3475,
      40.0265
     ]
    ]
   }
  },
  {
   "type": "Feature",
   "id": "RD-002",
   "properties": {
    "id": "RD-002",
    "layer": "ROAD_CENTERLINE",
    "source_type": "agent_generated_design",
    "confidence": "low",
    "geometry_role": "design_proposal",
    "name_zh": "大钟寺信任市集横轴（概念线）",
    "note": "概念慢行与联系线，非道路红线、非轨道线位"
   },
   "geometry": {
    "type": "LineString",
    "coordinates": [
     [
      116.342,
      39.94692
     ],
     [
      116.355,
      39.94692
     ]
    ]
   }
  },
  {
   "type": "Feature",
   "id": "RD-003",
   "properties": {
    "id": "RD-003",
    "layer": "ROAD_CENTERLINE",
    "source_type": "agent_generated_design",
    "confidence": "low",
    "geometry_role": "design_proposal",
    "name_zh": "AI原点可信生活横轴（概念线）",
    "note": "概念慢行与联系线，非道路红线、非轨道线位"
   },
   "geometry": {
    "type": "LineString",
    "coordinates": [
     [
      116.342,
      39.9885
     ],
     [
      116.353,
      39.9885
     ]
    ]
   }
  },
  {
   "type": "Feature",
   "id": "RD-004",
   "properties": {
    "id": "RD-004",
    "layer": "ROAD_CENTERLINE",
    "source_type": "agent_generated_design",
    "confidence": "low",
    "geometry_role": "design_proposal",
    "name_zh": "众智园信任技术横轴（概念线）",
    "note": "概念慢行与联系线，非道路红线、非轨道线位"
   },
   "geometry": {
    "type": "LineString",
    "coordinates": [
     [
      116.343,
      40.01375
     ],
     [
      116.354,
      40.01375
     ]
    ]
   }
  },
  {
   "type": "Feature",
   "id": "RD-005",
   "properties": {
    "id": "RD-005",
    "layer": "ROAD_CENTERLINE",
    "source_type": "agent_generated_design",
    "confidence": "low",
    "geometry_role": "design_proposal",
    "name_zh": "荷清路方向联系线（概念线）",
    "note": "概念慢行与联系线，非道路红线、非轨道线位"
   },
   "geometry": {
    "type": "LineString",
    "coordinates": [
     [
      116.3412,
      39.944
     ],
     [
      116.3412,
      40.006
     ]
    ]
   }
  },
  {
   "type": "Feature",
   "id": "RD-006",
   "properties": {
    "id": "RD-006",
    "layer": "ROAD_CENTERLINE",
    "source_type": "agent_generated_design",
    "confidence": "low",
    "geometry_role": "design_proposal",
    "name_zh": "学院路方向联系线（概念线）",
    "note": "概念慢行与联系线，非道路红线、非轨道线位"
   },
   "geometry": {
    "type": "LineString",
    "coordinates": [
     [
      116.3546,
      39.944
     ],
     [
      116.3546,
      40.0075
     ]
    ]
   }
  }
 ]
}