{
  "type": "FeatureCollection",
  "name": "shared_floor_reference_prototype_buildings",
  "features": [
    {
      "type": "Feature",
      "id": "ZY-NORTH",
      "properties": {
        "id": "ZY-NORTH",
        "layer": "BUILDING_FOOTPRINT",
        "source_type": "agent_generated_design",
        "confidence": "medium",
        "geometry_role": "design_proposal",
        "building_type": "lab",
        "name_zh": "验证院 · ZY-NORTH",
        "name_en": "Proof Yard · ZY-NORTH",
        "reference_prototype": true,
        "prototype_room": "proof",
        "open_building_layer": "support",
        "structural_grid_m": 6,
        "concept_storeys": 5,
        "concept_height_m": 24,
        "concept_program": "high-bay proof + standards",
        "public_through_route": false,
        "spatial_grammar_zh": "前院 → 观察廊 → 透明门槛 → 受控试验院",
        "spatial_grammar_en": "forecourt → observation cloister → transparent threshold → controlled test yard",
        "daily_operating_modes": [
          "ordinary_civic_court",
          "controlled_test",
          "public_observation",
          "staffed_failure_handoff"
        ],
        "field_social_baseline_required": true,
        "design_life_target_years": 100,
        "not_regulatory": true,
        "calculation_version": "shared-floor-v0.2-open-building",
        "source_ids": [
          "AGENT-TASKBOOK"
        ],
        "assumption_ids": [
          "A-PROTOTYPE-001",
          "A-LIFE-SAFETY-001"
        ],
        "rebind_priority": "critical",
        "area_sqm_declared": 3312.0
      },
      "geometry": {
        "type": "Polygon",
        "coordinates": [
          [
            [
              116.34905038892474,
              40.0171490816098
            ],
            [
              116.34904833524149,
              40.01736521575872
            ],
            [
              116.34743198932686,
              40.0173561250183
            ],
            [
              116.34743404810864,
              40.017139990938546
            ],
            [
              116.34905038892474,
              40.0171490816098
            ]
          ]
        ]
      }
    },
    {
      "type": "Feature",
      "id": "ZY-WEST",
      "properties": {
        "id": "ZY-WEST",
        "layer": "BUILDING_FOOTPRINT",
        "source_type": "agent_generated_design",
        "confidence": "medium",
        "geometry_role": "design_proposal",
        "building_type": "ai_r_and_d",
        "name_zh": "验证院 · ZY-WEST",
        "name_en": "Proof Yard · ZY-WEST",
        "reference_prototype": true,
        "prototype_room": "proof",
        "open_building_layer": "support",
        "structural_grid_m": 6,
        "concept_storeys": 4,
        "concept_height_m": 18,
        "concept_program": "maker + quarantine",
        "public_through_route": false,
        "spatial_grammar_zh": "前院 → 观察廊 → 透明门槛 → 受控试验院",
        "spatial_grammar_en": "forecourt → observation cloister → transparent threshold → controlled test yard",
        "daily_operating_modes": [
          "ordinary_civic_court",
          "controlled_test",
          "public_observation",
          "staffed_failure_handoff"
        ],
        "field_social_baseline_required": true,
        "design_life_target_years": 100,
        "not_regulatory": true,
        "calculation_version": "shared-floor-v0.2-open-building",
        "source_ids": [
          "AGENT-TASKBOOK"
        ],
        "assumption_ids": [
          "A-PROTOTYPE-001",
          "A-LIFE-SAFETY-001"
        ],
        "rebind_priority": "critical",
        "area_sqm_declared": 1512.0
      },
      "geometry": {
        "type": "Polygon",
        "coordinates": [
          [
            [
              116.34765207836344,
              40.01638470858157
            ],
            [
              116.34764487512994,
              40.01714117795666
            ],
            [
              116.34743404810864,
              40.017139990938546
            ],
            [
              116.34744125366964,
              40.01638352159509
            ],
            [
              116.34765207836344,
              40.01638470858157
            ]
          ]
        ]
      }
    },
    {
      "type": "Feature",
      "id": "ZY-EAST",
      "properties": {
        "id": "ZY-EAST",
        "layer": "BUILDING_FOOTPRINT",
        "source_type": "agent_generated_design",
        "confidence": "medium",
        "geometry_role": "design_proposal",
        "building_type": "ai_r_and_d",
        "name_zh": "验证院 · ZY-EAST",
        "name_en": "Proof Yard · ZY-EAST",
        "reference_prototype": true,
        "prototype_room": "proof",
        "open_building_layer": "support",
        "structural_grid_m": 6,
        "concept_storeys": 4,
        "concept_height_m": 18,
        "concept_program": "red-team + service",
        "public_through_route": false,
        "spatial_grammar_zh": "前院 → 观察廊 → 透明门槛 → 受控试验院",
        "spatial_grammar_en": "forecourt → observation cloister → transparent threshold → controlled test yard",
        "daily_operating_modes": [
          "ordinary_civic_court",
          "controlled_test",
          "public_observation",
          "staffed_failure_handoff"
        ],
        "field_social_baseline_required": true,
        "design_life_target_years": 100,
        "not_regulatory": true,
        "calculation_version": "shared-floor-v0.2-open-building",
        "source_ids": [
          "AGENT-TASKBOOK"
        ],
        "assumption_ids": [
          "A-PROTOTYPE-001",
          "A-LIFE-SAFETY-001"
        ],
        "rebind_priority": "critical",
        "area_sqm_declared": 1512.0
      },
      "geometry": {
        "type": "Polygon",
        "coordinates": [
          [
            [
              116.34905757664139,
              40.0163926120242
            ],
            [
              116.34905038892474,
              40.0171490816098
            ],
            [
              116.34883956182013,
              40.01714789714844
            ],
            [
              116.3488467518643,
              40.01639142759438
            ],
            [
              116.34905757664139,
              40.0163926120242
            ]
          ]
        ]
      }
    },
    {
      "type": "Feature",
      "id": "ZY-SOUTH-W",
      "properties": {
        "id": "ZY-SOUTH-W",
        "layer": "BUILDING_FOOTPRINT",
        "source_type": "agent_generated_design",
        "confidence": "medium",
        "geometry_role": "design_proposal",
        "building_type": "cultural",
        "name_zh": "验证院 · ZY-SOUTH-W",
        "name_en": "Proof Yard · ZY-SOUTH-W",
        "reference_prototype": true,
        "prototype_room": "proof",
        "open_building_layer": "support",
        "structural_grid_m": 6,
        "concept_storeys": 2,
        "concept_height_m": 8,
        "concept_program": "public observation gallery",
        "public_through_route": false,
        "spatial_grammar_zh": "前院 → 观察廊 → 透明门槛 → 受控试验院",
        "spatial_grammar_en": "forecourt → observation cloister → transparent threshold → controlled test yard",
        "daily_operating_modes": [
          "ordinary_civic_court",
          "controlled_test",
          "public_observation",
          "staffed_failure_handoff"
        ],
        "field_social_baseline_required": true,
        "design_life_target_years": 100,
        "not_regulatory": true,
        "calculation_version": "shared-floor-v0.2-open-building",
        "source_ids": [
          "AGENT-TASKBOOK"
        ],
        "assumption_ids": [
          "A-PROTOTYPE-001",
          "A-LIFE-SAFETY-001"
        ],
        "rebind_priority": "critical",
        "area_sqm_declared": 812.0
      },
      "geometry": {
        "type": "Polygon",
        "coordinates": [
          [
            [
              116.34812246288925,
              40.01618922198977
            ],
            [
              116.34812126324316,
              40.01631530024198
            ],
            [
              116.34744193989935,
              40.01631147689049
            ],
            [
              116.34744314079538,
              40.01618539865525
            ],
            [
              116.34812246288925,
              40.01618922198977
            ]
          ]
        ]
      }
    },
    {
      "type": "Feature",
      "id": "ZY-SOUTH-E",
      "properties": {
        "id": "ZY-SOUTH-E",
        "layer": "BUILDING_FOOTPRINT",
        "source_type": "agent_generated_design",
        "confidence": "medium",
        "geometry_role": "design_proposal",
        "building_type": "community_service",
        "name_zh": "验证院 · ZY-SOUTH-E",
        "name_en": "Proof Yard · ZY-SOUTH-E",
        "reference_prototype": true,
        "prototype_room": "proof",
        "open_building_layer": "support",
        "structural_grid_m": 6,
        "concept_storeys": 2,
        "concept_height_m": 8,
        "concept_program": "staffed handoff + first aid",
        "public_through_route": false,
        "spatial_grammar_zh": "前院 → 观察廊 → 透明门槛 → 受控试验院",
        "spatial_grammar_en": "forecourt → observation cloister → transparent threshold → controlled test yard",
        "daily_operating_modes": [
          "ordinary_civic_court",
          "controlled_test",
          "public_observation",
          "staffed_failure_handoff"
        ],
        "field_social_baseline_required": true,
        "design_life_target_years": 100,
        "not_regulatory": true,
        "calculation_version": "shared-floor-v0.2-open-building",
        "source_ids": [
          "AGENT-TASKBOOK"
        ],
        "assumption_ids": [
          "A-PROTOTYPE-001",
          "A-LIFE-SAFETY-001"
        ],
        "rebind_priority": "critical",
        "area_sqm_declared": 812.0
      },
      "geometry": {
        "type": "Polygon",
        "coordinates": [
          [
            [
              116.3490594590937,
              40.01619448902094
            ],
            [
              116.34905826117166,
              40.01632056729653
            ],
            [
              116.3483789376489,
              40.016316749437145
            ],
            [
              116.3483801368209,
              40.0161906711785
            ],
            [
              116.3490594590937,
              40.01619448902094
            ]
          ]
        ]
      }
    },
    {
      "type": "Feature",
      "id": "ZY-TEST-CELL",
      "properties": {
        "id": "ZY-TEST-CELL",
        "layer": "BUILDING_FOOTPRINT",
        "source_type": "agent_generated_design",
        "confidence": "medium",
        "geometry_role": "design_proposal",
        "building_type": "lab",
        "name_zh": "验证院 · ZY-TEST-CELL",
        "name_en": "Proof Yard · ZY-TEST-CELL",
        "reference_prototype": true,
        "prototype_room": "proof",
        "open_building_layer": "infill",
        "structural_grid_m": 6,
        "concept_storeys": 1,
        "concept_height_m": 9,
        "concept_program": "replaceable embodied-AI test cell",
        "public_through_route": false,
        "spatial_grammar_zh": "前院 → 观察廊 → 透明门槛 → 受控试验院",
        "spatial_grammar_en": "forecourt → observation cloister → transparent threshold → controlled test yard",
        "daily_operating_modes": [
          "ordinary_civic_court",
          "controlled_test",
          "public_observation",
          "staffed_failure_handoff"
        ],
        "field_social_baseline_required": true,
        "design_life_target_years": 20,
        "not_regulatory": true,
        "calculation_version": "shared-floor-v0.2-open-building",
        "source_ids": [
          "AGENT-TASKBOOK"
        ],
        "assumption_ids": [
          "A-PROTOTYPE-001",
          "A-LIFE-SAFETY-001"
        ],
        "rebind_priority": "critical",
        "area_sqm_declared": 864.0
      },
      "geometry": {
        "type": "Polygon",
        "coordinates": [
          [
            [
              116.34845724220878,
              40.01670445077929
            ],
            [
              116.3484551866866,
              40.01692058491934
            ],
            [
              116.34803353394612,
              40.01691821345869
            ],
            [
              116.34803559079826,
              40.016702079336675
            ],
            [
              116.34845724220878,
              40.01670445077929
            ]
          ]
        ]
      }
    },
    {
      "type": "Feature",
      "id": "AO-NW",
      "properties": {
        "id": "AO-NW",
        "layer": "BUILDING_FOOTPRINT",
        "source_type": "agent_generated_design",
        "confidence": "medium",
        "geometry_role": "design_proposal",
        "building_type": "incubator",
        "name_zh": "原点廊院 · AO-NW",
        "name_en": "Origin Cloister · AO-NW",
        "reference_prototype": true,
        "prototype_room": "origin",
        "open_building_layer": "support",
        "structural_grid_m": 6,
        "concept_storeys": 5,
        "concept_height_m": 20,
        "concept_program": "shared labs + incubation",
        "public_through_route": false,
        "spatial_grammar_zh": "公共巷 → 照护院 → 讲学庭 → 试作院 → 安静环",
        "spatial_grammar_en": "public lane → care court → forum court → learning-making court → quiet loop",
        "daily_operating_modes": [
          "elder_morning_loop",
          "intergenerational_care",
          "learning_and_making",
          "evening_neighbour_table"
        ],
        "field_social_baseline_required": true,
        "design_life_target_years": 100,
        "not_regulatory": true,
        "calculation_version": "shared-floor-v0.2-open-building",
        "source_ids": [
          "AGENT-TASKBOOK"
        ],
        "assumption_ids": [
          "A-PROTOTYPE-001",
          "A-LIFE-SAFETY-001"
        ],
        "rebind_priority": "critical",
        "area_sqm_declared": 1044.0
      },
      "geometry": {
        "type": "Polygon",
        "coordinates": [
          [
            [
              116.34747618654542,
              39.98879748284617
            ],
            [
              116.34745994736177,
              39.98895910656926
            ],
            [
              116.34678289636648,
              39.98891885516733
            ],
            [
              116.34679913713377,
              39.988757231550764
            ],
            [
              116.34747618654542,
              39.98879748284617
            ]
          ]
        ]
      }
    },
    {
      "type": "Feature",
      "id": "AO-NE",
      "properties": {
        "id": "AO-NE",
        "layer": "BUILDING_FOOTPRINT",
        "source_type": "agent_generated_design",
        "confidence": "medium",
        "geometry_role": "design_proposal",
        "building_type": "incubator",
        "name_zh": "原点廊院 · AO-NE",
        "name_en": "Origin Cloister · AO-NE",
        "reference_prototype": true,
        "prototype_room": "origin",
        "open_building_layer": "support",
        "structural_grid_m": 6,
        "concept_storeys": 6,
        "concept_height_m": 24,
        "concept_program": "research translation",
        "public_through_route": false,
        "spatial_grammar_zh": "公共巷 → 照护院 → 讲学庭 → 试作院 → 安静环",
        "spatial_grammar_en": "public lane → care court → forum court → learning-making court → quiet loop",
        "daily_operating_modes": [
          "elder_morning_loop",
          "intergenerational_care",
          "learning_and_making",
          "evening_neighbour_table"
        ],
        "field_social_baseline_required": true,
        "design_life_target_years": 100,
        "not_regulatory": true,
        "calculation_version": "shared-floor-v0.2-open-building",
        "source_ids": [
          "AGENT-TASKBOOK"
        ],
        "assumption_ids": [
          "A-PROTOTYPE-001",
          "A-LIFE-SAFETY-001"
        ],
        "rebind_priority": "critical",
        "area_sqm_declared": 1008.0
      },
      "geometry": {
        "type": "Polygon",
        "coordinates": [
          [
            [
              116.34839881882988,
              39.98873083964402
            ],
            [
              116.34841198282223,
              39.98889262880615
            ],
            [
              116.34775760922955,
              39.9889241293418
            ],
            [
              116.34774444677704,
              39.98876234011857
            ],
            [
              116.34839881882988,
              39.98873083964402
            ]
          ]
        ]
      }
    },
    {
      "type": "Feature",
      "id": "AO-W",
      "properties": {
        "id": "AO-W",
        "layer": "BUILDING_FOOTPRINT",
        "source_type": "agent_generated_design",
        "confidence": "medium",
        "geometry_role": "design_proposal",
        "building_type": "education",
        "name_zh": "原点廊院 · AO-W",
        "name_en": "Origin Cloister · AO-W",
        "reference_prototype": true,
        "prototype_room": "origin",
        "open_building_layer": "support",
        "structural_grid_m": 6,
        "concept_storeys": 4,
        "concept_height_m": 16,
        "concept_program": "learning + launch rooms",
        "public_through_route": false,
        "spatial_grammar_zh": "公共巷 → 照护院 → 讲学庭 → 试作院 → 安静环",
        "spatial_grammar_en": "public lane → care court → forum court → learning-making court → quiet loop",
        "daily_operating_modes": [
          "elder_morning_loop",
          "intergenerational_care",
          "learning_and_making",
          "evening_neighbour_table"
        ],
        "field_social_baseline_required": true,
        "design_life_target_years": 100,
        "not_regulatory": true,
        "calculation_version": "shared-floor-v0.2-open-building",
        "source_ids": [
          "AGENT-TASKBOOK"
        ],
        "assumption_ids": [
          "A-PROTOTYPE-001",
          "A-LIFE-SAFETY-001"
        ],
        "rebind_priority": "critical",
        "area_sqm_declared": 828.0
      },
      "geometry": {
        "type": "Polygon",
        "coordinates": [
          [
            [
              116.34698916097639,
              39.9883321766869
            ],
            [
              116.34694765806661,
              39.988745214913
            ],
            [
              116.34673753946221,
              39.98873272259804
            ],
            [
              116.34677904362798,
              39.988319684456414
            ],
            [
              116.34698916097639,
              39.9883321766869
            ]
          ]
        ]
      }
    },
    {
      "type": "Feature",
      "id": "AO-E",
      "properties": {
        "id": "AO-E",
        "layer": "BUILDING_FOOTPRINT",
        "source_type": "agent_generated_design",
        "confidence": "medium",
        "geometry_role": "design_proposal",
        "building_type": "community_service",
        "name_zh": "原点廊院 · AO-E",
        "name_en": "Origin Cloister · AO-E",
        "reference_prototype": true,
        "prototype_room": "origin",
        "open_building_layer": "support",
        "structural_grid_m": 6,
        "concept_storeys": 4,
        "concept_height_m": 16,
        "concept_program": "care + staffed service",
        "public_through_route": false,
        "spatial_grammar_zh": "公共巷 → 照护院 → 讲学庭 → 试作院 → 安静环",
        "spatial_grammar_en": "public lane → care court → forum court → learning-making court → quiet loop",
        "daily_operating_modes": [
          "elder_morning_loop",
          "intergenerational_care",
          "learning_and_making",
          "evening_neighbour_table"
        ],
        "field_social_baseline_required": true,
        "design_life_target_years": 100,
        "not_regulatory": true,
        "calculation_version": "shared-floor-v0.2-open-building",
        "source_ids": [
          "AGENT-TASKBOOK"
        ],
        "assumption_ids": [
          "A-PROTOTYPE-001",
          "A-LIFE-SAFETY-001"
        ],
        "rebind_priority": "critical",
        "area_sqm_declared": 864.0
      },
      "geometry": {
        "type": "Polygon",
        "coordinates": [
          [
            [
              116.34849672700254,
              39.98828434374345
            ],
            [
              116.3485318315346,
              39.98871578150349
            ],
            [
              116.34832149778319,
              39.98872590730143
            ],
            [
              116.34828639457095,
              39.988294469489
            ],
            [
              116.34849672700254,
              39.98828434374345
            ]
          ]
        ]
      }
    },
    {
      "type": "Feature",
      "id": "AO-SW",
      "properties": {
        "id": "AO-SW",
        "layer": "BUILDING_FOOTPRINT",
        "source_type": "agent_generated_design",
        "confidence": "medium",
        "geometry_role": "design_proposal",
        "building_type": "retail",
        "name_zh": "原点廊院 · AO-SW",
        "name_en": "Origin Cloister · AO-SW",
        "reference_prototype": true,
        "prototype_room": "origin",
        "open_building_layer": "infill",
        "structural_grid_m": 6,
        "concept_storeys": 2,
        "concept_height_m": 10,
        "concept_program": "food + evening learning",
        "public_through_route": false,
        "spatial_grammar_zh": "公共巷 → 照护院 → 讲学庭 → 试作院 → 安静环",
        "spatial_grammar_en": "public lane → care court → forum court → learning-making court → quiet loop",
        "daily_operating_modes": [
          "elder_morning_loop",
          "intergenerational_care",
          "learning_and_making",
          "evening_neighbour_table"
        ],
        "field_social_baseline_required": true,
        "design_life_target_years": 20,
        "not_regulatory": true,
        "calculation_version": "shared-floor-v0.2-open-building",
        "source_ids": [
          "AGENT-TASKBOOK"
        ],
        "assumption_ids": [
          "A-PROTOTYPE-001",
          "A-LIFE-SAFETY-001"
        ],
        "rebind_priority": "critical",
        "area_sqm_declared": 936.0
      },
      "geometry": {
        "type": "Polygon",
        "coordinates": [
          [
            [
              116.34740886197606,
              39.98794803741131
            ],
            [
              116.34742569230107,
              39.988109625358355
            ],
            [
              116.34681882234283,
              39.98814702351456
            ],
            [
              116.34680199344102,
              39.98798543549185
            ],
            [
              116.34740886197606,
              39.98794803741131
            ]
          ]
        ]
      }
    },
    {
      "type": "Feature",
      "id": "AO-SE",
      "properties": {
        "id": "AO-SE",
        "layer": "BUILDING_FOOTPRINT",
        "source_type": "agent_generated_design",
        "confidence": "medium",
        "geometry_role": "design_proposal",
        "building_type": "mixed_use",
        "name_zh": "原点廊院 · AO-SE",
        "name_en": "Origin Cloister · AO-SE",
        "reference_prototype": true,
        "prototype_room": "origin",
        "open_building_layer": "infill",
        "structural_grid_m": 6,
        "concept_storeys": 3,
        "concept_height_m": 13,
        "concept_program": "sport + adaptable hall",
        "public_through_route": false,
        "spatial_grammar_zh": "公共巷 → 照护院 → 讲学庭 → 试作院 → 安静环",
        "spatial_grammar_en": "public lane → care court → forum court → learning-making court → quiet loop",
        "daily_operating_modes": [
          "elder_morning_loop",
          "intergenerational_care",
          "learning_and_making",
          "evening_neighbour_table"
        ],
        "field_social_baseline_required": true,
        "design_life_target_years": 20,
        "not_regulatory": true,
        "calculation_version": "shared-floor-v0.2-open-building",
        "source_ids": [
          "AGENT-TASKBOOK"
        ],
        "assumption_ids": [
          "A-PROTOTYPE-001",
          "A-LIFE-SAFETY-001"
        ],
        "rebind_priority": "critical",
        "area_sqm_declared": 1044.0
      },
      "geometry": {
        "type": "Polygon",
        "coordinates": [
          [
            [
              116.34844223800947,
              39.98801474941037
            ],
            [
              116.3484296708351,
              39.98817656666483
            ],
            [
              116.34775181686024,
              39.988145416109504
            ],
            [
              116.34776438562638,
              39.98798359894046
            ],
            [
              116.34844223800947,
              39.98801474941037
            ]
          ]
        ]
      }
    },
    {
      "type": "Feature",
      "id": "AO-COMMONS",
      "properties": {
        "id": "AO-COMMONS",
        "layer": "BUILDING_FOOTPRINT",
        "source_type": "agent_generated_design",
        "confidence": "medium",
        "geometry_role": "design_proposal",
        "building_type": "cultural",
        "name_zh": "原点廊院 · AO-COMMONS",
        "name_en": "Origin Cloister · AO-COMMONS",
        "reference_prototype": true,
        "prototype_room": "origin",
        "open_building_layer": "infill",
        "structural_grid_m": 6,
        "concept_storeys": 2,
        "concept_height_m": 11,
        "concept_program": "public forum + archive",
        "public_through_route": true,
        "spatial_grammar_zh": "公共巷 → 照护院 → 讲学庭 → 试作院 → 安静环",
        "spatial_grammar_en": "public lane → care court → forum court → learning-making court → quiet loop",
        "daily_operating_modes": [
          "elder_morning_loop",
          "intergenerational_care",
          "learning_and_making",
          "evening_neighbour_table"
        ],
        "field_social_baseline_required": true,
        "design_life_target_years": 20,
        "not_regulatory": true,
        "calculation_version": "shared-floor-v0.2-open-building",
        "source_ids": [
          "AGENT-TASKBOOK"
        ],
        "assumption_ids": [
          "A-PROTOTYPE-001",
          "A-LIFE-SAFETY-001"
        ],
        "rebind_priority": "critical",
        "area_sqm_declared": 720.0
      },
      "geometry": {
        "type": "Polygon",
        "coordinates": [
          [
            [
              116.34777783788074,
              39.988402507675936
            ],
            [
              116.34777526837014,
              39.98867267663655
            ],
            [
              116.34749428239482,
              39.98867109510583
            ],
            [
              116.3474968530122,
              39.98840092616028
            ],
            [
              116.34777783788074,
              39.988402507675936
            ]
          ]
        ]
      }
    },
    {
      "type": "Feature",
      "id": "DZ-NW",
      "properties": {
        "id": "DZ-NW",
        "layer": "BUILDING_FOOTPRINT",
        "source_type": "agent_generated_design",
        "confidence": "medium",
        "geometry_role": "design_proposal",
        "building_type": "office",
        "name_zh": "城市交汇厅 · DZ-NW",
        "name_en": "Exchange Hall · DZ-NW",
        "reference_prototype": true,
        "prototype_room": "exchange",
        "open_building_layer": "support",
        "structural_grid_m": 8,
        "concept_storeys": 5,
        "concept_height_m": 22,
        "concept_program": "enterprise help",
        "public_through_route": false,
        "spatial_grammar_zh": "四座城市门 → 共享檐 → 全天候市厅 → 独立后勤线",
        "spatial_grammar_en": "four civic entrances → shared eave → all-weather hall → separate service line",
        "daily_operating_modes": [
          "commuter_breakfast",
          "affordable_lunch",
          "evening_market_and_forum",
          "night_room_and_outage"
        ],
        "field_social_baseline_required": true,
        "design_life_target_years": 100,
        "not_regulatory": true,
        "calculation_version": "shared-floor-v0.2-open-building",
        "source_ids": [
          "AGENT-TASKBOOK"
        ],
        "assumption_ids": [
          "A-PROTOTYPE-001",
          "A-LIFE-SAFETY-001"
        ],
        "rebind_priority": "critical",
        "area_sqm_declared": 1444.0
      },
      "geometry": {
        "type": "Polygon",
        "coordinates": [
          [
            [
              116.34774869595914,
              39.947132065386896
            ],
            [
              116.34774544584548,
              39.94747428184329
            ],
            [
              116.34730081838488,
              39.94747177945436
            ],
            [
              116.34730407071369,
              39.94712956302812
            ],
            [
              116.34774869595914,
              39.947132065386896
            ]
          ]
        ]
      }
    },
    {
      "type": "Feature",
      "id": "DZ-NE",
      "properties": {
        "id": "DZ-NE",
        "layer": "BUILDING_FOOTPRINT",
        "source_type": "agent_generated_design",
        "confidence": "medium",
        "geometry_role": "design_proposal",
        "building_type": "mixed_use",
        "name_zh": "城市交汇厅 · DZ-NE",
        "name_en": "Exchange Hall · DZ-NE",
        "reference_prototype": true,
        "prototype_room": "exchange",
        "open_building_layer": "support",
        "structural_grid_m": 8,
        "concept_storeys": 5,
        "concept_height_m": 22,
        "concept_program": "demo + content",
        "public_through_route": false,
        "spatial_grammar_zh": "四座城市门 → 共享檐 → 全天候市厅 → 独立后勤线",
        "spatial_grammar_en": "four civic entrances → shared eave → all-weather hall → separate service line",
        "daily_operating_modes": [
          "commuter_breakfast",
          "affordable_lunch",
          "evening_market_and_forum",
          "night_room_and_outage"
        ],
        "field_social_baseline_required": true,
        "design_life_target_years": 100,
        "not_regulatory": true,
        "calculation_version": "shared-floor-v0.2-open-building",
        "source_ids": [
          "AGENT-TASKBOOK"
        ],
        "assumption_ids": [
          "A-PROTOTYPE-001",
          "A-LIFE-SAFETY-001"
        ],
        "rebind_priority": "critical",
        "area_sqm_declared": 1444.0
      },
      "geometry": {
        "type": "Polygon",
        "coordinates": [
          [
            [
              116.34875495329872,
              39.947137722324086
            ],
            [
              116.3487517081983,
              39.94747993884868
            ],
            [
              116.34830708061199,
              39.947477440318515
            ],
            [
              116.34831032792758,
              39.94713522382404
            ],
            [
              116.34875495329872,
              39.947137722324086
            ]
          ]
        ]
      }
    },
    {
      "type": "Feature",
      "id": "DZ-SW",
      "properties": {
        "id": "DZ-SW",
        "layer": "BUILDING_FOOTPRINT",
        "source_type": "agent_generated_design",
        "confidence": "medium",
        "geometry_role": "design_proposal",
        "building_type": "retail",
        "name_zh": "城市交汇厅 · DZ-SW",
        "name_en": "Exchange Hall · DZ-SW",
        "reference_prototype": true,
        "prototype_room": "exchange",
        "open_building_layer": "support",
        "structural_grid_m": 8,
        "concept_storeys": 3,
        "concept_height_m": 14,
        "concept_program": "market + repair",
        "public_through_route": false,
        "spatial_grammar_zh": "四座城市门 → 共享檐 → 全天候市厅 → 独立后勤线",
        "spatial_grammar_en": "four civic entrances → shared eave → all-weather hall → separate service line",
        "daily_operating_modes": [
          "commuter_breakfast",
          "affordable_lunch",
          "evening_market_and_forum",
          "night_room_and_outage"
        ],
        "field_social_baseline_required": true,
        "design_life_target_years": 100,
        "not_regulatory": true,
        "calculation_version": "shared-floor-v0.2-open-building",
        "source_ids": [
          "AGENT-TASKBOOK"
        ],
        "assumption_ids": [
          "A-PROTOTYPE-001",
          "A-LIFE-SAFETY-001"
        ],
        "rebind_priority": "critical",
        "area_sqm_declared": 1444.0
      },
      "geometry": {
        "type": "Polygon",
        "coordinates": [
          [
            [
              116.34775605127436,
              39.946357575436245
            ],
            [
              116.34775280128646,
              39.94669979193901
            ],
            [
              116.34730817883903,
              39.946697289618335
            ],
            [
              116.34731143104199,
              39.946355073145746
            ],
            [
              116.34775605127436,
              39.946357575436245
            ]
          ]
        ]
      }
    },
    {
      "type": "Feature",
      "id": "DZ-SE",
      "properties": {
        "id": "DZ-SE",
        "layer": "BUILDING_FOOTPRINT",
        "source_type": "agent_generated_design",
        "confidence": "medium",
        "geometry_role": "design_proposal",
        "building_type": "cultural",
        "name_zh": "城市交汇厅 · DZ-SE",
        "name_en": "Exchange Hall · DZ-SE",
        "reference_prototype": true,
        "prototype_room": "exchange",
        "open_building_layer": "support",
        "structural_grid_m": 8,
        "concept_storeys": 3,
        "concept_height_m": 14,
        "concept_program": "culture + human handoff",
        "public_through_route": false,
        "spatial_grammar_zh": "四座城市门 → 共享檐 → 全天候市厅 → 独立后勤线",
        "spatial_grammar_en": "four civic entrances → shared eave → all-weather hall → separate service line",
        "daily_operating_modes": [
          "commuter_breakfast",
          "affordable_lunch",
          "evening_market_and_forum",
          "night_room_and_outage"
        ],
        "field_social_baseline_required": true,
        "design_life_target_years": 100,
        "not_regulatory": true,
        "calculation_version": "shared-floor-v0.2-open-building",
        "source_ids": [
          "AGENT-TASKBOOK"
        ],
        "assumption_ids": [
          "A-PROTOTYPE-001",
          "A-LIFE-SAFETY-001"
        ],
        "rebind_priority": "critical",
        "area_sqm_declared": 1444.0
      },
      "geometry": {
        "type": "Polygon",
        "coordinates": [
          [
            [
              116.34876229726851,
              39.946363232219106
            ],
            [
              116.34875905229366,
              39.94670544879005
            ],
            [
              116.3483144297205,
              39.94670295032805
            ],
            [
              116.34831767691045,
              39.946360733787216
            ],
            [
              116.34876229726851,
              39.946363232219106
            ]
          ]
        ]
      }
    },
    {
      "type": "Feature",
      "id": "DZ-CANOPY",
      "properties": {
        "id": "DZ-CANOPY",
        "layer": "BUILDING_FOOTPRINT",
        "source_type": "agent_generated_design",
        "confidence": "medium",
        "geometry_role": "design_proposal",
        "building_type": "cultural",
        "name_zh": "城市交汇厅 · DZ-CANOPY",
        "name_en": "Exchange Hall · DZ-CANOPY",
        "reference_prototype": true,
        "prototype_room": "exchange",
        "open_building_layer": "infill",
        "structural_grid_m": 8,
        "concept_storeys": 1,
        "concept_height_m": 12,
        "concept_program": "all-weather civic exchange hall",
        "public_through_route": true,
        "spatial_grammar_zh": "四座城市门 → 共享檐 → 全天候市厅 → 独立后勤线",
        "spatial_grammar_en": "four civic entrances → shared eave → all-weather hall → separate service line",
        "daily_operating_modes": [
          "commuter_breakfast",
          "affordable_lunch",
          "evening_market_and_forum",
          "night_room_and_outage"
        ],
        "field_social_baseline_required": true,
        "design_life_target_years": 20,
        "not_regulatory": true,
        "calculation_version": "shared-floor-v0.2-open-building",
        "source_ids": [
          "AGENT-TASKBOOK"
        ],
        "assumption_ids": [
          "A-PROTOTYPE-001",
          "A-LIFE-SAFETY-001"
        ],
        "rebind_priority": "critical",
        "area_sqm_declared": 2116.0
      },
      "geometry": {
        "type": "Polygon",
        "coordinates": [
          [
            [
              116.34830264367258,
              39.94671189025417
            ],
            [
              116.34829871271711,
              39.94712615235352
            ],
            [
              116.34776048215129,
              39.947123125518885
            ],
            [
              116.3477644163527,
              39.94670886346371
            ],
            [
              116.34830264367258,
              39.94671189025417
            ]
          ]
        ]
      }
    }
  ]
}
