{
  "type": "FeatureCollection",
  "name": "shared_floor_unknown_control_register",
  "features": [
    {
      "type": "Feature",
      "id": "UNKNOWN-CONTROLS-ENVELOPE",
      "properties": {
        "id": "UNKNOWN-CONTROLS-ENVELOPE",
        "layer": "REGULATORY_CONTROL",
        "source_type": "unknown",
        "confidence": "unknown",
        "geometry_role": "analysis_helper",
        "name_zh": "法定控制与现状资料待补区",
        "name_en": "Unknown statutory controls and existing-condition data envelope",
        "unknown_items": [
          "official boundary",
          "parcels and ownership",
          "FAR and height",
          "road redlines",
          "existing buildings",
          "heritage buffers",
          "utilities and fire access"
        ],
        "rebind_trigger": "release of official GIS/CAD and regulatory attachments",
        "assumption_ids": [
          "A-BND-001",
          "A-CONTROLS-001"
        ],
        "area_sqm_declared": 11412825.386
      },
      "geometry": {
        "type": "Polygon",
        "coordinates": [
          [
            [
              116.34070000000001,
              39.93899999999999
            ],
            [
              116.3553,
              39.939
            ],
            [
              116.3553,
              39.965
            ],
            [
              116.3533,
              39.99
            ],
            [
              116.3553,
              40.02649999999999
            ],
            [
              116.34270000000001,
              40.026500000000006
            ],
            [
              116.34169999999999,
              40.00600000000001
            ],
            [
              116.3397,
              39.975
            ],
            [
              116.34070000000001,
              39.93899999999999
            ]
          ]
        ]
      }
    }
  ]
}
