{
  "type": "FeatureCollection",
  "name": "shared_floor_conceptual_land_use_partition",
  "features": [
    {
      "type": "Feature",
      "id": "LU-EXCHANGE",
      "properties": {
        "id": "LU-EXCHANGE",
        "layer": "LAND_USE",
        "source_type": "agent_generated_design",
        "confidence": "low",
        "geometry_role": "design_proposal",
        "land_use_code": "05",
        "name_zh": "交换与公共采用 / Exchange & public adoption",
        "design_family": "exchange",
        "planning_status": "conceptual_partition_not_statutory",
        "rebind_priority": "critical",
        "source_ids": [
          "OFFICIAL-ANNOUNCEMENT"
        ],
        "assumption_ids": [
          "A-BND-001",
          "A-CONTROLS-001"
        ],
        "area_sqm_declared": 3343140.68
      },
      "geometry": {
        "type": "Polygon",
        "coordinates": [
          [
            [
              116.34070000000001,
              39.93899999999999
            ],
            [
              116.34004574864821,
              39.962558401572075
            ],
            [
              116.35530000544831,
              39.96264424161896
            ],
            [
              116.3553,
              39.939
            ],
            [
              116.34070000000001,
              39.93899999999999
            ]
          ]
        ]
      }
    },
    {
      "type": "Feature",
      "id": "LU-LIVING",
      "properties": {
        "id": "LU-LIVING",
        "layer": "LAND_USE",
        "source_type": "agent_generated_design",
        "confidence": "low",
        "geometry_role": "design_proposal",
        "land_use_code": "07",
        "name_zh": "社区生活 / Community life",
        "design_family": "living",
        "planning_status": "conceptual_partition_not_statutory",
        "rebind_priority": "critical",
        "source_ids": [
          "OFFICIAL-ANNOUNCEMENT"
        ],
        "assumption_ids": [
          "A-BND-001",
          "A-CONTROLS-001"
        ],
        "area_sqm_declared": 3268223.193
      },
      "geometry": {
        "type": "Polygon",
        "coordinates": [
          [
            [
              116.3553,
              39.965
            ],
            [
              116.35530000544831,
              39.96264424161896
            ],
            [
              116.34004574864821,
              39.962558401572075
            ],
            [
              116.3397,
              39.975
            ],
            [
              116.34042269473274,
              39.98620468100448
            ],
            [
              116.35359778830416,
              39.986278906979386
            ],
            [
              116.3553,
              39.965
            ]
          ]
        ]
      }
    },
    {
      "type": "Feature",
      "id": "LU-LEARNING",
      "properties": {
        "id": "LU-LEARNING",
        "layer": "LAND_USE",
        "source_type": "agent_generated_design",
        "confidence": "low",
        "geometry_role": "design_proposal",
        "land_use_code": "0804",
        "name_zh": "教育转译 / Learning & translation",
        "design_family": "learning",
        "planning_status": "conceptual_partition_not_statutory",
        "rebind_priority": "critical",
        "source_ids": [
          "OFFICIAL-ANNOUNCEMENT"
        ],
        "assumption_ids": [
          "A-BND-001",
          "A-CONTROLS-001"
        ],
        "area_sqm_declared": 2410684.403
      },
      "geometry": {
        "type": "Polygon",
        "coordinates": [
          [
            [
              116.3533,
              39.99
            ],
            [
              116.35359778830416,
              39.986278906979386
            ],
            [
              116.34042269473274,
              39.98620468100448
            ],
            [
              116.34169999999999,
              40.00600000000001
            ],
            [
              116.34171722807415,
              40.006353265488855
            ],
            [
              116.35419968450316,
              40.00642349570207
            ],
            [
              116.3533,
              39.99
            ]
          ]
        ]
      }
    },
    {
      "type": "Feature",
      "id": "LU-RESEARCH",
      "properties": {
        "id": "LU-RESEARCH",
        "layer": "LAND_USE",
        "source_type": "agent_generated_design",
        "confidence": "low",
        "geometry_role": "design_proposal",
        "land_use_code": "0802",
        "name_zh": "研究验证 / Research & proof",
        "design_family": "research",
        "planning_status": "conceptual_partition_not_statutory",
        "rebind_priority": "critical",
        "source_ids": [
          "OFFICIAL-ANNOUNCEMENT"
        ],
        "assumption_ids": [
          "A-BND-001",
          "A-CONTROLS-001"
        ],
        "area_sqm_declared": 2390777.11
      },
      "geometry": {
        "type": "Polygon",
        "coordinates": [
          [
            [
              116.3553,
              40.02649999999999
            ],
            [
              116.35419968450316,
              40.00642349570207
            ],
            [
              116.34171722807415,
              40.006353265488855
            ],
            [
              116.34270000000001,
              40.026500000000006
            ],
            [
              116.3553,
              40.02649999999999
            ]
          ]
        ]
      }
    }
  ]
}
