{
  "type": "FeatureCollection",
  "name": "shared_floor_conditional_phasing",
  "features": [
    {
      "type": "Feature",
      "id": "PHASE-3",
      "properties": {
        "id": "PHASE-3",
        "layer": "PHASE",
        "source_type": "agent_generated_design",
        "confidence": "low",
        "geometry_role": "design_proposal",
        "phase": "phase_3",
        "name_zh": "3–8 年条件资本工程",
        "name_en": "Years 3–8 conditional capital works",
        "conditional": true,
        "source_ids": [
          "OFFICIAL-ANNOUNCEMENT",
          "AGENT-TASKBOOK"
        ],
        "assumption_ids": [
          "A-BND-001",
          "A-OPERATIONS-001"
        ],
        "area_sqm_declared": 2837795.914
      },
      "geometry": {
        "type": "Polygon",
        "coordinates": [
          [
            [
              116.34070000000001,
              39.93899999999999
            ],
            [
              116.34014304796638,
              39.95905611270425
            ],
            [
              116.35530001154186,
              39.95914139707369
            ],
            [
              116.3553,
              39.939
            ],
            [
              116.34070000000001,
              39.93899999999999
            ]
          ]
        ]
      }
    },
    {
      "type": "Feature",
      "id": "PHASE-2",
      "properties": {
        "id": "PHASE-2",
        "layer": "PHASE",
        "source_type": "agent_generated_design",
        "confidence": "low",
        "geometry_role": "design_proposal",
        "phase": "phase_2",
        "name_zh": "18–36 个月横向网络",
        "name_en": "Months 18–36 transverse network",
        "conditional": true,
        "source_ids": [
          "OFFICIAL-ANNOUNCEMENT",
          "AGENT-TASKBOOK"
        ],
        "assumption_ids": [
          "A-BND-001",
          "A-OPERATIONS-001"
        ],
        "area_sqm_declared": 3098072.149
      },
      "geometry": {
        "type": "Polygon",
        "coordinates": [
          [
            [
              116.3553,
              39.965
            ],
            [
              116.35530001154186,
              39.95914139707369
            ],
            [
              116.34014304796638,
              39.95905611270425
            ],
            [
              116.3397,
              39.975
            ],
            [
              116.34008364843837,
              39.98094850741321
            ],
            [
              116.35401802287396,
              39.98102700365223
            ],
            [
              116.3553,
              39.965
            ]
          ]
        ]
      }
    },
    {
      "type": "Feature",
      "id": "PHASE-1",
      "properties": {
        "id": "PHASE-1",
        "layer": "PHASE",
        "source_type": "agent_generated_design",
        "confidence": "low",
        "geometry_role": "design_proposal",
        "phase": "phase_1",
        "name_zh": "6–18 个月可撤回原型",
        "name_en": "Months 6–18 reversible prototypes",
        "conditional": true,
        "source_ids": [
          "OFFICIAL-ANNOUNCEMENT",
          "AGENT-TASKBOOK"
        ],
        "assumption_ids": [
          "A-BND-001",
          "A-OPERATIONS-001"
        ],
        "area_sqm_declared": 2775058.581
      },
      "geometry": {
        "type": "Polygon",
        "coordinates": [
          [
            [
              116.3533,
              39.99
            ],
            [
              116.35401802287396,
              39.98102700365223
            ],
            [
              116.34008364843837,
              39.98094850741321
            ],
            [
              116.34155318469261,
              40.00372522122074
            ],
            [
              116.35405570079409,
              40.003795579797035
            ],
            [
              116.3533,
              39.99
            ]
          ]
        ]
      }
    },
    {
      "type": "Feature",
      "id": "PHASE-0",
      "properties": {
        "id": "PHASE-0",
        "layer": "PHASE",
        "source_type": "agent_generated_design",
        "confidence": "low",
        "geometry_role": "design_proposal",
        "phase": "phase_0",
        "name_zh": "0–6 个月调查与重绑定",
        "name_en": "Months 0–6 survey and rebind",
        "conditional": true,
        "source_ids": [
          "OFFICIAL-ANNOUNCEMENT",
          "AGENT-TASKBOOK"
        ],
        "assumption_ids": [
          "A-BND-001",
          "A-OPERATIONS-001"
        ],
        "area_sqm_declared": 2701898.742
      },
      "geometry": {
        "type": "Polygon",
        "coordinates": [
          [
            [
              116.3553,
              40.02649999999999
            ],
            [
              116.35405570079409,
              40.003795579797035
            ],
            [
              116.34155318469261,
              40.00372522122074
            ],
            [
              116.34169999999999,
              40.00600000000001
            ],
            [
              116.34270000000001,
              40.026500000000006
            ],
            [
              116.3553,
              40.02649999999999
            ]
          ]
        ]
      }
    }
  ]
}
