{
  "type": "FeatureCollection",
  "name": "shared_floor_public_rooms_and_switch_pockets",
  "features": [
    {
      "type": "Feature",
      "id": "ROOM-PROOF",
      "properties": {
        "id": "ROOM-PROOF",
        "layer": "PUBLIC_SPACE",
        "source_type": "agent_generated_design",
        "confidence": "medium",
        "geometry_role": "design_proposal",
        "name_zh": "验证院公共测试花园",
        "name_en": "Proof Yard public test garden",
        "public_program": "controlled_observation",
        "no_phone_route": true,
        "human_handoff": true,
        "source_ids": [
          "AGENT-TASKBOOK"
        ],
        "assumption_ids": [
          "A-PROTOTYPE-001",
          "A-OPERATIONS-001"
        ],
        "area_sqm_declared": 6724.0
      },
      "geometry": {
        "type": "Polygon",
        "coordinates": [
          [
            [
              116.34776928893446,
              40.01637636226418
            ],
            [
              116.34776225847513,
              40.017114820483144
            ],
            [
              116.34872269249446,
              40.017120222181205
            ],
            [
              116.34872971260307,
              40.016381763821784
            ],
            [
              116.34776928893446,
              40.01637636226418
            ]
          ]
        ]
      }
    },
    {
      "type": "Feature",
      "id": "ROOM-ORIGIN",
      "properties": {
        "id": "ROOM-ORIGIN",
        "layer": "PUBLIC_SPACE",
        "source_type": "agent_generated_design",
        "confidence": "medium",
        "geometry_role": "design_proposal",
        "name_zh": "原点廊院共享庭院",
        "name_en": "Origin Cloister shared courts",
        "public_program": "campus_neighbourhood_commons",
        "no_phone_route": true,
        "human_handoff": true,
        "source_ids": [
          "AGENT-TASKBOOK"
        ],
        "assumption_ids": [
          "A-PROTOTYPE-001",
          "A-OPERATIONS-001"
        ],
        "area_sqm_declared": 5184.0
      },
      "geometry": {
        "type": "Polygon",
        "coordinates": [
          [
            [
              116.34721801124286,
              39.98817420317833
            ],
            [
              116.34721183911594,
              39.98882260861561
            ],
            [
              116.34805479892341,
              39.98882735323334
            ],
            [
              116.34806096308151,
              39.988178947687715
            ],
            [
              116.34721801124286,
              39.98817420317833
            ]
          ]
        ]
      }
    },
    {
      "type": "Feature",
      "id": "ROOM-EXCHANGE",
      "properties": {
        "id": "ROOM-EXCHANGE",
        "layer": "PUBLIC_SPACE",
        "source_type": "agent_generated_design",
        "confidence": "medium",
        "geometry_role": "design_proposal",
        "name_zh": "城市交汇厅全天候中庭",
        "name_en": "Exchange Hall all-weather civic room",
        "public_program": "public_market_and_handoff",
        "no_phone_route": true,
        "human_handoff": true,
        "source_ids": [
          "AGENT-TASKBOOK"
        ],
        "assumption_ids": [
          "A-PROTOTYPE-001",
          "A-OPERATIONS-001"
        ],
        "area_sqm_declared": 4624.0
      },
      "geometry": {
        "type": "Polygon",
        "coordinates": [
          [
            [
              116.34763665079261,
              39.946609076628526
            ],
            [
              116.34763083386913,
              39.94722146399884
            ],
            [
              116.34842648020086,
              39.94722593846566
            ],
            [
              116.34843229003108,
              39.946613550998826
            ],
            [
              116.34763665079261,
              39.946609076628526
            ]
          ]
        ]
      }
    },
    {
      "type": "Feature",
      "id": "THRESHOLD-PY-PUBLIC-GATE",
      "properties": {
        "id": "THRESHOLD-PY-PUBLIC-GATE",
        "layer": "PUBLIC_SPACE",
        "source_type": "agent_generated_design",
        "confidence": "medium",
        "geometry_role": "design_proposal",
        "name_zh": "公共前院门",
        "name_en": "public forecourt gate",
        "public_program": "operated_threshold",
        "prototype_room": "proof",
        "access_rule": "public_24h",
        "accountable_operator": "civic steward",
        "no_phone_route": true,
        "source_ids": [
          "AGENT-TASKBOOK"
        ],
        "assumption_ids": [
          "A-PROTOTYPE-001",
          "A-OPERATIONS-001"
        ],
        "area_sqm_declared": 5.76
      },
      "geometry": {
        "type": "Polygon",
        "coordinates": [
          [
            [
              116.3482376904135,
              40.01614303854135
            ],
            [
              116.34823748479711,
              40.016164651956885
            ],
            [
              116.34826559467021,
              40.01616481005006
            ],
            [
              116.34826580027773,
              40.01614319663441
            ],
            [
              116.3482376904135,
              40.01614303854135
            ]
          ]
        ]
      }
    },
    {
      "type": "Feature",
      "id": "THRESHOLD-PY-TEST-THRESHOLD",
      "properties": {
        "id": "THRESHOLD-PY-TEST-THRESHOLD",
        "layer": "PUBLIC_SPACE",
        "source_type": "agent_generated_design",
        "confidence": "medium",
        "geometry_role": "design_proposal",
        "name_zh": "透明试验门槛",
        "name_en": "transparent test threshold",
        "public_program": "operated_threshold",
        "prototype_room": "proof",
        "access_rule": "controlled_test_hours",
        "accountable_operator": "test safety lead",
        "no_phone_route": true,
        "source_ids": [
          "AGENT-TASKBOOK"
        ],
        "assumption_ids": [
          "A-PROTOTYPE-001",
          "A-OPERATIONS-001"
        ],
        "area_sqm_declared": 5.76
      },
      "geometry": {
        "type": "Polygon",
        "coordinates": [
          [
            [
              116.34823529154176,
              40.01639519505079
            ],
            [
              116.3482350859228,
              40.01641680846537
            ],
            [
              116.34826319589934,
              40.01641696655995
            ],
            [
              116.34826340150944,
              40.016395353145256
            ],
            [
              116.34823529154176,
              40.01639519505079
            ]
          ]
        ]
      }
    },
    {
      "type": "Feature",
      "id": "CLIMATE-EDGE-PY-SHARED-EAVE",
      "properties": {
        "id": "CLIMATE-EDGE-PY-SHARED-EAVE",
        "layer": "PUBLIC_SPACE",
        "source_type": "agent_generated_design",
        "confidence": "medium",
        "geometry_role": "design_proposal",
        "name_zh": "全线观察共享檐",
        "name_en": "full observation-route shared eave",
        "public_program": "shared_eave_grey_space",
        "prototype_room": "proof",
        "eave_depth_m": 6.0,
        "open_face": "south",
        "drainage_visible": true,
        "source_ids": [
          "AGENT-TASKBOOK"
        ],
        "assumption_ids": [
          "A-CLIMATE-001",
          "A-DRAINAGE-001",
          "A-PROTOTYPE-001"
        ],
        "area_sqm_declared": 900.0
      },
      "geometry": {
        "type": "Polygon",
        "coordinates": [
          [
            [
              116.34735589795663,
              40.01612186485024
            ],
            [
              116.34735538322019,
              40.01617589837964
            ],
            [
              116.34911225069617,
              40.016185779475094
            ],
            [
              116.3491127640472,
              40.016131745926906
            ],
            [
              116.34735589795663,
              40.01612186485024
            ]
          ]
        ]
      }
    },
    {
      "type": "Feature",
      "id": "THRESHOLD-OC-PUBLIC-LANE",
      "properties": {
        "id": "THRESHOLD-OC-PUBLIC-LANE",
        "layer": "PUBLIC_SPACE",
        "source_type": "agent_generated_design",
        "confidence": "medium",
        "geometry_role": "design_proposal",
        "name_zh": "全天公共巷",
        "name_en": "all-day public lane",
        "public_program": "operated_threshold",
        "prototype_room": "origin",
        "access_rule": "public_24h",
        "accountable_operator": "community steward",
        "no_phone_route": true,
        "source_ids": [
          "AGENT-TASKBOOK"
        ],
        "assumption_ids": [
          "A-PROTOTYPE-001",
          "A-OPERATIONS-001"
        ],
        "area_sqm_declared": 5.76
      },
      "geometry": {
        "type": "Polygon",
        "coordinates": [
          [
            [
              116.34671157108028,
              39.9882415974492
            ],
            [
              116.34671136518583,
              39.98826321096254
            ],
            [
              116.34673946361087,
              39.988263369334724
            ],
            [
              116.34673966949646,
              39.98824175582127
            ],
            [
              116.34671157108028,
              39.9882415974492
            ]
          ]
        ]
      }
    },
    {
      "type": "Feature",
      "id": "THRESHOLD-OC-HELP",
      "properties": {
        "id": "THRESHOLD-OC-HELP",
        "layer": "PUBLIC_SPACE",
        "source_type": "agent_generated_design",
        "confidence": "medium",
        "geometry_role": "design_proposal",
        "name_zh": "人工帮助点",
        "name_en": "staffed help point",
        "public_program": "operated_threshold",
        "prototype_room": "origin",
        "access_rule": "public_staffed_hours",
        "accountable_operator": "community steward",
        "no_phone_route": true,
        "source_ids": [
          "AGENT-TASKBOOK"
        ],
        "assumption_ids": [
          "A-PROTOTYPE-001",
          "A-OPERATIONS-001"
        ],
        "area_sqm_declared": 5.76
      },
      "geometry": {
        "type": "Polygon",
        "coordinates": [
          [
            [
              116.34762476971974,
              39.98824674105486
            ],
            [
              116.34762456411306,
              39.9882683545721
            ],
            [
              116.34765266254533,
              39.98826851272291
            ],
            [
              116.34765286814316,
              39.98824689920555
            ],
            [
              116.34762476971974,
              39.98824674105486
            ]
          ]
        ]
      }
    },
    {
      "type": "Feature",
      "id": "THRESHOLD-OC-NEGOTIATED-GATE",
      "properties": {
        "id": "THRESHOLD-OC-NEGOTIATED-GATE",
        "layer": "PUBLIC_SPACE",
        "source_type": "agent_generated_design",
        "confidence": "medium",
        "geometry_role": "design_proposal",
        "name_zh": "分时协同开放校门",
        "name_en": "negotiated campus gate",
        "public_program": "operated_threshold",
        "prototype_room": "origin",
        "access_rule": "agreed_time_window",
        "accountable_operator": "campus + community",
        "no_phone_route": true,
        "source_ids": [
          "AGENT-TASKBOOK"
        ],
        "assumption_ids": [
          "A-PROTOTYPE-001",
          "A-OPERATIONS-001"
        ],
        "area_sqm_declared": 5.76
      },
      "geometry": {
        "type": "Polygon",
        "coordinates": [
          [
            [
              116.34761748768118,
              39.989012219740694
            ],
            [
              116.34761728206664,
              39.98903383325504
            ],
            [
              116.34764538081248,
              39.989033991410125
            ],
            [
              116.34764558641817,
              39.989012377895655
            ],
            [
              116.34761748768118,
              39.989012219740694
            ]
          ]
        ]
      }
    },
    {
      "type": "Feature",
      "id": "CLIMATE-EDGE-OC-CARE-EAVE",
      "properties": {
        "id": "CLIMATE-EDGE-OC-CARE-EAVE",
        "layer": "PUBLIC_SPACE",
        "source_type": "agent_generated_design",
        "confidence": "medium",
        "geometry_role": "design_proposal",
        "name_zh": "照护巷气候廊",
        "name_en": "Care Lane climate refuge",
        "public_program": "shared_eave_grey_space",
        "prototype_room": "origin",
        "eave_depth_m": 5.0,
        "open_face": "south",
        "drainage_visible": true,
        "source_ids": [
          "AGENT-TASKBOOK"
        ],
        "assumption_ids": [
          "A-CLIMATE-001",
          "A-DRAINAGE-001",
          "A-PROTOTYPE-001"
        ],
        "area_sqm_declared": 190.0
      },
      "geometry": {
        "type": "Polygon",
        "coordinates": [
          [
            [
              116.34703013128164,
              39.98823168461327
            ],
            [
              116.34702970254396,
              39.98827671276888
            ],
            [
              116.34747459441552,
              39.988279218307454
            ],
            [
              116.34747502286115,
              39.98823419014787
            ],
            [
              116.34703013128164,
              39.98823168461327
            ]
          ]
        ]
      }
    },
    {
      "type": "Feature",
      "id": "CLIMATE-EDGE-OC-FORUM-EAVE",
      "properties": {
        "id": "CLIMATE-EDGE-OC-FORUM-EAVE",
        "layer": "PUBLIC_SPACE",
        "source_type": "agent_generated_design",
        "confidence": "medium",
        "geometry_role": "design_proposal",
        "name_zh": "讲学庭廊",
        "name_en": "Forum Court cloister",
        "public_program": "shared_eave_grey_space",
        "prototype_room": "origin",
        "eave_depth_m": 4.0,
        "open_face": "south",
        "drainage_visible": true,
        "source_ids": [
          "AGENT-TASKBOOK"
        ],
        "assumption_ids": [
          "A-CLIMATE-001",
          "A-DRAINAGE-001",
          "A-PROTOTYPE-001"
        ],
        "area_sqm_declared": 160.0
      },
      "geometry": {
        "type": "Polygon",
        "coordinates": [
          [
            [
              116.34751761220716,
              39.98868023255741
            ],
            [
              116.34751726946767,
              39.988716255082636
            ],
            [
              116.34798557974938,
              39.98871889049834
            ],
            [
              116.34798592224291,
              39.98868286796977
            ],
            [
              116.34751761220716,
              39.98868023255741
            ]
          ]
        ]
      }
    },
    {
      "type": "Feature",
      "id": "CLIMATE-EDGE-OC-MAKING-EAVE",
      "properties": {
        "id": "CLIMATE-EDGE-OC-MAKING-EAVE",
        "layer": "PUBLIC_SPACE",
        "source_type": "agent_generated_design",
        "confidence": "medium",
        "geometry_role": "design_proposal",
        "name_zh": "试作巷气候廊",
        "name_en": "Making Lane climate refuge",
        "public_program": "shared_eave_grey_space",
        "prototype_room": "origin",
        "eave_depth_m": 5.0,
        "open_face": "south",
        "drainage_visible": true,
        "source_ids": [
          "AGENT-TASKBOOK"
        ],
        "assumption_ids": [
          "A-CLIMATE-001",
          "A-DRAINAGE-001",
          "A-PROTOTYPE-001"
        ],
        "area_sqm_declared": 170.0
      },
      "geometry": {
        "type": "Polygon",
        "coordinates": [
          [
            [
              116.347966745198,
              39.988236957436406
            ],
            [
              116.34796631707518,
              39.988281985600366
            ],
            [
              116.34836437832567,
              39.98828422426213
            ],
            [
              116.34836480618716,
              39.98823919609461
            ],
            [
              116.347966745198,
              39.988236957436406
            ]
          ]
        ]
      }
    },
    {
      "type": "Feature",
      "id": "THRESHOLD-EH-GATE-W",
      "properties": {
        "id": "THRESHOLD-EH-GATE-W",
        "layer": "PUBLIC_SPACE",
        "source_type": "agent_generated_design",
        "confidence": "medium",
        "geometry_role": "design_proposal",
        "name_zh": "西城市门",
        "name_en": "west civic gate",
        "public_program": "operated_threshold",
        "prototype_room": "exchange",
        "access_rule": "public_24h",
        "accountable_operator": "hall steward",
        "no_phone_route": true,
        "source_ids": [
          "AGENT-TASKBOOK"
        ],
        "assumption_ids": [
          "A-PROTOTYPE-001",
          "A-OPERATIONS-001"
        ],
        "area_sqm_declared": 5.76
      },
      "geometry": {
        "type": "Polygon",
        "coordinates": [
          [
            [
              116.34717518049337,
              39.946901881635306
            ],
            [
              116.34717497504586,
              39.94692349530525
            ],
            [
              116.3472030565537,
              39.94692365342999
            ],
            [
              116.34720326199233,
              39.94690203975994
            ],
            [
              116.34717518049337,
              39.946901881635306
            ]
          ]
        ]
      }
    },
    {
      "type": "Feature",
      "id": "THRESHOLD-EH-GATE-E",
      "properties": {
        "id": "THRESHOLD-EH-GATE-E",
        "layer": "PUBLIC_SPACE",
        "source_type": "agent_generated_design",
        "confidence": "medium",
        "geometry_role": "design_proposal",
        "name_zh": "东城市门",
        "name_en": "east civic gate",
        "public_program": "operated_threshold",
        "prototype_room": "exchange",
        "access_rule": "public_24h",
        "accountable_operator": "hall steward",
        "no_phone_route": true,
        "source_ids": [
          "AGENT-TASKBOOK"
        ],
        "assumption_ids": [
          "A-PROTOTYPE-001",
          "A-OPERATIONS-001"
        ],
        "area_sqm_declared": 5.76
      },
      "geometry": {
        "type": "Polygon",
        "coordinates": [
          [
            [
              116.34886007082527,
              39.94691135707504
            ],
            [
              116.3488598659079,
              39.94693297075219
            ],
            [
              116.34888794742903,
              39.94693312846886
            ],
            [
              116.34888815233755,
              39.946911514791594
            ],
            [
              116.34886007082527,
              39.94691135707504
            ]
          ]
        ]
      }
    },
    {
      "type": "Feature",
      "id": "THRESHOLD-EH-GATE-S",
      "properties": {
        "id": "THRESHOLD-EH-GATE-S",
        "layer": "PUBLIC_SPACE",
        "source_type": "agent_generated_design",
        "confidence": "medium",
        "geometry_role": "design_proposal",
        "name_zh": "南城市门",
        "name_en": "south civic gate",
        "public_program": "operated_threshold",
        "prototype_room": "exchange",
        "access_rule": "public_24h",
        "accountable_operator": "hall steward",
        "no_phone_route": true,
        "source_ids": [
          "AGENT-TASKBOOK"
        ],
        "assumption_ids": [
          "A-PROTOTYPE-001",
          "A-OPERATIONS-001"
        ],
        "area_sqm_declared": 5.76
      },
      "geometry": {
        "type": "Polygon",
        "coordinates": [
          [
            [
              116.34802378092931,
              39.94625821217158
            ],
            [
              116.34802357575353,
              39.94627982584756
            ],
            [
              116.34805165700296,
              39.946279983764676
            ],
            [
              116.3480518621699,
              39.946258370088565
            ],
            [
              116.34802378092931,
              39.94625821217158
            ]
          ]
        ]
      }
    },
    {
      "type": "Feature",
      "id": "THRESHOLD-EH-GATE-N",
      "properties": {
        "id": "THRESHOLD-EH-GATE-N",
        "layer": "PUBLIC_SPACE",
        "source_type": "agent_generated_design",
        "confidence": "medium",
        "geometry_role": "design_proposal",
        "name_zh": "北城市门",
        "name_en": "north civic gate",
        "public_program": "operated_threshold",
        "prototype_room": "exchange",
        "access_rule": "public_24h",
        "accountable_operator": "hall steward",
        "no_phone_route": true,
        "source_ids": [
          "AGENT-TASKBOOK"
        ],
        "assumption_ids": [
          "A-PROTOTYPE-001",
          "A-OPERATIONS-001"
        ],
        "area_sqm_declared": 5.76
      },
      "geometry": {
        "type": "Polygon",
        "coordinates": [
          [
            [
              116.3480114699905,
              39.947555032586244
            ],
            [
              116.34801126480141,
              39.94757664625733
            ],
            [
              116.34803934658099,
              39.947576804181644
            ],
            [
              116.34803955176122,
              39.94755519051044
            ],
            [
              116.3480114699905,
              39.947555032586244
            ]
          ]
        ]
      }
    },
    {
      "type": "Feature",
      "id": "CLIMATE-EDGE-EH-EAVE-N",
      "properties": {
        "id": "CLIMATE-EDGE-EH-EAVE-N",
        "layer": "PUBLIC_SPACE",
        "source_type": "agent_generated_design",
        "confidence": "medium",
        "geometry_role": "design_proposal",
        "name_zh": "北共享檐",
        "name_en": "north shared eave",
        "public_program": "shared_eave_grey_space",
        "prototype_room": "exchange",
        "eave_depth_m": 6.0,
        "open_face": "south",
        "drainage_visible": true,
        "source_ids": [
          "AGENT-TASKBOOK"
        ],
        "assumption_ids": [
          "A-CLIMATE-001",
          "A-DRAINAGE-001",
          "A-PROTOTYPE-001"
        ],
        "area_sqm_declared": 348.0
      },
      "geometry": {
        "type": "Polygon",
        "coordinates": [
          [
            [
              116.34769027817043,
              39.947122730530175
            ],
            [
              116.34768976495249,
              39.947176764708324
            ],
            [
              116.34836840402586,
              39.94718058115926
            ],
            [
              116.34836891670996,
              39.94712654697384
            ],
            [
              116.34769027817043,
              39.947122730530175
            ]
          ]
        ]
      }
    },
    {
      "type": "Feature",
      "id": "CLIMATE-EDGE-EH-EAVE-S",
      "properties": {
        "id": "CLIMATE-EDGE-EH-EAVE-S",
        "layer": "PUBLIC_SPACE",
        "source_type": "agent_generated_design",
        "confidence": "medium",
        "geometry_role": "design_proposal",
        "name_zh": "南共享檐",
        "name_en": "south shared eave",
        "public_program": "shared_eave_grey_space",
        "prototype_room": "exchange",
        "eave_depth_m": 6.0,
        "open_face": "north",
        "drainage_visible": true,
        "source_ids": [
          "AGENT-TASKBOOK"
        ],
        "assumption_ids": [
          "A-CLIMATE-001",
          "A-DRAINAGE-001",
          "A-PROTOTYPE-001"
        ],
        "area_sqm_declared": 348.0
      },
      "geometry": {
        "type": "Polygon",
        "coordinates": [
          [
            [
              116.34769472600118,
              39.94665443429818
            ],
            [
              116.34769421279525,
              39.94670846848076
            ],
            [
              116.34837284724205,
              39.94671228486873
            ],
            [
              116.34837335991416,
              39.946658250678894
            ],
            [
              116.34769472600118,
              39.94665443429818
            ]
          ]
        ]
      }
    },
    {
      "type": "Feature",
      "id": "CLIMATE-EDGE-EH-EAVE-W",
      "properties": {
        "id": "CLIMATE-EDGE-EH-EAVE-W",
        "layer": "PUBLIC_SPACE",
        "source_type": "agent_generated_design",
        "confidence": "medium",
        "geometry_role": "design_proposal",
        "name_zh": "西共享檐",
        "name_en": "west shared eave",
        "public_program": "shared_eave_grey_space",
        "prototype_room": "exchange",
        "eave_depth_m": 6.0,
        "open_face": "east",
        "drainage_visible": true,
        "source_ids": [
          "AGENT-TASKBOOK"
        ],
        "assumption_ids": [
          "A-CLIMATE-001",
          "A-DRAINAGE-001",
          "A-PROTOTYPE-001"
        ],
        "area_sqm_declared": 276.0
      },
      "geometry": {
        "type": "Polygon",
        "coordinates": [
          [
            [
              116.34769421279525,
              39.94670846848076
            ],
            [
              116.34769027817043,
              39.947122730530175
            ],
            [
              116.34776048215129,
              39.947123125518885
            ],
            [
              116.3477644163527,
              39.94670886346371
            ],
            [
              116.34769421279525,
              39.94670846848076
            ]
          ]
        ]
      }
    },
    {
      "type": "Feature",
      "id": "CLIMATE-EDGE-EH-EAVE-E",
      "properties": {
        "id": "CLIMATE-EDGE-EH-EAVE-E",
        "layer": "PUBLIC_SPACE",
        "source_type": "agent_generated_design",
        "confidence": "medium",
        "geometry_role": "design_proposal",
        "name_zh": "东共享檐",
        "name_en": "east shared eave",
        "public_program": "shared_eave_grey_space",
        "prototype_room": "exchange",
        "eave_depth_m": 6.0,
        "open_face": "west",
        "drainage_visible": true,
        "source_ids": [
          "AGENT-TASKBOOK"
        ],
        "assumption_ids": [
          "A-CLIMATE-001",
          "A-DRAINAGE-001",
          "A-PROTOTYPE-001"
        ],
        "area_sqm_declared": 276.0
      },
      "geometry": {
        "type": "Polygon",
        "coordinates": [
          [
            [
              116.34830264367258,
              39.94671189025417
            ],
            [
              116.34829871271711,
              39.94712615235352
            ],
            [
              116.34836891670996,
              39.94712654697384
            ],
            [
              116.34837284724205,
              39.94671228486873
            ],
            [
              116.34830264367258,
              39.94671189025417
            ]
          ]
        ]
      }
    },
    {
      "type": "Feature",
      "id": "CLIMATE-EDGE-EH-SEASONAL-N",
      "properties": {
        "id": "CLIMATE-EDGE-EH-SEASONAL-N",
        "layer": "PUBLIC_SPACE",
        "source_type": "agent_generated_design",
        "confidence": "medium",
        "geometry_role": "design_proposal",
        "name_zh": "北入口季节遮阳",
        "name_en": "north-entry seasonal shade",
        "public_program": "shared_eave_grey_space",
        "prototype_room": "exchange",
        "eave_depth_m": 12.0,
        "open_face": "south",
        "drainage_visible": true,
        "source_ids": [
          "AGENT-TASKBOOK"
        ],
        "assumption_ids": [
          "A-CLIMATE-001",
          "A-DRAINAGE-001",
          "A-PROTOTYPE-001"
        ],
        "area_sqm_declared": 144.0
      },
      "geometry": {
        "type": "Polygon",
        "coordinates": [
          [
            [
              116.3479588804316,
              39.94717827860377
            ],
            [
              116.34795785441497,
              39.947286346964304
            ],
            [
              116.34809826272003,
              39.94728713657785
            ],
            [
              116.34809928851578,
              39.94717906821432
            ],
            [
              116.3479588804316,
              39.94717827860377
            ]
          ]
        ]
      }
    },
    {
      "type": "Feature",
      "id": "CLIMATE-EDGE-EH-SEASONAL-S",
      "properties": {
        "id": "CLIMATE-EDGE-EH-SEASONAL-S",
        "layer": "PUBLIC_SPACE",
        "source_type": "agent_generated_design",
        "confidence": "medium",
        "geometry_role": "design_proposal",
        "name_zh": "南入口季节遮阳",
        "name_en": "south-entry seasonal shade",
        "public_program": "shared_eave_grey_space",
        "prototype_room": "exchange",
        "eave_depth_m": 12.0,
        "open_face": "north",
        "drainage_visible": true,
        "source_ids": [
          "AGENT-TASKBOOK"
        ],
        "assumption_ids": [
          "A-CLIMATE-001",
          "A-DRAINAGE-001",
          "A-PROTOTYPE-001"
        ],
        "area_sqm_declared": 144.0
      },
      "geometry": {
        "type": "Polygon",
        "coordinates": [
          [
            [
              116.34796486541828,
              39.946547879793336
            ],
            [
              116.34796383943394,
              39.94665594816579
            ],
            [
              116.34810424645042,
              39.9466567377618
            ],
            [
              116.34810527221386,
              39.94654866938634
            ],
            [
              116.34796486541828,
              39.946547879793336
            ]
          ]
        ]
      }
    },
    {
      "type": "Feature",
      "id": "CLIMATE-EDGE-EH-SEASONAL-W",
      "properties": {
        "id": "CLIMATE-EDGE-EH-SEASONAL-W",
        "layer": "PUBLIC_SPACE",
        "source_type": "agent_generated_design",
        "confidence": "medium",
        "geometry_role": "design_proposal",
        "name_zh": "西入口季节遮阳",
        "name_en": "west-entry seasonal shade",
        "public_program": "shared_eave_grey_space",
        "prototype_room": "exchange",
        "eave_depth_m": 6.0,
        "open_face": "east",
        "drainage_visible": true,
        "source_ids": [
          "AGENT-TASKBOOK"
        ],
        "assumption_ids": [
          "A-CLIMATE-001",
          "A-DRAINAGE-001",
          "A-PROTOTYPE-001"
        ],
        "area_sqm_declared": 72.0
      },
      "geometry": {
        "type": "Polygon",
        "coordinates": [
          [
            [
              116.34755209461987,
              39.94688779232053
            ],
            [
              116.34755158129751,
              39.94694182649938
            ],
            [
              116.34769198888688,
              39.94694261659933
            ],
            [
              116.34769250209882,
              39.94688858241897
            ],
            [
              116.34755209461987,
              39.94688779232053
            ]
          ]
        ]
      }
    },
    {
      "type": "Feature",
      "id": "CLIMATE-EDGE-EH-SEASONAL-E",
      "properties": {
        "id": "CLIMATE-EDGE-EH-SEASONAL-E",
        "layer": "PUBLIC_SPACE",
        "source_type": "agent_generated_design",
        "confidence": "medium",
        "geometry_role": "design_proposal",
        "name_zh": "东入口季节遮阳",
        "name_en": "east-entry seasonal shade",
        "public_program": "shared_eave_grey_space",
        "prototype_room": "exchange",
        "eave_depth_m": 6.0,
        "open_face": "west",
        "drainage_visible": true,
        "source_ids": [
          "AGENT-TASKBOOK"
        ],
        "assumption_ids": [
          "A-CLIMATE-001",
          "A-DRAINAGE-001",
          "A-PROTOTYPE-001"
        ],
        "area_sqm_declared": 72.0
      },
      "geometry": {
        "type": "Polygon",
        "coordinates": [
          [
            [
              116.34837113832506,
              39.946892398831174
            ],
            [
              116.34837062564695,
              39.946946433018795
            ],
            [
              116.34851103326864,
              39.9469472221269
            ],
            [
              116.34851154583629,
              39.94689318793778
            ],
            [
              116.34837113832506,
              39.946892398831174
            ]
          ]
        ]
      }
    },
    {
      "type": "Feature",
      "id": "SWITCH-ROOM-01",
      "properties": {
        "id": "SWITCH-ROOM-01",
        "layer": "PUBLIC_SPACE",
        "source_type": "agent_generated_design",
        "confidence": "low",
        "geometry_role": "design_proposal",
        "name_zh": "轨道城市房间 01 · 遗产门槛",
        "name_en": "Rail Civic Room 01 · Heritage Threshold",
        "reference_prototype": true,
        "rail_civic_room_type": "heritage_threshold",
        "shared_eave": true,
        "no_phone_route": true,
        "accountable_operator": "heritage steward",
        "operating_hours": "daylight + event hours",
        "required_elements": [
          "tactile bypass",
          "archive worktable",
          "reversible crossing deck"
        ],
        "non_identical_geometry": true,
        "field_social_baseline_required": true,
        "source_ids": [
          "AGENT-TASKBOOK"
        ],
        "assumption_ids": [
          "A-BND-001",
          "A-SECTION-001"
        ],
        "area_sqm_declared": 876.0
      },
      "geometry": {
        "type": "Polygon",
        "coordinates": [
          [
            [
              116.34824706299463,
              39.947636646259234
            ],
            [
              116.34809495321917,
              39.94763579102593
            ],
            [
              116.34809563709553,
              39.947563745454865
            ],
            [
              116.34795522822508,
              39.947562955833625
            ],
            [
              116.34795454420144,
              39.94763500140269
            ],
            [
              116.34780243443848,
              39.947634145785635
            ],
            [
              116.34780089501737,
              39.94779624830782
            ],
            [
              116.3479530051393,
              39.947797103929766
            ],
            [
              116.34795232110767,
              39.94786914949588
            ],
            [
              116.34809273060405,
              39.947869939125624
            ],
            [
              116.34809341448839,
              39.947797893557514
            ],
            [
              116.34824552462283,
              39.9477987487957
            ],
            [
              116.34824706299463,
              39.947636646259234
            ]
          ]
        ]
      }
    },
    {
      "type": "Feature",
      "id": "SWITCH-ROOM-02",
      "properties": {
        "id": "SWITCH-ROOM-02",
        "layer": "PUBLIC_SPACE",
        "source_type": "agent_generated_design",
        "confidence": "low",
        "geometry_role": "design_proposal",
        "name_zh": "轨道城市房间 02 · 骑手驿站",
        "name_en": "Rail Civic Room 02 · Rider Dock",
        "reference_prototype": true,
        "rail_civic_room_type": "rider_dock",
        "shared_eave": true,
        "no_phone_route": true,
        "accountable_operator": "mobility steward",
        "operating_hours": "06:00-24:00",
        "required_elements": [
          "handoff shelf",
          "water + toilet + rest",
          "fire-separated charging"
        ],
        "non_identical_geometry": true,
        "field_social_baseline_required": true,
        "source_ids": [
          "AGENT-TASKBOOK"
        ],
        "assumption_ids": [
          "A-BND-001",
          "A-SECTION-001"
        ],
        "area_sqm_declared": 880.0
      },
      "geometry": {
        "type": "Polygon",
        "coordinates": [
          [
            [
              116.34759218357577,
              39.95991094275929
            ],
            [
              116.34759098534273,
              39.96003702222609
            ],
            [
              116.34796547700836,
              39.96003912922404
            ],
            [
              116.34796427945545,
              39.96016520869742
            ],
            [
              116.3481515256469,
              39.96016626174746
            ],
            [
              116.34815357800063,
              39.959950125497684
            ],
            [
              116.34810676659923,
              39.95994986226552
            ],
            [
              116.34810710868058,
              39.95991383955677
            ],
            [
              116.34759218357577,
              39.95991094275929
            ]
          ]
        ]
      }
    },
    {
      "type": "Feature",
      "id": "SWITCH-ROOM-03",
      "properties": {
        "id": "SWITCH-ROOM-03",
        "layer": "PUBLIC_SPACE",
        "source_type": "agent_generated_design",
        "confidence": "low",
        "geometry_role": "design_proposal",
        "name_zh": "轨道城市房间 03 · 站前廊",
        "name_en": "Rail Civic Room 03 · Station Porch",
        "reference_prototype": true,
        "rail_civic_room_type": "station_porch",
        "shared_eave": true,
        "no_phone_route": true,
        "accountable_operator": "station-area steward",
        "operating_hours": "first-to-last train",
        "required_elements": [
          "separated walk/cycle",
          "off-flow bike parking",
          "protected waiting"
        ],
        "non_identical_geometry": true,
        "field_social_baseline_required": true,
        "source_ids": [
          "AGENT-TASKBOOK"
        ],
        "assumption_ids": [
          "A-BND-001",
          "A-SECTION-001"
        ],
        "area_sqm_declared": 1256.0
      },
      "geometry": {
        "type": "Polygon",
        "coordinates": [
          [
            [
              116.34749930520223,
              39.97214334349434
            ],
            [
              116.3474979350044,
              39.97228743400565
            ],
            [
              116.34749759245338,
              39.972323456632914
            ],
            [
              116.34749690734952,
              39.97239550188676
            ],
            [
              116.34768418689264,
              39.972396555957864
            ],
            [
              116.3476848717999,
              39.97232451070135
            ],
            [
              116.34789556107653,
              39.9723256961667
            ],
            [
              116.34789487639043,
              39.97239774142623
            ],
            [
              116.34808215595449,
              39.97239879485443
            ],
            [
              116.34808284044398,
              39.972326749592234
            ],
            [
              116.3480831826878,
              39.972290726960786
            ],
            [
              116.3480845516569,
              39.972146636432754
            ],
            [
              116.34749930520223,
              39.97214334349434
            ]
          ]
        ]
      }
    },
    {
      "type": "Feature",
      "id": "SWITCH-ROOM-04",
      "properties": {
        "id": "SWITCH-ROOM-04",
        "layer": "PUBLIC_SPACE",
        "source_type": "agent_generated_design",
        "confidence": "low",
        "geometry_role": "design_proposal",
        "name_zh": "轨道城市房间 04 · 海绵穿越",
        "name_en": "Rail Civic Room 04 · Sponge Crossing",
        "reference_prototype": true,
        "rail_civic_room_type": "sponge_crossing",
        "shared_eave": true,
        "no_phone_route": true,
        "accountable_operator": "landscape maintenance team",
        "operating_hours": "24h except flood closure",
        "required_elements": [
          "accessible boardwalk",
          "silt forebay",
          "marked overflow"
        ],
        "non_identical_geometry": true,
        "field_social_baseline_required": true,
        "source_ids": [
          "AGENT-TASKBOOK"
        ],
        "assumption_ids": [
          "A-BND-001",
          "A-SECTION-001"
        ],
        "area_sqm_declared": 928.394
      },
      "geometry": {
        "type": "Polygon",
        "coordinates": [
          [
            [
              116.34749104090767,
              39.98354268384953
            ],
            [
              116.34747088044188,
              39.98353424780324
            ],
            [
              116.34744896791314,
              39.98352899943842
            ],
            [
              116.34742614540492,
              39.983527140445986
            ],
            [
              116.34740328997005,
              39.983528742265705
            ],
            [
              116.3473812799267,
              39.98353374334073
            ],
            [
              116.34736096110562,
              39.983541951483254
            ],
            [
              116.34734311434575,
              39.98355305125998
            ],
            [
              116.3473284254873,
              39.98356661611401
            ],
            [
              116.34731745901546,
              39.9835821247569
            ],
            [
              116.34731063636741,
              39.98359898120127
            ],
            [
              116.34730821973646,
              39.983616537664204
            ],
            [
              116.34731030199572,
              39.983634119460945
            ],
            [
              116.34731680312852,
              39.98365105093273
            ],
            [
              116.34732747330285,
              39.98366668141189
            ],
            [
              116.34734190247184,
              39.98368041022683
            ],
            [
              116.3473595361314,
              39.98369170978563
            ],
            [
              116.34737969662926,
              39.98370014585131
            ],
            [
              116.347401609207,
              39.98370539422949
            ],
            [
              116.34742443177375,
              39.98370725322715
            ],
            [
              116.34744728726773,
              39.983705651403795
            ],
            [
              116.34746929736177,
              39.98370065031678
            ],
            [
              116.34748961621739,
              39.98369244215577
            ],
            [
              116.34750746299045,
              39.98368134235683
            ],
            [
              116.34751784514158,
              39.98367175463527
            ],
            [
              116.34784680726246,
              39.98367360600888
            ],
            [
              116.34785700594493,
              39.9836833095582
            ],
            [
              116.34787463969116,
              39.983694609039325
            ],
            [
              116.34789480025444,
              39.9837030450159
            ],
            [
              116.34791671287384,
              39.98370829329701
            ],
            [
              116.34793953545687,
              39.98371015219338
            ],
            [
              116.34796239094118,
              39.983708550268354
            ],
            [
              116.34798440099992,
              39.98370354908323
            ],
            [
              116.348004719796,
              39.98369534083144
            ],
            [
              116.34802256648753,
              39.983684240952535
            ],
            [
              116.34803725523538,
              39.98367067600991
            ],
            [
              116.34804822155984,
              39.98365516729797
            ],
            [
              116.34805504403298,
              39.98363831080892
            ],
            [
              116.3480574604738,
              39.98362075432897
            ],
            [
              116.34805537802318,
              39.983603172544065
            ],
            [
              116.34804887671189,
              39.983586241112135
            ],
            [
              116.3480382063845,
              39.983570610697946
            ],
            [
              116.34802377709777,
              39.983556881968504
            ],
            [
              116.34800614336179,
              39.9835455825099
            ],
            [
              116.34798598283056,
              39.98353714655271
            ],
            [
              116.34796407026019,
              39.983531898284944
            ],
            [
              116.34794124773566,
              39.98353003939382
            ],
            [
              116.34791839231045,
              39.9835316413152
            ],
            [
              116.34789638230241,
              39.98353664248834
            ],
            [
              116.34787606354091,
              39.98354485072164
            ],
            [
              116.34785821686255,
              39.983555950578356
            ],
            [
              116.34784783477635,
              39.98356553833113
            ],
            [
              116.34751887317368,
              39.983563686964565
            ],
            [
              116.34750867455698,
              39.98355398338581
            ],
            [
              116.34749104090767,
              39.98354268384953
            ]
          ]
        ]
      }
    },
    {
      "type": "Feature",
      "id": "SWITCH-ROOM-05",
      "properties": {
        "id": "SWITCH-ROOM-05",
        "layer": "PUBLIC_SPACE",
        "source_type": "agent_generated_design",
        "confidence": "low",
        "geometry_role": "design_proposal",
        "name_zh": "轨道城市房间 05 · 分时协同开放校门",
        "name_en": "Rail Civic Room 05 · Negotiated Campus Gate",
        "reference_prototype": true,
        "rail_civic_room_type": "negotiated_campus_gate",
        "shared_eave": true,
        "no_phone_route": true,
        "accountable_operator": "campus + community",
        "operating_hours": "agreed windows",
        "required_elements": [
          "public-side service room",
          "separate secure entrance",
          "manual emergency override"
        ],
        "non_identical_geometry": true,
        "field_social_baseline_required": true,
        "source_ids": [
          "AGENT-TASKBOOK"
        ],
        "assumption_ids": [
          "A-BND-001",
          "A-SECTION-001"
        ],
        "area_sqm_declared": 820.0
      },
      "geometry": {
        "type": "Polygon",
        "coordinates": [
          [
            [
              116.34737809811615,
              39.99595787826309
            ],
            [
              116.34772936790667,
              39.995959855719356
            ],
            [
              116.3477289395109,
              39.99600488382102
            ],
            [
              116.34784602952567,
              39.9960055427376
            ],
            [
              116.34784842809884,
              39.995753385357865
            ],
            [
              116.34773133851465,
              39.995752726447144
            ],
            [
              116.34773091012333,
              39.995797754550445
            ],
            [
              116.34737964116322,
              39.995795777105464
            ],
            [
              116.34737809811615,
              39.99595787826309
            ]
          ]
        ]
      }
    },
    {
      "type": "Feature",
      "id": "SWITCH-ROOM-06",
      "properties": {
        "id": "SWITCH-ROOM-06",
        "layer": "PUBLIC_SPACE",
        "source_type": "agent_generated_design",
        "confidence": "low",
        "geometry_role": "design_proposal",
        "name_zh": "轨道城市房间 06 · 社区照护廊",
        "name_en": "Rail Civic Room 06 · Neighbourhood Care Porch",
        "reference_prototype": true,
        "rail_civic_room_type": "neighbourhood_care_porch",
        "shared_eave": true,
        "no_phone_route": true,
        "accountable_operator": "community steward",
        "operating_hours": "05:30-21:30",
        "required_elements": [
          "visible play",
          "elder quiet loop",
          "caregiver toilet"
        ],
        "non_identical_geometry": true,
        "field_social_baseline_required": true,
        "source_ids": [
          "AGENT-TASKBOOK"
        ],
        "assumption_ids": [
          "A-BND-001",
          "A-SECTION-001"
        ],
        "area_sqm_declared": 980.0
      },
      "geometry": {
        "type": "Polygon",
        "coordinates": [
          [
            [
              116.34719315824428,
              40.00800055699445
            ],
            [
              116.34719272931366,
              40.00804558499747
            ],
            [
              116.34719230038208,
              40.008090613000135
            ],
            [
              116.34718998413483,
              40.00833376420839
            ],
            [
              116.34730709519872,
              40.008334423837134
            ],
            [
              116.3473094110305,
              40.00809127262324
            ],
            [
              116.34759047660246,
              40.008092855235894
            ],
            [
              116.34758816176779,
              40.00833600646334
            ],
            [
              116.34770527284478,
              40.00833666568977
            ],
            [
              116.34770758726401,
              40.00809351445666
            ],
            [
              116.34770801585708,
              40.0080484864494
            ],
            [
              116.3477084444492,
              40.008003458441785
            ],
            [
              116.34719315824428,
              40.00800055699445
            ]
          ]
        ]
      }
    },
    {
      "type": "Feature",
      "id": "SWITCH-ROOM-07",
      "properties": {
        "id": "SWITCH-ROOM-07",
        "layer": "PUBLIC_SPACE",
        "source_type": "agent_generated_design",
        "confidence": "low",
        "geometry_role": "design_proposal",
        "name_zh": "轨道城市房间 07 · 夜间城市房",
        "name_en": "Rail Civic Room 07 · Night Room",
        "reference_prototype": true,
        "rail_civic_room_type": "night_room",
        "shared_eave": true,
        "no_phone_route": true,
        "accountable_operator": "night steward",
        "operating_hours": "21:00-06:00",
        "required_elements": [
          "staffed frontage",
          "low-cost food + waiting",
          "housing-side acoustic back"
        ],
        "non_identical_geometry": true,
        "field_social_baseline_required": true,
        "source_ids": [
          "AGENT-TASKBOOK"
        ],
        "assumption_ids": [
          "A-BND-001",
          "A-SECTION-001"
        ],
        "area_sqm_declared": 976.0
      },
      "geometry": {
        "type": "Polygon",
        "coordinates": [
          [
            [
              116.34756466497556,
              40.01941380640063
            ],
            [
              116.34711957096518,
              40.01941129959822
            ],
            [
              116.34711768268824,
              40.01960942241465
            ],
            [
              116.34711751102577,
              40.01962743357944
            ],
            [
              116.34711682437437,
              40.01969947823803
            ],
            [
              116.34721052876604,
              40.01970000613331
            ],
            [
              116.34721121531892,
              40.01962796147339
            ],
            [
              116.34756260644025,
              40.019629940400925
            ],
            [
              116.34756466497556,
              40.01941380640063
            ]
          ]
        ]
      }
    }
  ]
}
