{
  "type": "FeatureCollection",
  "name": "shared_floor_mobility_interfaces",
  "features": [
    {
      "type": "Feature",
      "id": "SHARED-FLOOR-SPINE",
      "properties": {
        "id": "SHARED-FLOOR-SPINE",
        "layer": "ROAD_CENTERLINE",
        "source_type": "agent_generated_design",
        "confidence": "low",
        "geometry_role": "design_proposal",
        "road_class": "greenway",
        "name_zh": "共同地面概念基线",
        "name_en": "Shared Floor conceptual spine",
        "concept_width_m": 12.0,
        "not_existing_alignment": true,
        "source_ids": [
          "BEIJING-PARK-PHASE-II"
        ],
        "assumption_ids": [
          "A-BND-001",
          "A-SECTION-001"
        ]
      },
      "geometry": {
        "type": "LineString",
        "coordinates": [
          [
            116.34810670731507,
            39.93900022977796
          ],
          [
            116.34727457848608,
            40.02650015841803
          ]
        ]
      }
    },
    {
      "type": "Feature",
      "id": "SWITCH-01",
      "properties": {
        "id": "SWITCH-01",
        "layer": "ROAD_CENTERLINE",
        "source_type": "agent_generated_design",
        "confidence": "low",
        "geometry_role": "design_proposal",
        "road_class": "pedestrian",
        "name_zh": "轨道城市房间测试位 01 · 遗产门槛",
        "name_en": "Rail Civic Room 01 · Heritage Threshold",
        "switch_type": "heritage",
        "civic_room_program": "Heritage Threshold",
        "shared_eave": true,
        "staffed_handoff": true,
        "field_social_baseline_required": true,
        "approved_alignment": false,
        "rebind_priority": "critical",
        "source_ids": [
          "AGENT-TASKBOOK"
        ],
        "assumption_ids": [
          "A-BND-001",
          "A-MOBILITY-001"
        ]
      },
      "geometry": {
        "type": "LineString",
        "coordinates": [
          [
            116.34045918525057,
            39.947673658201836
          ],
          [
            116.35530001476778,
            39.947757137732225
          ]
        ]
      }
    },
    {
      "type": "Feature",
      "id": "SWITCH-02",
      "properties": {
        "id": "SWITCH-02",
        "layer": "ROAD_CENTERLINE",
        "source_type": "agent_generated_design",
        "confidence": "low",
        "geometry_role": "design_proposal",
        "road_class": "cycleway",
        "name_zh": "轨道城市房间测试位 02 · 骑手驿站",
        "name_en": "Rail Civic Room 02 · Rider Dock",
        "switch_type": "service",
        "civic_room_program": "Rider Dock",
        "shared_eave": true,
        "staffed_handoff": true,
        "field_social_baseline_required": true,
        "approved_alignment": false,
        "rebind_priority": "critical",
        "source_ids": [
          "AGENT-TASKBOOK"
        ],
        "assumption_ids": [
          "A-BND-001",
          "A-MOBILITY-001"
        ]
      },
      "geometry": {
        "type": "LineString",
        "coordinates": [
          [
            116.3401187242978,
            39.959931685134116
          ],
          [
            116.35530001024352,
            39.96001710840778
          ]
        ]
      }
    },
    {
      "type": "Feature",
      "id": "SWITCH-03",
      "properties": {
        "id": "SWITCH-03",
        "layer": "ROAD_CENTERLINE",
        "source_type": "agent_generated_design",
        "confidence": "low",
        "geometry_role": "design_proposal",
        "road_class": "transit_connection",
        "name_zh": "轨道城市房间测试位 03 · 站前廊",
        "name_en": "Rail Civic Room 03 · Station Porch",
        "switch_type": "transit",
        "civic_room_program": "Station Porch",
        "shared_eave": true,
        "staffed_handoff": true,
        "field_social_baseline_required": true,
        "approved_alignment": false,
        "rebind_priority": "critical",
        "source_ids": [
          "AGENT-TASKBOOK"
        ],
        "assumption_ids": [
          "A-BND-001",
          "A-MOBILITY-001"
        ]
      },
      "geometry": {
        "type": "LineString",
        "coordinates": [
          [
            116.33977811165414,
            39.972189684249315
          ],
          [
            116.35471825887804,
            39.97227381637804
          ]
        ]
      }
    },
    {
      "type": "Feature",
      "id": "SWITCH-04",
      "properties": {
        "id": "SWITCH-04",
        "layer": "ROAD_CENTERLINE",
        "source_type": "agent_generated_design",
        "confidence": "low",
        "geometry_role": "design_proposal",
        "road_class": "greenway",
        "name_zh": "轨道城市房间测试位 04 · 海绵穿越",
        "name_en": "Rail Civic Room 04 · Sponge Crossing",
        "switch_type": "river",
        "civic_room_program": "Sponge Crossing",
        "shared_eave": true,
        "staffed_handoff": true,
        "field_social_baseline_required": true,
        "approved_alignment": false,
        "rebind_priority": "critical",
        "source_ids": [
          "AGENT-TASKBOOK"
        ],
        "assumption_ids": [
          "A-BND-001",
          "A-MOBILITY-001"
        ]
      },
      "geometry": {
        "type": "LineString",
        "coordinates": [
          [
            116.34025316577944,
            39.98357659487372
          ],
          [
            116.35380791430711,
            39.983652956163155
          ]
        ]
      }
    },
    {
      "type": "Feature",
      "id": "SWITCH-05",
      "properties": {
        "id": "SWITCH-05",
        "layer": "ROAD_CENTERLINE",
        "source_type": "agent_generated_design",
        "confidence": "low",
        "geometry_role": "design_proposal",
        "road_class": "pedestrian",
        "name_zh": "轨道城市房间测试位 05 · 分时协同开放校门",
        "name_en": "Rail Civic Room 05 · Negotiated Campus Gate",
        "switch_type": "campus",
        "civic_room_program": "Negotiated Campus Gate",
        "shared_eave": true,
        "staffed_handoff": true,
        "field_social_baseline_required": true,
        "approved_alignment": false,
        "rebind_priority": "critical",
        "source_ids": [
          "AGENT-TASKBOOK"
        ],
        "assumption_ids": [
          "A-BND-001",
          "A-MOBILITY-001"
        ]
      },
      "geometry": {
        "type": "LineString",
        "coordinates": [
          [
            116.3410444002835,
            39.995840985439166
          ],
          [
            116.35362380779813,
            39.99591182440916
          ]
        ]
      }
    },
    {
      "type": "Feature",
      "id": "SWITCH-06",
      "properties": {
        "id": "SWITCH-06",
        "layer": "ROAD_CENTERLINE",
        "source_type": "agent_generated_design",
        "confidence": "low",
        "geometry_role": "design_proposal",
        "road_class": "local_access",
        "name_zh": "轨道城市房间测试位 06 · 社区照护廊",
        "name_en": "Rail Civic Room 06 · Neighbourhood Care Porch",
        "switch_type": "neighbourhood",
        "civic_room_program": "Neighbourhood Care Porch",
        "shared_eave": true,
        "staffed_handoff": true,
        "field_social_baseline_required": true,
        "approved_alignment": false,
        "rebind_priority": "critical",
        "source_ids": [
          "AGENT-TASKBOOK"
        ],
        "assumption_ids": [
          "A-BND-001",
          "A-MOBILITY-001"
        ]
      },
      "geometry": {
        "type": "LineString",
        "coordinates": [
          [
            116.34180266677191,
            40.008105158362206
          ],
          [
            116.35429567902682,
            40.00817543892829
          ]
        ]
      }
    },
    {
      "type": "Feature",
      "id": "SWITCH-07",
      "properties": {
        "id": "SWITCH-07",
        "layer": "ROAD_CENTERLINE",
        "source_type": "agent_generated_design",
        "confidence": "low",
        "geometry_role": "design_proposal",
        "road_class": "pedestrian",
        "name_zh": "轨道城市房间测试位 07 · 夜间城市房",
        "name_en": "Rail Civic Room 07 · Night Room",
        "switch_type": "night",
        "civic_room_program": "Night Room",
        "shared_eave": true,
        "staffed_handoff": true,
        "field_social_baseline_required": true,
        "approved_alignment": false,
        "rebind_priority": "critical",
        "source_ids": [
          "AGENT-TASKBOOK"
        ],
        "assumption_ids": [
          "A-BND-001",
          "A-MOBILITY-001"
        ]
      },
      "geometry": {
        "type": "LineString",
        "coordinates": [
          [
            116.3423581098959,
            40.019492448501644
          ],
          [
            116.35491974846965,
            40.019563056042415
          ]
        ]
      }
    },
    {
      "type": "Feature",
      "id": "PROTOTYPE-ROUTE-PROOF-01",
      "properties": {
        "id": "PROTOTYPE-ROUTE-PROOF-01",
        "layer": "ROAD_CENTERLINE",
        "source_type": "agent_generated_design",
        "confidence": "medium",
        "geometry_role": "design_proposal",
        "road_class": "pedestrian",
        "route_kind": "public",
        "prototype_room": "proof",
        "no_phone_route": true,
        "operating_rule": "always",
        "name_zh": "验证院 · public 路线 1",
        "name_en": "Proof Yard · public route 1",
        "source_ids": [
          "AGENT-TASKBOOK"
        ],
        "assumption_ids": [
          "A-PROTOTYPE-001",
          "A-MOBILITY-001"
        ]
      },
      "geometry": {
        "type": "LineString",
        "coordinates": [
          [
            116.34737320925211,
            40.016148980557695
          ],
          [
            116.34909493869975,
            40.016158664022036
          ]
        ]
      }
    },
    {
      "type": "Feature",
      "id": "PROTOTYPE-ROUTE-PROOF-02",
      "properties": {
        "id": "PROTOTYPE-ROUTE-PROOF-02",
        "layer": "ROAD_CENTERLINE",
        "source_type": "agent_generated_design",
        "confidence": "medium",
        "geometry_role": "design_proposal",
        "road_class": "pedestrian",
        "route_kind": "public",
        "prototype_room": "proof",
        "no_phone_route": true,
        "operating_rule": "always",
        "name_zh": "验证院 · public 路线 2",
        "name_en": "Proof Yard · public route 2",
        "source_ids": [
          "AGENT-TASKBOOK"
        ],
        "assumption_ids": [
          "A-PROTOTYPE-001",
          "A-MOBILITY-001"
        ]
      },
      "geometry": {
        "type": "LineString",
        "coordinates": [
          [
            116.34825164253965,
            40.01615392429654
          ],
          [
            116.34824924371833,
            40.0164060808062
          ]
        ]
      }
    },
    {
      "type": "Feature",
      "id": "PROTOTYPE-ROUTE-PROOF-03",
      "properties": {
        "id": "PROTOTYPE-ROUTE-PROOF-03",
        "layer": "ROAD_CENTERLINE",
        "source_type": "agent_generated_design",
        "confidence": "medium",
        "geometry_role": "design_proposal",
        "road_class": "local_access",
        "route_kind": "service",
        "prototype_room": "proof",
        "no_phone_route": false,
        "operating_rule": "explicit_time_window",
        "name_zh": "验证院 · service 路线 3",
        "name_en": "Proof Yard · service route 3",
        "source_ids": [
          "AGENT-TASKBOOK"
        ],
        "assumption_ids": [
          "A-PROTOTYPE-001",
          "A-MOBILITY-001"
        ]
      },
      "geometry": {
        "type": "LineString",
        "coordinates": [
          [
            116.34773440870894,
            40.01634914772957
          ],
          [
            116.34772703490654,
            40.01712362829651
          ]
        ]
      }
    },
    {
      "type": "Feature",
      "id": "PROTOTYPE-ROUTE-PROOF-04",
      "properties": {
        "id": "PROTOTYPE-ROUTE-PROOF-04",
        "layer": "ROAD_CENTERLINE",
        "source_type": "agent_generated_design",
        "confidence": "medium",
        "geometry_role": "design_proposal",
        "road_class": "local_access",
        "route_kind": "robot",
        "prototype_room": "proof",
        "no_phone_route": false,
        "operating_rule": "explicit_time_window",
        "name_zh": "验证院 · robot 路线 4",
        "name_en": "Proof Yard · robot route 4",
        "source_ids": [
          "AGENT-TASKBOOK"
        ],
        "assumption_ids": [
          "A-PROTOTYPE-001",
          "A-MOBILITY-001"
        ]
      },
      "geometry": {
        "type": "LineString",
        "coordinates": [
          [
            116.34876510687376,
            40.01635494451758
          ],
          [
            116.3487577447213,
            40.0171294252426
          ]
        ]
      }
    },
    {
      "type": "Feature",
      "id": "PROTOTYPE-ROUTE-ORIGIN-01",
      "properties": {
        "id": "PROTOTYPE-ROUTE-ORIGIN-01",
        "layer": "ROAD_CENTERLINE",
        "source_type": "agent_generated_design",
        "confidence": "medium",
        "geometry_role": "design_proposal",
        "road_class": "pedestrian",
        "route_kind": "public",
        "prototype_room": "origin",
        "no_phone_route": true,
        "operating_rule": "always",
        "name_zh": "原点廊院 · public 路线 1",
        "name_en": "Origin Cloister · public route 1",
        "source_ids": [
          "AGENT-TASKBOOK"
        ],
        "assumption_ids": [
          "A-PROTOTYPE-001",
          "A-MOBILITY-001"
        ]
      },
      "geometry": {
        "type": "LineString",
        "coordinates": [
          [
            116.34667868664266,
            39.988252219429796
          ],
          [
            116.34859874587721,
            39.988263026398684
          ]
        ]
      }
    },
    {
      "type": "Feature",
      "id": "PROTOTYPE-ROUTE-ORIGIN-02",
      "properties": {
        "id": "PROTOTYPE-ROUTE-ORIGIN-02",
        "layer": "ROAD_CENTERLINE",
        "source_type": "agent_generated_design",
        "confidence": "medium",
        "geometry_role": "design_proposal",
        "road_class": "pedestrian",
        "route_kind": "public",
        "prototype_room": "origin",
        "no_phone_route": true,
        "operating_rule": "always",
        "name_zh": "原点廊院 · public 路线 2",
        "name_en": "Origin Cloister · public route 2",
        "source_ids": [
          "AGENT-TASKBOOK"
        ],
        "assumption_ids": [
          "A-PROTOTYPE-001",
          "A-MOBILITY-001"
        ]
      },
      "geometry": {
        "type": "LineString",
        "coordinates": [
          [
            116.34725236276874,
            39.98825545167284
          ],
          [
            116.34725210561356,
            39.988282468567334
          ]
        ]
      }
    },
    {
      "type": "Feature",
      "id": "PROTOTYPE-ROUTE-ORIGIN-03",
      "properties": {
        "id": "PROTOTYPE-ROUTE-ORIGIN-03",
        "layer": "ROAD_CENTERLINE",
        "source_type": "agent_generated_design",
        "confidence": "medium",
        "geometry_role": "design_proposal",
        "road_class": "pedestrian",
        "route_kind": "public",
        "prototype_room": "origin",
        "no_phone_route": true,
        "operating_rule": "always",
        "name_zh": "原点廊院 · public 路线 3",
        "name_en": "Origin Cloister · public route 3",
        "source_ids": [
          "AGENT-TASKBOOK"
        ],
        "assumption_ids": [
          "A-PROTOTYPE-001",
          "A-MOBILITY-001"
        ]
      },
      "geometry": {
        "type": "LineString",
        "coordinates": [
          [
            116.34763871613032,
            39.98825762688971
          ],
          [
            116.3476346897103,
            39.988680891587876
          ]
        ]
      }
    },
    {
      "type": "Feature",
      "id": "PROTOTYPE-ROUTE-ORIGIN-04",
      "properties": {
        "id": "PROTOTYPE-ROUTE-ORIGIN-04",
        "layer": "ROAD_CENTERLINE",
        "source_type": "agent_generated_design",
        "confidence": "medium",
        "geometry_role": "design_proposal",
        "road_class": "pedestrian",
        "route_kind": "public",
        "prototype_room": "origin",
        "no_phone_route": true,
        "operating_rule": "always",
        "name_zh": "原点廊院 · public 路线 4",
        "name_en": "Origin Cloister · public route 4",
        "source_ids": [
          "AGENT-TASKBOOK"
        ],
        "assumption_ids": [
          "A-PROTOTYPE-001",
          "A-MOBILITY-001"
        ]
      },
      "geometry": {
        "type": "LineString",
        "coordinates": [
          [
            116.34816556169106,
            39.988260591019284
          ],
          [
            116.34816530489559,
            39.98828760791867
          ]
        ]
      }
    },
    {
      "type": "Feature",
      "id": "PROTOTYPE-ROUTE-ORIGIN-05",
      "properties": {
        "id": "PROTOTYPE-ROUTE-ORIGIN-05",
        "layer": "ROAD_CENTERLINE",
        "source_type": "agent_generated_design",
        "confidence": "medium",
        "geometry_role": "design_proposal",
        "road_class": "local_access",
        "route_kind": "service",
        "prototype_room": "origin",
        "no_phone_route": false,
        "operating_rule": "explicit_time_window",
        "name_zh": "原点廊院 · service 路线 5",
        "name_en": "Origin Cloister · service route 5",
        "source_ids": [
          "AGENT-TASKBOOK"
        ],
        "assumption_ids": [
          "A-PROTOTYPE-001",
          "A-MOBILITY-001"
        ]
      },
      "geometry": {
        "type": "LineString",
        "coordinates": [
          [
            116.34678847210216,
            39.98901835786035
          ],
          [
            116.34847439658697,
            39.98902784716201
          ]
        ]
      }
    },
    {
      "type": "Feature",
      "id": "PROTOTYPE-ROUTE-EXCHANGE-01",
      "properties": {
        "id": "PROTOTYPE-ROUTE-EXCHANGE-01",
        "layer": "ROAD_CENTERLINE",
        "source_type": "agent_generated_design",
        "confidence": "medium",
        "geometry_role": "design_proposal",
        "road_class": "pedestrian",
        "route_kind": "public",
        "prototype_room": "exchange",
        "no_phone_route": true,
        "operating_rule": "always",
        "name_zh": "城市交汇厅 · public 路线 1",
        "name_en": "Exchange Hall · public route 1",
        "source_ids": [
          "AGENT-TASKBOOK"
        ],
        "assumption_ids": [
          "A-PROTOTYPE-001",
          "A-MOBILITY-001"
        ]
      },
      "geometry": {
        "type": "LineString",
        "coordinates": [
          [
            116.3471891185213,
            39.946912767533476
          ],
          [
            116.34887400912493,
            39.94692224277278
          ]
        ]
      }
    },
    {
      "type": "Feature",
      "id": "PROTOTYPE-ROUTE-EXCHANGE-02",
      "properties": {
        "id": "PROTOTYPE-ROUTE-EXCHANGE-02",
        "layer": "ROAD_CENTERLINE",
        "source_type": "agent_generated_design",
        "confidence": "medium",
        "geometry_role": "design_proposal",
        "road_class": "pedestrian",
        "route_kind": "public",
        "prototype_room": "exchange",
        "no_phone_route": true,
        "operating_rule": "always",
        "name_zh": "城市交汇厅 · public 路线 2",
        "name_en": "Exchange Hall · public route 2",
        "source_ids": [
          "AGENT-TASKBOOK"
        ],
        "assumption_ids": [
          "A-PROTOTYPE-001",
          "A-MOBILITY-001"
        ]
      },
      "geometry": {
        "type": "LineString",
        "coordinates": [
          [
            116.34803771896391,
            39.94626909796895
          ],
          [
            116.34802540828352,
            39.94756591838478
          ]
        ]
      }
    },
    {
      "type": "Feature",
      "id": "PROTOTYPE-ROUTE-EXCHANGE-03",
      "properties": {
        "id": "PROTOTYPE-ROUTE-EXCHANGE-03",
        "layer": "ROAD_CENTERLINE",
        "source_type": "agent_generated_design",
        "confidence": "medium",
        "geometry_role": "design_proposal",
        "road_class": "local_access",
        "route_kind": "service",
        "prototype_room": "exchange",
        "no_phone_route": false,
        "operating_rule": "explicit_time_window",
        "name_zh": "城市交汇厅 · service 路线 3",
        "name_en": "Exchange Hall · service route 3",
        "source_ids": [
          "AGENT-TASKBOOK"
        ],
        "assumption_ids": [
          "A-PROTOTYPE-001",
          "A-MOBILITY-001"
        ]
      },
      "geometry": {
        "type": "LineString",
        "coordinates": [
          [
            116.34719485372094,
            39.94630938588115
          ],
          [
            116.34775647890021,
            39.94631254694752
          ]
        ]
      }
    },
    {
      "type": "Feature",
      "id": "PROTOTYPE-ROUTE-EXCHANGE-04",
      "properties": {
        "id": "PROTOTYPE-ROUTE-EXCHANGE-04",
        "layer": "ROAD_CENTERLINE",
        "source_type": "agent_generated_design",
        "confidence": "medium",
        "geometry_role": "design_proposal",
        "road_class": "local_access",
        "route_kind": "service",
        "prototype_room": "exchange",
        "no_phone_route": false,
        "operating_rule": "explicit_time_window",
        "name_zh": "城市交汇厅 · service 路线 4",
        "name_en": "Exchange Hall · service route 4",
        "source_ids": [
          "AGENT-TASKBOOK"
        ],
        "assumption_ids": [
          "A-PROTOTYPE-001",
          "A-MOBILITY-001"
        ]
      },
      "geometry": {
        "type": "LineString",
        "coordinates": [
          [
            116.34831810416816,
            39.946315705293486
          ],
          [
            116.34887972952468,
            39.94631886091906
          ]
        ]
      }
    }
  ]
}
