{
  "type": "FeatureCollection",
  "name": "conceptual_breathing_buildings",
  "features": [
    {
      "type": "Feature",
      "id": "BLDG-BREATH-11",
      "properties": {
        "id": "BLDG-BREATH-11",
        "layer": "BUILDING_FOOTPRINT",
        "source_type": "agent_generated_design",
        "confidence": "medium",
        "geometry_role": "design_proposal",
        "building_type": "lab",
        "name_zh": "清算验证肺·环境校准实验室",
        "name_en": "Verification Lung · Environmental calibration lab",
        "retain_renovate_demolish": "pending_existing_building_and_ownership_data",
        "scale_status": "conceptual_footprint_not_approved",
        "area_sqm_declared": 11600.0
      },
      "geometry": {
        "type": "Polygon",
        "coordinates": [
          [
            [
              116.34662953451931,
              40.0171124145081
            ],
            [
              116.3479735908586,
              40.0172653794102
            ],
            [
              116.34814508466293,
              40.016374501788256
            ],
            [
              116.3468010453651,
              40.01622153898902
            ],
            [
              116.34662953451931,
              40.0171124145081
            ]
          ]
        ]
      }
    },
    {
      "type": "Feature",
      "id": "BLDG-BREATH-12",
      "properties": {
        "id": "BLDG-BREATH-12",
        "layer": "BUILDING_FOOTPRINT",
        "source_type": "agent_generated_design",
        "confidence": "medium",
        "geometry_role": "design_proposal",
        "building_type": "mixed_use",
        "name_zh": "清算验证肺·开放验证与公共服务厅",
        "name_en": "Verification Lung · Open verification and public service hall",
        "retain_renovate_demolish": "pending_existing_building_and_ownership_data",
        "scale_status": "conceptual_footprint_not_approved",
        "area_sqm_declared": 11600.0
      },
      "geometry": {
        "type": "Polygon",
        "coordinates": [
          [
            [
              116.34885493023363,
              40.01712494024414
            ],
            [
              116.35019899213628,
              40.0172778793759
            ],
            [
              116.35037045707894,
              40.01638699823155
            ],
            [
              116.34902641221821,
              40.01623406120187
            ],
            [
              116.34885493023363,
              40.01712494024414
            ]
          ]
        ]
      }
    },
    {
      "type": "Feature",
      "id": "BLDG-BREATH-21",
      "properties": {
        "id": "BLDG-BREATH-21",
        "layer": "BUILDING_FOOTPRINT",
        "source_type": "agent_generated_design",
        "confidence": "medium",
        "geometry_role": "design_proposal",
        "building_type": "lab",
        "name_zh": "跨代生活肺·环境校准实验室",
        "name_en": "Intergenerational Living Lung · Environmental calibration lab",
        "retain_renovate_demolish": "pending_existing_building_and_ownership_data",
        "scale_status": "conceptual_footprint_not_approved",
        "area_sqm_declared": 11600.0
      },
      "geometry": {
        "type": "Polygon",
        "coordinates": [
          [
            [
              116.34579185006088,
              39.989009003250075
            ],
            [
              116.34713812250911,
              39.98887119894559
            ],
            [
              116.34698367369506,
              39.98797848215991
            ],
            [
              116.34563741851103,
              39.98811628483012
            ],
            [
              116.34579185006088,
              39.989009003250075
            ]
          ]
        ]
      }
    },
    {
      "type": "Feature",
      "id": "BLDG-BREATH-22",
      "properties": {
        "id": "BLDG-BREATH-22",
        "layer": "BUILDING_FOOTPRINT",
        "source_type": "agent_generated_design",
        "confidence": "medium",
        "geometry_role": "design_proposal",
        "building_type": "mixed_use",
        "name_zh": "跨代生活肺·开放验证与公共服务厅",
        "name_en": "Intergenerational Living Lung · Open verification and public service hall",
        "retain_renovate_demolish": "pending_existing_building_and_ownership_data",
        "scale_status": "conceptual_footprint_not_approved",
        "area_sqm_declared": 11600.0
      },
      "geometry": {
        "type": "Polygon",
        "coordinates": [
          [
            [
              116.3480163331796,
              39.98902153781335
            ],
            [
              116.34936260175408,
              39.98888370763607
            ],
            [
              116.34920812391577,
              39.987990993584305
            ],
            [
              116.34786187260511,
              39.98812882212654
            ],
            [
              116.3480163331796,
              39.98902153781335
            ]
          ]
        ]
      }
    },
    {
      "type": "Feature",
      "id": "BLDG-BREATH-31",
      "properties": {
        "id": "BLDG-BREATH-31",
        "layer": "BUILDING_FOOTPRINT",
        "source_type": "agent_generated_design",
        "confidence": "medium",
        "geometry_role": "design_proposal",
        "building_type": "lab",
        "name_zh": "城市交换肺·环境校准实验室",
        "name_en": "Urban Exchange Lung · Environmental calibration lab",
        "retain_renovate_demolish": "pending_existing_building_and_ownership_data",
        "scale_status": "conceptual_footprint_not_approved",
        "area_sqm_declared": 11600.0
      },
      "geometry": {
        "type": "Polygon",
        "coordinates": [
          [
            [
              116.34663143402025,
              39.947282854186824
            ],
            [
              116.34797412483519,
              39.9474358099175
            ],
            [
              116.34814543183361,
              39.9465449201978
            ],
            [
              116.34680275800072,
              39.946391966565116
            ],
            [
              116.34663143402025,
              39.947282854186824
            ]
          ]
        ]
      }
    },
    {
      "type": "Feature",
      "id": "BLDG-BREATH-32",
      "properties": {
        "id": "BLDG-BREATH-32",
        "layer": "BUILDING_FOOTPRINT",
        "source_type": "agent_generated_design",
        "confidence": "medium",
        "geometry_role": "design_proposal",
        "building_type": "mixed_use",
        "name_zh": "城市交换肺·开放验证与公共服务厅",
        "name_en": "Urban Exchange Lung · Open verification and public service hall",
        "retain_renovate_demolish": "pending_existing_building_and_ownership_data",
        "scale_status": "conceptual_footprint_not_approved",
        "area_sqm_declared": 11600.0
      },
      "geometry": {
        "type": "Polygon",
        "coordinates": [
          [
            [
              116.34885456546722,
              39.94729536186795
            ],
            [
              116.35019726182662,
              39.94744829189168
            ],
            [
              116.35036854006398,
              39.946557398657674
            ],
            [
              116.34902586068705,
              39.94640447073113
            ],
            [
              116.34885456546722,
              39.94729536186795
            ]
          ]
        ]
      }
    }
  ]
}
