{
  "type": "FeatureCollection",
  "name": "breathing_green_network",
  "features": [
    {
      "type": "Feature",
      "id": "GREEN-SPINE-001",
      "properties": {
        "id": "GREEN-SPINE-001",
        "layer": "GREEN_SPACE",
        "source_type": "agent_generated_design",
        "confidence": "medium",
        "geometry_role": "design_proposal",
        "name_zh": "连续呼吸绿脊",
        "name_en": "Continuous Breathing Green Spine",
        "design_status": "conceptual",
        "area_sqm_declared": 887278.705
      },
      "geometry": {
        "type": "Polygon",
        "coordinates": [
          [
            [
              116.34652443300128,
              39.97642210203579
            ],
            [
              116.34652410307088,
              39.976434563973825
            ],
            [
              116.34642662130533,
              39.98903889655979
            ],
            [
              116.34642709163344,
              39.989059336864685
            ],
            [
              116.34832668843748,
              40.02436356092031
            ],
            [
              116.34945028573841,
              40.02432780625206
            ],
            [
              116.34755066034386,
              39.98903381163337
            ],
            [
              116.34764780859537,
              39.976445933686875
            ],
            [
              116.34821717225316,
              39.963850457297546
            ],
            [
              116.34821747959364,
              39.963840051300735
            ],
            [
              116.34853231737453,
              39.94115291426862
            ],
            [
              116.34740918543424,
              39.94114367857908
            ],
            [
              116.3470940489655,
              39.963825605187274
            ],
            [
              116.34652443300128,
              39.97642210203579
            ]
          ]
        ]
      }
    },
    {
      "type": "Feature",
      "id": "GREEN-LUNG-001",
      "properties": {
        "id": "GREEN-LUNG-001",
        "layer": "GREEN_SPACE",
        "source_type": "agent_generated_design",
        "confidence": "medium",
        "geometry_role": "design_proposal",
        "name_zh": "清算验证肺",
        "name_en": "Verification Lung",
        "design_status": "conceptual_plug_in_network",
        "area_sqm_declared": 245930.494
      },
      "geometry": {
        "type": "Polygon",
        "coordinates": [
          [
            [
              116.35127226580757,
              40.01647396671113
            ],
            [
              116.35123492558832,
              40.01618525580124
            ],
            [
              116.35117124721165,
              40.0159019812837
            ],
            [
              116.35108184423986,
              40.01562687120763
            ],
            [
              116.35096757794146,
              40.01536257497855
            ],
            [
              116.35082954898637,
              40.01511163784536
            ],
            [
              116.3506690868374,
              40.01487647639071
            ],
            [
              116.35048773694022,
              40.01465935526118
            ],
            [
              116.35028724583576,
              40.0144623653607
            ],
            [
              116.35006954433845,
              40.01428740371758
            ],
            [
              116.34983672894248,
              40.0141361552186
            ],
            [
              116.34959104163461,
              40.01401007638606
            ],
            [
              116.34933484830881,
              40.013910381353924
            ],
            [
              116.34907061598919,
              40.013838030177844
            ],
            [
              116.34880088908129,
              40.01379371959171
            ],
            [
              116.34852826487923,
              40.013777876299514
            ],
            [
              116.34825536856505,
              40.01379065286721
            ],
            [
              116.34798482793948,
              40.01383192625388
            ],
            [
              116.34771924812813,
              40.01390129899658
            ],
            [
              116.347461186505,
              40.01399810303721
            ],
            [
              116.34721312807561,
              40.01412140615481
            ],
            [
              116.34697746155514,
              40.01427002094119
            ],
            [
              116.34675645637246,
              40.0144425162338
            ],
            [
              116.34655224082076,
              40.01463723089547
            ],
            [
              116.34636678156505,
              40.01485228980878
            ],
            [
              116.34620186470379,
              40.01508562193096
            ],
            [
              116.34605907856668,
              40.01533498023563
            ],
            [
              116.34593979841493,
              40.015597963349435
            ],
            [
              116.34584517319074,
              40.015872038675354
            ],
            [
              116.34577611444432,
              40.016154566780244
            ],
            [
              116.34573328754541,
              40.01644282681149
            ],
            [
              116.34571710526379,
              40.01673404269862
            ],
            [
              116.34572772378188,
              40.01702540988709
            ],
            [
              116.34576504117751,
              40.01731412234719
            ],
            [
              116.34582869839241,
              40.01759739959777
            ],
            [
              116.34591808267758,
              40.01787251348476
            ],
            [
              116.34603233348261,
              40.01813681445614
            ],
            [
              116.34617035073293,
              40.0183877570808
            ],
            [
              116.34633080541559,
              40.018622924565015
            ],
            [
              116.34651215237184,
              40.0188400520305
            ],
            [
              116.34671264517378,
              40.019037048329864
            ],
            [
              116.34693035294168,
              40.01921201618889
            ],
            [
              116.34716317894046,
              40.0193632704819
            ],
            [
              116.34740888077583,
              40.01948935446393
            ],
            [
              116.34766509199561,
              40.019589053803145
            ],
            [
              116.34792934488794,
              40.01966140827838
            ],
            [
              116.3481990942568,
              40.019705721028956
            ],
            [
              116.34847174194478,
              40.01972156526767
            ],
            [
              116.34874466186741,
              40.01970878839223
            ],
            [
              116.34901522531659,
              40.01966751345536
            ],
            [
              116.3492808262897,
              40.0195981379796
            ],
            [
              116.34953890659942,
              40.01950133012805
            ],
            [
              116.34978698052223,
              40.019378022268164
            ],
            [
              116.35002265874745,
              40.01922940199034
            ],
            [
              116.35024367139643,
              40.01905690066815
            ],
            [
              116.35044788988907,
              40.01886217967051
            ],
            [
              116.3506333474473,
              40.018647114358316
            ],
            [
              116.35079825803795,
              40.01841377602024
            ],
            [
              116.35094103357225,
              40.01816441192154
            ],
            [
              116.35106029919649,
              40.01790142365824
            ],
            [
              116.35115490652673,
              40.01762734402522
            ],
            [
              116.35122394470041,
              40.01734481262118
            ],
            [
              116.35126674913842,
              40.01705655042551
            ],
            [
              116.35128290793409,
              40.016765333591856
            ],
            [
              116.35127226580757,
              40.01647396671113
            ]
          ]
        ]
      }
    },
    {
      "type": "Feature",
      "id": "GREEN-LUNG-002",
      "properties": {
        "id": "GREEN-LUNG-002",
        "layer": "GREEN_SPACE",
        "source_type": "agent_generated_design",
        "confidence": "medium",
        "geometry_role": "design_proposal",
        "name_zh": "跨代生活肺",
        "name_en": "Intergenerational Living Lung",
        "design_status": "conceptual_plug_in_network",
        "area_sqm_declared": 245930.494
      },
      "geometry": {
        "type": "Polygon",
        "coordinates": [
          [
            [
              116.35027111961203,
              39.98822426976477
            ],
            [
              116.35023379739357,
              39.987935557286384
            ],
            [
              116.35017014782424,
              39.987652281085374
            ],
            [
              116.35008078418842,
              39.98737716922707
            ],
            [
              116.34996656737542,
              39.98711287113425
            ],
            [
              116.34982859757834,
              39.98686193207382
            ],
            [
              116.34966820369,
              39.98662676864713
            ],
            [
              116.34948693049851,
              39.986409645519785
            ],
            [
              116.3492865238061,
              39.986212653615084
            ],
            [
              116.34906891361435,
              39.986037689980684
            ],
            [
              116.34883619553815,
              39.98588643952267
            ],
            [
              116.34859061062735,
              39.9857603587823
            ],
            [
              116.34833452379004,
              39.98566066191196
            ],
            [
              116.34807040102521,
              39.98558830898504
            ],
            [
              116.34780078568366,
              39.98554399675235
            ],
            [
              116.34752827398563,
              39.98552815193378
            ],
            [
              116.3472554900301,
              39.98554092710996
            ],
            [
              116.34698506053624,
              39.98558219925338
            ],
            [
              116.3467195895598,
              39.98565157091302
            ],
            [
              116.34646163342715,
              39.98574837404117
            ],
            [
              116.34621367612817,
              39.985871676425575
            ],
            [
              116.34597810540444,
              39.98602029066507
            ],
            [
              116.34575718976248,
              39.98619278560226
            ],
            [
              116.34555305663328,
              39.9863875001033
            ],
            [
              116.34536767188814,
              39.98660255905224
            ],
            [
              116.34520282090786,
              39.98683589140588
            ],
            [
              116.34506009138754,
              39.987085250135515
            ],
            [
              116.34494085804292,
              39.98734823386359
            ],
            [
              116.34484626936509,
              39.98762230998716
            ],
            [
              116.34477723655198,
              39.987904839065266
            ],
            [
              116.34473442472306,
              39.98819310023595
            ],
            [
              116.3447182465026,
              39.988484317417715
            ],
            [
              116.3447288580334,
              39.988775686043546
            ],
            [
              116.34476615746011,
              39.9890644000699
            ],
            [
              116.34482978589702,
              39.98934767900061
            ],
            [
              116.34491913087192,
              39.98962279466541
            ],
            [
              116.34503333221252,
              39.98988709749526
            ],
            [
              116.3451712903204,
              39.99013804204126
            ],
            [
              116.34533167675194,
              39.9903732114912
            ],
            [
              116.3455129470055,
              39.99059034094802
            ],
            [
              116.34571335539185,
              39.99078733924517
            ],
            [
              116.34593097184434,
              39.990962309089355
            ],
            [
              116.34616370050738,
              39.99111356533583
            ],
            [
              116.34640929992433,
              39.991239651220916
            ],
            [
              116.34666540462962,
              39.99133935239453
            ],
            [
              116.34692954793765,
              39.99141170861785
            ],
            [
              116.34719918570806,
              39.99145602301342
            ],
            [
              116.34747172085879,
              39.991471868778255
            ],
            [
              116.34774452838954,
              39.99145909329532
            ],
            [
              116.34801498067513,
              39.99141781960395
            ],
            [
              116.34828047278397,
              39.99134844521462
            ],
            [
              116.34853844757757,
              39.991251638279955
            ],
            [
              116.34878642034893,
              39.99112833115851
            ],
            [
              116.34902200276186,
              39.99097971143346
            ],
            [
              116.34924292586066,
              39.99080721047302
            ],
            [
              116.34944706192773,
              39.990612489642515
            ],
            [
              116.34963244497892,
              39.9903974243011
            ],
            [
              116.34979728969853,
              39.99016408573768
            ],
            [
              116.34994000863198,
              39.98991472121958
            ],
            [
              116.35005922747044,
              39.989651732346786
            ],
            [
              116.35015379828027,
              39.98937765191998
            ],
            [
              116.35022281055022,
              39.98909511954545
            ],
            [
              116.35026559995023,
              39.98880685621188
            ],
            [
              116.35028175471803,
              39.98851563808386
            ],
            [
              116.35027111961203,
              39.98822426976477
            ]
          ]
        ]
      }
    },
    {
      "type": "Feature",
      "id": "GREEN-LUNG-003",
      "properties": {
        "id": "GREEN-LUNG-003",
        "layer": "GREEN_SPACE",
        "source_type": "agent_generated_design",
        "confidence": "medium",
        "geometry_role": "design_proposal",
        "name_zh": "城市交换肺",
        "name_en": "Urban Exchange Lung",
        "design_status": "conceptual_plug_in_network",
        "area_sqm_declared": 245930.494
      },
      "geometry": {
        "type": "Polygon",
        "coordinates": [
          [
            [
              116.35126943237648,
              39.94664436086306
            ],
            [
              116.35123212619698,
              39.94635564678944
            ],
            [
              116.3511685087329,
              39.94607236938704
            ],
            [
              116.35107919295884,
              39.94579725673283
            ],
            [
              116.35096503930258,
              39.94553295825734
            ],
            [
              116.35082714734857,
              39.94528201923122
            ],
            [
              116.35066684523953,
              39.94504685625561
            ],
            [
              116.35048567687952,
              39.94482973399193
            ],
            [
              116.35028538706106,
              39.94463274335528
            ],
            [
              116.35006790466018,
              39.94445778138127
            ],
            [
              116.34983532406127,
              39.94430653296009
            ],
            [
              116.34958988499055,
              39.94418045461351
            ],
            [
              116.34933395095199,
              39.94408076047097
            ],
            [
              116.34906998647351,
              39.94400841057973
            ],
            [
              116.3488005333822,
              39.9439641016614
            ],
            [
              116.34852818633641,
              39.94394826040399
            ],
            [
              116.34825556785009,
              39.943961039353916
            ],
            [
              116.3479853030496,
              39.94400231544725
            ],
            [
              116.34771999440524,
              39.94407169119495
            ],
            [
              116.3474621966807,
              39.94416849850986
            ],
            [
              116.34721439234087,
              39.94429180513932
            ],
            [
              116.3469789676547,
              39.944440423641204
            ],
            [
              116.34675818972268,
              39.94461292281694
            ],
            [
              116.34655418464978,
              39.944807641491714
            ],
            [
              116.34636891707414,
              39.94502270450928
            ],
            [
              116.3462041712481,
              39.945256040787086
            ],
            [
              116.34606153385398,
              39.945505403258515
            ],
            [
              116.34594237871991,
              39.94576839050988
            ],
            [
              116.34584785358335,
              39.94604246990413
            ],
            [
              116.34577886902976,
              39.94632500196877
            ],
            [
              116.3457360897133,
              39.94661326581299
            ],
            [
              116.34571992794437,
              39.94690448532949
            ],
            [
              116.3457305397067,
              39.94719585592873
            ],
            [
              116.34576782314194,
              39.947484571548195
            ],
            [
              116.34583141951782,
              39.94776785167638
            ],
            [
              116.3459207166701,
              39.948042968131595
            ],
            [
              116.34603485488662,
              39.948307271337214
            ],
            [
              116.34617273517635,
              39.9485582158408
            ],
            [
              116.34633302984471,
              39.94879338483073
            ],
            [
              116.34651419527364,
              39.949010513414464
            ],
            [
              116.34671448678328,
              39.949207510434015
            ],
            [
              116.34693197543258,
              39.94938247860851
            ],
            [
              116.34716456659699,
              39.94953373280944
            ],
            [
              116.34741002014434,
              39.949659816292936
            ],
            [
              116.34766597201433,
              39.94975951473215
            ],
            [
              116.34792995699368,
              39.9498318679147
            ],
            [
              116.34819943246757,
              39.9498761789925
            ],
            [
              116.34847180291747,
              39.94989202119454
            ],
            [
              116.34874444492999,
              39.949879241938135
            ],
            [
              116.34901473247473,
              39.94983796429894
            ],
            [
              116.34928006220728,
              39.94976858582545
            ],
            [
              116.34953787855362,
              39.94967177470955
            ],
            [
              116.34978569833315,
              39.94954846334998
            ],
            [
              116.35002113468364,
              39.949399839370635
            ],
            [
              116.35024192005633,
              39.94922733418058
            ],
            [
              116.3504459280603,
              39.94903260918573
            ],
            [
              116.35063119394476,
              39.94881753978526
            ],
            [
              116.35079593352239,
              39.948584197306985
            ],
            [
              116.35093856035097,
              39.948334829055796
            ],
            [
              116.35105770100844,
              39.94807183666753
            ],
            [
              116.3511522083136,
              39.9477977529766
            ],
            [
              116.3512211723663,
              39.947515217620634
            ],
            [
              116.35126392930019,
              39.94722695161694
            ],
            [
              116.35128006766502,
              39.94693573115581
            ],
            [
              116.35126943237648,
              39.94664436086306
            ]
          ]
        ]
      }
    }
  ]
}
