{
  "type": "FeatureCollection",
  "name": "breathing_land_use_structure",
  "features": [
    {
      "type": "Feature",
      "id": "LU-BREATH-01",
      "properties": {
        "id": "LU-BREATH-01",
        "layer": "LAND_USE",
        "source_type": "agent_generated_design",
        "confidence": "medium",
        "geometry_role": "design_proposal",
        "land_use_code": "09",
        "name_zh": "城市交换与产业服务",
        "name_en": "Urban exchange and industry services",
        "control_status": "conceptual_design_partition",
        "area_sqm_declared": 2460892.376
      },
      "geometry": {
        "type": "Polygon",
        "coordinates": [
          [
            [
              116.34070000000001,
              39.93899999999999
            ],
            [
              116.34021601432904,
              39.95642939456322
            ],
            [
              116.35530001453657,
              39.956514262280294
            ],
            [
              116.3553,
              39.939
            ],
            [
              116.34070000000001,
              39.93899999999999
            ]
          ]
        ]
      }
    },
    {
      "type": "Feature",
      "id": "LU-BREATH-02",
      "properties": {
        "id": "LU-BREATH-02",
        "layer": "LAND_USE",
        "source_type": "agent_generated_design",
        "confidence": "medium",
        "geometry_role": "design_proposal",
        "land_use_code": "1401",
        "name_zh": "蓝绿呼吸与公共开放空间",
        "name_en": "Blue-green breathing and public open space",
        "control_status": "conceptual_design_partition",
        "area_sqm_declared": 2761589.664
      },
      "geometry": {
        "type": "Polygon",
        "coordinates": [
          [
            [
              116.3553,
              39.965
            ],
            [
              116.35530001453657,
              39.956514262280294
            ],
            [
              116.34021601432904,
              39.95642939456322
            ],
            [
              116.3397,
              39.975
            ],
            [
              116.33974464858305,
              39.97569232850332
            ],
            [
              116.35443818771245,
              39.97577509354683
            ],
            [
              116.3553,
              39.965
            ]
          ]
        ]
      }
    },
    {
      "type": "Feature",
      "id": "LU-BREATH-03",
      "properties": {
        "id": "LU-BREATH-03",
        "layer": "LAND_USE",
        "source_type": "agent_generated_design",
        "confidence": "medium",
        "geometry_role": "design_proposal",
        "land_use_code": "0702",
        "name_zh": "跨代生活与社区服务",
        "name_en": "Intergenerational living and community services",
        "control_status": "conceptual_design_partition",
        "area_sqm_declared": 2132774.68
      },
      "geometry": {
        "type": "Polygon",
        "coordinates": [
          [
            [
              116.3533,
              39.99
            ],
            [
              116.35443818771245,
              39.97577509354683
            ],
            [
              116.33974464858305,
              39.97569232850332
            ],
            [
              116.34081830746287,
              39.99233687680454
            ],
            [
              116.35343188333394,
              39.99240792943176
            ],
            [
              116.3533,
              39.99
            ]
          ]
        ]
      }
    },
    {
      "type": "Feature",
      "id": "LU-BREATH-04",
      "properties": {
        "id": "LU-BREATH-04",
        "layer": "LAND_USE",
        "source_type": "agent_generated_design",
        "confidence": "medium",
        "geometry_role": "design_proposal",
        "land_use_code": "1401",
        "name_zh": "连续绿地与慢行联结",
        "name_en": "Continuous green and active-mobility link",
        "control_status": "conceptual_design_partition",
        "area_sqm_declared": 1977908.707
      },
      "geometry": {
        "type": "Polygon",
        "coordinates": [
          [
            [
              116.35343188333394,
              39.99240792943176
            ],
            [
              116.34081830746287,
              39.99233687680454
            ],
            [
              116.34169999999999,
              40.00600000000001
            ],
            [
              116.34184538752943,
              40.00898110459063
            ],
            [
              116.35434367790417,
              40.00905141032824
            ],
            [
              116.35343188333394,
              39.99240792943176
            ]
          ]
        ]
      }
    },
    {
      "type": "Feature",
      "id": "LU-BREATH-05",
      "properties": {
        "id": "LU-BREATH-05",
        "layer": "LAND_USE",
        "source_type": "agent_generated_design",
        "confidence": "medium",
        "geometry_role": "design_proposal",
        "land_use_code": "0802",
        "name_zh": "环境AI研发与验证",
        "name_en": "Environmental AI research and verification",
        "control_status": "conceptual_design_partition",
        "area_sqm_declared": 2079659.959
      },
      "geometry": {
        "type": "Polygon",
        "coordinates": [
          [
            [
              116.3553,
              40.02649999999999
            ],
            [
              116.35434367790417,
              40.00905141032824
            ],
            [
              116.34184538752943,
              40.00898110459063
            ],
            [
              116.34270000000001,
              40.026500000000006
            ],
            [
              116.3553,
              40.02649999999999
            ]
          ]
        ]
      }
    }
  ]
}
