{
  "type": "FeatureCollection",
  "name": "breathing_implementation_phases",
  "features": [
    {
      "type": "Feature",
      "id": "PHASE-001",
      "properties": {
        "id": "PHASE-001",
        "layer": "PHASE",
        "source_type": "agent_generated_design",
        "confidence": "medium",
        "geometry_role": "design_proposal",
        "phase": "near_term",
        "name_zh": "近期：三肺轻量验证",
        "name_en": "Near term: lightweight validation in three lungs",
        "trigger": "public_space_permission_and_baseline_measurement",
        "area_sqm_declared": 4972852.316
      },
      "geometry": {
        "type": "MultiPolygon",
        "coordinates": [
          [
            [
              [
                116.34060258700578,
                39.949945914432604
              ],
              [
                116.3406228023044,
                39.95005081801195
              ],
              [
                116.34065627966662,
                39.950153691556956
              ],
              [
                116.34070269677223,
                39.950253544419674
              ],
              [
                116.34076160668889,
                39.95034941503639
              ],
              [
                116.34083244217425,
                39.95044038018764
              ],
              [
                116.34091452113667,
                39.95052556388936
              ],
              [
                116.34100705320249,
                39.950604145828905
              ],
              [
                116.34110914732612,
                39.95067536926542
              ],
              [
                116.3412198203705,
                39.9507385483178
              ],
              [
                116.34133800657438,
                39.950793074570406
              ],
              [
                116.34146256781605,
                39.95083842293287
              ],
              [
                116.34159230457412,
                39.950874156697196
              ],
              [
                116.34172596747995,
                39.950899931743976
              ],
              [
                116.34186226935057,
                39.950915499856656
              ],
              [
                116.34199989758586,
                39.95092071111222
              ],
              [
                116.3550001021834,
                39.95092071275726
              ],
              [
                116.35513773055503,
                39.95091550153431
              ],
              [
                116.35527403257092,
                39.95089993344881
              ],
              [
                116.35530001640943,
                39.95089492284749
              ],
              [
                116.3553000085091,
                39.942945084644194
              ],
              [
                116.35527382526139,
                39.942940037768665
              ],
              [
                116.35513752367939,
                39.94292448255507
              ],
              [
                116.35499989761244,
                39.942919285956926
              ],
              [
                116.34200010215663,
                39.94291928760226
              ],
              [
                116.34186247622603,
                39.94292448423305
              ],
              [
                116.34172617478931,
                39.942940039473825
              ],
              [
                116.34159251056637,
                39.942965803511534
              ],
              [
                116.34146277088144,
                39.943001528212
              ],
              [
                116.34133820526647,
                39.94304686950942
              ],
              [
                116.34122001342823,
                39.94310139071961
              ],
              [
                116.34110933369486,
                39.9431645667452
              ],
              [
                116.34100723205334,
                39.94323578913238
              ],
              [
                116.34091469188326,
                39.9433143719302
              ],
              [
                116.34083260448551,
                39.943399558296456
              ],
              [
                116.34076176049784,
                39.94349052778622
              ],
              [
                116.34070284227901,
                39.94358640425306
              ],
              [
                116.34065641733561,
                39.94368626428671
              ],
              [
                116.34062293285471,
                39.943789146106255
              ],
              [
                116.34060271139495,
                39.943894058822785
              ],
              [
                116.34059594777766,
                39.943999991982636
              ],
              [
                116.34059582837737,
                39.94983999101107
              ],
              [
                116.34060258700578,
                39.949945914432604
              ]
            ]
          ],
          [
            [
              [
                116.34100642656067,
                39.99426414422652
              ],
              [
                116.34110858694729,
                39.994335367195724
              ],
              [
                116.34121933177688,
                39.99439854568321
              ],
              [
                116.34133759458132,
                39.9944530712699
              ],
              [
                116.34146223648459,
                39.99449841886408
              ],
              [
                116.34159205717093,
                39.994534151758806
              ],
              [
                116.34172580644515,
                39.99455992583798
              ],
              [
                116.34186219627365,
                39.99457549289073
              ],
              [
                116.34199991319008,
                39.994580703002036
              ],
              [
                116.35300008657879,
                39.99458070439435
              ],
              [
                116.35313780354396,
                39.994575494321104
              ],
              [
                116.35327419343213,
                39.99455992731174
              ],
              [
                116.35340794277846,
                39.99453415327954
              ],
              [
                116.3535377635505,
                39.9944984204336
              ],
              [
                116.35354621857233,
                39.99449534431393
              ],
              [
                116.3533,
                39.99
              ],
              [
                116.35388718182516,
                39.98266229061628
              ],
              [
                116.35378044410626,
                39.98260139940979
              ],
              [
                116.35366218545691,
                39.98254687831726
              ],
              [
                116.35353754937212,
                39.98250153691242
              ],
              [
                116.35340773621941,
                39.982465811873
              ],
              [
                116.3532739962194,
                39.982440047261825
              ],
              [
                116.35313761740647,
                39.98242449121383
              ],
              [
                116.35299991322533,
                39.982419293546464
              ],
              [
                116.34200008654337,
                39.982419294939184
              ],
              [
                116.34186238241107,
                39.98242449264462
              ],
              [
                116.34172600365781,
                39.98244004873599
              ],
              [
                116.34159226372996,
                39.98246581339415
              ],
              [
                116.34146245066299,
                39.98250153848237
              ],
              [
                116.34133781467835,
                39.98254687993586
              ],
              [
                116.34121955614393,
                39.98260140107501
              ],
              [
                116.34110881401446,
                39.9826645768104
              ],
              [
                116.34100665486321,
                39.982735798699395
              ],
              [
                116.34091406261,
                39.982814380805394
              ],
              [
                116.34083192904518,
                39.98289956630328
              ],
              [
                116.34076104524023,
                39.98299053476786
              ],
              [
                116.34070209392803,
                39.98308641007462
              ],
              [
                116.34065564292621,
                39.98318626883731
              ],
              [
                116.34062213966673,
                39.9832891493005
              ],
              [
                116.34060190688474,
                39.98339406060198
              ],
              [
                116.34059513950807,
                39.98349999231569
              ],
              [
                116.34059503185672,
                39.988876114300346
              ],
              [
                116.3409389621349,
                39.99420688821122
              ],
              [
                116.34100642656067,
                39.99426414422652
              ]
            ]
          ],
          [
            [
              [
                116.35529554552814,
                40.02641874408363
              ],
              [
                116.3542001295381,
                40.00643161797279
              ],
              [
                116.35413766550836,
                40.00642449552051
              ],
              [
                116.35399991315191,
                40.00641929788134
              ],
              [
                116.34300008661717,
                40.00641929927093
              ],
              [
                116.34286233419647,
                40.006424496956676
              ],
              [
                116.34272590762026,
                40.00644005299566
              ],
              [
                116.34259212079657,
                40.0064658175691
              ],
              [
                116.34246226221359,
                40.00650154254092
              ],
              [
                116.34233758253214,
                40.006546883847165
              ],
              [
                116.34221928254196,
                40.00660140480922
              ],
              [
                116.3421085015981,
                40.00666458033899
              ],
              [
                116.34200630664846,
                40.00673580199531
              ],
              [
                116.34191368195853,
                40.00681438384322
              ],
              [
                116.34183151963185,
                40.00689956905948
              ],
              [
                116.34176061101763,
                40.006990537220865
              ],
              [
                116.34174921086267,
                40.00700907131134
              ],
              [
                116.34270000000001,
                40.026500000000006
              ],
              [
                116.35524555741658,
                40.02650000294723
              ],
              [
                116.35529554552814,
                40.02641874408363
              ]
            ]
          ]
        ]
      }
    },
    {
      "type": "Feature",
      "id": "PHASE-002",
      "properties": {
        "id": "PHASE-002",
        "layer": "PHASE",
        "source_type": "agent_generated_design",
        "confidence": "medium",
        "geometry_role": "design_proposal",
        "phase": "mid_term",
        "name_zh": "中期：呼吸主脊连续化",
        "name_en": "Mid term: continuous breathing spine",
        "trigger": "official_geometry_and_municipal_coordination",
        "area_sqm_declared": 1904114.732
      },
      "geometry": {
        "type": "MultiPolygon",
        "coordinates": [
          [
            [
              [
                116.34486188477004,
                39.97642694564956
              ],
              [
                116.34481540246145,
                39.9824193939836
              ],
              [
                116.34926413870559,
                39.98241941108521
              ],
              [
                116.34930988640058,
                39.97647195077112
              ],
              [
                116.34987811300589,
                39.96389489177217
              ],
              [
                116.34987932856592,
                39.96385370134291
              ],
              [
                116.35005852716827,
                39.95092088388862
              ],
              [
                116.34561165676843,
                39.95092085782049
              ],
              [
                116.34543241616292,
                39.963796518818555
              ],
              [
                116.34486319193834,
                39.97637761717302
              ],
              [
                116.34486188477004,
                39.97642694564956
              ]
            ]
          ],
          [
            [
              [
                116.34569656292051,
                40.006419395531644
              ],
              [
                116.35015058893323,
                40.006419417123254
              ],
              [
                116.34951321438717,
                39.994580816976594
              ],
              [
                116.34505995957097,
                39.994580808212646
              ],
              [
                116.34569656292051,
                40.006419395531644
              ]
            ]
          ],
          [
            [
              [
                116.35019361752697,
                39.941166555447026
              ],
              [
                116.3457478869315,
                39.9411299975093
              ],
              [
                116.34572299299812,
                39.94291943608407
              ],
              [
                116.35016934534575,
                39.94291945676237
              ],
              [
                116.35019361752697,
                39.941166555447026
              ]
            ]
          ]
        ]
      }
    },
    {
      "type": "Feature",
      "id": "PHASE-003",
      "properties": {
        "id": "PHASE-003",
        "layer": "PHASE",
        "source_type": "agent_generated_design",
        "confidence": "medium",
        "geometry_role": "design_proposal",
        "phase": "long_term",
        "name_zh": "远期：片区更新协同",
        "name_en": "Long term: district renewal coordination",
        "trigger": "approved_planning_ownership_and_finance_conditions",
        "area_sqm_declared": 4535858.337
      },
      "geometry": {
        "type": "MultiPolygon",
        "coordinates": [
          [
            [
              [
                116.3553,
                39.939
              ],
              [
                116.34070000000001,
                39.93899999999999
              ],
              [
                116.3397,
                39.975
              ],
              [
                116.34169999999999,
                40.00600000000001
              ],
              [
                116.34174921086267,
                40.00700907131134
              ],
              [
                116.34176061101763,
                40.006990537220865
              ],
              [
                116.34183151963185,
                40.00689956905948
              ],
              [
                116.34191368195853,
                40.00681438384322
              ],
              [
                116.34200630664846,
                40.00673580199531
              ],
              [
                116.3421085015981,
                40.00666458033899
              ],
              [
                116.34221928254196,
                40.00660140480922
              ],
              [
                116.34233758253214,
                40.006546883847165
              ],
              [
                116.34246226221359,
                40.00650154254092
              ],
              [
                116.34259212079657,
                40.0064658175691
              ],
              [
                116.34272590762026,
                40.00644005299566
              ],
              [
                116.34286233419647,
                40.006424496956676
              ],
              [
                116.34300008661717,
                40.00641929927093
              ],
              [
                116.34831344152322,
                40.006419428959866
              ],
              [
                116.34569656292051,
                40.006419395531644
              ],
              [
                116.34505995957097,
                39.994580808212646
              ],
              [
                116.34951321438717,
                39.994580816976594
              ],
              [
                116.35015058893323,
                40.006419417123254
              ],
              [
                116.35399991315191,
                40.00641929788134
              ],
              [
                116.35413766550836,
                40.00642449552051
              ],
              [
                116.3542001295381,
                40.00643161797279
              ],
              [
                116.3533,
                39.99
              ],
              [
                116.35354621857233,
                39.99449534431393
              ],
              [
                116.3535377635505,
                39.9944984204336
              ],
              [
                116.35340794277846,
                39.99453415327954
              ],
              [
                116.35327419343213,
                39.99455992731174
              ],
              [
                116.35313780354396,
                39.994575494321104
              ],
              [
                116.35300008657879,
                39.99458070439435
              ],
              [
                116.34199991319008,
                39.994580703002036
              ],
              [
                116.34186219627365,
                39.99457549289073
              ],
              [
                116.34172580644515,
                39.99455992583798
              ],
              [
                116.34159205717093,
                39.994534151758806
              ],
              [
                116.34146223648459,
                39.99449841886408
              ],
              [
                116.34133759458132,
                39.9944530712699
              ],
              [
                116.34121933177688,
                39.99439854568321
              ],
              [
                116.34110858694729,
                39.994335367195724
              ],
              [
                116.34100642656067,
                39.99426414422652
              ],
              [
                116.3409389621349,
                39.99420688821122
              ],
              [
                116.34059503185672,
                39.988876114300346
              ],
              [
                116.34059513950807,
                39.98349999231569
              ],
              [
                116.34060190688474,
                39.98339406060198
              ],
              [
                116.34062213966673,
                39.9832891493005
              ],
              [
                116.34065564292621,
                39.98318626883731
              ],
              [
                116.34070209392803,
                39.98308641007462
              ],
              [
                116.34076104524023,
                39.98299053476786
              ],
              [
                116.34083192904518,
                39.98289956630328
              ],
              [
                116.34091406261,
                39.982814380805394
              ],
              [
                116.34100665486321,
                39.982735798699395
              ],
              [
                116.34110881401446,
                39.9826645768104
              ],
              [
                116.34121955614393,
                39.98260140107501
              ],
              [
                116.34133781467835,
                39.98254687993586
              ],
              [
                116.34146245066299,
                39.98250153848237
              ],
              [
                116.34159226372996,
                39.98246581339415
              ],
              [
                116.34172600365781,
                39.98244004873599
              ],
              [
                116.34186238241107,
                39.98242449264462
              ],
              [
                116.34200008654337,
                39.982419294939184
              ],
              [
                116.34734614560274,
                39.982419424651624
              ],
              [
                116.34481540246145,
                39.9824193939836
              ],
              [
                116.34486188477004,
                39.97642694564956
              ],
              [
                116.34486319193834,
                39.97637761717302
              ],
              [
                116.34543241616292,
                39.963796518818555
              ],
              [
                116.34561165676843,
                39.95092085782049
              ],
              [
                116.34199989758586,
                39.95092071111222
              ],
              [
                116.34186226935057,
                39.950915499856656
              ],
              [
                116.34172596747995,
                39.950899931743976
              ],
              [
                116.34159230457412,
                39.950874156697196
              ],
              [
                116.34146256781605,
                39.95083842293287
              ],
              [
                116.34133800657438,
                39.950793074570406
              ],
              [
                116.3412198203705,
                39.9507385483178
              ],
              [
                116.34110914732612,
                39.95067536926542
              ],
              [
                116.34100705320249,
                39.950604145828905
              ],
              [
                116.34091452113667,
                39.95052556388936
              ],
              [
                116.34083244217425,
                39.95044038018764
              ],
              [
                116.34076160668889,
                39.95034941503639
              ],
              [
                116.34070269677223,
                39.950253544419674
              ],
              [
                116.34065627966662,
                39.950153691556956
              ],
              [
                116.3406228023044,
                39.95005081801195
              ],
              [
                116.34060258700578,
                39.949945914432604
              ],
              [
                116.34059582837737,
                39.94983999101107
              ],
              [
                116.34059594777766,
                39.943999991982636
              ],
              [
                116.34060271139495,
                39.943894058822785
              ],
              [
                116.34062293285471,
                39.943789146106255
              ],
              [
                116.34065641733561,
                39.94368626428671
              ],
              [
                116.34070284227901,
                39.94358640425306
              ],
              [
                116.34076176049784,
                39.94349052778622
              ],
              [
                116.34083260448551,
                39.943399558296456
              ],
              [
                116.34091469188326,
                39.9433143719302
              ],
              [
                116.34100723205334,
                39.94323578913238
              ],
              [
                116.34110933369486,
                39.9431645667452
              ],
              [
                116.34122001342823,
                39.94310139071961
              ],
              [
                116.34133820526647,
                39.94304686950942
              ],
              [
                116.34146277088144,
                39.943001528212
              ],
              [
                116.34159251056637,
                39.942965803511534
              ],
              [
                116.34172617478931,
                39.942940039473825
              ],
              [
                116.34186247622603,
                39.94292448423305
              ],
              [
                116.34200010215663,
                39.94291928760226
              ],
              [
                116.34572299299812,
                39.94291943608407
              ],
              [
                116.3457478869315,
                39.9411299975093
              ],
              [
                116.35019361752697,
                39.941166555447026
              ],
              [
                116.35016934534575,
                39.94291945676237
              ],
              [
                116.3482582617814,
                39.94291946877097
              ],
              [
                116.35499989761244,
                39.942919285956926
              ],
              [
                116.35513752367939,
                39.94292448255507
              ],
              [
                116.35527382526139,
                39.942940037768665
              ],
              [
                116.3553000085091,
                39.942945084644194
              ],
              [
                116.35530001572118,
                39.94912674838238
              ],
              [
                116.3553,
                39.939
              ]
            ]
          ],
          [
            [
              [
                116.3553,
                39.965
              ],
              [
                116.35530001640943,
                39.95089492284749
              ],
              [
                116.35527403257092,
                39.95089993344881
              ],
              [
                116.35513773055503,
                39.95091550153431
              ],
              [
                116.3550001021834,
                39.95092071275726
              ],
              [
                116.35005852716827,
                39.95092088388862
              ],
              [
                116.34987932856592,
                39.96385370134291
              ],
              [
                116.34987811300589,
                39.96389489177217
              ],
              [
                116.34930988640058,
                39.97647195077112
              ],
              [
                116.34926413870559,
                39.98241941108521
              ],
              [
                116.35299991322533,
                39.982419293546464
              ],
              [
                116.35313761740647,
                39.98242449121383
              ],
              [
                116.3532739962194,
                39.982440047261825
              ],
              [
                116.35340773621941,
                39.982465811873
              ],
              [
                116.35353754937212,
                39.98250153691242
              ],
              [
                116.35366218545691,
                39.98254687831726
              ],
              [
                116.35378044410626,
                39.98260139940979
              ],
              [
                116.35388718182516,
                39.98266229061628
              ],
              [
                116.3553,
                39.965
              ]
            ]
          ],
          [
            [
              [
                116.3553,
                40.02649999999999
              ],
              [
                116.35529554552814,
                40.02641874408363
              ],
              [
                116.35524555741658,
                40.02650000294723
              ],
              [
                116.3553,
                40.02649999999999
              ]
            ]
          ],
          [
            [
              [
                116.35524555741658,
                40.02650000294723
              ],
              [
                116.35524555741658,
                40.02650000294723
              ],
              [
                116.34270000000001,
                40.026500000000006
              ],
              [
                116.35524555741658,
                40.02650000294723
              ]
            ]
          ]
        ]
      }
    }
  ]
}
