{
  "type": "FeatureCollection",
  "name": "breathing_mobility_network",
  "features": [
    {
      "type": "Feature",
      "id": "ROAD-BREATH-001",
      "properties": {
        "id": "ROAD-BREATH-001",
        "layer": "ROAD_CENTERLINE",
        "source_type": "agent_generated_design",
        "confidence": "medium",
        "geometry_role": "design_proposal",
        "road_class": "greenway",
        "name_zh": "呼吸主脊",
        "name_en": "Breathing Spine",
        "operating_rule": "walk_cycle_shade_environment_observation"
      },
      "geometry": {
        "type": "LineString",
        "coordinates": [
          [
            116.34797075134816,
            39.94114829778363
          ],
          [
            116.34765572805101,
            39.96383543181524
          ],
          [
            116.3470859798364,
            39.97643713379193
          ],
          [
            116.34698860131728,
            39.98904146767542
          ],
          [
            116.34888848721619,
            40.024345684949274
          ]
        ]
      }
    },
    {
      "type": "Feature",
      "id": "ROAD-FALLBACK-001",
      "properties": {
        "id": "ROAD-FALLBACK-001",
        "layer": "ROAD_CENTERLINE",
        "source_type": "agent_generated_design",
        "confidence": "medium",
        "geometry_role": "design_proposal",
        "road_class": "pedestrian",
        "name_zh": "无AI等价步行路径",
        "name_en": "Non-AI equivalent walking route",
        "operating_rule": "always_available_no_login_no_sensor_dependency"
      },
      "geometry": {
        "type": "LineString",
        "coordinates": [
          [
            116.34836853934638,
            39.941150534252465
          ],
          [
            116.34805364746994,
            39.96383767041379
          ],
          [
            116.34748397228705,
            39.976439374929136
          ],
          [
            116.34738666689856,
            39.98904370973002
          ],
          [
            116.34928675805173,
            40.0243479221069
          ]
        ]
      }
    },
    {
      "type": "Feature",
      "id": "ROAD-CROSS-001",
      "properties": {
        "id": "ROAD-CROSS-001",
        "layer": "ROAD_CENTERLINE",
        "source_type": "agent_generated_design",
        "confidence": "medium",
        "geometry_role": "design_proposal",
        "road_class": "pedestrian",
        "name_zh": "第1呼吸肺横向联结",
        "name_en": "Lung 1 cross-connection",
        "operating_rule": "barrier_free_priority"
      },
      "geometry": {
        "type": "LineString",
        "coordinates": [
          [
            116.34222258215341,
            40.016714259903345
          ],
          [
            116.35476747561107,
            40.01678478772212
          ]
        ]
      }
    },
    {
      "type": "Feature",
      "id": "ROAD-CROSS-002",
      "properties": {
        "id": "ROAD-CROSS-002",
        "layer": "ROAD_CENTERLINE",
        "source_type": "agent_generated_design",
        "confidence": "medium",
        "geometry_role": "design_proposal",
        "road_class": "pedestrian",
        "name_zh": "第2呼吸肺横向联结",
        "name_en": "Lung 2 cross-connection",
        "operating_rule": "barrier_free_priority"
      },
      "geometry": {
        "type": "LineString",
        "coordinates": [
          [
            116.34056823741005,
            39.9884607803622
          ],
          [
            116.35341739013614,
            39.98853317296907
          ]
        ]
      }
    },
    {
      "type": "Feature",
      "id": "ROAD-CROSS-003",
      "properties": {
        "id": "ROAD-CROSS-003",
        "layer": "ROAD_CENTERLINE",
        "source_type": "agent_generated_design",
        "confidence": "medium",
        "geometry_role": "design_proposal",
        "road_class": "pedestrian",
        "name_zh": "第3呼吸肺横向联结",
        "name_en": "Lung 3 cross-connection",
        "operating_rule": "barrier_free_priority"
      },
      "geometry": {
        "type": "LineString",
        "coordinates": [
          [
            116.34048136779984,
            39.94687480266461
          ],
          [
            116.35530001404213,
            39.946958155589904
          ]
        ]
      }
    }
  ]
}
