{
  "type": "FeatureCollection",
  "name": "jingzhang_works_controlled_validation_phasing",
  "features": [
    {
      "type": "Feature",
      "id": "PHASE-001",
      "properties": {
        "id": "PHASE-001",
        "layer": "PHASE",
        "source_type": "agent_generated_design",
        "confidence": "low",
        "geometry_role": "design_proposal",
        "phase": "phase_1_controlled_validation",
        "name_zh": "一期受控验证概念范围",
        "name_en": "Phase 1 controlled-validation concept area",
        "program_ids": ["P-01", "P-02", "P-03", "P-04"],
        "entry_gate": "Baseline, named responsibility, shadow mode, lawful data and human fallback confirmed",
        "exit_gate": "Independent acceptance supports adopt, repair or exit; no automatic expansion",
        "area_sqm_declared": 4587013.573,
        "area_status": "provisional_design_model"
      },
      "geometry": {
        "type": "Polygon",
        "coordinates": [
          [
            [
              116.3417,
              40.006
            ],
            [
              116.34218780487805,
              40.016
            ],
            [
              116.34843599999999,
              40.016
            ],
            [
              116.34843599999999,
              39.9495
            ],
            [
              116.340948,
              39.9495
            ],
            [
              116.340948,
              39.99434399999997
            ],
            [
              116.3417,
              40.006
            ]
          ]
        ]
      }
    }
  ]
}
