{
  "type": "FeatureCollection",
  "name": "jingzhang_works_service_receipt_interfaces",
  "features": [
    {
      "type": "Feature",
      "id": "PUBLIC-001",
      "properties": {
        "id": "PUBLIC-001",
        "layer": "PUBLIC_SPACE",
        "source_type": "agent_generated_design",
        "confidence": "low",
        "geometry_role": "design_proposal",
        "name_zh": "城市服务回执与公共活动概念界面",
        "name_en": "Conceptual public-service receipt and civic activity interface",
        "design_intent": "Distributed places to show current rules, named responsibility, progress, outcome, recurrence, correction and a non-digital human channel",
        "implementation_boundary": "Concept only; siting requires official boundary, ownership, heritage, fire, accessibility, utility and maintenance review",
        "area_sqm_declared": 836345.643,
        "area_status": "provisional_design_model"
      },
      "geometry": {
        "type": "Polygon",
        "coordinates": [
          [
            [
              116.34734399999999,
              39.967
            ],
            [
              116.34734399999999,
              40.00025
            ],
            [
              116.349996,
              40.00025
            ],
            [
              116.349996,
              39.967
            ],
            [
              116.34734399999999,
              39.967
            ]
          ]
        ]
      }
    }
  ]
}
