{
 "type": "FeatureCollection",
 "name": "constraints",
 "crs_note": "EPSG:4326, coordinates rounded to 6 decimals",
 "measurement_note": "area_sqm_calculated / length_m 均由 pyproj.Geod(ellps=\"WGS84\") 反算生成，非手写；复算脚本见 _src/selfcheck.py",
 "layer_note": "约束/上位图层集合：EXISTING_RAIL 既有铁路、EXISTING_WATER 既有水系、HERITAGE_PROTECTION 遗产保护、REGULATORY_CONTROL 管控与研究范围（含 TOD 站址影响区、高度控制区与统筹研究范围 PROV-RESEARCH-001）。",
 "features": [
  {
   "type": "Feature",
   "id": "PROV-RESEARCH-001",
   "properties": {
    "id": "PROV-RESEARCH-001",
    "layer": "REGULATORY_CONTROL",
    "scope_id": "coordinated_research_area",
    "name_zh": "统筹研究范围粗略替代边界",
    "source_type": "agent_inferred_from_public_data",
    "confidence": "medium",
    "geometry_role": "provisional_constraint",
    "official_boundary": false,
    "boundary_precision": "provisional_rough",
    "source_id": "PROVISIONAL-BOUNDARY-TEXT-AND-BBOX",
    "source_title": "依据公告文字四至、约43.6平方公里面积约束和道路名称形成的临时粗略范围",
    "area_sqm_declared": 43600000,
    "area_sqm_calculated": 43605847.964,
    "usage_note": "仅用于 AI agent 统筹研究、展示和临时自检；不得作为 official research boundary、审批依据或精确面积复算依据。",
    "source_class": "official_provisional",
    "adoption": "verbatim_from_official_site_package",
    "official_source_path": "brief/site-package/geometry/provisional_boundaries.geojson#PROV-RESEARCH-001",
    "scope_label_zh": "统筹研究范围",
    "geometry_edit": "none",
    "note_zh": "统筹研究范围（43.6 km²）为分析性上位范围，承载于约束层，不进入 site_boundary（设计场地本体），避免污染官方面积复核的场地覆盖率分母。"
   },
   "geometry": {
    "type": "Polygon",
    "coordinates": [
     [
      [
       116.31885,
       39.938
      ],
      [
       116.36615,
       39.938
      ],
      [
       116.37215,
       39.965
      ],
      [
       116.37215,
       40.027
      ],
      [
       116.33285,
       40.027
      ],
      [
       116.32085,
       40.0
      ],
      [
       116.31285,
       39.965
      ],
      [
       116.31885,
       39.938
      ]
     ]
    ]
   }
  },
  {
   "type": "Feature",
   "id": "CON-RAIL-001",
   "properties": {
    "id": "CON-RAIL-001",
    "layer": "EXISTING_RAIL",
    "name_zh": "京张铁路遗产线",
    "source_type": "agent_generated_design",
    "source_class": "agent_designed",
    "confidence": "medium",
    "geometry_role": "existing_condition",
    "length_m": 9706.266,
    "constraint_note": "1909年京张铁路本线，南自西直门（北京北站）北至清河，本方案的遗产主脊",
    "vertex_count": 19
   },
   "geometry": {
    "type": "LineString",
    "coordinates": [
     [
      116.3484,
      39.9392
     ],
     [
      116.34795,
      39.9428
     ],
     [
      116.3471,
      39.9472
     ],
     [
      116.34655,
      39.9518
     ],
     [
      116.3464,
      39.957
     ],
     [
      116.34675,
      39.9622
     ],
     [
      116.3473,
      39.967
     ],
     [
      116.3476,
      39.9718
     ],
     [
      116.34745,
      39.977
     ],
     [
      116.3469,
      39.9822
     ],
     [
      116.34635,
      39.987
     ],
     [
      116.34625,
      39.992
     ],
     [
      116.34665,
      39.9972
     ],
     [
      116.3472,
      40.0024
     ],
     [
      116.34755,
      40.0076
     ],
     [
      116.3474,
      40.0128
     ],
     [
      116.3469,
      40.0176
     ],
     [
      116.34665,
      40.022
     ],
     [
      116.347,
      40.0264
     ]
    ]
   }
  },
  {
   "type": "Feature",
   "id": "CON-RAIL-002",
   "properties": {
    "id": "CON-RAIL-002",
    "layer": "EXISTING_RAIL",
    "name_zh": "轨道交通13号线",
    "source_type": "agent_generated_design",
    "source_class": "agent_designed",
    "confidence": "medium",
    "geometry_role": "existing_condition",
    "length_m": 9675.397,
    "constraint_note": "沿京张走廊南北向既有轨道",
    "vertex_count": 17
   },
   "geometry": {
    "type": "LineString",
    "coordinates": [
     [
      116.3512,
      39.9394
     ],
     [
      116.3506,
      39.9436
     ],
     [
      116.3498,
      39.949
     ],
     [
      116.3491,
      39.9546
     ],
     [
      116.3488,
      39.9604
     ],
     [
      116.3493,
      39.9662
     ],
     [
      116.3502,
      39.9712
     ],
     [
      116.3508,
      39.9768
     ],
     [
      116.3506,
      39.9824
     ],
     [
      116.3498,
      39.9882
     ],
     [
      116.349,
      39.9934
     ],
     [
      116.3486,
      39.999
     ],
     [
      116.3489,
      40.0048
     ],
     [
      116.3496,
      40.0106
     ],
     [
      116.35,
      40.0164
     ],
     [
      116.3496,
      40.0218
     ],
     [
      116.3488,
      40.0262
     ]
    ]
   }
  },
  {
   "type": "Feature",
   "id": "CON-RAIL-003",
   "properties": {
    "id": "CON-RAIL-003",
    "layer": "EXISTING_RAIL",
    "name_zh": "轨道交通10号线",
    "source_type": "agent_generated_design",
    "source_class": "agent_designed",
    "confidence": "medium",
    "geometry_role": "existing_condition",
    "length_m": 4621.276,
    "constraint_note": "东西向既有轨道，知春路站与13号线换乘",
    "vertex_count": 7
   },
   "geometry": {
    "type": "LineString",
    "coordinates": [
     [
      116.315,
      39.9714
     ],
     [
      116.324,
      39.9712
     ],
     [
      116.333,
      39.9706
     ],
     [
      116.342,
      39.97
     ],
     [
      116.351,
      39.9696
     ],
     [
      116.36,
      39.9694
     ],
     [
      116.369,
      39.9696
     ]
    ]
   }
  },
  {
   "type": "Feature",
   "id": "CON-RAIL-004",
   "properties": {
    "id": "CON-RAIL-004",
    "layer": "EXISTING_RAIL",
    "name_zh": "轨道交通15号线",
    "source_type": "agent_generated_design",
    "source_class": "agent_designed",
    "confidence": "medium",
    "geometry_role": "existing_condition",
    "length_m": 3521.309,
    "constraint_note": "北部东西向既有轨道",
    "vertex_count": 6
   },
   "geometry": {
    "type": "LineString",
    "coordinates": [
     [
      116.33,
      39.9964
     ],
     [
      116.339,
      39.9972
     ],
     [
      116.348,
      39.9982
     ],
     [
      116.357,
      39.999
     ],
     [
      116.366,
      39.9994
     ],
     [
      116.371,
      39.9992
     ]
    ]
   }
  },
  {
   "type": "Feature",
   "id": "CON-RAIL-005",
   "properties": {
    "id": "CON-RAIL-005",
    "layer": "EXISTING_RAIL",
    "name_zh": "轨道交通4号线",
    "source_type": "agent_generated_design",
    "source_class": "agent_designed",
    "confidence": "medium",
    "geometry_role": "existing_condition",
    "length_m": 7523.981,
    "constraint_note": "西翼中关村方向既有轨道",
    "vertex_count": 8
   },
   "geometry": {
    "type": "LineString",
    "coordinates": [
     [
      116.323,
      39.939
     ],
     [
      116.322,
      39.948
     ],
     [
      116.3205,
      39.958
     ],
     [
      116.3195,
      39.968
     ],
     [
      116.319,
      39.978
     ],
     [
      116.32,
      39.988
     ],
     [
      116.3225,
      39.997
     ],
     [
      116.326,
      40.006
     ]
    ]
   }
  },
  {
   "type": "Feature",
   "id": "CON-WATER-001",
   "properties": {
    "id": "CON-WATER-001",
    "layer": "EXISTING_WATER",
    "name_zh": "小月河",
    "source_type": "agent_generated_design",
    "source_class": "agent_designed",
    "confidence": "medium",
    "geometry_role": "existing_condition",
    "length_m": 6917.746,
    "constraint_note": "东翼场景赋能翼的蓝线骨架",
    "vertex_count": 9
   },
   "geometry": {
    "type": "LineString",
    "coordinates": [
     [
      116.362,
      40.024
     ],
     [
      116.3615,
      40.016
     ],
     [
      116.3605,
      40.008
     ],
     [
      116.3598,
      40.0
     ],
     [
      116.3595,
      39.992
     ],
     [
      116.36,
      39.984
     ],
     [
      116.361,
      39.976
     ],
     [
      116.3625,
      39.969
     ],
     [
      116.364,
      39.962
     ]
    ]
   }
  },
  {
   "type": "Feature",
   "id": "CON-WATER-002",
   "properties": {
    "id": "CON-WATER-002",
    "layer": "EXISTING_WATER",
    "name_zh": "清河",
    "source_type": "agent_generated_design",
    "source_class": "agent_designed",
    "confidence": "medium",
    "geometry_role": "existing_condition",
    "length_m": 3118.511,
    "constraint_note": "北端东西向水系",
    "vertex_count": 6
   },
   "geometry": {
    "type": "LineString",
    "coordinates": [
     [
      116.3342,
      40.0233
     ],
     [
      116.3412,
      40.02392
     ],
     [
      116.3486,
      40.02428
     ],
     [
      116.3562,
      40.02416
     ],
     [
      116.3638,
      40.02372
     ],
     [
      116.3706,
      40.0231
     ]
    ]
   }
  },
  {
   "type": "Feature",
   "id": "CON-HER-001",
   "properties": {
    "id": "CON-HER-001",
    "layer": "HERITAGE_PROTECTION",
    "name_zh": "京张铁路遗产线核心保护范围（概念）",
    "source_type": "agent_generated_design",
    "source_class": "agent_designed",
    "confidence": "low",
    "geometry_role": "provisional_constraint",
    "area_sqm_calculated": 585218.872,
    "control_rule_zh": "遗产本体两侧各30m，禁止新建永久性建筑，仅允许必要的保护与展示设施"
   },
   "geometry": {
    "type": "Polygon",
    "coordinates": [
     [
      [
       116.346753,
       39.94716
      ],
      [
       116.34675,
       39.947175
      ],
      [
       116.3462,
       39.951775
      ],
      [
       116.346199,
       39.951794
      ],
      [
       116.346049,
       39.956994
      ],
      [
       116.346049,
       39.957014
      ],
      [
       116.346399,
       39.962214
      ],
      [
       116.3464,
       39.962224
      ],
      [
       116.34695,
       39.967018
      ],
      [
       116.347249,
       39.971803
      ],
      [
       116.347099,
       39.976986
      ],
      [
       116.34655,
       39.982177
      ],
      [
       116.346,
       39.986976
      ],
      [
       116.345999,
       39.986996
      ],
      [
       116.345899,
       39.991996
      ],
      [
       116.345899,
       39.992016
      ],
      [
       116.346299,
       39.997216
      ],
      [
       116.3463,
       39.997222
      ],
      [
       116.346849,
       40.002418
      ],
      [
       116.347198,
       40.007604
      ],
      [
       116.347049,
       40.012786
      ],
      [
       116.34655,
       40.017578
      ],
      [
       116.346549,
       40.017588
      ],
      [
       116.346299,
       40.021988
      ],
      [
       116.346299,
       40.022016
      ],
      [
       116.346649,
       40.026416
      ],
      [
       116.346653,
       40.026443
      ],
      [
       116.34666,
       40.026469
      ],
      [
       116.346671,
       40.026494
      ],
      [
       116.346684,
       40.026518
      ],
      [
       116.346701,
       40.026542
      ],
      [
       116.34672,
       40.026564
      ],
      [
       116.346742,
       40.026584
      ],
      [
       116.346767,
       40.026602
      ],
      [
       116.346794,
       40.026619
      ],
      [
       116.346823,
       40.026633
      ],
      [
       116.346854,
       40.026646
      ],
      [
       116.346886,
       40.026655
      ],
      [
       116.346919,
       40.026663
      ],
      [
       116.346953,
       40.026668
      ],
      [
       116.346987,
       40.02667
      ],
      [
       116.347021,
       40.02667
      ],
      [
       116.347056,
       40.026667
      ],
      [
       116.347089,
       40.026661
      ],
      [
       116.347122,
       40.026653
      ],
      [
       116.347154,
       40.026643
      ],
      [
       116.347184,
       40.02663
      ],
      [
       116.347213,
       40.026615
      ],
      [
       116.347239,
       40.026598
      ],
      [
       116.347263,
       40.026579
      ],
      [
       116.347285,
       40.026558
      ],
      [
       116.347304,
       40.026536
      ],
      [
       116.347319,
       40.026513
      ],
      [
       116.347332,
       40.026488
      ],
      [
       116.347342,
       40.026462
      ],
      [
       116.347348,
       40.026436
      ],
      [
       116.347351,
       40.02641
      ],
      [
       116.347351,
       40.026384
      ],
      [
       116.347002,
       40.021998
      ],
      [
       116.347251,
       40.017617
      ],
      [
       116.34775,
       40.012822
      ],
      [
       116.347751,
       40.012806
      ],
      [
       116.347901,
       40.007606
      ],
      [
       116.347901,
       40.007586
      ],
      [
       116.347551,
       40.002386
      ],
      [
       116.34755,
       40.002378
      ],
      [
       116.347,
       39.997181
      ],
      [
       116.346601,
       39.991994
      ],
      [
       116.346701,
       39.987014
      ],
      [
       116.34725,
       39.982224
      ],
      [
       116.34725,
       39.982222
      ],
      [
       116.3478,
       39.977022
      ],
      [
       116.347801,
       39.977006
      ],
      [
       116.347951,
       39.971806
      ],
      [
       116.347951,
       39.971787
      ],
      [
       116.347651,
       39.966987
      ],
      [
       116.34765,
       39.966976
      ],
      [
       116.3471,
       39.962181
      ],
      [
       116.346751,
       39.956996
      ],
      [
       116.346901,
       39.951815
      ],
      [
       116.347449,
       39.947232
      ],
      [
       116.348297,
       39.94284
      ],
      [
       116.348299,
       39.942826
      ],
      [
       116.348749,
       39.939226
      ],
      [
       116.348751,
       39.939199
      ],
      [
       116.348749,
       39.939173
      ],
      [
       116.348744,
       39.939147
      ],
      [
       116.348736,
       39.939121
      ],
      [
       116.348724,
       39.939096
      ],
      [
       116.348709,
       39.939072
      ],
      [
       116.348691,
       39.939049
      ],
      [
       116.348671,
       39.939028
      ],
      [
       116.348648,
       39.939009
      ],
      [
       116.348622,
       39.938991
      ],
      [
       116.348594,
       39.938975
      ],
      [
       116.348565,
       39.938961
      ],
      [
       116.348534,
       39.93895
      ],
      [
       116.348501,
       39.938941
      ],
      [
       116.348468,
       39.938935
      ],
      [
       116.348434,
       39.938931
      ],
      [
       116.348399,
       39.93893
      ],
      [
       116.348365,
       39.938931
      ],
      [
       116.348331,
       39.938935
      ],
      [
       116.348297,
       39.938942
      ],
      [
       116.348265,
       39.938951
      ],
      [
       116.348234,
       39.938962
      ],
      [
       116.348204,
       39.938976
      ],
      [
       116.348177,
       39.938992
      ],
      [
       116.348151,
       39.939009
      ],
      [
       116.348128,
       39.939029
      ],
      [
       116.348108,
       39.93905
      ],
      [
       116.34809,
       39.939073
      ],
      [
       116.348075,
       39.939097
      ],
      [
       116.348064,
       39.939122
      ],
      [
       116.348056,
       39.939148
      ],
      [
       116.348051,
       39.939174
      ],
      [
       116.347601,
       39.942767
      ],
      [
       116.346753,
       39.94716
      ]
     ]
    ]
   }
  },
  {
   "type": "Feature",
   "id": "CON-HER-002",
   "properties": {
    "id": "CON-HER-002",
    "layer": "HERITAGE_PROTECTION",
    "name_zh": "京张铁路遗产线建设控制地带（概念）",
    "source_type": "agent_generated_design",
    "source_class": "agent_designed",
    "confidence": "low",
    "geometry_role": "provisional_constraint",
    "area_sqm_calculated": 1789346.042,
    "control_rule_zh": "遗产本体两侧30–120m，新建建筑高度不超过24m，风貌与遗产协调"
   },
   "geometry": {
    "type": "Polygon",
    "coordinates": [
     [
      [
       116.345702,
       39.947101
      ],
      [
       116.345152,
       39.951701
      ],
      [
       116.345146,
       39.951776
      ],
      [
       116.344996,
       39.956976
      ],
      [
       116.344998,
       39.957056
      ],
      [
       116.345347,
       39.962256
      ],
      [
       116.345351,
       39.962295
      ],
      [
       116.345898,
       39.967073
      ],
      [
       116.346195,
       39.971814
      ],
      [
       116.346047,
       39.976944
      ],
      [
       116.3455,
       39.982109
      ],
      [
       116.34495,
       39.986905
      ],
      [
       116.344945,
       39.986983
      ],
      [
       116.344845,
       39.991983
      ],
      [
       116.344847,
       39.992064
      ],
      [
       116.345247,
       39.997264
      ],
      [
       116.345249,
       39.997288
      ],
      [
       116.345798,
       40.002472
      ],
      [
       116.346144,
       40.007616
      ],
      [
       116.345996,
       40.012745
      ],
      [
       116.345499,
       40.017514
      ],
      [
       116.345496,
       40.017553
      ],
      [
       116.345246,
       40.021953
      ],
      [
       116.345247,
       40.022066
      ],
      [
       116.345597,
       40.026466
      ],
      [
       116.345612,
       40.026571
      ],
      [
       116.345641,
       40.026675
      ],
      [
       116.345682,
       40.026776
      ],
      [
       116.345737,
       40.026874
      ],
      [
       116.345803,
       40.026967
      ],
      [
       116.345881,
       40.027054
      ],
      [
       116.34597,
       40.027135
      ],
      [
       116.346069,
       40.027209
      ],
      [
       116.346176,
       40.027276
      ],
      [
       116.346292,
       40.027334
      ],
      [
       116.346414,
       40.027382
      ],
      [
       116.346542,
       40.027422
      ],
      [
       116.346675,
       40.027451
      ],
      [
       116.34681,
       40.027471
      ],
      [
       116.346948,
       40.02748
      ],
      [
       116.347086,
       40.027479
      ],
      [
       116.347223,
       40.027467
      ],
      [
       116.347358,
       40.027445
      ],
      [
       116.347489,
       40.027413
      ],
      [
       116.347616,
       40.027371
      ],
      [
       116.347737,
       40.02732
      ],
      [
       116.347851,
       40.02726
      ],
      [
       116.347956,
       40.027192
      ],
      [
       116.348053,
       40.027116
      ],
      [
       116.348139,
       40.027033
      ],
      [
       116.348214,
       40.026944
      ],
      [
       116.348278,
       40.02685
      ],
      [
       116.348329,
       40.026752
      ],
      [
       116.348368,
       40.02665
      ],
      [
       116.348393,
       40.026546
      ],
      [
       116.348405,
       40.02644
      ],
      [
       116.348403,
       40.026334
      ],
      [
       116.348058,
       40.021991
      ],
      [
       116.348303,
       40.017667
      ],
      [
       116.348801,
       40.012886
      ],
      [
       116.348805,
       40.012824
      ],
      [
       116.348955,
       40.007624
      ],
      [
       116.348953,
       40.007544
      ],
      [
       116.348603,
       40.002344
      ],
      [
       116.348601,
       40.002312
      ],
      [
       116.348052,
       39.997124
      ],
      [
       116.347656,
       39.991976
      ],
      [
       116.347754,
       39.987056
      ],
      [
       116.348299,
       39.982295
      ],
      [
       116.3483,
       39.982288
      ],
      [
       116.34885,
       39.977088
      ],
      [
       116.348854,
       39.977024
      ],
      [
       116.349004,
       39.971824
      ],
      [
       116.349003,
       39.971748
      ],
      [
       116.348703,
       39.966948
      ],
      [
       116.348699,
       39.966905
      ],
      [
       116.348151,
       39.962125
      ],
      [
       116.347805,
       39.956984
      ],
      [
       116.347953,
       39.951862
      ],
      [
       116.348495,
       39.947329
      ],
      [
       116.349339,
       39.942959
      ],
      [
       116.349348,
       39.942904
      ],
      [
       116.349798,
       39.939303
      ],
      [
       116.349804,
       39.939198
      ],
      [
       116.349797,
       39.939092
      ],
      [
       116.349776,
       39.938987
      ],
      [
       116.349743,
       39.938884
      ],
      [
       116.349696,
       39.938784
      ],
      [
       116.349637,
       39.938688
      ],
      [
       116.349566,
       39.938598
      ],
      [
       116.349483,
       39.938513
      ],
      [
       116.34939,
       39.938434
      ],
      [
       116.349288,
       39.938363
      ],
      [
       116.349177,
       39.9383
      ],
      [
       116.349059,
       39.938246
      ],
      [
       116.348934,
       39.938201
      ],
      [
       116.348805,
       39.938165
      ],
      [
       116.348671,
       39.93814
      ],
      [
       116.348534,
       39.938124
      ],
      [
       116.348397,
       39.938119
      ],
      [
       116.348259,
       39.938125
      ],
      [
       116.348123,
       39.938141
      ],
      [
       116.347989,
       39.938167
      ],
      [
       116.34786,
       39.938202
      ],
      [
       116.347735,
       39.938248
      ],
      [
       116.347617,
       39.938303
      ],
      [
       116.347507,
       39.938366
      ],
      [
       116.347405,
       39.938438
      ],
      [
       116.347313,
       39.938516
      ],
      [
       116.347231,
       39.938602
      ],
      [
       116.34716,
       39.938693
      ],
      [
       116.347102,
       39.938789
      ],
      [
       116.347056,
       39.938889
      ],
      [
       116.347022,
       39.938992
      ],
      [
       116.347003,
       39.939096
      ],
      [
       116.346556,
       39.942669
      ],
      [
       116.345711,
       39.947041
      ],
      [
       116.345702,
       39.947101
      ]
     ],
     [
      [
       116.347601,
       39.942767
      ],
      [
       116.348051,
       39.939174
      ],
      [
       116.348056,
       39.939148
      ],
      [
       116.348064,
       39.939122
      ],
      [
       116.348075,
       39.939097
      ],
      [
       116.34809,
       39.939073
      ],
      [
       116.348108,
       39.93905
      ],
      [
       116.348128,
       39.939029
      ],
      [
       116.348151,
       39.939009
      ],
      [
       116.348177,
       39.938992
      ],
      [
       116.348204,
       39.938976
      ],
      [
       116.348234,
       39.938962
      ],
      [
       116.348265,
       39.938951
      ],
      [
       116.348297,
       39.938942
      ],
      [
       116.348331,
       39.938935
      ],
      [
       116.348365,
       39.938931
      ],
      [
       116.348399,
       39.93893
      ],
      [
       116.348434,
       39.938931
      ],
      [
       116.348468,
       39.938935
      ],
      [
       116.348501,
       39.938941
      ],
      [
       116.348534,
       39.93895
      ],
      [
       116.348565,
       39.938961
      ],
      [
       116.348594,
       39.938975
      ],
      [
       116.348622,
       39.938991
      ],
      [
       116.348648,
       39.939009
      ],
      [
       116.348671,
       39.939028
      ],
      [
       116.348691,
       39.939049
      ],
      [
       116.348709,
       39.939072
      ],
      [
       116.348724,
       39.939096
      ],
      [
       116.348736,
       39.939121
      ],
      [
       116.348744,
       39.939147
      ],
      [
       116.348749,
       39.939173
      ],
      [
       116.348751,
       39.939199
      ],
      [
       116.348749,
       39.939226
      ],
      [
       116.348299,
       39.942826
      ],
      [
       116.348297,
       39.94284
      ],
      [
       116.347449,
       39.947232
      ],
      [
       116.346901,
       39.951815
      ],
      [
       116.346751,
       39.956996
      ],
      [
       116.3471,
       39.962181
      ],
      [
       116.34765,
       39.966976
      ],
      [
       116.347651,
       39.966987
      ],
      [
       116.347951,
       39.971787
      ],
      [
       116.347951,
       39.971806
      ],
      [
       116.347801,
       39.977006
      ],
      [
       116.3478,
       39.977022
      ],
      [
       116.34725,
       39.982222
      ],
      [
       116.34725,
       39.982224
      ],
      [
       116.346701,
       39.987014
      ],
      [
       116.346601,
       39.991994
      ],
      [
       116.347,
       39.997181
      ],
      [
       116.34755,
       40.002378
      ],
      [
       116.347551,
       40.002386
      ],
      [
       116.347901,
       40.007586
      ],
      [
       116.347901,
       40.007606
      ],
      [
       116.347751,
       40.012806
      ],
      [
       116.34775,
       40.012822
      ],
      [
       116.347251,
       40.017617
      ],
      [
       116.347002,
       40.021998
      ],
      [
       116.347351,
       40.026384
      ],
      [
       116.347351,
       40.02641
      ],
      [
       116.347348,
       40.026436
      ],
      [
       116.347342,
       40.026462
      ],
      [
       116.347332,
       40.026488
      ],
      [
       116.347319,
       40.026513
      ],
      [
       116.347304,
       40.026536
      ],
      [
       116.347285,
       40.026558
      ],
      [
       116.347263,
       40.026579
      ],
      [
       116.347239,
       40.026598
      ],
      [
       116.347213,
       40.026615
      ],
      [
       116.347184,
       40.02663
      ],
      [
       116.347154,
       40.026643
      ],
      [
       116.347122,
       40.026653
      ],
      [
       116.347089,
       40.026661
      ],
      [
       116.347056,
       40.026667
      ],
      [
       116.347021,
       40.02667
      ],
      [
       116.346987,
       40.02667
      ],
      [
       116.346953,
       40.026668
      ],
      [
       116.346919,
       40.026663
      ],
      [
       116.346886,
       40.026655
      ],
      [
       116.346854,
       40.026646
      ],
      [
       116.346823,
       40.026633
      ],
      [
       116.346794,
       40.026619
      ],
      [
       116.346767,
       40.026602
      ],
      [
       116.346742,
       40.026584
      ],
      [
       116.34672,
       40.026564
      ],
      [
       116.346701,
       40.026542
      ],
      [
       116.346684,
       40.026518
      ],
      [
       116.346671,
       40.026494
      ],
      [
       116.34666,
       40.026469
      ],
      [
       116.346653,
       40.026443
      ],
      [
       116.346649,
       40.026416
      ],
      [
       116.346299,
       40.022016
      ],
      [
       116.346299,
       40.021988
      ],
      [
       116.346549,
       40.017588
      ],
      [
       116.34655,
       40.017578
      ],
      [
       116.347049,
       40.012786
      ],
      [
       116.347198,
       40.007604
      ],
      [
       116.346849,
       40.002418
      ],
      [
       116.3463,
       39.997222
      ],
      [
       116.346299,
       39.997216
      ],
      [
       116.345899,
       39.992016
      ],
      [
       116.345899,
       39.991996
      ],
      [
       116.345999,
       39.986996
      ],
      [
       116.346,
       39.986976
      ],
      [
       116.34655,
       39.982177
      ],
      [
       116.347099,
       39.976986
      ],
      [
       116.347249,
       39.971803
      ],
      [
       116.34695,
       39.967018
      ],
      [
       116.3464,
       39.962224
      ],
      [
       116.346399,
       39.962214
      ],
      [
       116.346049,
       39.957014
      ],
      [
       116.346049,
       39.956994
      ],
      [
       116.346199,
       39.951794
      ],
      [
       116.3462,
       39.951775
      ],
      [
       116.34675,
       39.947175
      ],
      [
       116.346753,
       39.94716
      ],
      [
       116.347601,
       39.942767
      ]
     ]
    ]
   }
  },
  {
   "type": "Feature",
   "id": "CON-HER-003",
   "properties": {
    "id": "CON-HER-003",
    "layer": "HERITAGE_PROTECTION",
    "name_zh": "大钟寺文物保护范围（概念）",
    "source_type": "agent_generated_design",
    "source_class": "agent_designed",
    "confidence": "low",
    "geometry_role": "provisional_constraint",
    "area_sqm_calculated": 46243.895,
    "control_rule_zh": "全国重点文物保护单位大钟寺（觉生寺）本体及院落，概念性范围"
   },
   "geometry": {
    "type": "Polygon",
    "coordinates": [
     [
      [
       116.350782,
       39.946263
      ],
      [
       116.349588,
       39.945829
      ],
      [
       116.348404,
       39.946277
      ],
      [
       116.34812,
       39.947269
      ],
      [
       116.348951,
       39.948059
      ],
      [
       116.35027,
       39.948051
      ],
      [
       116.351086,
       39.947252
      ],
      [
       116.350782,
       39.946263
      ]
     ]
    ]
   }
  },
  {
   "type": "Feature",
   "id": "CON-HER-004",
   "properties": {
    "id": "CON-HER-004",
    "layer": "HERITAGE_PROTECTION",
    "name_zh": "大钟寺建设控制地带（概念）",
    "source_type": "agent_generated_design",
    "source_class": "agent_designed",
    "confidence": "low",
    "geometry_role": "provisional_constraint",
    "area_sqm_calculated": 214070.548,
    "control_rule_zh": "大钟寺周边建设控制地带，新建建筑高度不超过18m"
   },
   "geometry": {
    "type": "Polygon",
    "coordinates": [
     [
      [
       116.351634,
       39.944798
      ],
      [
       116.34932,
       39.944307
      ],
      [
       116.347136,
       39.945076
      ],
      [
       116.346105,
       39.946745
      ],
      [
       116.34671,
       39.948533
      ],
      [
       116.348667,
       39.949605
      ],
      [
       116.35106,
       39.949457
      ],
      [
       116.352771,
       39.94816
      ],
      [
       116.352997,
       39.94632
      ],
      [
       116.351634,
       39.944798
      ]
     ],
     [
      [
       116.351086,
       39.947252
      ],
      [
       116.35027,
       39.948051
      ],
      [
       116.348951,
       39.948059
      ],
      [
       116.34812,
       39.947269
      ],
      [
       116.348404,
       39.946277
      ],
      [
       116.349588,
       39.945829
      ],
      [
       116.350782,
       39.946263
      ],
      [
       116.351086,
       39.947252
      ]
     ]
    ]
   }
  },
  {
   "type": "Feature",
   "id": "CON-TOD-001",
   "properties": {
    "id": "CON-TOD-001",
    "layer": "REGULATORY_CONTROL",
    "name_zh": "大钟寺站站域影响区",
    "source_type": "agent_generated_design",
    "source_class": "agent_designed",
    "confidence": "low",
    "geometry_role": "analysis_helper",
    "area_sqm_calculated": 722612.73,
    "radius_m": 480,
    "control_rule_zh": "站点半径影响分析范围，用于TOD强度与慢行接驳研究，非法定控制线"
   },
   "geometry": {
    "type": "Polygon",
    "coordinates": [
     [
      [
       116.355693,
       39.945807
      ],
      [
       116.355616,
       39.945387
      ],
      [
       116.355486,
       39.944975
      ],
      [
       116.355304,
       39.944575
      ],
      [
       116.355072,
       39.94419
      ],
      [
       116.354792,
       39.943824
      ],
      [
       116.354467,
       39.943482
      ],
      [
       116.3541,
       39.943166
      ],
      [
       116.353694,
       39.942878
      ],
      [
       116.353254,
       39.942623
      ],
      [
       116.352783,
       39.942402
      ],
      [
       116.352287,
       39.942218
      ],
      [
       116.351769,
       39.942073
      ],
      [
       116.351236,
       39.941966
      ],
      [
       116.350691,
       39.941901
      ],
      [
       116.350141,
       39.941877
      ],
      [
       116.34959,
       39.941895
      ],
      [
       116.349045,
       39.941954
      ],
      [
       116.348509,
       39.942054
      ],
      [
       116.347989,
       39.942194
      ],
      [
       116.347489,
       39.942373
      ],
      [
       116.347014,
       39.942588
      ],
      [
       116.346569,
       39.942838
      ],
      [
       116.346158,
       39.943121
      ],
      [
       116.345785,
       39.943433
      ],
      [
       116.345453,
       39.943772
      ],
      [
       116.345166,
       39.944134
      ],
      [
       116.344927,
       39.944517
      ],
      [
       116.344738,
       39.944915
      ],
      [
       116.3446,
       39.945326
      ],
      [
       116.344515,
       39.945745
      ],
      [
       116.344484,
       39.946168
      ],
      [
       116.344507,
       39.946592
      ],
      [
       116.344584,
       39.947012
      ],
      [
       116.344714,
       39.947425
      ],
      [
       116.344895,
       39.947825
      ],
      [
       116.345127,
       39.94821
      ],
      [
       116.345407,
       39.948575
      ],
      [
       116.345732,
       39.948918
      ],
      [
       116.3461,
       39.949234
      ],
      [
       116.346505,
       39.949521
      ],
      [
       116.346946,
       39.949777
      ],
      [
       116.347416,
       39.949997
      ],
      [
       116.347913,
       39.950182
      ],
      [
       116.34843,
       39.950327
      ],
      [
       116.348964,
       39.950434
      ],
      [
       116.349509,
       39.950499
      ],
      [
       116.350059,
       39.950523
      ],
      [
       116.35061,
       39.950505
      ],
      [
       116.351156,
       39.950446
      ],
      [
       116.351691,
       39.950346
      ],
      [
       116.352212,
       39.950206
      ],
      [
       116.352712,
       39.950027
      ],
      [
       116.353186,
       39.949812
      ],
      [
       116.353631,
       39.949561
      ],
      [
       116.354043,
       39.949279
      ],
      [
       116.354416,
       39.948967
      ],
      [
       116.354747,
       39.948628
      ],
      [
       116.355034,
       39.948265
      ],
      [
       116.355273,
       39.947883
      ],
      [
       116.355463,
       39.947485
      ],
      [
       116.3556,
       39.947074
      ],
      [
       116.355685,
       39.946655
      ],
      [
       116.355716,
       39.946231
      ],
      [
       116.355693,
       39.945807
      ]
     ]
    ]
   }
  },
  {
   "type": "Feature",
   "id": "CON-TOD-002",
   "properties": {
    "id": "CON-TOD-002",
    "layer": "REGULATORY_CONTROL",
    "name_zh": "知春路站站域影响区",
    "source_type": "agent_generated_design",
    "source_class": "agent_designed",
    "confidence": "low",
    "geometry_role": "analysis_helper",
    "area_sqm_calculated": 848058.117,
    "radius_m": 520,
    "control_rule_zh": "站点半径影响分析范围，用于TOD强度与慢行接驳研究，非法定控制线"
   },
   "geometry": {
    "type": "Polygon",
    "coordinates": [
     [
      [
       116.355661,
       39.970375
      ],
      [
       116.355578,
       39.96992
      ],
      [
       116.355437,
       39.969473
      ],
      [
       116.35524,
       39.969039
      ],
      [
       116.354989,
       39.968622
      ],
      [
       116.354685,
       39.968227
      ],
      [
       116.354333,
       39.967855
      ],
      [
       116.353935,
       39.967513
      ],
      [
       116.353495,
       39.967202
      ],
      [
       116.353018,
       39.966925
      ],
      [
       116.352508,
       39.966686
      ],
      [
       116.35197,
       39.966487
      ],
      [
       116.351409,
       39.966329
      ],
      [
       116.350831,
       39.966214
      ],
      [
       116.350241,
       39.966143
      ],
      [
       116.349644,
       39.966117
      ],
      [
       116.349048,
       39.966136
      ],
      [
       116.348456,
       39.9662
      ],
      [
       116.347876,
       39.966309
      ],
      [
       116.347312,
       39.96646
      ],
      [
       116.34677,
       39.966654
      ],
      [
       116.346256,
       39.966887
      ],
      [
       116.345773,
       39.967158
      ],
      [
       116.345328,
       39.967464
      ],
      [
       116.344923,
       39.967803
      ],
      [
       116.344564,
       39.96817
      ],
      [
       116.344253,
       39.968562
      ],
      [
       116.343994,
       39.968976
      ],
      [
       116.343789,
       39.969408
      ],
      [
       116.343639,
       39.969853
      ],
      [
       116.343547,
       39.970307
      ],
      [
       116.343514,
       39.970766
      ],
      [
       116.343538,
       39.971225
      ],
      [
       116.343622,
       39.97168
      ],
      [
       116.343763,
       39.972127
      ],
      [
       116.34396,
       39.97256
      ],
      [
       116.344211,
       39.972977
      ],
      [
       116.344514,
       39.973373
      ],
      [
       116.344867,
       39.973744
      ],
      [
       116.345265,
       39.974087
      ],
      [
       116.345704,
       39.974398
      ],
      [
       116.346181,
       39.974675
      ],
      [
       116.346692,
       39.974914
      ],
      [
       116.34723,
       39.975113
      ],
      [
       116.347791,
       39.975271
      ],
      [
       116.348369,
       39.975386
      ],
      [
       116.348959,
       39.975457
      ],
      [
       116.349556,
       39.975483
      ],
      [
       116.350152,
       39.975464
      ],
      [
       116.350744,
       39.9754
      ],
      [
       116.351324,
       39.975291
      ],
      [
       116.351888,
       39.97514
      ],
      [
       116.35243,
       39.974946
      ],
      [
       116.352945,
       39.974713
      ],
      [
       116.353427,
       39.974442
      ],
      [
       116.353873,
       39.974135
      ],
      [
       116.354277,
       39.973797
      ],
      [
       116.354636,
       39.97343
      ],
      [
       116.354947,
       39.973038
      ],
      [
       116.355206,
       39.972624
      ],
      [
       116.355412,
       39.972192
      ],
      [
       116.355561,
       39.971747
      ],
      [
       116.355653,
       39.971293
      ],
      [
       116.355686,
       39.970834
      ],
      [
       116.355661,
       39.970375
      ]
     ]
    ]
   }
  },
  {
   "type": "Feature",
   "id": "CON-TOD-003",
   "properties": {
    "id": "CON-TOD-003",
    "layer": "REGULATORY_CONTROL",
    "name_zh": "AI原点站（五道口）站域影响区",
    "source_type": "agent_generated_design",
    "source_class": "agent_designed",
    "confidence": "low",
    "geometry_role": "analysis_helper",
    "area_sqm_calculated": 983527.934,
    "radius_m": 560,
    "control_rule_zh": "站点半径影响分析范围，用于TOD强度与慢行接驳研究，非法定控制线"
   },
   "geometry": {
    "type": "Polygon",
    "coordinates": [
     [
      [
       116.354929,
       39.988742
      ],
      [
       116.35484,
       39.988252
      ],
      [
       116.354688,
       39.987771
      ],
      [
       116.354475,
       39.987304
      ],
      [
       116.354205,
       39.986855
      ],
      [
       116.353878,
       39.986429
      ],
      [
       116.353498,
       39.986029
      ],
      [
       116.35307,
       39.98566
      ],
      [
       116.352596,
       39.985325
      ],
      [
       116.352082,
       39.985027
      ],
      [
       116.351533,
       39.98477
      ],
      [
       116.350953,
       39.984555
      ],
      [
       116.350349,
       39.984385
      ],
      [
       116.349726,
       39.984261
      ],
      [
       116.34909,
       39.984185
      ],
      [
       116.348448,
       39.984157
      ],
      [
       116.347805,
       39.984178
      ],
      [
       116.347168,
       39.984247
      ],
      [
       116.346543,
       39.984363
      ],
      [
       116.345935,
       39.984527
      ],
      [
       116.345352,
       39.984735
      ],
      [
       116.344798,
       39.984986
      ],
      [
       116.344278,
       39.985278
      ],
      [
       116.343798,
       39.985608
      ],
      [
       116.343362,
       39.985972
      ],
      [
       116.342975,
       39.986367
      ],
      [
       116.342641,
       39.98679
      ],
      [
       116.342361,
       39.987236
      ],
      [
       116.34214,
       39.987701
      ],
      [
       116.341979,
       39.98818
      ],
      [
       116.34188,
       39.988669
      ],
      [
       116.341844,
       39.989163
      ],
      [
       116.34187,
       39.989657
      ],
      [
       116.34196,
       39.990148
      ],
      [
       116.342112,
       39.990629
      ],
      [
       116.342324,
       39.991096
      ],
      [
       116.342595,
       39.991545
      ],
      [
       116.342922,
       39.991971
      ],
      [
       116.343301,
       39.992371
      ],
      [
       116.34373,
       39.99274
      ],
      [
       116.344203,
       39.993075
      ],
      [
       116.344717,
       39.993373
      ],
      [
       116.345267,
       39.99363
      ],
      [
       116.345847,
       39.993845
      ],
      [
       116.346451,
       39.994015
      ],
      [
       116.347074,
       39.994139
      ],
      [
       116.34771,
       39.994215
      ],
      [
       116.348352,
       39.994243
      ],
      [
       116.348995,
       39.994222
      ],
      [
       116.349632,
       39.994153
      ],
      [
       116.350257,
       39.994037
      ],
      [
       116.350865,
       39.993873
      ],
      [
       116.351449,
       39.993665
      ],
      [
       116.352003,
       39.993414
      ],
      [
       116.352523,
       39.993122
      ],
      [
       116.353002,
       39.992792
      ],
      [
       116.353438,
       39.992428
      ],
      [
       116.353825,
       39.992032
      ],
      [
       116.35416,
       39.99161
      ],
      [
       116.354439,
       39.991164
      ],
      [
       116.35466,
       39.990699
      ],
      [
       116.354821,
       39.99022
      ],
      [
       116.35492,
       39.989731
      ],
      [
       116.354956,
       39.989237
      ],
      [
       116.354929,
       39.988742
      ]
     ]
    ]
   }
  },
  {
   "type": "Feature",
   "id": "CON-TOD-004",
   "properties": {
    "id": "CON-TOD-004",
    "layer": "REGULATORY_CONTROL",
    "name_zh": "众智园站（规划）站域影响区",
    "source_type": "agent_generated_design",
    "source_class": "agent_designed",
    "confidence": "low",
    "geometry_role": "analysis_helper",
    "area_sqm_calculated": 784077.215,
    "radius_m": 500,
    "control_rule_zh": "站点半径影响分析范围，用于TOD强度与慢行接驳研究，非法定控制线"
   },
   "geometry": {
    "type": "Polygon",
    "coordinates": [
     [
      [
       116.355732,
       40.017191
      ],
      [
       116.355652,
       40.016754
      ],
      [
       116.355516,
       40.016324
      ],
      [
       116.355327,
       40.015907
      ],
      [
       116.355085,
       40.015506
      ],
      [
       116.354793,
       40.015126
      ],
      [
       116.354454,
       40.014769
      ],
      [
       116.354071,
       40.014439
      ],
      [
       116.353648,
       40.01414
      ],
      [
       116.353189,
       40.013874
      ],
      [
       116.352698,
       40.013644
      ],
      [
       116.35218,
       40.013453
      ],
      [
       116.351641,
       40.013301
      ],
      [
       116.351084,
       40.01319
      ],
      [
       116.350517,
       40.013122
      ],
      [
       116.349943,
       40.013097
      ],
      [
       116.349369,
       40.013116
      ],
      [
       116.348799,
       40.013177
      ],
      [
       116.348241,
       40.013282
      ],
      [
       116.347698,
       40.013427
      ],
      [
       116.347177,
       40.013613
      ],
      [
       116.346682,
       40.013838
      ],
      [
       116.346218,
       40.014098
      ],
      [
       116.345789,
       40.014393
      ],
      [
       116.3454,
       40.014718
      ],
      [
       116.345055,
       40.015071
      ],
      [
       116.344755,
       40.015448
      ],
      [
       116.344506,
       40.015846
      ],
      [
       116.344308,
       40.016261
      ],
      [
       116.344165,
       40.016689
      ],
      [
       116.344076,
       40.017126
      ],
      [
       116.344044,
       40.017567
      ],
      [
       116.344068,
       40.018009
      ],
      [
       116.344148,
       40.018446
      ],
      [
       116.344283,
       40.018876
      ],
      [
       116.344473,
       40.019293
      ],
      [
       116.344715,
       40.019694
      ],
      [
       116.345007,
       40.020074
      ],
      [
       116.345346,
       40.020431
      ],
      [
       116.345729,
       40.020761
      ],
      [
       116.346152,
       40.02106
      ],
      [
       116.346611,
       40.021326
      ],
      [
       116.347101,
       40.021556
      ],
      [
       116.347619,
       40.021747
      ],
      [
       116.348159,
       40.021899
      ],
      [
       116.348715,
       40.02201
      ],
      [
       116.349283,
       40.022078
      ],
      [
       116.349857,
       40.022103
      ],
      [
       116.350432,
       40.022084
      ],
      [
       116.351001,
       40.022023
      ],
      [
       116.351559,
       40.021918
      ],
      [
       116.352102,
       40.021773
      ],
      [
       116.352623,
       40.021587
      ],
      [
       116.353118,
       40.021362
      ],
      [
       116.353582,
       40.021101
      ],
      [
       116.354011,
       40.020807
      ],
      [
       116.3544,
       40.020482
      ],
      [
       116.354746,
       40.020129
      ],
      [
       116.355045,
       40.019751
      ],
      [
       116.355294,
       40.019353
      ],
      [
       116.355492,
       40.018938
      ],
      [
       116.355636,
       40.018511
      ],
      [
       116.355724,
       40.018074
      ],
      [
       116.355756,
       40.017633
      ],
      [
       116.355732,
       40.017191
      ]
     ]
    ]
   }
  },
  {
   "type": "Feature",
   "id": "CON-HGT-001",
   "properties": {
    "id": "CON-HGT-001",
    "layer": "REGULATORY_CONTROL",
    "name_zh": "遗产贴线低层控高区（建议≤24m）",
    "source_type": "agent_generated_design",
    "source_class": "agent_designed",
    "confidence": "medium",
    "geometry_role": "design_proposal",
    "area_sqm_calculated": 3895624.969,
    "max_height_m": 24,
    "control_rule_zh": "遗产线两侧200m内新建建筑高度建议不超过24m"
   },
   "geometry": {
    "type": "Polygon",
    "coordinates": [
     [
      [
       116.34477,
       39.947035
      ],
      [
       116.344219,
       39.951635
      ],
      [
       116.34421,
       39.95176
      ],
      [
       116.34406,
       39.95696
      ],
      [
       116.344063,
       39.957093
      ],
      [
       116.344412,
       39.962293
      ],
      [
       116.344418,
       39.962358
      ],
      [
       116.344964,
       39.967122
      ],
      [
       116.345258,
       39.971823
      ],
      [
       116.345111,
       39.976907
      ],
      [
       116.344567,
       39.982048
      ],
      [
       116.344017,
       39.986842
      ],
      [
       116.344009,
       39.986972
      ],
      [
       116.343909,
       39.991972
      ],
      [
       116.343912,
       39.992106
      ],
      [
       116.344312,
       39.997306
      ],
      [
       116.344316,
       39.997346
      ],
      [
       116.344863,
       40.00252
      ],
      [
       116.345206,
       40.007627
      ],
      [
       116.34506,
       40.012708
      ],
      [
       116.344565,
       40.017456
      ],
      [
       116.34456,
       40.017521
      ],
      [
       116.344309,
       40.021921
      ],
      [
       116.344312,
       40.02211
      ],
      [
       116.34466,
       40.0265
      ],
      [
       116.349337,
       40.0265
      ],
      [
       116.349341,
       40.026467
      ],
      [
       116.349339,
       40.02629
      ],
      [
       116.348996,
       40.021984
      ],
      [
       116.349239,
       40.017711
      ],
      [
       116.349735,
       40.012944
      ],
      [
       116.349742,
       40.01284
      ],
      [
       116.349892,
       40.00764
      ],
      [
       116.349889,
       40.007507
      ],
      [
       116.349539,
       40.002307
      ],
      [
       116.349534,
       40.002254
      ],
      [
       116.348986,
       39.997074
      ],
      [
       116.348593,
       39.991961
      ],
      [
       116.34869,
       39.987093
      ],
      [
       116.349232,
       39.982358
      ],
      [
       116.349234,
       39.982346
      ],
      [
       116.349784,
       39.977146
      ],
      [
       116.349791,
       39.97704
      ],
      [
       116.34994,
       39.97184
      ],
      [
       116.349938,
       39.971713
      ],
      [
       116.349638,
       39.966913
      ],
      [
       116.349632,
       39.966842
      ],
      [
       116.349085,
       39.962074
      ],
      [
       116.348742,
       39.956973
      ],
      [
       116.348888,
       39.951903
      ],
      [
       116.349424,
       39.947415
      ],
      [
       116.350265,
       39.943065
      ],
      [
       116.350279,
       39.942972
      ],
      [
       116.350729,
       39.939372
      ],
      [
       116.35074,
       39.939196
      ],
      [
       116.350728,
       39.939019
      ],
      [
       116.350724,
       39.939
      ],
      [
       116.346076,
       39.939
      ],
      [
       116.346071,
       39.939027
      ],
      [
       116.345627,
       39.942581
      ],
      [
       116.344785,
       39.946935
      ],
      [
       116.34477,
       39.947035
      ]
     ]
    ]
   }
  },
  {
   "type": "Feature",
   "id": "CON-HGT-002",
   "properties": {
    "id": "CON-HGT-002",
    "layer": "REGULATORY_CONTROL",
    "name_zh": "中间过渡控高区（建议≤60m）",
    "source_type": "agent_generated_design",
    "source_class": "agent_designed",
    "confidence": "medium",
    "geometry_role": "design_proposal",
    "area_sqm_calculated": 3492991.3,
    "max_height_m": 60,
    "control_rule_zh": "遗产线两侧200–380m新建建筑高度建议不超过60m"
   },
   "geometry": {
    "type": "MultiPolygon",
    "coordinates": [
     [
      [
       [
        116.342122,
        39.951486
       ],
       [
        116.342104,
        39.951724
       ],
       [
        116.341954,
        39.956924
       ],
       [
        116.341959,
        39.957177
       ],
       [
        116.342309,
        39.962377
       ],
       [
        116.34232,
        39.9625
       ],
       [
        116.342862,
        39.967232
       ],
       [
        116.34315,
        39.971844
       ],
       [
        116.343006,
        39.976823
       ],
       [
        116.342467,
        39.981911
       ],
       [
        116.341918,
        39.986699
       ],
       [
        116.341902,
        39.986947
       ],
       [
        116.341801,
        39.991947
       ],
       [
        116.341808,
        39.992202
       ],
       [
        116.342208,
        39.997402
       ],
       [
        116.342215,
        39.997477
       ],
       [
        116.342759,
        40.002627
       ],
       [
        116.343097,
        40.00765
       ],
       [
        116.342953,
        40.012625
       ],
       [
        116.342463,
        40.017327
       ],
       [
        116.342453,
        40.017451
       ],
       [
        116.342348,
        40.019292
       ],
       [
        116.3427,
        40.0265
       ],
       [
        116.34466,
        40.0265
       ],
       [
        116.344312,
        40.02211
       ],
       [
        116.344309,
        40.021921
       ],
       [
        116.34456,
        40.017521
       ],
       [
        116.344565,
        40.017456
       ],
       [
        116.34506,
        40.012708
       ],
       [
        116.345206,
        40.007627
       ],
       [
        116.344863,
        40.00252
       ],
       [
        116.344316,
        39.997346
       ],
       [
        116.344312,
        39.997306
       ],
       [
        116.343912,
        39.992106
       ],
       [
        116.343909,
        39.991972
       ],
       [
        116.344009,
        39.986972
       ],
       [
        116.344017,
        39.986842
       ],
       [
        116.344567,
        39.982048
       ],
       [
        116.345111,
        39.976907
       ],
       [
        116.345258,
        39.971823
       ],
       [
        116.344964,
        39.967122
       ],
       [
        116.344418,
        39.962358
       ],
       [
        116.344412,
        39.962293
       ],
       [
        116.344063,
        39.957093
       ],
       [
        116.34406,
        39.95696
       ],
       [
        116.34421,
        39.95176
       ],
       [
        116.344219,
        39.951635
       ],
       [
        116.34477,
        39.947035
       ],
       [
        116.344785,
        39.946935
       ],
       [
        116.345627,
        39.942581
       ],
       [
        116.346071,
        39.939027
       ],
       [
        116.346076,
        39.939
       ],
       [
        116.343959,
        39.939
       ],
       [
        116.343535,
        39.942384
       ],
       [
        116.342702,
        39.946697
       ],
       [
        116.342672,
        39.946886
       ],
       [
        116.342122,
        39.951486
       ]
      ]
     ],
     [
      [
       [
        116.351443,
        40.026191
       ],
       [
        116.351107,
        40.02197
       ],
       [
        116.351343,
        40.017811
       ],
       [
        116.351836,
        40.013073
       ],
       [
        116.35185,
        40.012876
       ],
       [
        116.351999,
        40.007676
       ],
       [
        116.351994,
        40.007423
       ],
       [
        116.351644,
        40.002223
       ],
       [
        116.351635,
        40.002122
       ],
       [
        116.351089,
        39.99696
       ],
       [
        116.350701,
        39.991925
       ],
       [
        116.350796,
        39.987177
       ],
       [
        116.351331,
        39.9825
       ],
       [
        116.351334,
        39.982477
       ],
       [
        116.351884,
        39.977277
       ],
       [
        116.351897,
        39.977076
       ],
       [
        116.352047,
        39.971876
       ],
       [
        116.352043,
        39.971636
       ],
       [
        116.351743,
        39.966836
       ],
       [
        116.35173,
        39.966699
       ],
       [
        116.351187,
        39.961961
       ],
       [
        116.35085,
        39.956949
       ],
       [
        116.350992,
        39.951995
       ],
       [
        116.351516,
        39.947609
       ],
       [
        116.352348,
        39.943303
       ],
       [
        116.352376,
        39.943128
       ],
       [
        116.352825,
        39.939528
       ],
       [
        116.352846,
        39.939192
       ],
       [
        116.352833,
        39.939
       ],
       [
        116.350724,
        39.939
       ],
       [
        116.350728,
        39.939019
       ],
       [
        116.35074,
        39.939196
       ],
       [
        116.350729,
        39.939372
       ],
       [
        116.350279,
        39.942972
       ],
       [
        116.350265,
        39.943065
       ],
       [
        116.349424,
        39.947415
       ],
       [
        116.348888,
        39.951903
       ],
       [
        116.348742,
        39.956973
       ],
       [
        116.349085,
        39.962074
       ],
       [
        116.349632,
        39.966842
       ],
       [
        116.349638,
        39.966913
       ],
       [
        116.349938,
        39.971713
       ],
       [
        116.34994,
        39.97184
       ],
       [
        116.349791,
        39.97704
       ],
       [
        116.349784,
        39.977146
       ],
       [
        116.349234,
        39.982346
       ],
       [
        116.349232,
        39.982358
       ],
       [
        116.34869,
        39.987093
       ],
       [
        116.348593,
        39.991961
       ],
       [
        116.348986,
        39.997074
       ],
       [
        116.349534,
        40.002254
       ],
       [
        116.349539,
        40.002307
       ],
       [
        116.349889,
        40.007507
       ],
       [
        116.349892,
        40.00764
       ],
       [
        116.349742,
        40.01284
       ],
       [
        116.349735,
        40.012944
       ],
       [
        116.349239,
        40.017711
       ],
       [
        116.348996,
        40.021984
       ],
       [
        116.349339,
        40.02629
       ],
       [
        116.349341,
        40.026467
       ],
       [
        116.349337,
        40.0265
       ],
       [
        116.351448,
        40.0265
       ],
       [
        116.351443,
        40.026191
       ]
      ]
     ]
    ]
   }
  },
  {
   "type": "Feature",
   "id": "CON-HGT-003",
   "properties": {
    "id": "CON-HGT-003",
    "layer": "REGULATORY_CONTROL",
    "name_zh": "站域高层引导区（建议≤120m）",
    "source_type": "agent_generated_design",
    "source_class": "agent_designed",
    "confidence": "medium",
    "geometry_role": "design_proposal",
    "area_sqm_calculated": 882575.47,
    "max_height_m": 120,
    "control_rule_zh": "四处轨道站核心区允许高层簇群，最高建议不超过120m"
   },
   "geometry": {
    "type": "MultiPolygon",
    "coordinates": [
     [
      [
       [
        116.352811,
        39.945354
       ],
       [
        116.35269,
        39.945153
       ],
       [
        116.352544,
        39.944963
       ],
       [
        116.352375,
        39.944784
       ],
       [
        116.352183,
        39.94462
       ],
       [
        116.351972,
        39.94447
       ],
       [
        116.351743,
        39.944337
       ],
       [
        116.351498,
        39.944222
       ],
       [
        116.351239,
        39.944126
       ],
       [
        116.350969,
        39.94405
       ],
       [
        116.350692,
        39.943995
       ],
       [
        116.350408,
        39.943961
       ],
       [
        116.350121,
        39.943949
       ],
       [
        116.349834,
        39.943958
       ],
       [
        116.34955,
        39.943989
       ],
       [
        116.349271,
        39.944041
       ],
       [
        116.349,
        39.944114
       ],
       [
        116.34874,
        39.944207
       ],
       [
        116.348493,
        39.944319
       ],
       [
        116.348261,
        39.944449
       ],
       [
        116.348047,
        39.944596
       ],
       [
        116.347852,
        39.944759
       ],
       [
        116.34768,
        39.944936
       ],
       [
        116.34753,
        39.945124
       ],
       [
        116.347406,
        39.945323
       ],
       [
        116.347307,
        39.945531
       ],
       [
        116.347235,
        39.945745
       ],
       [
        116.347191,
        39.945963
       ],
       [
        116.347175,
        39.946184
       ],
       [
        116.347187,
        39.946404
       ],
       [
        116.347227,
        39.946623
       ],
       [
        116.347295,
        39.946838
       ],
       [
        116.347389,
        39.947046
       ],
       [
        116.34751,
        39.947247
       ],
       [
        116.347656,
        39.947437
       ],
       [
        116.347825,
        39.947616
       ],
       [
        116.348017,
        39.94778
       ],
       [
        116.348228,
        39.94793
       ],
       [
        116.348457,
        39.948063
       ],
       [
        116.348702,
        39.948178
       ],
       [
        116.348961,
        39.948274
       ],
       [
        116.34923,
        39.94835
       ],
       [
        116.349508,
        39.948405
       ],
       [
        116.349792,
        39.948439
       ],
       [
        116.350079,
        39.948451
       ],
       [
        116.350366,
        39.948442
       ],
       [
        116.35065,
        39.948411
       ],
       [
        116.350929,
        39.948359
       ],
       [
        116.3512,
        39.948286
       ],
       [
        116.35146,
        39.948193
       ],
       [
        116.351707,
        39.948081
       ],
       [
        116.351939,
        39.947951
       ],
       [
        116.352153,
        39.947804
       ],
       [
        116.352348,
        39.947641
       ],
       [
        116.35252,
        39.947464
       ],
       [
        116.35267,
        39.947276
       ],
       [
        116.352794,
        39.947077
       ],
       [
        116.352893,
        39.946869
       ],
       [
        116.352965,
        39.946655
       ],
       [
        116.353009,
        39.946437
       ],
       [
        116.353025,
        39.946216
       ],
       [
        116.353013,
        39.945996
       ],
       [
        116.352973,
        39.945777
       ],
       [
        116.352905,
        39.945562
       ],
       [
        116.352811,
        39.945354
       ]
      ]
     ],
     [
      [
       [
        116.35242,
        39.96992
       ],
       [
        116.352294,
        39.969711
       ],
       [
        116.352143,
        39.969513
       ],
       [
        116.351966,
        39.969328
       ],
       [
        116.351768,
        39.969156
       ],
       [
        116.351548,
        39.969001
       ],
       [
        116.351309,
        39.968863
       ],
       [
        116.351054,
        39.968743
       ],
       [
        116.350785,
        39.968643
       ],
       [
        116.350505,
        39.968564
       ],
       [
        116.350215,
        39.968507
       ],
       [
        116.34992,
        39.968471
       ],
       [
        116.349622,
        39.968459
       ],
       [
        116.349324,
        39.968468
       ],
       [
        116.349028,
        39.9685
       ],
       [
        116.348738,
        39.968554
       ],
       [
        116.348456,
        39.96863
       ],
       [
        116.348185,
        39.968727
       ],
       [
        116.347928,
        39.968844
       ],
       [
        116.347687,
        39.968979
       ],
       [
        116.347464,
        39.969132
       ],
       [
        116.347262,
        39.969301
       ],
       [
        116.347082,
        39.969485
       ],
       [
        116.346927,
        39.969681
       ],
       [
        116.346797,
        39.969888
       ],
       [
        116.346694,
        39.970104
       ],
       [
        116.34662,
        39.970326
       ],
       [
        116.346574,
        39.970553
       ],
       [
        116.346557,
        39.970783
       ],
       [
        116.346569,
        39.971012
       ],
       [
        116.346611,
        39.97124
       ],
       [
        116.346681,
        39.971463
       ],
       [
        116.34678,
        39.97168
       ],
       [
        116.346906,
        39.971889
       ],
       [
        116.347057,
        39.972087
       ],
       [
        116.347233,
        39.972272
       ],
       [
        116.347432,
        39.972444
       ],
       [
        116.347652,
        39.972599
       ],
       [
        116.347891,
        39.972737
       ],
       [
        116.348146,
        39.972857
       ],
       [
        116.348415,
        39.972957
       ],
       [
        116.348695,
        39.973036
       ],
       [
        116.348985,
        39.973093
       ],
       [
        116.34928,
        39.973129
       ],
       [
        116.349578,
        39.973141
       ],
       [
        116.349876,
        39.973132
       ],
       [
        116.350172,
        39.9731
       ],
       [
        116.350462,
        39.973046
       ],
       [
        116.350744,
        39.97297
       ],
       [
        116.351015,
        39.972873
       ],
       [
        116.351272,
        39.972756
       ],
       [
        116.351513,
        39.972621
       ],
       [
        116.351736,
        39.972468
       ],
       [
        116.351938,
        39.972299
       ],
       [
        116.352118,
        39.972115
       ],
       [
        116.352273,
        39.971919
       ],
       [
        116.352403,
        39.971712
       ],
       [
        116.352506,
        39.971496
       ],
       [
        116.35258,
        39.971274
       ],
       [
        116.352626,
        39.971046
       ],
       [
        116.352643,
        39.970817
       ],
       [
        116.352631,
        39.970587
       ],
       [
        116.352589,
        39.97036
       ],
       [
        116.352519,
        39.970137
       ],
       [
        116.35242,
        39.96992
       ]
      ]
     ],
     [
      [
       [
        116.351329,
        39.988286
       ],
       [
        116.351199,
        39.988069
       ],
       [
        116.351041,
        39.987864
       ],
       [
        116.350858,
        39.987671
       ],
       [
        116.350652,
        39.987493
       ],
       [
        116.350423,
        39.987332
       ],
       [
        116.350175,
        39.987188
       ],
       [
        116.34991,
        39.987064
       ],
       [
        116.349631,
        39.98696
       ],
       [
        116.34934,
        39.986878
       ],
       [
        116.349039,
        39.986819
       ],
       [
        116.348733,
        39.986782
       ],
       [
        116.348423,
        39.986768
       ],
       [
        116.348113,
        39.986778
       ],
       [
        116.347806,
        39.986812
       ],
       [
        116.347505,
        39.986868
       ],
       [
        116.347212,
        39.986947
       ],
       [
        116.34693,
        39.987047
       ],
       [
        116.346663,
        39.987168
       ],
       [
        116.346413,
        39.987309
       ],
       [
        116.346181,
        39.987468
       ],
       [
        116.345971,
        39.987644
       ],
       [
        116.345785,
        39.987834
       ],
       [
        116.345623,
        39.988038
       ],
       [
        116.345488,
        39.988253
       ],
       [
        116.345382,
        39.988477
       ],
       [
        116.345304,
        39.988708
       ],
       [
        116.345256,
        39.988944
       ],
       [
        116.345239,
        39.989182
       ],
       [
        116.345252,
        39.989421
       ],
       [
        116.345295,
        39.989657
       ],
       [
        116.345368,
        39.989889
       ],
       [
        116.345471,
        39.990114
       ],
       [
        116.345601,
        39.990331
       ],
       [
        116.345759,
        39.990536
       ],
       [
        116.345942,
        39.990729
       ],
       [
        116.346148,
        39.990907
       ],
       [
        116.346377,
        39.991068
       ],
       [
        116.346625,
        39.991212
       ],
       [
        116.346889,
        39.991336
       ],
       [
        116.347169,
        39.99144
       ],
       [
        116.34746,
        39.991522
       ],
       [
        116.347761,
        39.991581
       ],
       [
        116.348067,
        39.991618
       ],
       [
        116.348377,
        39.991632
       ],
       [
        116.348687,
        39.991622
       ],
       [
        116.348994,
        39.991588
       ],
       [
        116.349296,
        39.991532
       ],
       [
        116.349588,
        39.991453
       ],
       [
        116.34987,
        39.991353
       ],
       [
        116.350137,
        39.991232
       ],
       [
        116.350388,
        39.991091
       ],
       [
        116.350619,
        39.990932
       ],
       [
        116.350829,
        39.990756
       ],
       [
        116.351016,
        39.990566
       ],
       [
        116.351177,
        39.990362
       ],
       [
        116.351312,
        39.990147
       ],
       [
        116.351418,
        39.989923
       ],
       [
        116.351496,
        39.989692
       ],
       [
        116.351544,
        39.989456
       ],
       [
        116.351561,
        39.989218
       ],
       [
        116.351548,
        39.988979
       ],
       [
        116.351505,
        39.988743
       ],
       [
        116.351432,
        39.988511
       ],
       [
        116.351329,
        39.988286
       ]
      ]
     ],
     [
      [
       [
        116.352939,
        40.016652
       ],
       [
        116.352804,
        40.016428
       ],
       [
        116.35264,
        40.016214
       ],
       [
        116.35245,
        40.016015
       ],
       [
        116.352236,
        40.01583
       ],
       [
        116.351999,
        40.015662
       ],
       [
        116.351742,
        40.015514
       ],
       [
        116.351467,
        40.015385
       ],
       [
        116.351177,
        40.015277
       ],
       [
        116.350875,
        40.015192
       ],
       [
        116.350563,
        40.01513
       ],
       [
        116.350245,
        40.015092
       ],
       [
        116.349924,
        40.015078
       ],
       [
        116.349602,
        40.015089
       ],
       [
        116.349284,
        40.015123
       ],
       [
        116.348971,
        40.015182
       ],
       [
        116.348667,
        40.015263
       ],
       [
        116.348375,
        40.015367
       ],
       [
        116.348098,
        40.015493
       ],
       [
        116.347838,
        40.015639
       ],
       [
        116.347598,
        40.015804
       ],
       [
        116.34738,
        40.015986
       ],
       [
        116.347187,
        40.016184
       ],
       [
        116.347019,
        40.016395
       ],
       [
        116.346879,
        40.016618
       ],
       [
        116.346769,
        40.01685
       ],
       [
        116.346688,
        40.01709
       ],
       [
        116.346639,
        40.017334
       ],
       [
        116.34662,
        40.017582
       ],
       [
        116.346634,
        40.017829
       ],
       [
        116.346679,
        40.018074
       ],
       [
        116.346755,
        40.018314
       ],
       [
        116.346861,
        40.018548
       ],
       [
        116.346996,
        40.018772
       ],
       [
        116.34716,
        40.018986
       ],
       [
        116.34735,
        40.019185
       ],
       [
        116.347564,
        40.01937
       ],
       [
        116.347801,
        40.019538
       ],
       [
        116.348058,
        40.019686
       ],
       [
        116.348333,
        40.019815
       ],
       [
        116.348623,
        40.019923
       ],
       [
        116.348925,
        40.020008
       ],
       [
        116.349237,
        40.02007
       ],
       [
        116.349555,
        40.020108
       ],
       [
        116.349876,
        40.020122
       ],
       [
        116.350198,
        40.020111
       ],
       [
        116.350516,
        40.020077
       ],
       [
        116.350829,
        40.020018
       ],
       [
        116.351133,
        40.019937
       ],
       [
        116.351425,
        40.019832
       ],
       [
        116.351702,
        40.019707
       ],
       [
        116.351962,
        40.019561
       ],
       [
        116.352202,
        40.019396
       ],
       [
        116.35242,
        40.019214
       ],
       [
        116.352614,
        40.019016
       ],
       [
        116.352781,
        40.018805
       ],
       [
        116.352921,
        40.018582
       ],
       [
        116.353031,
        40.01835
       ],
       [
        116.353112,
        40.01811
       ],
       [
        116.353161,
        40.017865
       ],
       [
        116.35318,
        40.017618
       ],
       [
        116.353166,
        40.017371
       ],
       [
        116.353121,
        40.017126
       ],
       [
        116.353045,
        40.016886
       ],
       [
        116.352939,
        40.016652
       ]
      ]
     ]
    ]
   }
  },
  {
   "type": "Feature",
   "id": "ZONE-N",
   "properties": {
    "id": "ZONE-N",
    "layer": "AI_SERVICE_ZONE",
    "name_zh": "众智园AI自主创新策源核",
    "source_type": "agent_generated_design",
    "source_class": "agent_designed",
    "confidence": "medium",
    "geometry_role": "design_proposal",
    "area_sqm_calculated": 610102.784,
    "structure_role": "zone_core",
    "belongs_to_key_area": "众智园AI自主创新加速区",
    "vertex_count": 6
   },
   "geometry": {
    "type": "Polygon",
    "coordinates": [
     [
      [
       116.3446,
       40.0162
      ],
      [
       116.346,
       40.0206
      ],
      [
       116.3514,
       40.0202
      ],
      [
       116.3524,
       40.0156
      ],
      [
       116.3518,
       40.011
      ],
      [
       116.3452,
       40.0112
      ],
      [
       116.3446,
       40.0162
      ]
     ]
    ]
   }
  },
  {
   "type": "Feature",
   "id": "ZONE-M",
   "properties": {
    "id": "ZONE-M",
    "layer": "AI_SERVICE_ZONE",
    "name_zh": "北京AI原点社区策源核",
    "source_type": "agent_generated_design",
    "source_class": "agent_designed",
    "confidence": "medium",
    "geometry_role": "design_proposal",
    "area_sqm_calculated": 426554.734,
    "structure_role": "zone_core",
    "belongs_to_key_area": "北京AI原点社区",
    "vertex_count": 5
   },
   "geometry": {
    "type": "Polygon",
    "coordinates": [
     [
      [
       116.3438,
       39.9886
      ],
      [
       116.3456,
       39.9925
      ],
      [
       116.351,
       39.992
      ],
      [
       116.3506,
       39.9854
      ],
      [
       116.3442,
       39.9852
      ],
      [
       116.3438,
       39.9886
      ]
     ]
    ]
   }
  },
  {
   "type": "Feature",
   "id": "ZONE-S",
   "properties": {
    "id": "ZONE-S",
    "layer": "AI_SERVICE_ZONE",
    "name_zh": "大钟寺AI产业策源核",
    "source_type": "agent_generated_design",
    "source_class": "agent_designed",
    "confidence": "medium",
    "geometry_role": "design_proposal",
    "area_sqm_calculated": 301082.937,
    "structure_role": "zone_core",
    "belongs_to_key_area": "大钟寺AI产业聚集区",
    "vertex_count": 7
   },
   "geometry": {
    "type": "Polygon",
    "coordinates": [
     [
      [
       116.3444,
       39.948
      ],
      [
       116.347,
       39.9494
      ],
      [
       116.351,
       39.9492
      ],
      [
       116.3528,
       39.9476
      ],
      [
       116.3524,
       39.9456
      ],
      [
       116.3498,
       39.9447
      ],
      [
       116.345,
       39.945
      ],
      [
       116.3444,
       39.948
      ]
     ]
    ]
   }
  },
  {
   "type": "Feature",
   "id": "WING-ZGC",
   "properties": {
    "id": "WING-ZGC",
    "layer": "AI_SERVICE_ZONE",
    "name_zh": "中关村科技服务翼（西翼）",
    "source_type": "agent_generated_design",
    "source_class": "agent_designed",
    "confidence": "medium",
    "geometry_role": "design_proposal",
    "area_sqm_calculated": 10337946.314,
    "structure_role": "wing",
    "wing_function_zh": "科技服务供给：概念验证、中试转化、金融法务、标准认证",
    "inside_research_area": true,
    "outside_design_area": true,
    "vertex_count": 10
   },
   "geometry": {
    "type": "Polygon",
    "coordinates": [
     [
      [
       116.3162,
       39.974
      ],
      [
       116.32,
       39.991
      ],
      [
       116.327,
       40.007
      ],
      [
       116.3366,
       40.003
      ],
      [
       116.3384,
       39.989
      ],
      [
       116.3376,
       39.973
      ],
      [
       116.339,
       39.957
      ],
      [
       116.3388,
       39.9456
      ],
      [
       116.327,
       39.947
      ],
      [
       116.317,
       39.956
      ],
      [
       116.3162,
       39.974
      ]
     ]
    ]
   }
  },
  {
   "type": "Feature",
   "id": "WING-XYH",
   "properties": {
    "id": "WING-XYH",
    "layer": "AI_SERVICE_ZONE",
    "name_zh": "小月河场景赋能翼（东翼）",
    "source_type": "agent_generated_design",
    "source_class": "agent_designed",
    "confidence": "medium",
    "geometry_role": "design_proposal",
    "area_sqm_calculated": 7592259.73,
    "structure_role": "wing",
    "wing_function_zh": "场景验证供给：滨水公共体验路径、产业测试验证场景、市民开放日",
    "inside_research_area": true,
    "outside_design_area": true,
    "vertex_count": 10
   },
   "geometry": {
    "type": "Polygon",
    "coordinates": [
     [
      [
       116.3568,
       39.974
      ],
      [
       116.3562,
       39.99
      ],
      [
       116.357,
       40.008
      ],
      [
       116.357,
       40.0255
      ],
      [
       116.366,
       40.025
      ],
      [
       116.369,
       40.014
      ],
      [
       116.3705,
       39.998
      ],
      [
       116.371,
       39.98
      ],
      [
       116.369,
       39.964
      ],
      [
       116.358,
       39.962
      ],
      [
       116.3568,
       39.974
      ]
     ]
    ]
   }
  },
  {
   "type": "Feature",
   "id": "LOOP-01",
   "properties": {
    "id": "LOOP-01",
    "layer": "REGULATORY_CONTROL",
    "name_zh": "西翼科技服务供给环",
    "source_type": "agent_generated_design",
    "source_class": "agent_designed",
    "confidence": "medium",
    "geometry_role": "design_proposal",
    "length_m": 16464.199,
    "structure_role": "synergy_loop",
    "loop_note_zh": "中关村科技服务翼→三区：概念验证、中试、资本、人才、标准的供给流",
    "closed": true,
    "vertex_count": 12
   },
   "geometry": {
    "type": "LineString",
    "coordinates": [
     [
      116.329,
      39.978
     ],
     [
      116.337,
      39.962
     ],
     [
      116.344,
      39.95
     ],
     [
      116.3486,
      39.947
     ],
     [
      116.345,
      39.96
     ],
     [
      116.3435,
      39.976
     ],
     [
      116.347,
      39.9885
     ],
     [
      116.3455,
      40.006
     ],
     [
      116.348,
      40.017
     ],
     [
      116.339,
      40.008
     ],
     [
      116.332,
      39.994
     ],
     [
      116.329,
      39.978
     ]
    ]
   }
  },
  {
   "type": "Feature",
   "id": "LOOP-02",
   "properties": {
    "id": "LOOP-02",
    "layer": "REGULATORY_CONTROL",
    "name_zh": "东翼场景验证反馈环",
    "source_type": "agent_generated_design",
    "source_class": "agent_designed",
    "confidence": "medium",
    "geometry_role": "design_proposal",
    "length_m": 16411.102,
    "structure_role": "synergy_loop",
    "loop_note_zh": "三区→小月河场景赋能翼：真实场景数据与验证结论的回流",
    "closed": true,
    "vertex_count": 13
   },
   "geometry": {
    "type": "LineString",
    "coordinates": [
     [
      116.363,
      39.994
     ],
     [
      116.356,
      40.008
     ],
     [
      116.351,
      40.015
     ],
     [
      116.3485,
      40.0172
     ],
     [
      116.3515,
      40.004
     ],
     [
      116.3505,
      39.992
     ],
     [
      116.3476,
      39.9888
     ],
     [
      116.352,
      39.974
     ],
     [
      116.351,
      39.958
     ],
     [
      116.349,
      39.9472
     ],
     [
      116.358,
      39.954
     ],
     [
      116.364,
      39.968
     ],
     [
      116.363,
      39.994
     ]
    ]
   }
  },
  {
   "type": "Feature",
   "id": "LOOP-03",
   "properties": {
    "id": "LOOP-03",
    "layer": "REGULATORY_CONTROL",
    "name_zh": "北区两翼横向协同轴",
    "source_type": "agent_generated_design",
    "source_class": "agent_designed",
    "confidence": "medium",
    "geometry_role": "design_proposal",
    "length_m": 3251.254,
    "structure_role": "synergy_loop",
    "loop_note_zh": "众智园—两翼：算力与自主体系协同",
    "closed": false,
    "vertex_count": 5
   },
   "geometry": {
    "type": "LineString",
    "coordinates": [
     [
      116.332,
      40.01
     ],
     [
      116.34,
      40.014
     ],
     [
      116.3485,
      40.0168
     ],
     [
      116.356,
      40.013
     ],
     [
      116.364,
      40.008
     ]
    ]
   }
  },
  {
   "type": "Feature",
   "id": "LOOP-04",
   "properties": {
    "id": "LOOP-04",
    "layer": "REGULATORY_CONTROL",
    "name_zh": "中区两翼横向协同轴",
    "source_type": "agent_generated_design",
    "source_class": "agent_designed",
    "confidence": "medium",
    "geometry_role": "design_proposal",
    "length_m": 2629.013,
    "structure_role": "synergy_loop",
    "loop_note_zh": "AI原点社区—两翼：人才与生活场景协同",
    "closed": false,
    "vertex_count": 5
   },
   "geometry": {
    "type": "LineString",
    "coordinates": [
     [
      116.333,
      39.984
     ],
     [
      116.34,
      39.987
     ],
     [
      116.3475,
      39.9886
     ],
     [
      116.355,
      39.989
     ],
     [
      116.362,
      39.991
     ]
    ]
   }
  },
  {
   "type": "Feature",
   "id": "LOOP-05",
   "properties": {
    "id": "LOOP-05",
    "layer": "REGULATORY_CONTROL",
    "name_zh": "南区两翼横向协同轴",
    "source_type": "agent_generated_design",
    "source_class": "agent_designed",
    "confidence": "medium",
    "geometry_role": "design_proposal",
    "length_m": 3357.92,
    "structure_role": "synergy_loop",
    "loop_note_zh": "大钟寺—两翼：消费与商务场景协同",
    "closed": false,
    "vertex_count": 5
   },
   "geometry": {
    "type": "LineString",
    "coordinates": [
     [
      116.335,
      39.954
     ],
     [
      116.341,
      39.949
     ],
     [
      116.3488,
      39.947
     ],
     [
      116.356,
      39.952
     ],
     [
      116.363,
      39.96
     ]
    ]
   }
  },
  {
   "type": "Feature",
   "id": "LOOP-06",
   "properties": {
    "id": "LOOP-06",
    "layer": "REGULATORY_CONTROL",
    "name_zh": "三区策源纵轴",
    "source_type": "agent_generated_design",
    "source_class": "agent_designed",
    "confidence": "medium",
    "geometry_role": "design_proposal",
    "length_m": 7755.77,
    "structure_role": "synergy_loop",
    "loop_note_zh": "南北贯通：大钟寺→AI原点社区→众智园的创新策源主轴",
    "closed": false,
    "vertex_count": 6
   },
   "geometry": {
    "type": "LineString",
    "coordinates": [
     [
      116.3488,
      39.947
     ],
     [
      116.3478,
      39.962
     ],
     [
      116.347,
      39.976
     ],
     [
      116.3476,
      39.9886
     ],
     [
      116.348,
      40.002
     ],
     [
      116.3485,
      40.0168
     ]
    ]
   }
  },
  {
   "type": "Feature",
   "id": "REG-01",
   "properties": {
    "id": "REG-01",
    "layer": "REGULATORY_CONTROL",
    "name_zh": "未来科学城协同方向",
    "source_type": "agent_generated_design",
    "source_class": "agent_designed",
    "confidence": "low",
    "geometry_role": "design_proposal",
    "length_m": 1125.794,
    "structure_role": "regional_link",
    "target_zh": "昌平未来科学城（北）",
    "note_zh": "示意性方向线，仅表达协同方向与接口位置，不代表实际线位"
   },
   "geometry": {
    "type": "LineString",
    "coordinates": [
     [
      116.3485,
      40.0168
     ],
     [
      116.349,
      40.023
     ],
     [
      116.3496,
      40.0269
     ]
    ]
   }
  },
  {
   "type": "Feature",
   "id": "REG-02",
   "properties": {
    "id": "REG-02",
    "layer": "REGULATORY_CONTROL",
    "name_zh": "怀柔科学城协同方向",
    "source_type": "agent_generated_design",
    "source_class": "agent_designed",
    "confidence": "low",
    "geometry_role": "design_proposal",
    "length_m": 1883.417,
    "structure_role": "regional_link",
    "target_zh": "怀柔科学城（东北）",
    "note_zh": "示意性方向线，仅表达协同方向与接口位置，不代表实际线位"
   },
   "geometry": {
    "type": "LineString",
    "coordinates": [
     [
      116.3485,
      40.0168
     ],
     [
      116.358,
      40.021
     ],
     [
      116.367,
      40.026
     ]
    ]
   }
  },
  {
   "type": "Feature",
   "id": "REG-03",
   "properties": {
    "id": "REG-03",
    "layer": "REGULATORY_CONTROL",
    "name_zh": "京津冀协同方向",
    "source_type": "agent_generated_design",
    "source_class": "agent_designed",
    "confidence": "low",
    "geometry_role": "design_proposal",
    "length_m": 1831.17,
    "structure_role": "regional_link",
    "target_zh": "京津冀城市群（东南）",
    "note_zh": "示意性方向线，仅表达协同方向与接口位置，不代表实际线位"
   },
   "geometry": {
    "type": "LineString",
    "coordinates": [
     [
      116.3488,
      39.947
     ],
     [
      116.359,
      39.942
     ],
     [
      116.367,
      39.9383
     ]
    ]
   }
  },
  {
   "type": "Feature",
   "id": "REG-04",
   "properties": {
    "id": "REG-04",
    "layer": "REGULATORY_CONTROL",
    "name_zh": "中关村科学城核心区协同方向",
    "source_type": "agent_generated_design",
    "source_class": "agent_designed",
    "confidence": "low",
    "geometry_role": "design_proposal",
    "length_m": 4385.734,
    "structure_role": "regional_link",
    "target_zh": "中关村科学城核心区（西南）",
    "note_zh": "示意性方向线，仅表达协同方向与接口位置，不代表实际线位"
   },
   "geometry": {
    "type": "LineString",
    "coordinates": [
     [
      116.3476,
      39.9888
     ],
     [
      116.334,
      39.978
     ],
     [
      116.322,
      39.966
     ],
     [
      116.314,
      39.959
     ]
    ]
   }
  }
 ]
}