{
 "type": "FeatureCollection",
 "name": "green_space",
 "crs_note": "EPSG:4326, coordinates rounded to 6 decimals",
 "measurement_note": "area_sqm_calculated / length_m 均由 pyproj.Geod(ellps=\"WGS84\") 反算生成，非手写；复算脚本见 _src/selfcheck.py",
 "layer_note": "蓝绿系统独立绘制：绿脊为遗产线慢行主线的变宽缓冲，社区公园为独立多边形，防护绿带沿三条快速路，与 land_use / public_space 无相同几何",
 "features": [
  {
   "type": "Feature",
   "id": "GRN-01",
   "properties": {
    "id": "GRN-01",
    "layer": "GREEN_SPACE",
    "name_zh": "京张遗址公园绿脊·南段·大钟寺—知春",
    "source_type": "agent_generated_design",
    "source_class": "agent_designed",
    "confidence": "medium",
    "geometry_role": "design_proposal",
    "area_sqm_calculated": 738265.29,
    "green_type": "linear_heritage_park",
    "corridor_width_m": 236,
    "note_zh": "沿京张铁路遗产线的线性公园主体，南北贯通"
   },
   "geometry": {
    "type": "MultiPolygon",
    "coordinates": [
     [
      [
       [
        116.348812,
        39.939093
       ],
       [
        116.348768,
        39.939034
       ],
       [
        116.348737,
        39.939
       ],
       [
        116.346461,
        39.939
       ],
       [
        116.3464,
        39.939074
       ],
       [
        116.346364,
        39.939129
       ],
       [
        116.348812,
        39.939093
       ]
      ]
     ],
     [
      [
       [
        116.346332,
        39.940196
       ],
       [
        116.346575,
        39.940209
       ],
       [
        116.346507,
        39.940987
       ],
       [
        116.34678,
        39.942215
       ],
       [
        116.349606,
        39.942321
       ],
       [
        116.348978,
        39.939497
       ],
       [
        116.346223,
        39.939537
       ],
       [
        116.34622,
        39.939571
       ],
       [
        116.346223,
        39.939676
       ],
       [
        116.346239,
        39.939779
       ],
       [
        116.346332,
        39.940196
       ]
      ]
     ],
     [
      [
       [
        116.346817,
        39.942379
       ],
       [
        116.347,
        39.943205
       ],
       [
        116.346845,
        39.94394
       ],
       [
        116.3494,
        39.943985
       ],
       [
        116.349634,
        39.943981
       ],
       [
        116.349763,
        39.94337
       ],
       [
        116.349779,
        39.943254
       ],
       [
        116.349778,
        39.943137
       ],
       [
        116.349761,
        39.943021
       ],
       [
        116.349642,
        39.942485
       ],
       [
        116.346817,
        39.942379
       ]
      ]
     ],
     [
      [
       [
        116.3494,
        39.944255
       ],
       [
        116.346789,
        39.944208
       ],
       [
        116.346509,
        39.945535
       ],
       [
        116.349314,
        39.945502
       ],
       [
        116.349577,
        39.944252
       ],
       [
        116.3494,
        39.944255
       ]
      ]
     ],
     [
      [
       [
        116.347053,
        39.947779
       ],
       [
        116.348829,
        39.947732
       ],
       [
        116.348958,
        39.947192
       ],
       [
        116.348963,
        39.94717
       ],
       [
        116.34928,
        39.945664
       ],
       [
        116.346475,
        39.945698
       ],
       [
        116.346239,
        39.946819
       ],
       [
        116.346028,
        39.947705
       ],
       [
        116.347053,
        39.947779
       ]
      ]
     ],
     [
      [
       [
        116.348791,
        39.947895
       ],
       [
        116.347047,
        39.947941
       ],
       [
        116.34599,
        39.947866
       ],
       [
        116.345578,
        39.949595
       ],
       [
        116.348389,
        39.949581
       ],
       [
        116.348791,
        39.947895
       ]
      ]
     ],
     [
      [
       [
        116.348261,
        39.950121
       ],
       [
        116.34545,
        39.950135
       ],
       [
        116.345242,
        39.951008
       ],
       [
        116.34524,
        39.95102
       ],
       [
        116.344878,
        39.954772
       ],
       [
        116.347002,
        39.954825
       ],
       [
        116.347494,
        39.954821
       ],
       [
        116.347968,
        39.951351
       ],
       [
        116.348261,
        39.950121
       ]
      ]
     ],
     [
      [
       [
        116.346998,
        39.955095
       ],
       [
        116.344868,
        39.955042
       ],
       [
        116.344762,
        39.958751
       ],
       [
        116.344813,
        39.959885
       ],
       [
        116.346794,
        39.95986
       ],
       [
        116.347574,
        39.959838
       ],
       [
        116.347383,
        39.955637
       ],
       [
        116.347457,
        39.955091
       ],
       [
        116.346998,
        39.955095
       ]
      ]
     ],
     [
      [
       [
        116.346806,
        39.96022
       ],
       [
        116.344851,
        39.960245
       ],
       [
        116.345634,
        39.964354
       ],
       [
        116.345637,
        39.964373
       ],
       [
        116.345737,
        39.964837
       ],
       [
        116.348547,
        39.964884
       ],
       [
        116.348365,
        39.964036
       ],
       [
        116.347633,
        39.960197
       ],
       [
        116.346806,
        39.96022
       ]
      ]
     ],
     [
      [
       [
        116.3486,
        39.965155
       ],
       [
        116.345795,
        39.965108
       ],
       [
        116.346521,
        39.968496
       ],
       [
        116.346552,
        39.969864
       ],
       [
        116.349314,
        39.969814
       ],
       [
        116.349281,
        39.968381
       ],
       [
        116.349263,
        39.968227
       ],
       [
        116.348605,
        39.965155
       ],
       [
        116.3486,
        39.965155
       ]
      ]
     ]
    ]
   }
  },
  {
   "type": "Feature",
   "id": "GRN-02",
   "properties": {
    "id": "GRN-02",
    "layer": "GREEN_SPACE",
    "name_zh": "京张遗址公园绿脊·中段·知春—学清",
    "source_type": "agent_generated_design",
    "source_class": "agent_designed",
    "confidence": "medium",
    "geometry_role": "design_proposal",
    "area_sqm_calculated": 994269.73,
    "green_type": "linear_heritage_park",
    "corridor_width_m": 272,
    "note_zh": "沿京张铁路遗产线的线性公园主体，南北贯通"
   },
   "geometry": {
    "type": "MultiPolygon",
    "coordinates": [
     [
      [
       [
        116.345249,
        39.979845
       ],
       [
        116.345423,
        39.979844
       ],
       [
        116.345459,
        39.978745
       ],
       [
        116.345249,
        39.979845
       ]
      ]
     ],
     [
      [
       [
        116.345146,
        39.980386
       ],
       [
        116.345025,
        39.981022
       ],
       [
        116.345016,
        39.981078
       ],
       [
        116.34473,
        39.983271
       ],
       [
        116.345083,
        39.983282
       ],
       [
        116.345405,
        39.980393
       ],
       [
        116.345405,
        39.980384
       ],
       [
        116.345146,
        39.980386
       ]
      ]
     ],
     [
      [
       [
        116.345052,
        39.983551
       ],
       [
        116.344695,
        39.98354
       ],
       [
        116.344499,
        39.98504
       ],
       [
        116.344857,
        39.985298
       ],
       [
        116.345052,
        39.983551
       ]
      ]
     ],
     [
      [
       [
        116.344837,
        39.985481
       ],
       [
        116.344476,
        39.98522
       ],
       [
        116.344437,
        39.985518
       ],
       [
        116.344831,
        39.985535
       ],
       [
        116.344837,
        39.985481
       ]
      ]
     ],
     [
      [
       [
        116.344521,
        39.988426
       ],
       [
        116.344525,
        39.988426
       ],
       [
        116.344814,
        39.985696
       ],
       [
        116.344416,
        39.985679
       ],
       [
        116.344409,
        39.985841
       ],
       [
        116.344521,
        39.988426
       ]
      ]
     ],
     [
      [
       [
        116.347673,
        39.987624
       ],
       [
        116.346734,
        39.986851
       ],
       [
        116.345163,
        39.985717
       ],
       [
        116.344876,
        39.988434
       ],
       [
        116.345999,
        39.98846
       ],
       [
        116.347707,
        39.988414
       ],
       [
        116.347673,
        39.987624
       ]
      ]
     ],
     [
      [
       [
        116.347856,
        39.990703
       ],
       [
        116.347789,
        39.990301
       ],
       [
        116.347723,
        39.988774
       ],
       [
        116.346001,
        39.98882
       ],
       [
        116.344839,
        39.988793
       ],
       [
        116.344651,
        39.990571
       ],
       [
        116.346286,
        39.990659
       ],
       [
        116.347856,
        39.990703
       ]
      ]
     ],
     [
      [
       [
        116.345075,
        39.993283
       ],
       [
        116.347401,
        39.993345
       ],
       [
        116.348294,
        39.993329
       ],
       [
        116.347883,
        39.990866
       ],
       [
        116.346274,
        39.990821
       ],
       [
        116.344651,
        39.990734
       ],
       [
        116.345075,
        39.993283
       ]
      ]
     ],
     [
      [
       [
        116.34635,
        39.970274
       ],
       [
        116.346407,
        39.972744
       ],
       [
        116.346111,
        39.974813
       ],
       [
        116.348199,
        39.974845
       ],
       [
        116.349312,
        39.974823
       ],
       [
        116.349582,
        39.972934
       ],
       [
        116.349592,
        39.972779
       ],
       [
        116.349534,
        39.970215
       ],
       [
        116.34635,
        39.970274
       ]
      ]
     ],
     [
      [
       [
        116.348201,
        39.975115
       ],
       [
        116.346073,
        39.975083
       ],
       [
        116.345887,
        39.97638
       ],
       [
        116.345774,
        39.979841
       ],
       [
        116.348471,
        39.979824
       ],
       [
        116.348975,
        39.977178
       ],
       [
        116.348982,
        39.977134
       ],
       [
        116.349274,
        39.975093
       ],
       [
        116.348201,
        39.975115
       ]
      ]
     ],
     [
      [
       [
        116.347927,
        39.983296
       ],
       [
        116.348181,
        39.98135
       ],
       [
        116.348368,
        39.980366
       ],
       [
        116.345756,
        39.980382
       ],
       [
        116.345755,
        39.980407
       ],
       [
        116.345433,
        39.983293
       ],
       [
        116.345803,
        39.983305
       ],
       [
        116.347927,
        39.983296
       ]
      ]
     ],
     [
      [
       [
        116.347636,
        39.985527
       ],
       [
        116.347892,
        39.983566
       ],
       [
        116.345797,
        39.983575
       ],
       [
        116.345403,
        39.983562
       ],
       [
        116.345184,
        39.985534
       ],
       [
        116.345208,
        39.985551
       ],
       [
        116.345402,
        39.985559
       ],
       [
        116.347636,
        39.985527
       ]
      ]
     ],
     [
      [
       [
        116.347615,
        39.985689
       ],
       [
        116.345442,
        39.98572
       ],
       [
        116.346866,
        39.986749
       ],
       [
        116.347663,
        39.987405
       ],
       [
        116.347595,
        39.985841
       ],
       [
        116.347615,
        39.985689
       ]
      ]
     ],
     [
      [
       [
        116.348583,
        39.995066
       ],
       [
        116.34858,
        39.995044
       ],
       [
        116.348339,
        39.993598
       ],
       [
        116.347399,
        39.993615
       ],
       [
        116.345121,
        39.993554
       ],
       [
        116.345419,
        39.995345
       ],
       [
        116.345789,
        39.99794
       ],
       [
        116.347,
        39.997977
       ],
       [
        116.348905,
        39.997922
       ],
       [
        116.348776,
        39.996415
       ],
       [
        116.348775,
        39.996407
       ],
       [
        116.348583,
        39.995066
       ]
      ]
     ],
     [
      [
       [
        116.345848,
        39.998348
       ],
       [
        116.346209,
        40.000881
       ],
       [
        116.346253,
        40.002359
       ],
       [
        116.348199,
        40.002385
       ],
       [
        116.349287,
        40.002364
       ],
       [
        116.34894,
        39.998327
       ],
       [
        116.347,
        39.998383
       ],
       [
        116.345848,
        39.998348
       ]
      ]
     ],
     [
      [
       [
        116.348201,
        40.002655
       ],
       [
        116.34626,
        40.002629
       ],
       [
        116.346401,
        40.007388
       ],
       [
        116.348202,
        40.007437
       ],
       [
        116.349588,
        40.007417
       ],
       [
        116.349565,
        40.006647
       ],
       [
        116.349325,
        40.002808
       ],
       [
        116.34931,
        40.002634
       ],
       [
        116.348201,
        40.002655
       ]
      ]
     ]
    ]
   }
  },
  {
   "type": "Feature",
   "id": "GRN-03",
   "properties": {
    "id": "GRN-03",
    "layer": "GREEN_SPACE",
    "name_zh": "京张遗址公园绿脊·北段·学清—清河",
    "source_type": "agent_generated_design",
    "source_class": "agent_designed",
    "confidence": "medium",
    "geometry_role": "design_proposal",
    "area_sqm_calculated": 548518.732,
    "green_type": "linear_heritage_park",
    "corridor_width_m": 304,
    "note_zh": "沿京张铁路遗产线的线性公园主体，南北贯通"
   },
   "geometry": {
    "type": "MultiPolygon",
    "coordinates": [
     [
      [
       [
        116.349638,
        40.007822
       ],
       [
        116.348198,
        40.007843
       ],
       [
        116.346201,
        40.007788
       ],
       [
        116.346057,
        40.009518
       ],
       [
        116.347497,
        40.009629
       ],
       [
        116.34961,
        40.009685
       ],
       [
        116.349692,
        40.008694
       ],
       [
        116.349638,
        40.007822
       ]
      ]
     ],
     [
      [
       [
        116.346043,
        40.00968
       ],
       [
        116.345867,
        40.01179
       ],
       [
        116.347003,
        40.011825
       ],
       [
        116.349433,
        40.011805
       ],
       [
        116.349596,
        40.009847
       ],
       [
        116.347483,
        40.009791
       ],
       [
        116.346043,
        40.00968
       ]
      ]
     ],
     [
      [
       [
        116.346997,
        40.012095
       ],
       [
        116.345844,
        40.01206
       ],
       [
        116.345714,
        40.013622
       ],
       [
        116.345746,
        40.01465
       ],
       [
        116.347215,
        40.014789
       ],
       [
        116.349188,
        40.014754
       ],
       [
        116.349411,
        40.012075
       ],
       [
        116.346997,
        40.012095
       ]
      ]
     ],
     [
      [
       [
        116.349,
        40.016917
       ],
       [
        116.349002,
        40.016917
       ],
       [
        116.349174,
        40.014917
       ],
       [
        116.347205,
        40.014951
       ],
       [
        116.345751,
        40.014813
       ],
       [
        116.345776,
        40.015602
       ],
       [
        116.34569,
        40.016829
       ],
       [
        116.349,
        40.016917
       ]
      ]
     ],
     [
      [
       [
        116.348968,
        40.017322
       ],
       [
        116.345661,
        40.017234
       ],
       [
        116.34554,
        40.018956
       ],
       [
        116.34683,
        40.019099
       ],
       [
        116.348808,
        40.019185
       ],
       [
        116.348968,
        40.017322
       ]
      ]
     ],
     [
      [
       [
        116.348794,
        40.019346
       ],
       [
        116.34681,
        40.019261
       ],
       [
        116.345528,
        40.019118
       ],
       [
        116.345379,
        40.021236
       ],
       [
        116.348626,
        40.021312
       ],
       [
        116.348794,
        40.019346
       ]
      ]
     ],
     [
      [
       [
        116.34894,
        40.02589
       ],
       [
        116.348969,
        40.025758
       ],
       [
        116.34898,
        40.025624
       ],
       [
        116.348975,
        40.02549
       ],
       [
        116.348585,
        40.02179
       ],
       [
        116.348603,
        40.021581
       ],
       [
        116.34536,
        40.021505
       ],
       [
        116.345325,
        40.022007
       ],
       [
        116.345034,
        40.021995
       ],
       [
        116.345425,
        40.02571
       ],
       [
        116.345448,
        40.025844
       ],
       [
        116.345476,
        40.025936
       ],
       [
        116.34661,
        40.02598
       ],
       [
        116.348905,
        40.025991
       ],
       [
        116.34894,
        40.02589
       ]
      ]
     ]
    ]
   }
  },
  {
   "type": "Feature",
   "id": "GRN-04",
   "properties": {
    "id": "GRN-04",
    "layer": "GREEN_SPACE",
    "name_zh": "大钟寺钟音社区公园",
    "source_type": "agent_generated_design",
    "source_class": "agent_designed",
    "confidence": "medium",
    "geometry_role": "design_proposal",
    "area_sqm_calculated": 23556.587,
    "green_type": "community_park",
    "service_radius_m": 500
   },
   "geometry": {
    "type": "Polygon",
    "coordinates": [
     [
      [
       116.343194,
       39.945798
      ],
      [
       116.343167,
       39.94586
      ],
      [
       116.343201,
       39.946883
      ],
      [
       116.343417,
       39.947139
      ],
      [
       116.344387,
       39.947212
      ],
      [
       116.345066,
       39.946673
      ],
      [
       116.344942,
       39.945929
      ],
      [
       116.344308,
       39.945633
      ],
      [
       116.343838,
       39.945616
      ],
      [
       116.343194,
       39.945798
      ]
     ]
    ]
   }
  },
  {
   "type": "Feature",
   "id": "GRN-05",
   "properties": {
    "id": "GRN-05",
    "layer": "GREEN_SPACE",
    "name_zh": "知春里邻里公园",
    "source_type": "agent_generated_design",
    "source_class": "agent_designed",
    "confidence": "medium",
    "geometry_role": "design_proposal",
    "area_sqm_calculated": 30302.974,
    "green_type": "community_park",
    "service_radius_m": 500
   },
   "geometry": {
    "type": "Polygon",
    "coordinates": [
     [
      [
       116.341479,
       39.97305
      ],
      [
       116.342547,
       39.973572
      ],
      [
       116.343667,
       39.973121
      ],
      [
       116.343721,
       39.97215
      ],
      [
       116.342653,
       39.971628
      ],
      [
       116.341533,
       39.972079
      ],
      [
       116.341479,
       39.97305
      ]
     ]
    ]
   }
  },
  {
   "type": "Feature",
   "id": "GRN-06",
   "properties": {
    "id": "GRN-06",
    "layer": "GREEN_SPACE",
    "name_zh": "AI原点邻里公园",
    "source_type": "agent_generated_design",
    "source_class": "agent_designed",
    "confidence": "medium",
    "geometry_role": "design_proposal",
    "area_sqm_calculated": 23028.301,
    "green_type": "community_park",
    "service_radius_m": 500
   },
   "geometry": {
    "type": "Polygon",
    "coordinates": [
     [
      [
       116.349998,
       39.990816
      ],
      [
       116.349989,
       39.990818
      ],
      [
       116.349541,
       39.99135
      ],
      [
       116.349713,
       39.99197
      ],
      [
       116.350405,
       39.992315
      ],
      [
       116.351211,
       39.992182
      ],
      [
       116.351659,
       39.99165
      ],
      [
       116.351579,
       39.991363
      ],
      [
       116.351159,
       39.990867
      ],
      [
       116.350967,
       39.990771
      ],
      [
       116.350859,
       39.990781
      ],
      [
       116.349998,
       39.990816
      ]
     ]
    ]
   }
  },
  {
   "type": "Feature",
   "id": "GRN-07",
   "properties": {
    "id": "GRN-07",
    "layer": "GREEN_SPACE",
    "name_zh": "众智园中央公园",
    "source_type": "agent_generated_design",
    "source_class": "agent_designed",
    "confidence": "medium",
    "geometry_role": "design_proposal",
    "area_sqm_calculated": 41114.099,
    "green_type": "community_park",
    "service_radius_m": 500
   },
   "geometry": {
    "type": "MultiPolygon",
    "coordinates": [
     [
      [
       [
        116.34904,
        40.014757
       ],
       [
        116.349594,
        40.014747
       ],
       [
        116.349644,
        40.012634
       ],
       [
        116.348734,
        40.012939
       ],
       [
        116.348264,
        40.013667
       ],
       [
        116.348512,
        40.014458
       ],
       [
        116.34904,
        40.014757
       ]
      ]
     ],
     [
      [
       [
        116.350074,
        40.014739
       ],
       [
        116.350686,
        40.014694
       ],
       [
        116.351185,
        40.014329
       ],
       [
        116.351303,
        40.013521
       ],
       [
        116.350718,
        40.012843
       ],
       [
        116.349995,
        40.01268
       ],
       [
        116.349946,
        40.014741
       ],
       [
        116.350074,
        40.014739
       ]
      ]
     ]
    ]
   }
  },
  {
   "type": "Feature",
   "id": "GRN-08",
   "properties": {
    "id": "GRN-08",
    "layer": "GREEN_SPACE",
    "name_zh": "学院南路口袋公园",
    "source_type": "agent_generated_design",
    "source_class": "agent_designed",
    "confidence": "medium",
    "geometry_role": "design_proposal",
    "area_sqm_calculated": 9739.489,
    "green_type": "community_park",
    "service_radius_m": 500
   },
   "geometry": {
    "type": "Polygon",
    "coordinates": [
     [
      [
       116.351514,
       39.962933
      ],
      [
       116.35237,
       39.962774
      ],
      [
       116.352438,
       39.962098
      ],
      [
       116.351624,
       39.96184
      ],
      [
       116.351053,
       39.962356
      ],
      [
       116.351514,
       39.962933
      ]
     ]
    ]
   }
  },
  {
   "type": "Feature",
   "id": "GRN-09",
   "properties": {
    "id": "GRN-09",
    "layer": "GREEN_SPACE",
    "name_zh": "北三环西路防护绿带",
    "source_type": "agent_generated_design",
    "source_class": "agent_designed",
    "confidence": "medium",
    "geometry_role": "design_proposal",
    "area_sqm_calculated": 60767.857,
    "green_type": "buffer_green",
    "buffer_width_m": 28
   },
   "geometry": {
    "type": "MultiPolygon",
    "coordinates": [
     [
      [
       [
        116.352494,
        39.949519
       ],
       [
        116.354737,
        39.949459
       ],
       [
        116.354737,
        39.949206
       ],
       [
        116.35249,
        39.949267
       ],
       [
        116.352494,
        39.949519
       ]
      ]
     ],
     [
      [
       [
        116.35228,
        39.949272
       ],
       [
        116.350586,
        39.949318
       ],
       [
        116.349595,
        39.949323
       ],
       [
        116.349565,
        39.949575
       ],
       [
        116.350593,
        39.94957
       ],
       [
        116.352284,
        39.949525
       ],
       [
        116.35228,
        39.949272
       ]
      ]
     ],
     [
      [
       [
        116.345378,
        39.949596
       ],
       [
        116.349212,
        39.949577
       ],
       [
        116.349242,
        39.949325
       ],
       [
        116.34542,
        39.949343
       ],
       [
        116.345378,
        39.949596
       ]
      ]
     ],
     [
      [
       [
        116.343061,
        39.949355
       ],
       [
        116.342406,
        39.949358
       ],
       [
        116.340976,
        39.949333
       ],
       [
        116.340969,
        39.949585
       ],
       [
        116.342403,
        39.94961
       ],
       [
        116.343068,
        39.949607
       ],
       [
        116.343061,
        39.949355
       ]
      ]
     ],
     [
      [
       [
        116.343272,
        39.949354
       ],
       [
        116.343279,
        39.949606
       ],
       [
        116.345024,
        39.949597
       ],
       [
        116.345025,
        39.949586
       ],
       [
        116.345065,
        39.949345
       ],
       [
        116.343272,
        39.949354
       ]
      ]
     ],
     [
      [
       [
        116.352295,
        39.950201
       ],
       [
        116.352293,
        39.950065
       ],
       [
        116.350607,
        39.95011
       ],
       [
        116.349501,
        39.950115
       ],
       [
        116.349471,
        39.950368
       ],
       [
        116.350614,
        39.950362
       ],
       [
        116.354737,
        39.950252
       ],
       [
        116.354737,
        39.949999
       ],
       [
        116.352503,
        39.950059
       ],
       [
        116.352505,
        39.950199
       ],
       [
        116.352295,
        39.950201
       ]
      ]
     ],
     [
      [
       [
        116.349148,
        39.950117
       ],
       [
        116.345325,
        39.950136
       ],
       [
        116.345301,
        39.950388
       ],
       [
        116.349118,
        39.950369
       ],
       [
        116.349148,
        39.950117
       ]
      ]
     ],
     [
      [
       [
        116.342394,
        39.950402
       ],
       [
        116.34309,
        39.950399
       ],
       [
        116.343083,
        39.950147
       ],
       [
        116.342397,
        39.95015
       ],
       [
        116.340954,
        39.950125
       ],
       [
        116.340947,
        39.950377
       ],
       [
        116.342394,
        39.950402
       ]
      ]
     ],
     [
      [
       [
        116.343293,
        39.950146
       ],
       [
        116.3433,
        39.950398
       ],
       [
        116.344948,
        39.95039
       ],
       [
        116.344972,
        39.950138
       ],
       [
        116.343293,
        39.950146
       ]
      ]
     ]
    ]
   }
  },
  {
   "type": "Feature",
   "id": "GRN-10",
   "properties": {
    "id": "GRN-10",
    "layer": "GREEN_SPACE",
    "name_zh": "北四环西路防护绿带",
    "source_type": "agent_generated_design",
    "source_class": "agent_designed",
    "confidence": "medium",
    "geometry_role": "design_proposal",
    "area_sqm_calculated": 62713.583,
    "green_type": "buffer_green",
    "buffer_width_m": 30
   },
   "geometry": {
    "type": "MultiPolygon",
    "coordinates": [
     [
      [
       [
        116.353558,
        39.979732
       ],
       [
        116.35358,
        39.979461
       ],
       [
        116.350784,
        39.97954
       ],
       [
        116.350009,
        39.979545
       ],
       [
        116.349981,
        39.979815
       ],
       [
        116.350792,
        39.97981
       ],
       [
        116.353558,
        39.979732
       ]
      ]
     ],
     [
      [
       [
        116.345432,
        39.979574
       ],
       [
        116.344406,
        39.97958
       ],
       [
        116.340555,
        39.979508
       ],
       [
        116.340572,
        39.979778
       ],
       [
        116.344403,
        39.97985
       ],
       [
        116.345423,
        39.979844
       ],
       [
        116.345432,
        39.979574
       ]
      ]
     ],
     [
      [
       [
        116.345774,
        39.979841
       ],
       [
        116.349629,
        39.979817
       ],
       [
        116.349657,
        39.979547
       ],
       [
        116.345783,
        39.979571
       ],
       [
        116.345774,
        39.979841
       ]
      ]
     ],
     [
      [
       [
        116.349926,
        39.980356
       ],
       [
        116.349898,
        39.980626
       ],
       [
        116.350816,
        39.98062
       ],
       [
        116.353492,
        39.980545
       ],
       [
        116.353514,
        39.980274
       ],
       [
        116.350808,
        39.98035
       ],
       [
        116.349926,
        39.980356
       ]
      ]
     ],
     [
      [
       [
        116.340607,
        39.980319
       ],
       [
        116.340625,
        39.98059
       ],
       [
        116.344394,
        39.98066
       ],
       [
        116.345376,
        39.980654
       ],
       [
        116.345405,
        39.980393
       ],
       [
        116.345405,
        39.980384
       ],
       [
        116.344397,
        39.98039
       ],
       [
        116.340607,
        39.980319
       ]
      ]
     ],
     [
      [
       [
        116.349546,
        39.980628
       ],
       [
        116.349574,
        39.980358
       ],
       [
        116.345756,
        39.980382
       ],
       [
        116.345755,
        39.980407
       ],
       [
        116.345728,
        39.980652
       ],
       [
        116.349546,
        39.980628
       ]
      ]
     ]
    ]
   }
  },
  {
   "type": "Feature",
   "id": "GRN-11",
   "properties": {
    "id": "GRN-11",
    "layer": "GREEN_SPACE",
    "name_zh": "北五环路防护绿带",
    "source_type": "agent_generated_design",
    "source_class": "agent_designed",
    "confidence": "medium",
    "geometry_role": "design_proposal",
    "area_sqm_calculated": 35400.603,
    "green_type": "buffer_green",
    "buffer_width_m": 34
   },
   "geometry": {
    "type": "MultiPolygon",
    "coordinates": [
     [
      [
       [
        116.343232,
        40.025848
       ],
       [
        116.34661,
        40.02598
       ],
       [
        116.352793,
        40.02601
       ],
       [
        116.354706,
        40.025943
       ],
       [
        116.354689,
        40.025638
       ],
       [
        116.352785,
        40.025704
       ],
       [
        116.346621,
        40.025674
       ],
       [
        116.343217,
        40.025541
       ],
       [
        116.343232,
        40.025848
       ]
      ]
     ],
     [
      [
       [
        116.346077,
        40.0265
       ],
       [
        116.342694,
        40.026368
       ],
       [
        116.3427,
        40.0265
       ],
       [
        116.346077,
        40.0265
       ]
      ]
     ]
    ]
   }
  },
  {
   "type": "Feature",
   "id": "GRN-12",
   "properties": {
    "id": "GRN-12",
    "layer": "GREEN_SPACE",
    "name_zh": "清河南岸水绿带",
    "source_type": "agent_generated_design",
    "source_class": "agent_designed",
    "confidence": "medium",
    "geometry_role": "design_proposal",
    "area_sqm_calculated": 147773.708,
    "green_type": "waterfront_green"
   },
   "geometry": {
    "type": "MultiPolygon",
    "coordinates": [
     [
      [
       [
        116.342544,
        40.023299
       ],
       [
        116.342611,
        40.024674
       ],
       [
        116.342648,
        40.024676
       ],
       [
        116.342608,
        40.023868
       ],
       [
        116.34258,
        40.023301
       ],
       [
        116.342544,
        40.023299
       ]
      ]
     ],
     [
      [
       [
        116.354572,
        40.023501
       ],
       [
        116.352389,
        40.023535
       ],
       [
        116.352405,
        40.024599
       ],
       [
        116.352195,
        40.024601
       ],
       [
        116.352179,
        40.023539
       ],
       [
        116.348619,
        40.023595
       ],
       [
        116.343108,
        40.023327
       ],
       [
        116.343134,
        40.023852
       ],
       [
        116.343176,
        40.024702
       ],
       [
        116.348544,
        40.024963
       ],
       [
        116.348618,
        40.024964
       ],
       [
        116.354647,
        40.024869
       ],
       [
        116.354589,
        40.023809
       ],
       [
        116.354572,
        40.023501
       ]
      ]
     ],
     [
      [
       [
        116.35521,
        40.024859
       ],
       [
        116.355135,
        40.023492
       ],
       [
        116.355099,
        40.023493
       ],
       [
        116.355115,
        40.023791
       ],
       [
        116.355174,
        40.02486
       ],
       [
        116.35521,
        40.024859
       ]
      ]
     ]
    ]
   }
  },
  {
   "type": "Feature",
   "id": "GRN-13",
   "properties": {
    "id": "GRN-13",
    "layer": "GREEN_SPACE",
    "name_zh": "西缘楔形绿地",
    "source_type": "agent_generated_design",
    "source_class": "agent_designed",
    "confidence": "medium",
    "geometry_role": "design_proposal",
    "area_sqm_calculated": 90234.825,
    "green_type": "wedge_green"
   },
   "geometry": {
    "type": "MultiPolygon",
    "coordinates": [
     [
      [
       [
        116.34086,
        39.964715
       ],
       [
        116.340558,
        39.964388
       ],
       [
        116.340549,
        39.964703
       ],
       [
        116.34086,
        39.964715
       ]
      ]
     ],
     [
      [
       [
        116.339877,
        39.968613
       ],
       [
        116.339877,
        39.968624
       ],
       [
        116.339888,
        39.969571
       ],
       [
        116.340009,
        39.965201
       ],
       [
        116.339965,
        39.965478
       ],
       [
        116.339964,
        39.965481
       ],
       [
        116.339877,
        39.968613
       ]
      ]
     ],
     [
      [
       [
        116.342021,
        39.969931
       ],
       [
        116.3426,
        39.9666
       ],
       [
        116.341119,
        39.964996
       ],
       [
        116.340541,
        39.964973
       ],
       [
        116.34054,
        39.965024
       ],
       [
        116.340405,
        39.969915
       ],
       [
        116.342021,
        39.969931
       ]
      ]
     ],
     [
      [
       [
        116.34195,
        39.970336
       ],
       [
        116.340393,
        39.97032
       ],
       [
        116.340381,
        39.970752
       ],
       [
        116.3418,
        39.9712
       ],
       [
        116.34195,
        39.970336
       ]
      ]
     ]
    ]
   }
  },
  {
   "type": "Feature",
   "id": "GRN-14",
   "properties": {
    "id": "GRN-14",
    "layer": "GREEN_SPACE",
    "name_zh": "东缘楔形绿地",
    "source_type": "agent_generated_design",
    "source_class": "agent_designed",
    "confidence": "medium",
    "geometry_role": "design_proposal",
    "area_sqm_calculated": 41043.451,
    "green_type": "wedge_green"
   },
   "geometry": {
    "type": "MultiPolygon",
    "coordinates": [
     [
      [
       [
        116.353548,
        39.994526
       ],
       [
        116.353514,
        39.99457
       ],
       [
        116.353581,
        39.995791
       ],
       [
        116.35369,
        39.997784
       ],
       [
        116.353726,
        39.997783
       ],
       [
        116.353548,
        39.994526
       ]
      ]
     ],
     [
      [
       [
        116.3521,
        39.9964
       ],
       [
        116.352207,
        39.997827
       ],
       [
        116.353164,
        39.997799
       ],
       [
        116.353055,
        39.995809
       ],
       [
        116.353022,
        39.995207
       ],
       [
        116.3521,
        39.9964
       ]
      ]
     ],
     [
      [
       [
        116.353322,
        40.000676
       ],
       [
        116.353186,
        39.998204
       ],
       [
        116.352237,
        39.998232
       ],
       [
        116.3524,
        40.0004
       ],
       [
        116.353322,
        40.000676
       ]
      ]
     ],
     [
      [
       [
        116.353749,
        39.998187
       ],
       [
        116.353712,
        39.998188
       ],
       [
        116.353858,
        40.000837
       ],
       [
        116.353894,
        40.000848
       ],
       [
        116.35382,
        39.999495
       ],
       [
        116.353749,
        39.998187
       ]
      ]
     ]
    ]
   }
  }
 ]
}
