{
 "type": "FeatureCollection",
 "name": "key_areas",
 "crs_note": "EPSG:4326, coordinates rounded to 6 decimals",
 "measurement_note": "area_sqm_calculated / length_m 均由 pyproj.Geod(ellps=\"WGS84\") 反算生成，非手写；复算脚本见 _src/selfcheck.py",
 "layer_note": "三处重点区域原样采用官方几何；官方 PROV-KEY-SCOPE-001 的三个 part 与本文件三要素逐字节相同，为避免重复几何（铁律 R1）不予输出，重点区域合计面积见 geo_report.md",
 "features": [
  {
   "type": "Feature",
   "id": "PROV-KEY-001",
   "properties": {
    "id": "PROV-KEY-001",
    "layer": "KEY_AREA",
    "parent_scope_id": "key_detailed_design_area",
    "area_id": "zhongzhiyuan_ai_acceleration_area",
    "name_zh": "众智园AI自主创新加速区粗略范围",
    "source_type": "agent_inferred_from_public_data",
    "confidence": "medium",
    "geometry_role": "provisional_constraint",
    "official_boundary": false,
    "boundary_precision": "provisional_rough",
    "announced_area_sqm": 1921000,
    "area_sqm_calculated": 1929055.015,
    "source_id": "PROVISIONAL-BOUNDARY-TEXT-AND-BBOX",
    "source_title": "依据公告重点片区名称、南北顺序、公告约面积和临时 SITE_BOUNDARY 形成的临时粗略范围",
    "usage_note": "仅用于 AI agent 生成、展示和临时自检；不得作为 official key-area polygon、审批依据或精确面积复算依据。",
    "source_class": "official_provisional",
    "adoption": "verbatim_from_official_site_package",
    "official_source_path": "brief/site-package/geometry/provisional_boundaries.geojson#PROV-KEY-001",
    "geometry_edit": "none"
   },
   "geometry": {
    "type": "Polygon",
    "coordinates": [
     [
      [
       116.343,
       40.0075
      ],
      [
       116.354,
       40.0075
      ],
      [
       116.354,
       40.026
      ],
      [
       116.343,
       40.026
      ],
      [
       116.343,
       40.0075
      ]
     ]
    ]
   }
  },
  {
   "type": "Feature",
   "id": "PROV-KEY-002",
   "properties": {
    "id": "PROV-KEY-002",
    "layer": "KEY_AREA",
    "parent_scope_id": "key_detailed_design_area",
    "area_id": "beijing_ai_origin_community",
    "name_zh": "北京AI原点社区粗略范围",
    "source_type": "agent_inferred_from_public_data",
    "confidence": "medium",
    "geometry_role": "provisional_constraint",
    "official_boundary": false,
    "boundary_precision": "provisional_rough",
    "announced_area_sqm": 1043000,
    "area_sqm_calculated": 1043157.175,
    "source_id": "PROVISIONAL-BOUNDARY-TEXT-AND-BBOX",
    "source_title": "依据公告重点片区名称、南北顺序、公告约面积和临时 SITE_BOUNDARY 形成的临时粗略范围",
    "usage_note": "仅用于 AI agent 生成、展示和临时自检；不得作为 official key-area polygon、审批依据或精确面积复算依据。",
    "source_class": "official_provisional",
    "adoption": "verbatim_from_official_site_package",
    "official_source_path": "brief/site-package/geometry/provisional_boundaries.geojson#PROV-KEY-002",
    "geometry_edit": "none"
   },
   "geometry": {
    "type": "Polygon",
    "coordinates": [
     [
      [
       116.342,
       39.9835
      ],
      [
       116.353,
       39.9835
      ],
      [
       116.353,
       39.9935
      ],
      [
       116.342,
       39.9935
      ],
      [
       116.342,
       39.9835
      ]
     ]
    ]
   }
  },
  {
   "type": "Feature",
   "id": "PROV-KEY-003",
   "properties": {
    "id": "PROV-KEY-003",
    "layer": "KEY_AREA",
    "parent_scope_id": "key_detailed_design_area",
    "area_id": "dazhongsi_ai_industry_cluster",
    "name_zh": "大钟寺AI产业聚集区粗略范围",
    "source_type": "agent_inferred_from_public_data",
    "confidence": "medium",
    "geometry_role": "provisional_constraint",
    "official_boundary": false,
    "boundary_precision": "provisional_rough",
    "announced_area_sqm": 720000,
    "area_sqm_calculated": 720399.255,
    "source_id": "PROVISIONAL-BOUNDARY-TEXT-AND-BBOX",
    "source_title": "依据公告重点片区名称、南北顺序、公告约面积和临时 SITE_BOUNDARY 形成的临时粗略范围",
    "usage_note": "仅用于 AI agent 生成、展示和临时自检；不得作为 official key-area polygon、审批依据或精确面积复算依据。",
    "source_class": "official_provisional",
    "adoption": "verbatim_from_official_site_package",
    "official_source_path": "brief/site-package/geometry/provisional_boundaries.geojson#PROV-KEY-003",
    "geometry_edit": "none"
   },
   "geometry": {
    "type": "Polygon",
    "coordinates": [
     [
      [
       116.342,
       39.944
      ],
      [
       116.355,
       39.944
      ],
      [
       116.355,
       39.94984
      ],
      [
       116.342,
       39.94984
      ],
      [
       116.342,
       39.944
      ]
     ]
    ]
   }
  }
 ]
}
