{
 "type": "FeatureCollection",
 "name": "phasing",
 "crs_note": "EPSG:4326, coordinates rounded to 6 decimals",
 "measurement_note": "area_sqm_calculated / length_m 均由 pyproj.Geod(ellps=\"WGS84\") 反算生成，非手写；复算脚本见 _src/selfcheck.py",
 "layer_note": "四期实施单元以现状道路中心线为界，自南向北推进，互不重叠且合计覆盖总体设计范围",
 "features": [
  {
   "type": "Feature",
   "id": "PH-01",
   "properties": {
    "id": "PH-01",
    "layer": "PHASE",
    "name_zh": "一期·南段引爆（大钟寺AI产业聚集区）",
    "source_type": "agent_generated_design",
    "source_class": "agent_designed",
    "confidence": "medium",
    "geometry_role": "design_proposal",
    "area_sqm_calculated": 2234624.821,
    "phase_years": "2027—2029",
    "phase_note_zh": "以大钟寺AI产业聚集区与遗产线南段为启动段，先行落地智能原生消费与商务场景",
    "boundary_basis_zh": "以现状道路中心线为分期界：交大东路北街 / 北四环西路 / 学清路"
   },
   "geometry": {
    "type": "Polygon",
    "coordinates": [
     [
      [
       116.3553,
       39.939
      ],
      [
       116.3407,
       39.939
      ],
      [
       116.340262,
       39.954751
      ],
      [
       116.3422,
       39.95484
      ],
      [
       116.347,
       39.95496
      ],
      [
       116.3518,
       39.95492
      ],
      [
       116.3553,
       39.954798
      ],
      [
       116.3553,
       39.939
      ]
     ]
    ]
   }
  },
  {
   "type": "Feature",
   "id": "PH-02",
   "properties": {
    "id": "PH-02",
    "layer": "PHASE",
    "name_zh": "二期·中段织补（知春—四环段）",
    "source_type": "agent_generated_design",
    "source_class": "agent_designed",
    "confidence": "medium",
    "geometry_role": "design_proposal",
    "area_sqm_calculated": 3580044.037,
    "phase_years": "2030—2031",
    "phase_note_zh": "打通知春路—北四环西路段绿脊与东西缝合廊道，织补现状居住与科研街区",
    "boundary_basis_zh": "以现状道路中心线为分期界：交大东路北街 / 北四环西路 / 学清路"
   },
   "geometry": {
    "type": "Polygon",
    "coordinates": [
     [
      [
       116.3444,
       39.98012
      ],
      [
       116.3508,
       39.98008
      ],
      [
       116.354101,
       39.979987
      ],
      [
       116.3553,
       39.965
      ],
      [
       116.3553,
       39.954798
      ],
      [
       116.3518,
       39.95492
      ],
      [
       116.347,
       39.95496
      ],
      [
       116.3422,
       39.95484
      ],
      [
       116.340262,
       39.954751
      ],
      [
       116.3397,
       39.975
      ],
      [
       116.340025,
       39.980038
      ],
      [
       116.3444,
       39.98012
      ]
     ]
    ]
   }
  },
  {
   "type": "Feature",
   "id": "PH-03",
   "properties": {
    "id": "PH-03",
    "layer": "PHASE",
    "name_zh": "三期·中北段跃升（北京AI原点社区）",
    "source_type": "agent_generated_design",
    "source_class": "agent_designed",
    "confidence": "medium",
    "geometry_role": "design_proposal",
    "area_sqm_calculated": 3345994.551,
    "phase_years": "2032—2033",
    "phase_note_zh": "建设AI原点社区与清华东路以南人才社区，形成AI生活体验样板段",
    "boundary_basis_zh": "以现状道路中心线为分期界：交大东路北街 / 北四环西路 / 学清路"
   },
   "geometry": {
    "type": "Polygon",
    "coordinates": [
     [
      [
       116.341769,
       40.007414
      ],
      [
       116.3438,
       40.00752
      ],
      [
       116.3482,
       40.00764
      ],
      [
       116.3524,
       40.00758
      ],
      [
       116.354258,
       40.007492
      ],
      [
       116.3533,
       39.99
      ],
      [
       116.354101,
       39.979987
      ],
      [
       116.3508,
       39.98008
      ],
      [
       116.3444,
       39.98012
      ],
      [
       116.340025,
       39.980038
      ],
      [
       116.3417,
       40.006
      ],
      [
       116.341769,
       40.007414
      ]
     ]
    ]
   }
  },
  {
   "type": "Feature",
   "id": "PH-04",
   "properties": {
    "id": "PH-04",
    "layer": "PHASE",
    "name_zh": "四期·北段成型（众智园AI自主创新加速区）",
    "source_type": "agent_generated_design",
    "source_class": "agent_designed",
    "confidence": "medium",
    "geometry_role": "design_proposal",
    "area_sqm_calculated": 2251315.972,
    "phase_years": "2034—2035",
    "phase_note_zh": "建设众智园全栈自主创新体系载体与公共算力设施，完成南北贯通",
    "boundary_basis_zh": "以现状道路中心线为分期界：交大东路北街 / 北四环西路 / 学清路"
   },
   "geometry": {
    "type": "Polygon",
    "coordinates": [
     [
      [
       116.3427,
       40.0265
      ],
      [
       116.3553,
       40.0265
      ],
      [
       116.354258,
       40.007492
      ],
      [
       116.3524,
       40.00758
      ],
      [
       116.3482,
       40.00764
      ],
      [
       116.3438,
       40.00752
      ],
      [
       116.341769,
       40.007414
      ],
      [
       116.3427,
       40.0265
      ]
     ]
    ]
   }
  }
 ]
}
