{
 "type": "FeatureCollection",
 "name": "public_space",
 "crs_note": "EPSG:4326, coordinates rounded to 6 decimals",
 "measurement_note": "area_sqm_calculated / length_m 均由 pyproj.Geod(ellps=\"WGS84\") 反算生成，非手写；复算脚本见 _src/selfcheck.py",
 "layer_note": "公共空间独立绘制：三区主广场 + 站前广场 + 缝合节点 + 三处AI朝圣地标基座 + 绿道公共空间带",
 "features": [
  {
   "type": "Feature",
   "id": "PUB-01",
   "properties": {
    "id": "PUB-01",
    "layer": "PUBLIC_SPACE",
    "name_zh": "京张原点广场",
    "source_type": "agent_generated_design",
    "source_class": "agent_designed",
    "confidence": "medium",
    "geometry_role": "design_proposal",
    "area_sqm_calculated": 39374.186,
    "public_space_type": "zone_plaza",
    "open_24h": true
   },
   "geometry": {
    "type": "Polygon",
    "coordinates": [
     [
      [
       116.347081,
       39.987815
      ],
      [
       116.346328,
       39.988386
      ],
      [
       116.34632,
       39.989199
      ],
      [
       116.347062,
       39.989779
      ],
      [
       116.348119,
       39.989785
      ],
      [
       116.348872,
       39.989214
      ],
      [
       116.34888,
       39.988401
      ],
      [
       116.348138,
       39.987821
      ],
      [
       116.347081,
       39.987815
      ]
     ]
    ]
   }
  },
  {
   "type": "Feature",
   "id": "PUB-02",
   "properties": {
    "id": "PUB-02",
    "layer": "PUBLIC_SPACE",
    "name_zh": "大钟寺钟声广场",
    "source_type": "agent_generated_design",
    "source_class": "agent_designed",
    "confidence": "medium",
    "geometry_role": "design_proposal",
    "area_sqm_calculated": 28083.737,
    "public_space_type": "zone_plaza",
    "open_24h": true
   },
   "geometry": {
    "type": "Polygon",
    "coordinates": [
     [
      [
       116.347627,
       39.946651
      ],
      [
       116.347933,
       39.947557
      ],
      [
       116.349106,
       39.947806
      ],
      [
       116.349973,
       39.947149
      ],
      [
       116.349667,
       39.946243
      ],
      [
       116.348494,
       39.945994
      ],
      [
       116.347627,
       39.946651
      ]
     ]
    ]
   }
  },
  {
   "type": "Feature",
   "id": "PUB-03",
   "properties": {
    "id": "PUB-03",
    "layer": "PUBLIC_SPACE",
    "name_zh": "众智开放算力广场",
    "source_type": "agent_generated_design",
    "source_class": "agent_designed",
    "confidence": "medium",
    "geometry_role": "design_proposal",
    "area_sqm_calculated": 46669.559,
    "public_space_type": "zone_plaza",
    "open_24h": true
   },
   "geometry": {
    "type": "Polygon",
    "coordinates": [
     [
      [
       116.347954,
       40.015918
      ],
      [
       116.347212,
       40.016326
      ],
      [
       116.346924,
       40.016992
      ],
      [
       116.3472,
       40.01766
      ],
      [
       116.347934,
       40.018077
      ],
      [
       116.348846,
       40.018082
      ],
      [
       116.349588,
       40.017674
      ],
      [
       116.349876,
       40.017008
      ],
      [
       116.3496,
       40.01634
      ],
      [
       116.348866,
       40.015923
      ],
      [
       116.347954,
       40.015918
      ]
     ]
    ]
   }
  },
  {
   "type": "Feature",
   "id": "PUB-04",
   "properties": {
    "id": "PUB-04",
    "layer": "PUBLIC_SPACE",
    "name_zh": "大钟寺站前广场",
    "source_type": "agent_generated_design",
    "source_class": "agent_designed",
    "confidence": "medium",
    "geometry_role": "design_proposal",
    "area_sqm_calculated": 9143.761,
    "public_space_type": "station_plaza",
    "open_24h": false
   },
   "geometry": {
    "type": "Polygon",
    "coordinates": [
     [
      [
       116.349378,
       39.946254
      ],
      [
       116.349944,
       39.946745
      ],
      [
       116.350726,
       39.946483
      ],
      [
       116.350643,
       39.945829
      ],
      [
       116.34981,
       39.945688
      ],
      [
       116.349378,
       39.946254
      ]
     ]
    ]
   }
  },
  {
   "type": "Feature",
   "id": "PUB-05",
   "properties": {
    "id": "PUB-05",
    "layer": "PUBLIC_SPACE",
    "name_zh": "知春路站前广场",
    "source_type": "agent_generated_design",
    "source_class": "agent_designed",
    "confidence": "medium",
    "geometry_role": "design_proposal",
    "area_sqm_calculated": 8742.387,
    "public_space_type": "station_plaza",
    "open_24h": false
   },
   "geometry": {
    "type": "Polygon",
    "coordinates": [
     [
      [
       116.348937,
       39.970688
      ],
      [
       116.349142,
       39.971186
      ],
      [
       116.349805,
       39.971298
      ],
      [
       116.350263,
       39.970912
      ],
      [
       116.350058,
       39.970414
      ],
      [
       116.349395,
       39.970302
      ],
      [
       116.348937,
       39.970688
      ]
     ]
    ]
   }
  },
  {
   "type": "Feature",
   "id": "PUB-06",
   "properties": {
    "id": "PUB-06",
    "layer": "PUBLIC_SPACE",
    "name_zh": "AI原点站前广场",
    "source_type": "agent_generated_design",
    "source_class": "agent_designed",
    "confidence": "medium",
    "geometry_role": "design_proposal",
    "area_sqm_calculated": 11918.415,
    "public_space_type": "station_plaza",
    "open_24h": false
   },
   "geometry": {
    "type": "Polygon",
    "coordinates": [
     [
      [
       116.348087,
       39.988656
      ],
      [
       116.347653,
       39.989049
      ],
      [
       116.347781,
       39.989555
      ],
      [
       116.348375,
       39.989794
      ],
      [
       116.348988,
       39.989585
      ],
      [
       116.349159,
       39.989086
      ],
      [
       116.348758,
       39.988673
      ],
      [
       116.348087,
       39.988656
      ]
     ]
    ]
   }
  },
  {
   "type": "Feature",
   "id": "PUB-07",
   "properties": {
    "id": "PUB-07",
    "layer": "PUBLIC_SPACE",
    "name_zh": "众智园站前广场",
    "source_type": "agent_generated_design",
    "source_class": "agent_designed",
    "confidence": "medium",
    "geometry_role": "design_proposal",
    "area_sqm_calculated": 8556.212,
    "public_space_type": "station_plaza",
    "open_24h": false
   },
   "geometry": {
    "type": "Polygon",
    "coordinates": [
     [
      [
       116.34923,
       40.017763
      ],
      [
       116.349895,
       40.01814
      ],
      [
       116.350567,
       40.017771
      ],
      [
       116.350317,
       40.017165
      ],
      [
       116.349491,
       40.017161
      ],
      [
       116.34923,
       40.017763
      ]
     ]
    ]
   }
  },
  {
   "type": "Feature",
   "id": "PUB-08",
   "properties": {
    "id": "PUB-08",
    "layer": "PUBLIC_SPACE",
    "name_zh": "学知缝合节点空间",
    "source_type": "agent_generated_design",
    "source_class": "agent_designed",
    "confidence": "medium",
    "geometry_role": "design_proposal",
    "area_sqm_calculated": 5990.057,
    "public_space_type": "stitch_node",
    "open_24h": true
   },
   "geometry": {
    "type": "Polygon",
    "coordinates": [
     [
      [
       116.345044,
       39.962797
      ],
      [
       116.345251,
       39.963199
      ],
      [
       116.345807,
       39.963262
      ],
      [
       116.346156,
       39.962923
      ],
      [
       116.345949,
       39.962521
      ],
      [
       116.345393,
       39.962458
      ],
      [
       116.345044,
       39.962797
      ]
     ]
    ]
   }
  },
  {
   "type": "Feature",
   "id": "PUB-09",
   "properties": {
    "id": "PUB-09",
    "layer": "PUBLIC_SPACE",
    "name_zh": "知春缝合节点空间",
    "source_type": "agent_generated_design",
    "source_class": "agent_designed",
    "confidence": "medium",
    "geometry_role": "design_proposal",
    "area_sqm_calculated": 4601.472,
    "public_space_type": "stitch_node",
    "open_24h": true
   },
   "geometry": {
    "type": "Polygon",
    "coordinates": [
     [
      [
       116.344894,
       39.977533
      ],
      [
       116.345333,
       39.977853
      ],
      [
       116.345865,
       39.97763
      ],
      [
       116.345754,
       39.977172
      ],
      [
       116.345154,
       39.977112
      ],
      [
       116.344894,
       39.977533
      ]
     ]
    ]
   }
  },
  {
   "type": "Feature",
   "id": "PUB-10",
   "properties": {
    "id": "PUB-10",
    "layer": "PUBLIC_SPACE",
    "name_zh": "清河缝合节点空间",
    "source_type": "agent_generated_design",
    "source_class": "agent_designed",
    "confidence": "medium",
    "geometry_role": "design_proposal",
    "area_sqm_calculated": 7398.11,
    "public_space_type": "stitch_node",
    "open_24h": true
   },
   "geometry": {
    "type": "Polygon",
    "coordinates": [
     [
      [
       116.347606,
       40.02345
      ],
      [
       116.3473,
       40.023781
      ],
      [
       116.347445,
       40.024172
      ],
      [
       116.347933,
       40.024328
      ],
      [
       116.348396,
       40.024131
      ],
      [
       116.348486,
       40.023731
      ],
      [
       116.348134,
       40.023428
      ],
      [
       116.347606,
       40.02345
      ]
     ]
    ]
   }
  },
  {
   "type": "Feature",
   "id": "LMK-01",
   "properties": {
    "id": "LMK-01",
    "layer": "PUBLIC_SPACE",
    "name_zh": "钟鸣塔·AI声景钟楼",
    "source_type": "agent_generated_design",
    "source_class": "agent_designed",
    "confidence": "medium",
    "geometry_role": "design_proposal",
    "area_sqm_calculated": 5990.481,
    "public_space_type": "ai_landmark",
    "landmark_height_m": 118.0,
    "landmark_note_zh": "以大钟寺永乐大钟声学母题生成的AI声景塔，登临可俯瞰遗产线南段"
   },
   "geometry": {
    "type": "Polygon",
    "coordinates": [
     [
      [
       116.349098,
       39.947216
      ],
      [
       116.348804,
       39.947439
      ],
      [
       116.348801,
       39.947756
      ],
      [
       116.34909,
       39.947982
      ],
      [
       116.349502,
       39.947984
      ],
      [
       116.349796,
       39.947761
      ],
      [
       116.349799,
       39.947444
      ],
      [
       116.34951,
       39.947218
      ],
      [
       116.349098,
       39.947216
      ]
     ]
    ]
   }
  },
  {
   "type": "Feature",
   "id": "LMK-02",
   "properties": {
    "id": "LMK-02",
    "layer": "PUBLIC_SPACE",
    "name_zh": "原点环·零号广场穹环",
    "source_type": "agent_generated_design",
    "source_class": "agent_designed",
    "confidence": "medium",
    "geometry_role": "design_proposal",
    "area_sqm_calculated": 10087.37,
    "public_space_type": "ai_landmark",
    "landmark_height_m": 42.0,
    "landmark_note_zh": "直径约116m的开放环形构筑，环体即AI原点社区的零公里标识与开发者集会场"
   },
   "geometry": {
    "type": "Polygon",
    "coordinates": [
     [
      [
       116.347005,
       39.988878
      ],
      [
       116.346665,
       39.988946
      ],
      [
       116.346414,
       39.989136
      ],
      [
       116.346321,
       39.989396
      ],
      [
       116.346409,
       39.989658
      ],
      [
       116.346656,
       39.98985
      ],
      [
       116.346995,
       39.989922
      ],
      [
       116.347335,
       39.989854
      ],
      [
       116.347586,
       39.989664
      ],
      [
       116.347679,
       39.989404
      ],
      [
       116.347591,
       39.989142
      ],
      [
       116.347344,
       39.98895
      ],
      [
       116.347005,
       39.988878
      ]
     ]
    ]
   }
  },
  {
   "type": "Feature",
   "id": "LMK-03",
   "properties": {
    "id": "LMK-03",
    "layer": "PUBLIC_SPACE",
    "name_zh": "众智穹·开放算力穹顶",
    "source_type": "agent_generated_design",
    "source_class": "agent_designed",
    "confidence": "medium",
    "geometry_role": "design_proposal",
    "area_sqm_calculated": 8570.208,
    "public_space_type": "ai_landmark",
    "landmark_height_m": 96.0,
    "landmark_note_zh": "覆盖公共算力舱的透明穹顶，市民可见算力运行，屋面为开放观景台"
   },
   "geometry": {
    "type": "Polygon",
    "coordinates": [
     [
      [
       116.347805,
       40.017114
      ],
      [
       116.347432,
       40.017204
      ],
      [
       116.3472,
       40.017446
      ],
      [
       116.347197,
       40.017747
      ],
      [
       116.347424,
       40.017991
      ],
      [
       116.347795,
       40.018086
      ],
      [
       116.348168,
       40.017996
      ],
      [
       116.3484,
       40.017754
      ],
      [
       116.348403,
       40.017453
      ],
      [
       116.348176,
       40.017209
      ],
      [
       116.347805,
       40.017114
      ]
     ]
    ]
   }
  },
  {
   "type": "Feature",
   "id": "PUB-11",
   "properties": {
    "id": "PUB-11",
    "layer": "PUBLIC_SPACE",
    "name_zh": "大钟寺缝合廊公共空间",
    "source_type": "agent_generated_design",
    "source_class": "agent_designed",
    "confidence": "medium",
    "geometry_role": "design_proposal",
    "area_sqm_calculated": 55485.638,
    "public_space_type": "stitch_corridor",
    "note_zh": "东西缝合公共廊道地面公共空间，跨遗产线连通东西两侧街区"
   },
   "geometry": {
    "type": "Polygon",
    "coordinates": [
     [
      [
       116.350605,
       39.941034
      ],
      [
       116.350615,
       39.941034
      ],
      [
       116.353815,
       39.940914
      ],
      [
       116.353845,
       39.940912
      ],
      [
       116.353874,
       39.940907
      ],
      [
       116.353902,
       39.9409
      ],
      [
       116.35393,
       39.940892
      ],
      [
       116.353956,
       39.940881
      ],
      [
       116.353981,
       39.940868
      ],
      [
       116.354004,
       39.940854
      ],
      [
       116.354025,
       39.940837
      ],
      [
       116.354044,
       39.94082
      ],
      [
       116.354061,
       39.9408
      ],
      [
       116.354075,
       39.94078
      ],
      [
       116.354086,
       39.940759
      ],
      [
       116.354095,
       39.940737
      ],
      [
       116.354101,
       39.940714
      ],
      [
       116.354104,
       39.940692
      ],
      [
       116.354104,
       39.940669
      ],
      [
       116.354101,
       39.940646
      ],
      [
       116.354095,
       39.940623
      ],
      [
       116.354086,
       39.940601
      ],
      [
       116.354075,
       39.94058
      ],
      [
       116.354061,
       39.94056
      ],
      [
       116.354044,
       39.940541
      ],
      [
       116.354025,
       39.940523
      ],
      [
       116.354004,
       39.940507
      ],
      [
       116.353981,
       39.940492
      ],
      [
       116.353956,
       39.940479
      ],
      [
       116.35393,
       39.940468
      ],
      [
       116.353903,
       39.94046
      ],
      [
       116.353874,
       39.940453
      ],
      [
       116.353845,
       39.940448
      ],
      [
       116.353815,
       39.940446
      ],
      [
       116.353785,
       39.940446
      ],
      [
       116.35059,
       39.940566
      ],
      [
       116.346204,
       39.940626
      ],
      [
       116.341814,
       39.940466
      ],
      [
       116.341785,
       39.940466
      ],
      [
       116.341755,
       39.940468
      ],
      [
       116.341726,
       39.940473
      ],
      [
       116.341697,
       39.94048
      ],
      [
       116.341669,
       39.940489
      ],
      [
       116.341643,
       39.940499
      ],
      [
       116.341618,
       39.940512
      ],
      [
       116.341595,
       39.940527
      ],
      [
       116.341574,
       39.940543
      ],
      [
       116.341555,
       39.940561
      ],
      [
       116.341539,
       39.94058
      ],
      [
       116.341525,
       39.9406
      ],
      [
       116.341513,
       39.940622
      ],
      [
       116.341505,
       39.940644
      ],
      [
       116.341499,
       39.940666
      ],
      [
       116.341496,
       39.940689
      ],
      [
       116.341496,
       39.940712
      ],
      [
       116.341499,
       39.940735
      ],
      [
       116.341505,
       39.940757
      ],
      [
       116.341514,
       39.940779
      ],
      [
       116.341525,
       39.940801
      ],
      [
       116.341539,
       39.940821
      ],
      [
       116.341556,
       39.94084
      ],
      [
       116.341575,
       39.940858
      ],
      [
       116.341596,
       39.940874
      ],
      [
       116.341619,
       39.940888
      ],
      [
       116.341644,
       39.940901
      ],
      [
       116.34167,
       39.940912
      ],
      [
       116.341698,
       39.940921
      ],
      [
       116.341727,
       39.940927
      ],
      [
       116.341756,
       39.940932
      ],
      [
       116.341786,
       39.940934
      ],
      [
       116.346186,
       39.941094
      ],
      [
       116.346205,
       39.941094
      ],
      [
       116.350605,
       39.941034
      ]
     ]
    ]
   }
  },
  {
   "type": "Feature",
   "id": "PUB-12",
   "properties": {
    "id": "PUB-12",
    "layer": "PUBLIC_SPACE",
    "name_zh": "学知缝合廊公共空间",
    "source_type": "agent_generated_design",
    "source_class": "agent_designed",
    "confidence": "medium",
    "geometry_role": "design_proposal",
    "area_sqm_calculated": 42427.095,
    "public_space_type": "stitch_corridor",
    "note_zh": "东西缝合公共廊道地面公共空间，跨遗产线连通东西两侧街区"
   },
   "geometry": {
    "type": "Polygon",
    "coordinates": [
     [
      [
       116.346788,
       39.963107
      ],
      [
       116.346823,
       39.963108
      ],
      [
       116.349693,
       39.962998
      ],
      [
       116.349724,
       39.962995
      ],
      [
       116.351844,
       39.962715
      ],
      [
       116.351868,
       39.962711
      ],
      [
       116.351892,
       39.962705
      ],
      [
       116.351915,
       39.962697
      ],
      [
       116.351937,
       39.962688
      ],
      [
       116.351958,
       39.962676
      ],
      [
       116.351977,
       39.962664
      ],
      [
       116.351995,
       39.96265
      ],
      [
       116.35201,
       39.962634
      ],
      [
       116.352024,
       39.962618
      ],
      [
       116.352035,
       39.962601
      ],
      [
       116.352044,
       39.962582
      ],
      [
       116.352051,
       39.962564
      ],
      [
       116.352055,
       39.962545
      ],
      [
       116.352057,
       39.962525
      ],
      [
       116.352057,
       39.962506
      ],
      [
       116.352054,
       39.962486
      ],
      [
       116.352048,
       39.962468
      ],
      [
       116.35204,
       39.962449
      ],
      [
       116.35203,
       39.962431
      ],
      [
       116.352018,
       39.962414
      ],
      [
       116.352003,
       39.962398
      ],
      [
       116.351987,
       39.962384
      ],
      [
       116.351969,
       39.96237
      ],
      [
       116.351949,
       39.962358
      ],
      [
       116.351927,
       39.962348
      ],
      [
       116.351905,
       39.962339
      ],
      [
       116.351881,
       39.962332
      ],
      [
       116.351857,
       39.962327
      ],
      [
       116.351832,
       39.962323
      ],
      [
       116.351807,
       39.962322
      ],
      [
       116.351782,
       39.962322
      ],
      [
       116.351756,
       39.962325
      ],
      [
       116.349652,
       39.962603
      ],
      [
       116.346815,
       39.962711
      ],
      [
       116.343946,
       39.962523
      ],
      [
       116.341009,
       39.962263
      ],
      [
       116.340984,
       39.962262
      ],
      [
       116.340959,
       39.962263
      ],
      [
       116.340934,
       39.962265
      ],
      [
       116.340909,
       39.962269
      ],
      [
       116.340885,
       39.962276
      ],
      [
       116.340862,
       39.962284
      ],
      [
       116.34084,
       39.962293
      ],
      [
       116.34082,
       39.962305
      ],
      [
       116.340801,
       39.962318
      ],
      [
       116.340784,
       39.962332
      ],
      [
       116.340768,
       39.962347
      ],
      [
       116.340755,
       39.962364
      ],
      [
       116.340744,
       39.962381
      ],
      [
       116.340735,
       39.962399
      ],
      [
       116.340728,
       39.962418
      ],
      [
       116.340724,
       39.962437
      ],
      [
       116.340723,
       39.962457
      ],
      [
       116.340723,
       39.962476
      ],
      [
       116.340727,
       39.962495
      ],
      [
       116.340732,
       39.962514
      ],
      [
       116.340741,
       39.962533
      ],
      [
       116.340751,
       39.962551
      ],
      [
       116.340764,
       39.962567
      ],
      [
       116.340778,
       39.962583
      ],
      [
       116.340795,
       39.962598
      ],
      [
       116.340813,
       39.962611
      ],
      [
       116.340833,
       39.962623
      ],
      [
       116.340855,
       39.962633
      ],
      [
       116.340878,
       39.962642
      ],
      [
       116.340901,
       39.962649
      ],
      [
       116.340926,
       39.962654
      ],
      [
       116.340951,
       39.962657
      ],
      [
       116.343891,
       39.962917
      ],
      [
       116.343898,
       39.962917
      ],
      [
       116.346788,
       39.963107
      ]
     ]
    ]
   }
  },
  {
   "type": "Feature",
   "id": "PUB-13",
   "properties": {
    "id": "PUB-13",
    "layer": "PUBLIC_SPACE",
    "name_zh": "原点缝合廊公共空间",
    "source_type": "agent_generated_design",
    "source_class": "agent_designed",
    "confidence": "medium",
    "geometry_role": "design_proposal",
    "area_sqm_calculated": 72135.887,
    "public_space_type": "stitch_corridor",
    "note_zh": "东西缝合公共廊道地面公共空间，跨遗产线连通东西两侧街区"
   },
   "geometry": {
    "type": "Polygon",
    "coordinates": [
     [
      [
       116.346517,
       39.996196
      ],
      [
       116.348588,
       39.996246
      ],
      [
       116.348635,
       39.996245
      ],
      [
       116.351015,
       39.996085
      ],
      [
       116.351037,
       39.996083
      ],
      [
       116.353477,
       39.995813
      ],
      [
       116.353515,
       39.995807
      ],
      [
       116.353552,
       39.995799
      ],
      [
       116.353589,
       39.995787
      ],
      [
       116.353616,
       39.995776
      ],
      [
       116.353587,
       39.995232
      ],
      [
       116.353556,
       39.995222
      ],
      [
       116.353518,
       39.995213
      ],
      [
       116.35348,
       39.995207
      ],
      [
       116.353441,
       39.995204
      ],
      [
       116.353402,
       39.995204
      ],
      [
       116.353363,
       39.995207
      ],
      [
       116.350934,
       39.995476
      ],
      [
       116.348589,
       39.995633
      ],
      [
       116.346561,
       39.995584
      ],
      [
       116.344169,
       39.995356
      ],
      [
       116.344168,
       39.995356
      ],
      [
       116.341608,
       39.995116
      ],
      [
       116.341569,
       39.995114
      ],
      [
       116.34153,
       39.995115
      ],
      [
       116.341491,
       39.995118
      ],
      [
       116.341453,
       39.995125
      ],
      [
       116.341416,
       39.995134
      ],
      [
       116.341381,
       39.995147
      ],
      [
       116.341347,
       39.995162
      ],
      [
       116.341315,
       39.995179
      ],
      [
       116.341285,
       39.995199
      ],
      [
       116.341258,
       39.99522
      ],
      [
       116.341234,
       39.995244
      ],
      [
       116.341213,
       39.995269
      ],
      [
       116.341196,
       39.995296
      ],
      [
       116.341182,
       39.995324
      ],
      [
       116.341171,
       39.995353
      ],
      [
       116.341165,
       39.995383
      ],
      [
       116.341162,
       39.995413
      ],
      [
       116.341163,
       39.995443
      ],
      [
       116.341168,
       39.995473
      ],
      [
       116.341176,
       39.995502
      ],
      [
       116.341189,
       39.995531
      ],
      [
       116.341205,
       39.995558
      ],
      [
       116.341224,
       39.995584
      ],
      [
       116.341246,
       39.995609
      ],
      [
       116.341272,
       39.995631
      ],
      [
       116.3413,
       39.995652
      ],
      [
       116.341331,
       39.995671
      ],
      [
       116.341364,
       39.995687
      ],
      [
       116.341399,
       39.9957
      ],
      [
       116.341436,
       39.995711
      ],
      [
       116.341473,
       39.995719
      ],
      [
       116.341512,
       39.995724
      ],
      [
       116.344071,
       39.995964
      ],
      [
       116.346481,
       39.996194
      ],
      [
       116.346517,
       39.996196
      ]
     ]
    ]
   }
  },
  {
   "type": "Feature",
   "id": "PUB-14",
   "properties": {
    "id": "PUB-14",
    "layer": "PUBLIC_SPACE",
    "name_zh": "清河缝合廊公共空间",
    "source_type": "agent_generated_design",
    "source_class": "agent_designed",
    "confidence": "medium",
    "geometry_role": "design_proposal",
    "area_sqm_calculated": 49492.71,
    "public_space_type": "stitch_corridor",
    "note_zh": "东西缝合公共廊道地面公共空间，跨遗产线连通东西两侧街区"
   },
   "geometry": {
    "type": "Polygon",
    "coordinates": [
     [
      [
       116.352505,
       40.024016
      ],
      [
       116.352517,
       40.024016
      ],
      [
       116.355157,
       40.023893
      ],
      [
       116.355133,
       40.02346
      ],
      [
       116.352489,
       40.023584
      ],
      [
       116.347905,
       40.023644
      ],
      [
       116.343314,
       40.023464
      ],
      [
       116.343287,
       40.023464
      ],
      [
       116.343259,
       40.023466
      ],
      [
       116.343232,
       40.02347
      ],
      [
       116.343206,
       40.023476
      ],
      [
       116.34318,
       40.023484
      ],
      [
       116.343156,
       40.023494
      ],
      [
       116.343133,
       40.023506
      ],
      [
       116.343112,
       40.02352
      ],
      [
       116.343092,
       40.023535
      ],
      [
       116.343074,
       40.023551
      ],
      [
       116.343059,
       40.023569
      ],
      [
       116.343046,
       40.023587
      ],
      [
       116.343035,
       40.023607
      ],
      [
       116.343027,
       40.023627
      ],
      [
       116.343022,
       40.023648
      ],
      [
       116.343019,
       40.023669
      ],
      [
       116.343019,
       40.02369
      ],
      [
       116.343022,
       40.023711
      ],
      [
       116.343027,
       40.023732
      ],
      [
       116.343035,
       40.023752
      ],
      [
       116.343046,
       40.023772
      ],
      [
       116.343059,
       40.023791
      ],
      [
       116.343074,
       40.023808
      ],
      [
       116.343091,
       40.023825
      ],
      [
       116.343111,
       40.02384
      ],
      [
       116.343132,
       40.023853
      ],
      [
       116.343155,
       40.023865
      ],
      [
       116.343179,
       40.023875
      ],
      [
       116.343205,
       40.023883
      ],
      [
       116.343231,
       40.02389
      ],
      [
       116.343258,
       40.023894
      ],
      [
       116.343286,
       40.023896
      ],
      [
       116.347886,
       40.024076
      ],
      [
       116.347905,
       40.024076
      ],
      [
       116.352505,
       40.024016
      ]
     ]
    ]
   }
  },
  {
   "type": "Feature",
   "id": "PUB-15",
   "properties": {
    "id": "PUB-15",
    "layer": "PUBLIC_SPACE",
    "name_zh": "京张遗址公园主绿道公共空间带",
    "source_type": "agent_generated_design",
    "source_class": "agent_designed",
    "confidence": "medium",
    "geometry_role": "design_proposal",
    "area_sqm_calculated": 317103.162,
    "public_space_type": "linear_public_space",
    "note_zh": "南北贯通的慢行公共空间主线，与绿地分层叠加"
   },
   "geometry": {
    "type": "MultiPolygon",
    "coordinates": [
     [
      [
       [
        116.346391,
        39.951183
       ],
       [
        116.345898,
        39.954797
       ],
       [
        116.34632,
        39.954808
       ],
       [
        116.346809,
        39.951223
       ],
       [
        116.34707,
        39.950127
       ],
       [
        116.346641,
        39.950129
       ],
       [
        116.346393,
        39.951171
       ],
       [
        116.346391,
        39.951183
       ]
      ]
     ],
     [
      [
       [
        116.345791,
        39.955583
       ],
       [
        116.345789,
        39.955606
       ],
       [
        116.345983,
        39.95987
       ],
       [
        116.346405,
        39.959865
       ],
       [
        116.346211,
        39.955606
       ],
       [
        116.346283,
        39.955077
       ],
       [
        116.345861,
        39.955067
       ],
       [
        116.345791,
        39.955583
       ]
      ]
     ],
     [
      [
       [
        116.346792,
        39.964224
       ],
       [
        116.346792,
        39.964226
       ],
       [
        116.346927,
        39.964857
       ],
       [
        116.347356,
        39.964864
       ],
       [
        116.347208,
        39.964175
       ],
       [
        116.346456,
        39.960224
       ],
       [
        116.346031,
        39.96023
       ],
       [
        116.346792,
        39.964224
       ]
      ]
     ],
     [
      [
       [
        116.34769,
        39.968415
       ],
       [
        116.347722,
        39.969843
       ],
       [
        116.348144,
        39.969835
       ],
       [
        116.348111,
        39.968397
       ],
       [
        116.348108,
        39.968374
       ],
       [
        116.347414,
        39.965135
       ],
       [
        116.346985,
        39.965128
       ],
       [
        116.34769,
        39.968415
       ]
      ]
     ],
     [
      [
       [
        116.347789,
        39.972793
       ],
       [
        116.347497,
        39.974834
       ],
       [
        116.34792,
        39.974841
       ],
       [
        116.348209,
        39.972818
       ],
       [
        116.348211,
        39.972797
       ],
       [
        116.348153,
        39.970241
       ],
       [
        116.347731,
        39.970248
       ],
       [
        116.347789,
        39.972793
       ]
      ]
     ],
     [
      [
       [
        116.347191,
        39.976979
       ],
       [
        116.346647,
        39.979836
       ],
       [
        116.347073,
        39.979833
       ],
       [
        116.347608,
        39.977024
       ],
       [
        116.347609,
        39.977018
       ],
       [
        116.347882,
        39.97511
       ],
       [
        116.347459,
        39.975104
       ],
       [
        116.347191,
        39.976979
       ]
      ]
     ],
     [
      [
       [
        116.346392,
        39.981176
       ],
       [
        116.34639,
        39.981184
       ],
       [
        116.346114,
        39.983304
       ],
       [
        116.346537,
        39.983302
       ],
       [
        116.346809,
        39.98122
       ],
       [
        116.34697,
        39.980374
       ],
       [
        116.346544,
        39.980377
       ],
       [
        116.346392,
        39.981176
       ]
      ]
     ],
     [
      [
       [
        116.34582,
        39.985553
       ],
       [
        116.346245,
        39.985547
       ],
       [
        116.346502,
        39.983572
       ],
       [
        116.346078,
        39.983574
       ],
       [
        116.34582,
        39.985553
       ]
      ]
     ],
     [
      [
       [
        116.34579,
        39.985784
       ],
       [
        116.345789,
        39.985805
       ],
       [
        116.345796,
        39.985976
       ],
       [
        116.346232,
        39.986291
       ],
       [
        116.346211,
        39.985805
       ],
       [
        116.346224,
        39.985709
       ],
       [
        116.345799,
        39.985715
       ],
       [
        116.34579,
        39.985784
       ]
      ]
     ],
     [
      [
       [
        116.345904,
        39.988458
       ],
       [
        116.345999,
        39.98846
       ],
       [
        116.346326,
        39.988451
       ],
       [
        116.346241,
        39.986495
       ],
       [
        116.345805,
        39.986181
       ],
       [
        116.345904,
        39.988458
       ]
      ]
     ],
     [
      [
       [
        116.345989,
        39.990405
       ],
       [
        116.345991,
        39.990421
       ],
       [
        116.346028,
        39.990645
       ],
       [
        116.346286,
        39.990659
       ],
       [
        116.346456,
        39.990664
       ],
       [
        116.34641,
        39.990387
       ],
       [
        116.346342,
        39.988811
       ],
       [
        116.346001,
        39.98882
       ],
       [
        116.34592,
        39.988818
       ],
       [
        116.345989,
        39.990405
       ]
      ]
     ],
     [
      [
       [
        116.346474,
        39.99332
       ],
       [
        116.346901,
        39.993332
       ],
       [
        116.346483,
        39.990827
       ],
       [
        116.346274,
        39.990821
       ],
       [
        116.346056,
        39.990809
       ],
       [
        116.346474,
        39.99332
       ]
      ]
     ],
     [
      [
       [
        116.346791,
        39.995219
       ],
       [
        116.347184,
        39.997972
       ],
       [
        116.347607,
        39.997959
       ],
       [
        116.34721,
        39.995182
       ],
       [
        116.347209,
        39.995179
       ],
       [
        116.346946,
        39.993603
       ],
       [
        116.34652,
        39.993592
       ],
       [
        116.346791,
        39.995219
       ]
      ]
     ],
     [
      [
       [
        116.347589,
        40.000811
       ],
       [
        116.347635,
        40.002377
       ],
       [
        116.348058,
        40.002383
       ],
       [
        116.348011,
        40.000796
       ],
       [
        116.34801,
        40.000782
       ],
       [
        116.347665,
        39.998364
       ],
       [
        116.347242,
        39.998376
       ],
       [
        116.347589,
        40.000811
       ]
      ]
     ],
     [
      [
       [
        116.347784,
        40.007426
       ],
       [
        116.348202,
        40.007437
       ],
       [
        116.348206,
        40.007437
       ],
       [
        116.348066,
        40.002653
       ],
       [
        116.347643,
        40.002647
       ],
       [
        116.347784,
        40.007426
       ]
      ]
     ],
     [
      [
       [
        116.347619,
        40.009632
       ],
       [
        116.348041,
        40.009643
       ],
       [
        116.348191,
        40.007843
       ],
       [
        116.347769,
        40.007831
       ],
       [
        116.347619,
        40.009632
       ]
      ]
     ],
     [
      [
       [
        116.347437,
        40.011821
       ],
       [
        116.347859,
        40.011818
       ],
       [
        116.348027,
        40.009805
       ],
       [
        116.347606,
        40.009794
       ],
       [
        116.347437,
        40.011821
       ]
      ]
     ],
     [
      [
       [
        116.34719,
        40.014787
       ],
       [
        116.347215,
        40.014789
       ],
       [
        116.347612,
        40.014782
       ],
       [
        116.347837,
        40.012088
       ],
       [
        116.347415,
        40.012092
       ],
       [
        116.34719,
        40.014787
       ]
      ]
     ],
     [
      [
       [
        116.347012,
        40.016864
       ],
       [
        116.347433,
        40.016875
       ],
       [
        116.347599,
        40.014944
       ],
       [
        116.347205,
        40.014951
       ],
       [
        116.347176,
        40.014948
       ],
       [
        116.347012,
        40.016864
       ]
      ]
     ],
     [
      [
       [
        116.346821,
        40.019098
       ],
       [
        116.34683,
        40.019099
       ],
       [
        116.347241,
        40.019117
       ],
       [
        116.347398,
        40.01728
       ],
       [
        116.346977,
        40.017269
       ],
       [
        116.346821,
        40.019098
       ]
      ]
     ],
     [
      [
       [
        116.346635,
        40.021265
       ],
       [
        116.347056,
        40.021275
       ],
       [
        116.347227,
        40.019279
       ],
       [
        116.34681,
        40.019261
       ],
       [
        116.346807,
        40.019261
       ],
       [
        116.346635,
        40.021265
       ]
      ]
     ],
     [
      [
       [
        116.34659,
        40.021789
       ],
       [
        116.34659,
        40.021813
       ],
       [
        116.34699,
        40.025613
       ],
       [
        116.346993,
        40.025629
       ],
       [
        116.346997,
        40.025644
       ],
       [
        116.347004,
        40.025659
       ],
       [
        116.347012,
        40.025674
       ],
       [
        116.347023,
        40.025688
       ],
       [
        116.347035,
        40.025701
       ],
       [
        116.347048,
        40.025713
       ],
       [
        116.347063,
        40.025723
       ],
       [
        116.34708,
        40.025733
       ],
       [
        116.347097,
        40.025742
       ],
       [
        116.347116,
        40.025749
       ],
       [
        116.347135,
        40.025754
       ],
       [
        116.347155,
        40.025758
       ],
       [
        116.347176,
        40.025761
       ],
       [
        116.347196,
        40.025762
       ],
       [
        116.347217,
        40.025762
       ],
       [
        116.347238,
        40.02576
       ],
       [
        116.347258,
        40.025756
       ],
       [
        116.347277,
        40.025751
       ],
       [
        116.347296,
        40.025744
       ],
       [
        116.347314,
        40.025736
       ],
       [
        116.347331,
        40.025727
       ],
       [
        116.347346,
        40.025717
       ],
       [
        116.347361,
        40.025705
       ],
       [
        116.347373,
        40.025692
       ],
       [
        116.347384,
        40.025679
       ],
       [
        116.347393,
        40.025665
       ],
       [
        116.347401,
        40.02565
       ],
       [
        116.347406,
        40.025634
       ],
       [
        116.347409,
        40.025619
       ],
       [
        116.347411,
        40.025603
       ],
       [
        116.34741,
        40.025587
       ],
       [
        116.347011,
        40.021799
       ],
       [
        116.347033,
        40.021544
       ],
       [
        116.346612,
        40.021534
       ],
       [
        116.34659,
        40.021789
       ]
      ]
     ],
     [
      [
       [
        116.347593,
        39.947926
       ],
       [
        116.347162,
        39.947938
       ],
       [
        116.346769,
        39.949589
       ],
       [
        116.347198,
        39.949587
       ],
       [
        116.347593,
        39.947926
       ]
      ]
     ],
     [
      [
       [
        116.347807,
        39.947029
       ],
       [
        116.347808,
        39.947026
       ],
       [
        116.348092,
        39.945678
       ],
       [
        116.347663,
        39.945683
       ],
       [
        116.347392,
        39.946972
       ],
       [
        116.347201,
        39.947775
       ],
       [
        116.347632,
        39.947764
       ],
       [
        116.347807,
        39.947029
       ]
      ]
     ],
     [
      [
       [
        116.348395,
        39.944237
       ],
       [
        116.347969,
        39.944229
       ],
       [
        116.347698,
        39.945521
       ],
       [
        116.348126,
        39.945516
       ],
       [
        116.348395,
        39.944237
       ]
      ]
     ],
     [
      [
       [
        116.348608,
        39.943226
       ],
       [
        116.34861,
        39.943208
       ],
       [
        116.34861,
        39.94319
       ],
       [
        116.348608,
        39.943173
       ],
       [
        116.348445,
        39.94244
       ],
       [
        116.348013,
        39.942424
       ],
       [
        116.348186,
        39.943201
       ],
       [
        116.348026,
        39.943961
       ],
       [
        116.348452,
        39.943968
       ],
       [
        116.348608,
        39.943226
       ]
      ]
     ],
     [
      [
       [
        116.347808,
        39.939573
       ],
       [
        116.347803,
        39.939557
       ],
       [
        116.347797,
        39.939542
       ],
       [
        116.347788,
        39.939527
       ],
       [
        116.347778,
        39.939514
       ],
       [
        116.347417,
        39.939519
       ],
       [
        116.347417,
        39.93952
       ],
       [
        116.347408,
        39.939534
       ],
       [
        116.3474,
        39.939549
       ],
       [
        116.347395,
        39.939564
       ],
       [
        116.347391,
        39.93958
       ],
       [
        116.347389,
        39.939596
       ],
       [
        116.34739,
        39.939612
       ],
       [
        116.347392,
        39.939627
       ],
       [
        116.347977,
        39.94226
       ],
       [
        116.348409,
        39.942276
       ],
       [
        116.347808,
        39.939573
       ]
      ]
     ]
    ]
   }
  }
 ]
}
