{
  "type": "FeatureCollection",
  "name": "green_space_spine",
  "crs": {
    "type": "name",
    "properties": {
      "name": "urn:ogc:def:crs:OGC:1.3:CRS84"
    }
  },
  "features": [
    {
      "type": "Feature",
      "id": "GREEN-001",
      "properties": {
        "id": "GREEN-001",
        "layer": "GREEN_SPACE",
        "source_type": "agent_generated_design",
        "confidence": "medium",
        "geometry_role": "design_proposal",
        "land_use_code": "1401",
        "name_zh": "京张人居脊连续公园绿地",
        "area_sqm_declared": 5580378.69
      },
      "geometry": {
        "type": "Polygon",
        "coordinates": [
          [
            [
              116.344068,
              40.016
            ],
            [
              116.34218780487805,
              40.016
            ],
            [
              116.3427,
              40.0265
            ],
            [
              116.3553,
              40.0265
            ],
            [
              116.35472465753425,
              40.016
            ],
            [
              116.350932,
              40.016
            ],
            [
              116.350932,
              39.9495
            ],
            [
              116.344068,
              39.9495
            ],
            [
              116.344068,
              40.016
            ]
          ]
        ]
      }
    }
  ]
}
