{
  "type": "FeatureCollection",
  "name": "land_use_habitat_partition",
  "crs": {
    "type": "name",
    "properties": {
      "name": "urn:ogc:def:crs:OGC:1.3:CRS84"
    }
  },
  "features": [
    {
      "type": "Feature",
      "id": "LU-001",
      "properties": {
        "id": "LU-001",
        "layer": "LAND_USE",
        "source_type": "agent_generated_design",
        "confidence": "medium",
        "geometry_role": "design_proposal",
        "land_use_code": "05",
        "name_zh": "大钟寺智能原生服务与国际交往用地",
        "area_sqm_declared": 2214839.749
      },
      "geometry": {
        "type": "Polygon",
        "coordinates": [
          [
            [
              116.3407,
              39.939
            ],
            [
              116.3402625,
              39.95475
            ],
            [
              116.3553,
              39.95475
            ],
            [
              116.3553,
              39.939
            ],
            [
              116.3407,
              39.939
            ]
          ]
        ]
      }
    },
    {
      "type": "Feature",
      "id": "LU-002",
      "properties": {
        "id": "LU-002",
        "layer": "LAND_USE",
        "source_type": "agent_generated_design",
        "confidence": "medium",
        "geometry_role": "design_proposal",
        "land_use_code": "0702",
        "name_zh": "社区服务与人才生活配套用地",
        "area_sqm_declared": 2517068.751
      },
      "geometry": {
        "type": "Polygon",
        "coordinates": [
          [
            [
              116.3553,
              39.95475
            ],
            [
              116.3402625,
              39.95475
            ],
            [
              116.33977638888888,
              39.97225
            ],
            [
              116.35472,
              39.97225
            ],
            [
              116.3553,
              39.965
            ],
            [
              116.3553,
              39.95475
            ]
          ]
        ]
      }
    },
    {
      "type": "Feature",
      "id": "LU-003",
      "properties": {
        "id": "LU-003",
        "layer": "LAND_USE",
        "source_type": "agent_generated_design",
        "confidence": "medium",
        "geometry_role": "design_proposal",
        "land_use_code": "1401",
        "name_zh": "京张遗址公园人居脊公园绿地",
        "area_sqm_declared": 2309391.73
      },
      "geometry": {
        "type": "Polygon",
        "coordinates": [
          [
            [
              116.35472,
              39.97225
            ],
            [
              116.33977638888888,
              39.97225
            ],
            [
              116.3397,
              39.975
            ],
            [
              116.34065161290323,
              39.98975
            ],
            [
              116.35332000000001,
              39.98975
            ],
            [
              116.35472,
              39.97225
            ]
          ]
        ]
      }
    },
    {
      "type": "Feature",
      "id": "LU-004",
      "properties": {
        "id": "LU-004",
        "layer": "LAND_USE",
        "source_type": "agent_generated_design",
        "confidence": "medium",
        "geometry_role": "design_proposal",
        "land_use_code": "0804",
        "name_zh": "近校教育科研与成果转化用地",
        "area_sqm_declared": 2082711.336
      },
      "geometry": {
        "type": "Polygon",
        "coordinates": [
          [
            [
              116.3533,
              39.99
            ],
            [
              116.35332000000001,
              39.98975
            ],
            [
              116.34065161290323,
              39.98975
            ],
            [
              116.3417,
              40.006
            ],
            [
              116.34176097560976,
              40.00725
            ],
            [
              116.35424520547946,
              40.00725
            ],
            [
              116.3533,
              39.99
            ]
          ]
        ]
      }
    },
    {
      "type": "Feature",
      "id": "LU-005",
      "properties": {
        "id": "LU-005",
        "layer": "LAND_USE",
        "source_type": "agent_generated_design",
        "confidence": "medium",
        "geometry_role": "design_proposal",
        "land_use_code": "0802",
        "name_zh": "众智园全栈自主创新科研用地",
        "area_sqm_declared": 2288831.267
      },
      "geometry": {
        "type": "Polygon",
        "coordinates": [
          [
            [
              116.35424520547946,
              40.00725
            ],
            [
              116.34176097560976,
              40.00725
            ],
            [
              116.3427,
              40.0265
            ],
            [
              116.3553,
              40.0265
            ],
            [
              116.35424520547946,
              40.00725
            ]
          ]
        ]
      }
    },
    {
      "type": "Feature",
      "id": "LU-006",
      "properties": {
        "id": "LU-006",
        "layer": "LAND_USE",
        "source_type": "agent_generated_design",
        "confidence": "medium",
        "geometry_role": "design_proposal",
        "land_use_code": "16",
        "name_zh": "待正式数据校准留白用地",
        "area_sqm_declared": 31.296
      },
      "geometry": {
        "type": "MultiPolygon",
        "coordinates": [
          [
            [
              [
                116.3427,
                40.0265
              ],
              [
                116.34176097560976,
                40.00725
              ],
              [
                116.3417,
                40.006
              ],
              [
                116.3427,
                40.0265
              ]
            ]
          ],
          [
            [
              [
                116.3417,
                40.006
              ],
              [
                116.34065161290323,
                39.98975
              ],
              [
                116.3397,
                39.975
              ],
              [
                116.3417,
                40.006
              ]
            ]
          ]
        ]
      }
    }
  ]
}
