{
  "type": "FeatureCollection",
  "name": "phasing_three_stages",
  "crs": {
    "type": "name",
    "properties": {
      "name": "urn:ogc:def:crs:OGC:1.3:CRS84"
    }
  },
  "features": [
    {
      "type": "Feature",
      "id": "PHASE-001",
      "properties": {
        "id": "PHASE-001",
        "layer": "PHASE",
        "source_type": "agent_generated_design",
        "confidence": "medium",
        "geometry_role": "design_proposal",
        "phase": "phase_1",
        "name_zh": "一期：大钟寺-遗址南段公共体验与慢行试点",
        "area_sqm_declared": 4358066.368
      },
      "geometry": {
        "type": "Polygon",
        "coordinates": [
          [
            [
              116.3407,
              39.939
            ],
            [
              116.33984930555555,
              39.969625
            ],
            [
              116.35493,
              39.969625
            ],
            [
              116.3553,
              39.965
            ],
            [
              116.3553,
              39.939
            ],
            [
              116.3407,
              39.939
            ]
          ]
        ]
      }
    },
    {
      "type": "Feature",
      "id": "PHASE-002",
      "properties": {
        "id": "PHASE-002",
        "layer": "PHASE",
        "source_type": "agent_generated_design",
        "confidence": "medium",
        "geometry_role": "design_proposal",
        "phase": "phase_2",
        "name_zh": "二期：原点社区织补更新与近校转化",
        "area_sqm_declared": 3936265.47
      },
      "geometry": {
        "type": "Polygon",
        "coordinates": [
          [
            [
              116.3533,
              39.99
            ],
            [
              116.35493,
              39.969625
            ],
            [
              116.33984930555555,
              39.969625
            ],
            [
              116.3397,
              39.975
            ],
            [
              116.34132903225806,
              40.00025
            ],
            [
              116.35386164383561,
              40.00025
            ],
            [
              116.3533,
              39.99
            ]
          ]
        ]
      }
    },
    {
      "type": "Feature",
      "id": "PHASE-003",
      "properties": {
        "id": "PHASE-003",
        "layer": "PHASE",
        "source_type": "agent_generated_design",
        "confidence": "medium",
        "geometry_role": "design_proposal",
        "phase": "phase_3",
        "name_zh": "三期：众智园全栈生态与长期运营",
        "area_sqm_declared": 3118508.402
      },
      "geometry": {
        "type": "Polygon",
        "coordinates": [
          [
            [
              116.35386164383561,
              40.00025
            ],
            [
              116.34132903225806,
              40.00025
            ],
            [
              116.3417,
              40.006
            ],
            [
              116.3427,
              40.0265
            ],
            [
              116.3553,
              40.0265
            ],
            [
              116.35386164383561,
              40.00025
            ]
          ]
        ]
      }
    }
  ]
}
