{
  "type": "FeatureCollection",
  "name": "public_space_nodes",
  "crs": {
    "type": "name",
    "properties": {
      "name": "urn:ogc:def:crs:OGC:1.3:CRS84"
    }
  },
  "features": [
    {
      "type": "Feature",
      "id": "PUBLIC-001",
      "properties": {
        "id": "PUBLIC-001",
        "layer": "PUBLIC_SPACE",
        "source_type": "agent_generated_design",
        "confidence": "medium",
        "geometry_role": "design_proposal",
        "name_zh": "站点广场与人居公共客厅系统",
        "area_sqm_declared": 3379072.73
      },
      "geometry": {
        "type": "MultiPolygon",
        "coordinates": [
          [
            [
              [
                116.35296,
                39.953
              ],
              [
                116.35296,
                39.943375
              ],
              [
                116.34204,
                39.943375
              ],
              [
                116.34204,
                39.953
              ],
              [
                116.35296,
                39.953
              ]
            ]
          ],
          [
            [
              [
                116.35218,
                39.982749999999996
              ],
              [
                116.35218,
                39.974
              ],
              [
                116.34281999999999,
                39.974
              ],
              [
                116.34281999999999,
                39.982749999999996
              ],
              [
                116.35218,
                39.982749999999996
              ]
            ]
          ],
          [
            [
              [
                116.352492,
                40.002
              ],
              [
                116.352492,
                39.993249999999996
              ],
              [
                116.342508,
                39.993249999999996
              ],
              [
                116.342508,
                40.002
              ],
              [
                116.352492,
                40.002
              ]
            ]
          ],
          [
            [
              [
                116.35218,
                40.02125
              ],
              [
                116.35218,
                40.012499999999996
              ],
              [
                116.34281999999999,
                40.012499999999996
              ],
              [
                116.34281999999999,
                40.02125
              ],
              [
                116.35218,
                40.02125
              ]
            ]
          ]
        ]
      }
    }
  ]
}
