{
  "type": "FeatureCollection",
  "name": "mobility_spine_and_stitch",
  "crs": {
    "type": "name",
    "properties": {
      "name": "urn:ogc:def:crs:OGC:1.3:CRS84"
    }
  },
  "features": [
    {
      "type": "Feature",
      "id": "ROAD-001",
      "properties": {
        "id": "ROAD-001",
        "layer": "ROAD_CENTERLINE",
        "source_type": "agent_generated_design",
        "confidence": "medium",
        "geometry_role": "design_proposal",
        "road_class": "greenway",
        "name_zh": "京张人居脊慢行主廊"
      },
      "geometry": {
        "type": "LineString",
        "coordinates": [
          [
            116.3475,
            39.9425
          ],
          [
            116.3475,
            40.022999999999996
          ]
        ]
      }
    },
    {
      "type": "Feature",
      "id": "ROAD-002",
      "properties": {
        "id": "ROAD-002",
        "layer": "ROAD_CENTERLINE",
        "source_type": "agent_generated_design",
        "confidence": "medium",
        "geometry_role": "design_proposal",
        "road_class": "pedestrian",
        "name_zh": "东西缝合慢行支廊-1"
      },
      "geometry": {
        "type": "LineString",
        "coordinates": [
          [
            116.340948,
            39.9495
          ],
          [
            116.354052,
            39.9495
          ]
        ]
      }
    },
    {
      "type": "Feature",
      "id": "ROAD-003",
      "properties": {
        "id": "ROAD-003",
        "layer": "ROAD_CENTERLINE",
        "source_type": "agent_generated_design",
        "confidence": "medium",
        "geometry_role": "design_proposal",
        "road_class": "pedestrian",
        "name_zh": "东西缝合慢行支廊-2"
      },
      "geometry": {
        "type": "LineString",
        "coordinates": [
          [
            116.340948,
            39.969625
          ],
          [
            116.354052,
            39.969625
          ]
        ]
      }
    },
    {
      "type": "Feature",
      "id": "ROAD-004",
      "properties": {
        "id": "ROAD-004",
        "layer": "ROAD_CENTERLINE",
        "source_type": "agent_generated_design",
        "confidence": "medium",
        "geometry_role": "design_proposal",
        "road_class": "pedestrian",
        "name_zh": "东西缝合慢行支廊-3"
      },
      "geometry": {
        "type": "LineString",
        "coordinates": [
          [
            116.340948,
            39.981
          ],
          [
            116.35402,
            39.981
          ]
        ]
      }
    },
    {
      "type": "Feature",
      "id": "ROAD-005",
      "properties": {
        "id": "ROAD-005",
        "layer": "ROAD_CENTERLINE",
        "source_type": "agent_generated_design",
        "confidence": "medium",
        "geometry_role": "design_proposal",
        "road_class": "pedestrian",
        "name_zh": "东西缝合慢行支廊-4"
      },
      "geometry": {
        "type": "LineString",
        "coordinates": [
          [
            116.34121612903226,
            39.9985
          ],
          [
            116.35376575342467,
            39.9985
          ]
        ]
      }
    },
    {
      "type": "Feature",
      "id": "ROAD-006",
      "properties": {
        "id": "ROAD-006",
        "layer": "ROAD_CENTERLINE",
        "source_type": "agent_generated_design",
        "confidence": "medium",
        "geometry_role": "design_proposal",
        "road_class": "pedestrian",
        "name_zh": "东西缝合慢行支廊-5"
      },
      "geometry": {
        "type": "LineString",
        "coordinates": [
          [
            116.3422731707317,
            40.01775
          ],
          [
            116.354052,
            40.01775
          ]
        ]
      }
    }
  ]
}
