{
  "type": "FeatureCollection",
  "features": [
    {
      "type": "Feature",
      "id": "GREEN-001",
      "geometry": {
        "type": "Polygon",
        "coordinates": [
          [
            [
              116.34710995091142,
              39.939
            ],
            [
              116.34617404908577,
              40.0264908223765
            ],
            [
              116.34617440159391,
              40.0265
            ],
            [
              116.34789004908858,
              40.0265
            ],
            [
              116.34882595091422,
              39.9390091776235
            ],
            [
              116.34882559840608,
              39.939
            ],
            [
              116.34710995091142,
              39.939
            ]
          ]
        ]
      },
      "properties": {
        "id": "GREEN-001",
        "layer": "GREEN_SPACE",
        "source_type": "agent_generated_design",
        "confidence": "medium",
        "geometry_role": "design_proposal",
        "land_use_code": "1401",
        "name_zh": "京张公共价值编织绿脊",
        "name_en": "Jing-Zhang Civic Value Weave Green Spine",
        "area_sqm_declared": 1424217.395,
        "design_intent": "heritage interpretation, shade, rainwater, low-speed movement, public AI interfaces"
      }
    }
  ]
}
