{
  "type": "FeatureCollection",
  "features": [
    {
      "type": "Feature",
      "id": "LU-001",
      "geometry": {
        "type": "Polygon",
        "coordinates": [
          [
            [
              116.3407,
              39.939
            ],
            [
              116.34021388888888,
              39.9565
            ],
            [
              116.3553,
              39.9565
            ],
            [
              116.3553,
              39.939
            ],
            [
              116.3407,
              39.939
            ]
          ]
        ]
      },
      "properties": {
        "id": "LU-001",
        "layer": "LAND_USE",
        "source_type": "agent_generated_design",
        "confidence": "medium",
        "geometry_role": "design_proposal",
        "land_use_code": "0802",
        "name_zh": "北部自主创新与验证建议区",
        "name_en": "Northern autonomy and validation concept zone",
        "area_sqm_declared": 2464937.45,
        "status_note_zh": "概念性用地结构，待正式控规与权属资料校准",
        "design_revision": "v1.2-self-check"
      }
    },
    {
      "type": "Feature",
      "id": "LU-002",
      "geometry": {
        "type": "Polygon",
        "coordinates": [
          [
            [
              116.3553,
              39.965
            ],
            [
              116.3553,
              39.9565
            ],
            [
              116.34021388888888,
              39.9565
            ],
            [
              116.33972777777777,
              39.974
            ],
            [
              116.35458,
              39.974
            ],
            [
              116.3553,
              39.965
            ]
          ]
        ]
      },
      "properties": {
        "id": "LU-002",
        "layer": "LAND_USE",
        "source_type": "agent_generated_design",
        "confidence": "medium",
        "geometry_role": "design_proposal",
        "land_use_code": "0702",
        "name_zh": "人才社区与近校协作建议区",
        "name_en": "Talent community and campus collaboration concept zone",
        "area_sqm_declared": 2514285.11,
        "status_note_zh": "概念性用地结构，待正式控规与权属资料校准"
      }
    },
    {
      "type": "Feature",
      "id": "LU-003",
      "geometry": {
        "type": "Polygon",
        "coordinates": [
          [
            [
              116.3533,
              39.99
            ],
            [
              116.35458,
              39.974
            ],
            [
              116.33972777777777,
              39.974
            ],
            [
              116.3397,
              39.975
            ],
            [
              116.34076451612903,
              39.9915
            ],
            [
              116.35338219178082,
              39.9915
            ],
            [
              116.3533,
              39.99
            ]
          ]
        ]
      },
      "properties": {
        "id": "LU-003",
        "layer": "LAND_USE",
        "source_type": "agent_generated_design",
        "confidence": "medium",
        "geometry_role": "design_proposal",
        "land_use_code": "1401",
        "name_zh": "遗产公园与蓝绿公共脊建议区",
        "name_en": "Heritage park and blue-green civic spine concept zone",
        "area_sqm_declared": 2271666.058,
        "status_note_zh": "概念性用地结构，待正式控规与权属资料校准"
      }
    },
    {
      "type": "Feature",
      "id": "LU-004",
      "geometry": {
        "type": "Polygon",
        "coordinates": [
          [
            [
              116.35338219178082,
              39.9915
            ],
            [
              116.34076451612903,
              39.9915
            ],
            [
              116.3417,
              40.006
            ],
            [
              116.34184634146342,
              40.009
            ],
            [
              116.35434109589042,
              40.009
            ],
            [
              116.35338219178082,
              39.9915
            ]
          ]
        ]
      },
      "properties": {
        "id": "LU-004",
        "layer": "LAND_USE",
        "source_type": "agent_generated_design",
        "confidence": "medium",
        "geometry_role": "design_proposal",
        "land_use_code": "05",
        "name_zh": "智能原生服务与交往建议区",
        "name_en": "AI-native service and exchange concept zone",
        "area_sqm_declared": 2080348.789,
        "status_note_zh": "概念性用地结构，待正式控规与权属资料校准"
      }
    },
    {
      "type": "Feature",
      "id": "LU-005",
      "geometry": {
        "type": "Polygon",
        "coordinates": [
          [
            [
              116.35434109589042,
              40.009
            ],
            [
              116.34184634146342,
              40.009
            ],
            [
              116.3427,
              40.0265
            ],
            [
              116.3553,
              40.0265
            ],
            [
              116.35434109589042,
              40.009
            ]
          ]
        ]
      },
      "properties": {
        "id": "LU-005",
        "layer": "LAND_USE",
        "source_type": "agent_generated_design",
        "confidence": "medium",
        "geometry_role": "design_proposal",
        "land_use_code": "0802",
        "name_zh": "南部产业转化与城市客厅建议区",
        "name_en": "Southern industry translation and urban salon concept zone",
        "area_sqm_declared": 2081602.66,
        "status_note_zh": "概念性用地结构，待正式控规与权属资料校准"
      }
    }
  ]
}
