{
  "type": "FeatureCollection",
  "features": [
    {
      "type": "Feature",
      "id": "PUBLIC-001",
      "geometry": {
        "type": "Polygon",
        "coordinates": [
          [
            [
              116.34950911731285,
              40.016650610619706
            ],
            [
              116.34949451627433,
              40.01655217841348
            ],
            [
              116.34947033750043,
              40.01645565133727
            ],
            [
              116.34943681384597,
              40.01636195899958
            ],
            [
              116.34939426816204,
              40.01627200370886
            ],
            [
              116.34934311018688,
              40.01618665178372
            ],
            [
              116.34928383259971,
              40.01610672520986
            ],
            [
              116.34921700627612,
              40.016032993723876
            ],
            [
              116.34914327479014,
              40.01596616740029
            ],
            [
              116.34906334821628,
              40.015906889813124
            ],
            [
              116.34897799629114,
              40.01585573183795
            ],
            [
              116.34888804100042,
              40.015813186154034
            ],
            [
              116.34879434866274,
              40.01577966249957
            ],
            [
              116.34869782158653,
              40.01575548372567
            ],
            [
              116.3485993893803,
              40.015740882687155
            ],
            [
              116.3485,
              40.015736000000004
            ],
            [
              116.3484006106197,
              40.015740882687155
            ],
            [
              116.34830217841348,
              40.01575548372567
            ],
            [
              116.34820565133727,
              40.01577966249957
            ],
            [
              116.34811195899958,
              40.015813186154034
            ],
            [
              116.34802200370886,
              40.01585573183795
            ],
            [
              116.34793665178373,
              40.015906889813124
            ],
            [
              116.34785672520987,
              40.01596616740029
            ],
            [
              116.34778299372388,
              40.016032993723876
            ],
            [
              116.34771616740029,
              40.01610672520986
            ],
            [
              116.34765688981312,
              40.01618665178372
            ],
            [
              116.34760573183796,
              40.01627200370886
            ],
            [
              116.34756318615403,
              40.01636195899958
            ],
            [
              116.34752966249957,
              40.01645565133727
            ],
            [
              116.34750548372567,
              40.01655217841348
            ],
            [
              116.34749088268715,
              40.016650610619706
            ],
            [
              116.347486,
              40.01675
            ],
            [
              116.34749088268715,
              40.0168493893803
            ],
            [
              116.34750548372567,
              40.01694782158653
            ],
            [
              116.34752966249957,
              40.017044348662736
            ],
            [
              116.34756318615403,
              40.01713804100042
            ],
            [
              116.34760573183796,
              40.01722799629114
            ],
            [
              116.34765688981312,
              40.017313348216284
            ],
            [
              116.34771616740029,
              40.017393274790145
            ],
            [
              116.34778299372388,
              40.01746700627613
            ],
            [
              116.34785672520987,
              40.01753383259971
            ],
            [
              116.34793665178373,
              40.01759311018688
            ],
            [
              116.34802200370886,
              40.01764426816205
            ],
            [
              116.34811195899958,
              40.01768681384597
            ],
            [
              116.34820565133727,
              40.017720337500435
            ],
            [
              116.34830217841348,
              40.017744516274334
            ],
            [
              116.3484006106197,
              40.01775911731285
            ],
            [
              116.3485,
              40.017764
            ],
            [
              116.3485993893803,
              40.01775911731285
            ],
            [
              116.34869782158653,
              40.017744516274334
            ],
            [
              116.34879434866274,
              40.017720337500435
            ],
            [
              116.34888804100042,
              40.01768681384597
            ],
            [
              116.34897799629114,
              40.01764426816205
            ],
            [
              116.34906334821628,
              40.01759311018688
            ],
            [
              116.34914327479014,
              40.01753383259971
            ],
            [
              116.34921700627612,
              40.01746700627613
            ],
            [
              116.34928383259971,
              40.017393274790145
            ],
            [
              116.34934311018688,
              40.017313348216284
            ],
            [
              116.34939426816204,
              40.01722799629114
            ],
            [
              116.34943681384597,
              40.01713804100042
            ],
            [
              116.34947033750043,
              40.017044348662736
            ],
            [
              116.34949451627433,
              40.01694782158653
            ],
            [
              116.34950911731285,
              40.0168493893803
            ],
            [
              116.349514,
              40.01675
            ],
            [
              116.34950911731285,
              40.016650610619706
            ]
          ]
        ]
      },
      "properties": {
        "id": "PUBLIC-001",
        "layer": "PUBLIC_SPACE",
        "source_type": "agent_generated_design",
        "confidence": "medium",
        "geometry_role": "design_proposal",
        "name_zh": "众智园责任测试庭",
        "name_en": "Zhongzhiyuan Responsible Test Court",
        "area_sqm_declared": 30573.22,
        "civic_contract": "pause-right + human review + low-tech fallback + public benefit ledger"
      }
    },
    {
      "type": "Feature",
      "id": "PUBLIC-002",
      "geometry": {
        "type": "Polygon",
        "coordinates": [
          [
            [
              116.34850911731284,
              39.988400610619706
            ],
            [
              116.34849451627433,
              39.98830217841348
            ],
            [
              116.34847033750043,
              39.98820565133727
            ],
            [
              116.34843681384596,
              39.98811195899958
            ],
            [
              116.34839426816204,
              39.98802200370886
            ],
            [
              116.34834311018687,
              39.98793665178372
            ],
            [
              116.3482838325997,
              39.98785672520986
            ],
            [
              116.34821700627612,
              39.987782993723876
            ],
            [
              116.34814327479013,
              39.98771616740029
            ],
            [
              116.34806334821627,
              39.987656889813124
            ],
            [
              116.34797799629114,
              39.98760573183795
            ],
            [
              116.34788804100042,
              39.987563186154034
            ],
            [
              116.34779434866273,
              39.98752966249957
            ],
            [
              116.34769782158652,
              39.98750548372567
            ],
            [
              116.34759938938029,
              39.987490882687155
            ],
            [
              116.3475,
              39.987486000000004
            ],
            [
              116.3474006106197,
              39.987490882687155
            ],
            [
              116.34730217841347,
              39.98750548372567
            ],
            [
              116.34720565133726,
              39.98752966249957
            ],
            [
              116.34711195899958,
              39.987563186154034
            ],
            [
              116.34702200370886,
              39.98760573183795
            ],
            [
              116.34693665178372,
              39.987656889813124
            ],
            [
              116.34685672520986,
              39.98771616740029
            ],
            [
              116.34678299372388,
              39.987782993723876
            ],
            [
              116.34671616740029,
              39.98785672520986
            ],
            [
              116.34665688981312,
              39.98793665178372
            ],
            [
              116.34660573183795,
              39.98802200370886
            ],
            [
              116.34656318615403,
              39.98811195899958
            ],
            [
              116.34652966249956,
              39.98820565133727
            ],
            [
              116.34650548372566,
              39.98830217841348
            ],
            [
              116.34649088268715,
              39.988400610619706
            ],
            [
              116.346486,
              39.9885
            ],
            [
              116.34649088268715,
              39.9885993893803
            ],
            [
              116.34650548372566,
              39.98869782158653
            ],
            [
              116.34652966249956,
              39.988794348662736
            ],
            [
              116.34656318615403,
              39.98888804100042
            ],
            [
              116.34660573183795,
              39.98897799629114
            ],
            [
              116.34665688981312,
              39.989063348216284
            ],
            [
              116.34671616740029,
              39.989143274790145
            ],
            [
              116.34678299372388,
              39.98921700627613
            ],
            [
              116.34685672520986,
              39.98928383259971
            ],
            [
              116.34693665178372,
              39.98934311018688
            ],
            [
              116.34702200370886,
              39.98939426816205
            ],
            [
              116.34711195899958,
              39.98943681384597
            ],
            [
              116.34720565133726,
              39.989470337500435
            ],
            [
              116.34730217841347,
              39.989494516274334
            ],
            [
              116.3474006106197,
              39.98950911731285
            ],
            [
              116.3475,
              39.989514
            ],
            [
              116.34759938938029,
              39.98950911731285
            ],
            [
              116.34769782158652,
              39.989494516274334
            ],
            [
              116.34779434866273,
              39.989470337500435
            ],
            [
              116.34788804100042,
              39.98943681384597
            ],
            [
              116.34797799629114,
              39.98939426816205
            ],
            [
              116.34806334821627,
              39.98934311018688
            ],
            [
              116.34814327479013,
              39.98928383259971
            ],
            [
              116.34821700627612,
              39.98921700627613
            ],
            [
              116.3482838325997,
              39.989143274790145
            ],
            [
              116.34834311018687,
              39.989063348216284
            ],
            [
              116.34839426816204,
              39.98897799629114
            ],
            [
              116.34843681384596,
              39.98888804100042
            ],
            [
              116.34847033750043,
              39.988794348662736
            ],
            [
              116.34849451627433,
              39.98869782158653
            ],
            [
              116.34850911731284,
              39.9885993893803
            ],
            [
              116.348514,
              39.9885
            ],
            [
              116.34850911731284,
              39.988400610619706
            ]
          ]
        ]
      },
      "properties": {
        "id": "PUBLIC-002",
        "layer": "PUBLIC_SPACE",
        "source_type": "agent_generated_design",
        "confidence": "medium",
        "geometry_role": "design_proposal",
        "name_zh": "AI原点开源共创庭",
        "name_en": "AI Origin Open-source Commons",
        "area_sqm_declared": 30585.682,
        "civic_contract": "pause-right + human review + low-tech fallback + public benefit ledger"
      }
    },
    {
      "type": "Feature",
      "id": "PUBLIC-003",
      "geometry": {
        "type": "Polygon",
        "coordinates": [
          [
            [
              116.34950911731285,
              39.94682061061971
            ],
            [
              116.34949451627433,
              39.94672217841348
            ],
            [
              116.34947033750043,
              39.94662565133727
            ],
            [
              116.34943681384597,
              39.946531958999586
            ],
            [
              116.34939426816204,
              39.94644200370887
            ],
            [
              116.34934311018688,
              39.946356651783724
            ],
            [
              116.34928383259971,
              39.94627672520986
            ],
            [
              116.34921700627612,
              39.94620299372388
            ],
            [
              116.34914327479014,
              39.9461361674003
            ],
            [
              116.34906334821628,
              39.94607688981313
            ],
            [
              116.34897799629114,
              39.946025731837956
            ],
            [
              116.34888804100042,
              39.94598318615404
            ],
            [
              116.34879434866274,
              39.94594966249957
            ],
            [
              116.34869782158653,
              39.945925483725674
            ],
            [
              116.3485993893803,
              39.94591088268716
            ],
            [
              116.3485,
              39.94590600000001
            ],
            [
              116.3484006106197,
              39.94591088268716
            ],
            [
              116.34830217841348,
              39.945925483725674
            ],
            [
              116.34820565133727,
              39.94594966249957
            ],
            [
              116.34811195899958,
              39.94598318615404
            ],
            [
              116.34802200370886,
              39.946025731837956
            ],
            [
              116.34793665178373,
              39.94607688981313
            ],
            [
              116.34785672520987,
              39.9461361674003
            ],
            [
              116.34778299372388,
              39.94620299372388
            ],
            [
              116.34771616740029,
              39.94627672520986
            ],
            [
              116.34765688981312,
              39.946356651783724
            ],
            [
              116.34760573183796,
              39.94644200370887
            ],
            [
              116.34756318615403,
              39.946531958999586
            ],
            [
              116.34752966249957,
              39.94662565133727
            ],
            [
              116.34750548372567,
              39.94672217841348
            ],
            [
              116.34749088268715,
              39.94682061061971
            ],
            [
              116.347486,
              39.946920000000006
            ],
            [
              116.34749088268715,
              39.9470193893803
            ],
            [
              116.34750548372567,
              39.94711782158653
            ],
            [
              116.34752966249957,
              39.94721434866274
            ],
            [
              116.34756318615403,
              39.947308041000426
            ],
            [
              116.34760573183796,
              39.947397996291144
            ],
            [
              116.34765688981312,
              39.94748334821629
            ],
            [
              116.34771616740029,
              39.94756327479015
            ],
            [
              116.34778299372388,
              39.94763700627613
            ],
            [
              116.34785672520987,
              39.947703832599714
            ],
            [
              116.34793665178373,
              39.947763110186884
            ],
            [
              116.34802200370886,
              39.947814268162055
            ],
            [
              116.34811195899958,
              39.94785681384597
            ],
            [
              116.34820565133727,
              39.94789033750044
            ],
            [
              116.34830217841348,
              39.94791451627434
            ],
            [
              116.3484006106197,
              39.94792911731285
            ],
            [
              116.3485,
              39.947934000000004
            ],
            [
              116.3485993893803,
              39.94792911731285
            ],
            [
              116.34869782158653,
              39.94791451627434
            ],
            [
              116.34879434866274,
              39.94789033750044
            ],
            [
              116.34888804100042,
              39.94785681384597
            ],
            [
              116.34897799629114,
              39.947814268162055
            ],
            [
              116.34906334821628,
              39.947763110186884
            ],
            [
              116.34914327479014,
              39.947703832599714
            ],
            [
              116.34921700627612,
              39.94763700627613
            ],
            [
              116.34928383259971,
              39.94756327479015
            ],
            [
              116.34934311018688,
              39.94748334821629
            ],
            [
              116.34939426816204,
              39.947397996291144
            ],
            [
              116.34943681384597,
              39.947308041000426
            ],
            [
              116.34947033750043,
              39.94721434866274
            ],
            [
              116.34949451627433,
              39.94711782158653
            ],
            [
              116.34950911731285,
              39.9470193893803
            ],
            [
              116.349514,
              39.946920000000006
            ],
            [
              116.34950911731285,
              39.94682061061971
            ]
          ]
        ]
      },
      "properties": {
        "id": "PUBLIC-003",
        "layer": "PUBLIC_SPACE",
        "source_type": "agent_generated_design",
        "confidence": "medium",
        "geometry_role": "design_proposal",
        "name_zh": "大钟寺公共回报客厅",
        "name_en": "Dazhongsi Public-return Salon",
        "area_sqm_declared": 30603.994,
        "civic_contract": "pause-right + human review + low-tech fallback + public benefit ledger"
      }
    }
  ]
}
