{
  "type": "FeatureCollection",
  "features": [
    {
      "type": "Feature",
      "id": "ROAD-001",
      "geometry": {
        "type": "LineString",
        "coordinates": [
          [
            116.347968,
            39.939
          ],
          [
            116.347032,
            40.0265
          ]
        ]
      },
      "properties": {
        "id": "ROAD-001",
        "layer": "ROAD_CENTERLINE",
        "source_type": "agent_generated_design",
        "confidence": "medium",
        "geometry_role": "design_proposal",
        "road_class": "greenway",
        "weave_role": "civic_weave_spine",
        "name_zh": "公共价值编织慢行主脊",
        "name_en": "Civic Value Weave slow-mobility spine",
        "precision_note": "Concept alignment only; not a road redline or engineering route."
      }
    },
    {
      "type": "Feature",
      "id": "ROAD-002",
      "geometry": {
        "type": "LineString",
        "coordinates": [
          [
            116.34176097560976,
            40.00725
          ],
          [
            116.35424520547946,
            40.00725
          ]
        ]
      },
      "properties": {
        "id": "ROAD-002",
        "layer": "ROAD_CENTERLINE",
        "source_type": "agent_generated_design",
        "confidence": "medium",
        "geometry_role": "design_proposal",
        "road_class": "pedestrian",
        "weave_role": "north_shuttle",
        "name_zh": "北部验证横梭",
        "name_en": "Northern validation shuttle",
        "precision_note": "Concept alignment only; not a road redline or engineering route."
      }
    },
    {
      "type": "Feature",
      "id": "ROAD-003",
      "geometry": {
        "type": "LineString",
        "coordinates": [
          [
            116.3402564516129,
            39.983624999999996
          ],
          [
            116.35381000000001,
            39.983624999999996
          ]
        ]
      },
      "properties": {
        "id": "ROAD-003",
        "layer": "ROAD_CENTERLINE",
        "source_type": "agent_generated_design",
        "confidence": "medium",
        "geometry_role": "design_proposal",
        "road_class": "pedestrian",
        "weave_role": "origin_shuttle",
        "name_zh": "原点协作横梭",
        "name_en": "Origin collaboration shuttle",
        "precision_note": "Concept alignment only; not a road redline or engineering route."
      }
    },
    {
      "type": "Feature",
      "id": "ROAD-004",
      "geometry": {
        "type": "LineString",
        "coordinates": [
          [
            116.34011666666666,
            39.96
          ],
          [
            116.3553,
            39.96
          ]
        ]
      },
      "properties": {
        "id": "ROAD-004",
        "layer": "ROAD_CENTERLINE",
        "source_type": "agent_generated_design",
        "confidence": "medium",
        "geometry_role": "design_proposal",
        "road_class": "pedestrian",
        "weave_role": "south_shuttle",
        "name_zh": "南部交往横梭",
        "name_en": "Southern exchange shuttle",
        "precision_note": "Concept alignment only; not a road redline or engineering route."
      }
    }
  ]
}
