{
  "type": "FeatureCollection",
  "name": "jingzhang_ai_people_city_interface",
  "features": [
    {
      "type": "Feature",
      "id": "PUBLIC-001",
      "properties": {
        "id": "PUBLIC-001",
        "layer": "PUBLIC_SPACE",
        "source_type": "agent_generated_design",
        "confidence": "medium",
        "geometry_role": "design_proposal",
        "name_zh": "京张AI新篇章人城公共生活界面",
        "name_en": "Jing-Zhang AI People-City Public-Life Interface",
        "design_intent": "A continuous, accessible public interface linking railway heritage, AI demonstrations, community services and open-source events.",
        "area_sqm_declared": 836345.643
      },
      "geometry": {
        "type": "Polygon",
        "coordinates": [
          [
            [
              116.34734399999999,
              39.967
            ],
            [
              116.34734399999999,
              40.00025
            ],
            [
              116.349996,
              40.00025
            ],
            [
              116.349996,
              39.967
            ],
            [
              116.34734399999999,
              39.967
            ]
          ]
        ]
      }
    }
  ]
}
