{
  "type": "FeatureCollection",
  "name": "jingzhang_ai_slow_mobility_spine",
  "features": [
    {
      "type": "Feature",
      "id": "ROAD-001",
      "properties": {
        "id": "ROAD-001",
        "layer": "ROAD_CENTERLINE",
        "source_type": "agent_generated_design",
        "confidence": "medium",
        "geometry_role": "design_proposal",
        "road_class": "greenway",
        "name_zh": "京张遗产慢行与AI公共服务廊道",
        "name_en": "Jing-Zhang Heritage and AI Civic Spine",
        "design_intent": "A conceptual low-speed spine connecting the three key-area testbeds with accessible wayfinding and civic AI service nodes."
      },
      "geometry": {
        "type": "LineString",
        "coordinates": [
          [
            116.340948,
            39.9845
          ],
          [
            116.35374,
            39.9845
          ]
        ]
      }
    }
  ]
}
