{
 "type": "FeatureCollection",
 "name": "new-hundred-trades",
 "crs": {
  "type": "name",
  "properties": {
   "name": "urn:ogc:def:crs:OGC:1.3:CRS84"
  }
 },
 "features": [
  {
   "type": "Feature",
   "id": "BD-001",
   "properties": {
    "source_type": "agent_generated_design",
    "confidence": "low",
    "geometry_role": "design_proposal",
    "official_boundary": false,
    "boundary_precision": "provisional_rough",
    "id": "BD-001",
    "layer": "BUILDING_FOOTPRINT",
    "name_zh": "试器段更新载体（示意）",
    "name_en": "试器 renewal block (indicative)",
    "renewal_action": "retain_or_renovate",
    "design_note_zh": "概念示意，非地块级拆改留结论，须由专业团队按控规深化。",
    "design_note_en": "Conceptual only; not a parcel-level conclusion.",
    "area_ha": 6.67
   },
   "geometry": {
    "type": "Polygon",
    "coordinates": [
     [
      [
       116.3494,
       40.0179
      ],
      [
       116.3494,
       40.0201
      ],
      [
       116.3526,
       40.0201
      ],
      [
       116.3526,
       40.0179
      ],
      [
       116.3494,
       40.0179
      ]
     ]
    ]
   }
  },
  {
   "type": "Feature",
   "id": "BD-002",
   "properties": {
    "source_type": "agent_generated_design",
    "confidence": "low",
    "geometry_role": "design_proposal",
    "official_boundary": false,
    "boundary_precision": "provisional_rough",
    "id": "BD-002",
    "layer": "BUILDING_FOOTPRINT",
    "name_zh": "试器段更新载体（示意）",
    "name_en": "试器 renewal block (indicative)",
    "renewal_action": "retain_or_renovate",
    "design_note_zh": "概念示意，非地块级拆改留结论，须由专业团队按控规深化。",
    "design_note_en": "Conceptual only; not a parcel-level conclusion.",
    "area_ha": 6.67
   },
   "geometry": {
    "type": "Polygon",
    "coordinates": [
     [
      [
       116.3424,
       40.0109
      ],
      [
       116.3424,
       40.0131
      ],
      [
       116.34559999999999,
       40.0131
      ],
      [
       116.34559999999999,
       40.0109
      ],
      [
       116.3424,
       40.0109
      ]
     ]
    ]
   }
  },
  {
   "type": "Feature",
   "id": "BD-003",
   "properties": {
    "source_type": "agent_generated_design",
    "confidence": "low",
    "geometry_role": "design_proposal",
    "official_boundary": false,
    "boundary_precision": "provisional_rough",
    "id": "BD-003",
    "layer": "BUILDING_FOOTPRINT",
    "name_zh": "创物段更新载体（示意）",
    "name_en": "创物 renewal block (indicative)",
    "renewal_action": "retain_or_renovate",
    "design_note_zh": "概念示意，非地块级拆改留结论，须由专业团队按控规深化。",
    "design_note_en": "Conceptual only; not a parcel-level conclusion.",
    "area_ha": 6.68
   },
   "geometry": {
    "type": "Polygon",
    "coordinates": [
     [
      [
       116.3494,
       39.9884
      ],
      [
       116.3494,
       39.9906
      ],
      [
       116.3526,
       39.9906
      ],
      [
       116.3526,
       39.9884
      ],
      [
       116.3494,
       39.9884
      ]
     ]
    ]
   }
  },
  {
   "type": "Feature",
   "id": "BD-004",
   "properties": {
    "source_type": "agent_generated_design",
    "confidence": "low",
    "geometry_role": "design_proposal",
    "official_boundary": false,
    "boundary_precision": "provisional_rough",
    "id": "BD-004",
    "layer": "BUILDING_FOOTPRINT",
    "name_zh": "创物段更新载体（示意）",
    "name_en": "创物 renewal block (indicative)",
    "renewal_action": "retain_or_renovate",
    "design_note_zh": "概念示意，非地块级拆改留结论，须由专业团队按控规深化。",
    "design_note_en": "Conceptual only; not a parcel-level conclusion.",
    "area_ha": 6.68
   },
   "geometry": {
    "type": "Polygon",
    "coordinates": [
     [
      [
       116.3424,
       39.9854
      ],
      [
       116.3424,
       39.9876
      ],
      [
       116.34559999999999,
       39.9876
      ],
      [
       116.34559999999999,
       39.9854
      ],
      [
       116.3424,
       39.9854
      ]
     ]
    ]
   }
  },
  {
   "type": "Feature",
   "id": "BD-005",
   "properties": {
    "source_type": "agent_generated_design",
    "confidence": "low",
    "geometry_role": "design_proposal",
    "official_boundary": false,
    "boundary_precision": "provisional_rough",
    "id": "BD-005",
    "layer": "BUILDING_FOOTPRINT",
    "name_zh": "通市段更新载体（示意）",
    "name_en": "通市 renewal block (indicative)",
    "renewal_action": "retain_or_renovate",
    "design_note_zh": "概念示意，非地块级拆改留结论，须由专业团队按控规深化。",
    "design_note_en": "Conceptual only; not a parcel-level conclusion.",
    "area_ha": 6.68
   },
   "geometry": {
    "type": "Polygon",
    "coordinates": [
     [
      [
       116.3494,
       39.9464
      ],
      [
       116.3494,
       39.9486
      ],
      [
       116.3526,
       39.9486
      ],
      [
       116.3526,
       39.9464
      ],
      [
       116.3494,
       39.9464
      ]
     ]
    ]
   }
  },
  {
   "type": "Feature",
   "id": "BD-006",
   "properties": {
    "source_type": "agent_generated_design",
    "confidence": "low",
    "geometry_role": "design_proposal",
    "official_boundary": false,
    "boundary_precision": "provisional_rough",
    "id": "BD-006",
    "layer": "BUILDING_FOOTPRINT",
    "name_zh": "通市段更新载体（示意）",
    "name_en": "通市 renewal block (indicative)",
    "renewal_action": "retain_or_renovate",
    "design_note_zh": "概念示意，非地块级拆改留结论，须由专业团队按控规深化。",
    "design_note_en": "Conceptual only; not a parcel-level conclusion.",
    "area_ha": 6.68
   },
   "geometry": {
    "type": "Polygon",
    "coordinates": [
     [
      [
       116.3424,
       39.9444
      ],
      [
       116.3424,
       39.946600000000004
      ],
      [
       116.34559999999999,
       39.946600000000004
      ],
      [
       116.34559999999999,
       39.9444
      ],
      [
       116.3424,
       39.9444
      ]
     ]
    ]
   }
  }
 ]
}