{
 "type": "FeatureCollection",
 "name": "new-hundred-trades",
 "crs": {
  "type": "name",
  "properties": {
   "name": "urn:ogc:def:crs:OGC:1.3:CRS84"
  }
 },
 "features": [
  {
   "type": "Feature",
   "id": "CN-001",
   "properties": {
    "source_type": "agent_generated_design",
    "confidence": "low",
    "geometry_role": "design_proposal",
    "official_boundary": false,
    "boundary_precision": "provisional_rough",
    "id": "CN-001",
    "layer": "REGULATORY_CONTROL",
    "name_zh": "地面运行轨道噪声与割裂影响带（13号线，示意）",
    "name_en": "At-grade rail noise/severance band (Line 13, indicative)",
    "constraint_type": "noise_severance",
    "note_zh": "京张高铁已入地，地面影响主要来自仍在地面运行的地铁13号线；范围为示意，须实测校核。",
    "note_en": "High-speed rail is underground; at-grade impact is from Metro Line 13. Extent indicative."
   },
   "geometry": {
    "type": "Polygon",
    "coordinates": [
     [
      [
       116.34689999999999,
       40.0265
      ],
      [
       116.346902889164,
       40.02655881028419
      ],
      [
       116.34691152883175,
       40.02661705419321
      ],
      [
       116.34692583579856,
       40.02667417080635
      ],
      [
       116.34694567228048,
       40.02672961005942
      ],
      [
       116.3469708472414,
       40.026782838042095
      ],
      [
       116.34700111823261,
       40.02683334213981
      ],
      [
       116.34703619372797,
       40.0268806359705
      ],
      [
       116.34707573593128,
       40.02692426406871
      ],
      [
       116.3471193640295,
       40.026963806272015
      ],
      [
       116.34716665786019,
       40.02699888176738
      ],
      [
       116.3472171619579,
       40.02702915275861
      ],
      [
       116.34727038994058,
       40.027054327719505
      ],
      [
       116.34732582919365,
       40.02707416420144
      ],
      [
       116.34738294580679,
       40.02708847116824
      ],
      [
       116.3474411897158,
       40.027097110836
      ],
      [
       116.3475,
       40.0271
      ],
      [
       116.3475588102842,
       40.027097110836
      ],
      [
       116.34761705419321,
       40.02708847116824
      ],
      [
       116.34767417080634,
       40.02707416420144
      ],
      [
       116.34772961005942,
       40.027054327719505
      ],
      [
       116.3477828380421,
       40.02702915275861
      ],
      [
       116.34783334213981,
       40.02699888176738
      ],
      [
       116.3478806359705,
       40.026963806272015
      ],
      [
       116.34792426406871,
       40.02692426406871
      ],
      [
       116.34796380627202,
       40.0268806359705
      ],
      [
       116.34799888176738,
       40.02683334213981
      ],
      [
       116.3480291527586,
       40.026782838042095
      ],
      [
       116.34805432771951,
       40.02672961005942
      ],
      [
       116.34807416420144,
       40.02667417080635
      ],
      [
       116.34808847116824,
       40.02661705419321
      ],
      [
       116.348097110836,
       40.02655881028419
      ],
      [
       116.3481,
       40.0265
      ],
      [
       116.3481,
       39.939
      ],
      [
       116.348097110836,
       39.938941189715806
      ],
      [
       116.34808847116824,
       39.93888294580679
      ],
      [
       116.34807416420144,
       39.93882582919365
      ],
      [
       116.34805432771951,
       39.93877038994058
      ],
      [
       116.3480291527586,
       39.938717161957904
      ],
      [
       116.34799888176738,
       39.93866665786019
      ],
      [
       116.34796380627202,
       39.9386193640295
      ],
      [
       116.34792426406871,
       39.93857573593129
      ],
      [
       116.3478806359705,
       39.938536193727984
      ],
      [
       116.34783334213981,
       39.938501118232615
      ],
      [
       116.3477828380421,
       39.93847084724139
      ],
      [
       116.34772961005942,
       39.938445672280494
      ],
      [
       116.34767417080634,
       39.93842583579856
      ],
      [
       116.34761705419321,
       39.93841152883176
      ],
      [
       116.3475588102842,
       39.938402889163996
      ],
      [
       116.3475,
       39.9384
      ],
      [
       116.3474411897158,
       39.938402889163996
      ],
      [
       116.34738294580679,
       39.93841152883176
      ],
      [
       116.34732582919365,
       39.93842583579856
      ],
      [
       116.34727038994058,
       39.938445672280494
      ],
      [
       116.3472171619579,
       39.93847084724139
      ],
      [
       116.34716665786019,
       39.938501118232615
      ],
      [
       116.3471193640295,
       39.938536193727984
      ],
      [
       116.34707573593128,
       39.93857573593129
      ],
      [
       116.34703619372797,
       39.9386193640295
      ],
      [
       116.34700111823261,
       39.93866665786019
      ],
      [
       116.3469708472414,
       39.938717161957904
      ],
      [
       116.34694567228048,
       39.93877038994058
      ],
      [
       116.34692583579856,
       39.93882582919365
      ],
      [
       116.34691152883175,
       39.93888294580679
      ],
      [
       116.346902889164,
       39.938941189715806
      ],
      [
       116.34689999999999,
       39.939
      ],
      [
       116.34689999999999,
       40.0265
      ]
     ]
    ]
   }
  },
  {
   "type": "Feature",
   "id": "CN-002",
   "properties": {
    "source_type": "agent_inferred_from_public_data",
    "confidence": "low",
    "geometry_role": "provisional_constraint",
    "official_boundary": false,
    "boundary_precision": "provisional_rough",
    "id": "CN-002",
    "layer": "REGULATORY_CONTROL",
    "name_zh": "临时替代边界（不得作为官方红线）",
    "name_en": "Provisional surrogate boundary (not an official red line)",
    "constraint_type": "provisional_boundary"
   },
   "geometry": {
    "type": "Polygon",
    "coordinates": [
     [
      [
       116.3407,
       39.939
      ],
      [
       116.3553,
       39.939
      ],
      [
       116.3553,
       39.965
      ],
      [
       116.3533,
       39.99
      ],
      [
       116.3553,
       40.0265
      ],
      [
       116.3427,
       40.0265
      ],
      [
       116.3417,
       40.006
      ],
      [
       116.3397,
       39.975
      ],
      [
       116.3407,
       39.939
      ]
     ]
    ]
   }
  }
 ]
}