{
 "type": "FeatureCollection",
 "name": "new-hundred-trades",
 "crs": {
  "type": "name",
  "properties": {
   "name": "urn:ogc:def:crs:OGC:1.3:CRS84"
  }
 },
 "features": [
  {
   "type": "Feature",
   "id": "GS-001",
   "properties": {
    "source_type": "agent_generated_design",
    "confidence": "low",
    "geometry_role": "design_proposal",
    "official_boundary": false,
    "boundary_precision": "provisional_rough",
    "id": "GS-001",
    "layer": "GREEN_SPACE",
    "name_zh": "京张铁路遗址公园 · 平线",
    "name_en": "Jing-Zhang Rail Park - the flat line",
    "design_note_zh": "2026年8月已建成开放，本方案不重做，仅在五处加厚。",
    "design_note_en": "Opened Aug 2026; not redone. Thickened at five points only.",
    "area_ha": 215.78
   },
   "geometry": {
    "type": "Polygon",
    "coordinates": [
     [
      [
       116.3475,
       39.939
      ],
      [
       116.3449,
       39.939
      ],
      [
       116.3449,
       40.0265
      ],
      [
       116.3475,
       40.0265
      ],
      [
       116.3475,
       39.939
      ]
     ]
    ]
   }
  },
  {
   "type": "Feature",
   "id": "GS-002",
   "properties": {
    "source_type": "agent_generated_design",
    "confidence": "low",
    "geometry_role": "design_proposal",
    "official_boundary": false,
    "boundary_precision": "provisional_rough",
    "id": "GS-002",
    "layer": "GREEN_SPACE",
    "name_zh": "试器段绿核",
    "name_en": "Testing the Vessel green core",
    "area_ha": 104.53
   },
   "geometry": {
    "type": "Polygon",
    "coordinates": [
     [
      [
       116.3448,
       40.0242
      ],
      [
       116.3522,
       40.0242
      ],
      [
       116.3522,
       40.0093
      ],
      [
       116.3448,
       40.0093
      ],
      [
       116.3448,
       40.0242
      ]
     ]
    ]
   }
  },
  {
   "type": "Feature",
   "id": "GS-003",
   "properties": {
    "source_type": "agent_generated_design",
    "confidence": "low",
    "geometry_role": "design_proposal",
    "official_boundary": false,
    "boundary_precision": "provisional_rough",
    "id": "GS-003",
    "layer": "GREEN_SPACE",
    "name_zh": "创物段绿核",
    "name_en": "Creating the Thing green core",
    "area_ha": 44.92
   },
   "geometry": {
    "type": "Polygon",
    "coordinates": [
     [
      [
       116.3438,
       39.991699999999994
      ],
      [
       116.35119999999999,
       39.991699999999994
      ],
      [
       116.35119999999999,
       39.9853
      ],
      [
       116.3438,
       39.9853
      ],
      [
       116.3438,
       39.991699999999994
      ]
     ]
    ]
   }
  },
  {
   "type": "Feature",
   "id": "GS-004",
   "properties": {
    "source_type": "agent_generated_design",
    "confidence": "low",
    "geometry_role": "design_proposal",
    "official_boundary": false,
    "boundary_precision": "provisional_rough",
    "id": "GS-004",
    "layer": "GREEN_SPACE",
    "name_zh": "通市段绿核",
    "name_en": "Reaching the Market green core",
    "area_ha": 19.98
   },
   "geometry": {
    "type": "Polygon",
    "coordinates": [
     [
      [
       116.3438,
       39.94804
      ],
      [
       116.3532,
       39.94804
      ],
      [
       116.3532,
       39.945800000000006
      ],
      [
       116.3438,
       39.945800000000006
      ],
      [
       116.3438,
       39.94804
      ]
     ]
    ]
   }
  }
 ]
}