{
 "type": "FeatureCollection",
 "name": "new-hundred-trades",
 "crs": {
  "type": "name",
  "properties": {
   "name": "urn:ogc:def:crs:OGC:1.3:CRS84"
  }
 },
 "features": [
  {
   "type": "Feature",
   "id": "KA-001",
   "properties": {
    "source_type": "agent_inferred_from_public_data",
    "confidence": "low",
    "geometry_role": "provisional_constraint",
    "official_boundary": false,
    "boundary_precision": "provisional_rough",
    "id": "KA-001",
    "layer": "KEY_AREA",
    "area_id": "zhongzhiyuan_ai_acceleration_area",
    "name_zh": "试器 · 众智园AI自主创新加速区",
    "name_en": "Testing the Vessel - Zhongzhiyuan AI Acceleration Area",
    "section_move": "stacked",
    "design_note_zh": "面积最大、周边约束最少，承担中试与验证；叠合为垂直验证场。",
    "design_note_en": "Largest and least constrained; pilot testing and validation; stacked as a vertical proving ground.",
    "area_ha": 192.92
   },
   "geometry": {
    "type": "Polygon",
    "coordinates": [
     [
      [
       116.343,
       40.0075
      ],
      [
       116.354,
       40.0075
      ],
      [
       116.354,
       40.026
      ],
      [
       116.343,
       40.026
      ],
      [
       116.343,
       40.0075
      ]
     ]
    ]
   }
  },
  {
   "type": "Feature",
   "id": "KA-002",
   "properties": {
    "source_type": "agent_inferred_from_public_data",
    "confidence": "low",
    "geometry_role": "provisional_constraint",
    "official_boundary": false,
    "boundary_precision": "provisional_rough",
    "id": "KA-002",
    "layer": "KEY_AREA",
    "area_id": "beijing_ai_origin_community",
    "name_zh": "创物 · 北京AI原点社区",
    "name_en": "Creating the Thing - Beijing AI Origin Community",
    "section_move": "flat_low_disturbance",
    "design_note_zh": "官方要求低扰动有机更新，因此此段保持平，不做大体量垂直动作。",
    "design_note_en": "Official brief requires low-disturbance organic renewal; kept flat, no large vertical move.",
    "area_ha": 104.32
   },
   "geometry": {
    "type": "Polygon",
    "coordinates": [
     [
      [
       116.342,
       39.9835
      ],
      [
       116.353,
       39.9835
      ],
      [
       116.353,
       39.9935
      ],
      [
       116.342,
       39.9935
      ],
      [
       116.342,
       39.9835
      ]
     ]
    ]
   }
  },
  {
   "type": "Feature",
   "id": "KA-003",
   "properties": {
    "source_type": "agent_inferred_from_public_data",
    "confidence": "low",
    "geometry_role": "provisional_constraint",
    "official_boundary": false,
    "boundary_precision": "provisional_rough",
    "id": "KA-003",
    "layer": "KEY_AREA",
    "area_id": "dazhongsi_ai_industry_cluster",
    "name_zh": "通市 · 大钟寺AI产业聚集区",
    "name_en": "Reaching the Market - Dazhongsi AI Industry Cluster",
    "section_move": "sunken",
    "design_note_zh": "临地面运行轨道、噪声与割裂最重，下沉治噪；并承接13A拨线释放的线位。",
    "design_note_en": "Adjacent to at-grade rail, worst noise and severance; sunken for mitigation.",
    "area_ha": 72.05
   },
   "geometry": {
    "type": "Polygon",
    "coordinates": [
     [
      [
       116.342,
       39.944
      ],
      [
       116.355,
       39.944
      ],
      [
       116.355,
       39.94984
      ],
      [
       116.342,
       39.94984
      ],
      [
       116.342,
       39.944
      ]
     ]
    ]
   }
  }
 ]
}