{
 "type": "FeatureCollection",
 "name": "new-hundred-trades",
 "crs": {
  "type": "name",
  "properties": {
   "name": "urn:ogc:def:crs:OGC:1.3:CRS84"
  }
 },
 "features": [
  {
   "type": "Feature",
   "id": "PH-001",
   "properties": {
    "source_type": "agent_generated_design",
    "confidence": "low",
    "geometry_role": "design_proposal",
    "official_boundary": false,
    "boundary_precision": "provisional_rough",
    "id": "PH-001",
    "layer": "PHASE",
    "name_zh": "一期 · 三处桥市与连续路权",
    "name_en": "Phase 1 - three bridge-markets and continuous right-of-way",
    "phase": "1",
    "area_ha": 514.92,
    "design_note_zh": "分期为概念建议，不构成投资或实施承诺。",
    "design_note_en": "Conceptual sequencing only; not an investment commitment."
   },
   "geometry": {
    "type": "Polygon",
    "coordinates": [
     [
      [
       116.3553,
       40.0265
      ],
      [
       116.3533,
       39.99
      ],
      [
       116.35382,
       39.9835
      ],
      [
       116.34024838709676,
       39.9835
      ],
      [
       116.3417,
       40.006
      ],
      [
       116.3427,
       40.0265
      ],
      [
       116.3553,
       40.0265
      ]
     ]
    ]
   }
  },
  {
   "type": "Feature",
   "id": "PH-002",
   "properties": {
    "source_type": "agent_generated_design",
    "confidence": "low",
    "geometry_role": "design_proposal",
    "official_boundary": false,
    "boundary_precision": "provisional_rough",
    "id": "PH-002",
    "layer": "PHASE",
    "name_zh": "二期 · 试器段叠合验证场",
    "name_en": "Phase 2 - stacked validation ground",
    "phase": "2",
    "area_ha": 206.68,
    "design_note_zh": "分期为概念建议，不构成投资或实施承诺。",
    "design_note_en": "Conceptual sequencing only; not an investment commitment."
   },
   "geometry": {
    "type": "Polygon",
    "coordinates": [
     [
      [
       116.35382,
       39.9835
      ],
      [
       116.35502,
       39.9685
      ],
      [
       116.33988055555555,
       39.9685
      ],
      [
       116.3397,
       39.975
      ],
      [
       116.34024838709676,
       39.9835
      ],
      [
       116.35382,
       39.9835
      ]
     ]
    ]
   }
  },
  {
   "type": "Feature",
   "id": "PH-003",
   "properties": {
    "source_type": "agent_generated_design",
    "confidence": "low",
    "geometry_role": "design_proposal",
    "official_boundary": false,
    "boundary_precision": "provisional_rough",
    "id": "PH-003",
    "layer": "PHASE",
    "name_zh": "三期 · 通市段下沉与线位承接",
    "name_en": "Phase 3 - sunken court and released alignment",
    "phase": "3",
    "area_ha": 419.68,
    "design_note_zh": "分期为概念建议，不构成投资或实施承诺。",
    "design_note_en": "Conceptual sequencing only; not an investment commitment."
   },
   "geometry": {
    "type": "Polygon",
    "coordinates": [
     [
      [
       116.3553,
       39.939
      ],
      [
       116.3407,
       39.939
      ],
      [
       116.33988055555555,
       39.9685
      ],
      [
       116.35502,
       39.9685
      ],
      [
       116.3553,
       39.965
      ],
      [
       116.3553,
       39.939
      ]
     ]
    ]
   }
  }
 ]
}