{
 "type": "FeatureCollection",
 "name": "new-hundred-trades",
 "crs": {
  "type": "name",
  "properties": {
   "name": "urn:ogc:def:crs:OGC:1.3:CRS84"
  }
 },
 "features": [
  {
   "type": "Feature",
   "id": "PS-001",
   "properties": {
    "source_type": "agent_generated_design",
    "confidence": "low",
    "geometry_role": "design_proposal",
    "official_boundary": false,
    "boundary_precision": "provisional_rough",
    "id": "PS-001",
    "layer": "PUBLIC_SPACE",
    "name_zh": "桥市 · north_3rd_ring",
    "name_en": "Bridge-market at north 3rd ring",
    "section_move": "lifted",
    "design_note_zh": "抬升跨环路，保南北连续；桥面中部停留与市集，机器沿边侧慢行道，缓坡无障碍与轮式机器共用。",
    "design_note_en": "Lifted crossing keeps the line continuous; market and dwelling at centre, machines on the edge lane; ramp shared by wheelchairs and wheeled robots.",
    "area_ha": 5.84
   },
   "geometry": {
    "type": "Polygon",
    "coordinates": [
     [
      [
       116.3453,
       39.9678
      ],
      [
       116.3453,
       39.9692
      ],
      [
       116.3497,
       39.9692
      ],
      [
       116.3497,
       39.9678
      ],
      [
       116.3453,
       39.9678
      ]
     ]
    ]
   }
  },
  {
   "type": "Feature",
   "id": "PS-002",
   "properties": {
    "source_type": "agent_generated_design",
    "confidence": "low",
    "geometry_role": "design_proposal",
    "official_boundary": false,
    "boundary_precision": "provisional_rough",
    "id": "PS-002",
    "layer": "PUBLIC_SPACE",
    "name_zh": "桥市 · north_4th_ring",
    "name_en": "Bridge-market at north 4th ring",
    "section_move": "lifted",
    "design_note_zh": "抬升跨环路，保南北连续；桥面中部停留与市集，机器沿边侧慢行道，缓坡无障碍与轮式机器共用。",
    "design_note_en": "Lifted crossing keeps the line continuous; market and dwelling at centre, machines on the edge lane; ramp shared by wheelchairs and wheeled robots.",
    "area_ha": 5.84
   },
   "geometry": {
    "type": "Polygon",
    "coordinates": [
     [
      [
       116.3453,
       39.9828
      ],
      [
       116.3453,
       39.9842
      ],
      [
       116.3497,
       39.9842
      ],
      [
       116.3497,
       39.9828
      ],
      [
       116.3453,
       39.9828
      ]
     ]
    ]
   }
  },
  {
   "type": "Feature",
   "id": "PS-003",
   "properties": {
    "source_type": "agent_generated_design",
    "confidence": "low",
    "geometry_role": "design_proposal",
    "official_boundary": false,
    "boundary_precision": "provisional_rough",
    "id": "PS-003",
    "layer": "PUBLIC_SPACE",
    "name_zh": "桥市 · qinghua_east_rd",
    "name_en": "Bridge-market at qinghua east rd",
    "section_move": "lifted",
    "design_note_zh": "抬升跨环路，保南北连续；桥面中部停留与市集，机器沿边侧慢行道，缓坡无障碍与轮式机器共用。",
    "design_note_en": "Lifted crossing keeps the line continuous; market and dwelling at centre, machines on the edge lane; ramp shared by wheelchairs and wheeled robots.",
    "area_ha": 5.84
   },
   "geometry": {
    "type": "Polygon",
    "coordinates": [
     [
      [
       116.3453,
       39.9978
      ],
      [
       116.3453,
       39.9992
      ],
      [
       116.3497,
       39.9992
      ],
      [
       116.3497,
       39.9978
      ],
      [
       116.3453,
       39.9978
      ]
     ]
    ]
   }
  },
  {
   "type": "Feature",
   "id": "PS-004",
   "properties": {
    "source_type": "agent_generated_design",
    "confidence": "low",
    "geometry_role": "design_proposal",
    "official_boundary": false,
    "boundary_precision": "provisional_rough",
    "id": "PS-004",
    "layer": "PUBLIC_SPACE",
    "name_zh": "通市 · 下沉市集庭院",
    "name_en": "Reaching the Market - sunken market court",
    "section_move": "sunken",
    "design_note_zh": "沉而不弱：把街市的热闹扣进庭院，兼作噪声与视线缓冲；无障碍与排水自始设计，不做事后加装。",
    "design_note_en": "Sunken but not quiet: market life held in a court that also buffers noise; accessibility and drainage designed from the start.",
    "area_ha": 34.6
   },
   "geometry": {
    "type": "Polygon",
    "coordinates": [
     [
      [
       116.3432,
       39.948640000000005
      ],
      [
       116.3538,
       39.948640000000005
      ],
      [
       116.3538,
       39.9452
      ],
      [
       116.3432,
       39.9452
      ],
      [
       116.3432,
       39.948640000000005
      ]
     ]
    ]
   }
  },
  {
   "type": "Feature",
   "id": "PS-005",
   "properties": {
    "source_type": "agent_generated_design",
    "confidence": "low",
    "geometry_role": "design_proposal",
    "official_boundary": false,
    "boundary_precision": "provisional_rough",
    "id": "PS-005",
    "layer": "PUBLIC_SPACE",
    "name_zh": "试器 · 叠合验证平台",
    "name_en": "Testing the Vessel - stacked validation deck",
    "section_move": "stacked",
    "design_note_zh": "研发在上、验证在中、展示在下的垂直堆叠；复杂地形正是具身智能所需的真实测试环境。",
    "design_note_en": "R&D above, validation mid, display below; complex terrain is what embodied AI needs to be tested against.",
    "area_ha": 117.55
   },
   "geometry": {
    "type": "Polygon",
    "coordinates": [
     [
      [
       116.3445,
       40.0245
      ],
      [
       116.3525,
       40.0245
      ],
      [
       116.3525,
       40.009
      ],
      [
       116.3445,
       40.009
      ],
      [
       116.3445,
       40.0245
      ]
     ]
    ]
   }
  }
 ]
}