{
 "type": "FeatureCollection",
 "name": "new-hundred-trades",
 "crs": {
  "type": "name",
  "properties": {
   "name": "urn:ogc:def:crs:OGC:1.3:CRS84"
  }
 },
 "features": [
  {
   "type": "Feature",
   "id": "RD-001",
   "properties": {
    "source_type": "agent_generated_design",
    "confidence": "low",
    "geometry_role": "design_proposal",
    "official_boundary": false,
    "boundary_precision": "provisional_rough",
    "id": "RD-001",
    "layer": "ROAD_CENTERLINE",
    "name_zh": "九公里连续慢行主线",
    "name_en": "9 km continuous slow-mobility spine",
    "road_class": "greenway",
    "design_note_zh": "全线不断头，是低速接驳与人行共用的连续路权。",
    "design_note_en": "Unbroken; continuous right-of-way shared by pedestrians and low-speed shuttles."
   },
   "geometry": {
    "type": "LineString",
    "coordinates": [
     [
      116.3475,
      39.939
     ],
     [
      116.3475,
      40.0265
     ]
    ]
   }
  },
  {
   "type": "Feature",
   "id": "RD-002",
   "properties": {
    "source_type": "agent_generated_design",
    "confidence": "low",
    "geometry_role": "design_proposal",
    "official_boundary": false,
    "boundary_precision": "provisional_rough",
    "id": "RD-002",
    "layer": "ROAD_CENTERLINE",
    "name_zh": "东西向缝合 · north_3rd_ring",
    "name_en": "East-west stitch at north 3rd ring",
    "road_class": "pedestrian"
   },
   "geometry": {
    "type": "LineString",
    "coordinates": [
     [
      116.33988055555555,
      39.9685
     ],
     [
      116.35502,
      39.9685
     ]
    ]
   }
  },
  {
   "type": "Feature",
   "id": "RD-003",
   "properties": {
    "source_type": "agent_generated_design",
    "confidence": "low",
    "geometry_role": "design_proposal",
    "official_boundary": false,
    "boundary_precision": "provisional_rough",
    "id": "RD-003",
    "layer": "ROAD_CENTERLINE",
    "name_zh": "东西向缝合 · north_4th_ring",
    "name_en": "East-west stitch at north 4th ring",
    "road_class": "pedestrian"
   },
   "geometry": {
    "type": "LineString",
    "coordinates": [
     [
      116.34024838709676,
      39.9835
     ],
     [
      116.35382,
      39.9835
     ]
    ]
   }
  },
  {
   "type": "Feature",
   "id": "RD-004",
   "properties": {
    "source_type": "agent_generated_design",
    "confidence": "low",
    "geometry_role": "design_proposal",
    "official_boundary": false,
    "boundary_precision": "provisional_rough",
    "id": "RD-004",
    "layer": "ROAD_CENTERLINE",
    "name_zh": "东西向缝合 · qinghua_east_rd",
    "name_en": "East-west stitch at qinghua east rd",
    "road_class": "pedestrian"
   },
   "geometry": {
    "type": "LineString",
    "coordinates": [
     [
      116.34121612903226,
      39.9985
     ],
     [
      116.35376575342467,
      39.9985
     ]
    ]
   }
  }
 ]
}