{
 "type": "FeatureCollection",
 "name": "new-hundred-trades",
 "crs": {
  "type": "name",
  "properties": {
   "name": "urn:ogc:def:crs:OGC:1.3:CRS84"
  }
 },
 "features": [
  {
   "type": "Feature",
   "id": "SB-001",
   "properties": {
    "source_type": "agent_inferred_from_public_data",
    "confidence": "low",
    "geometry_role": "provisional_constraint",
    "official_boundary": false,
    "boundary_precision": "provisional_rough",
    "id": "SB-001",
    "layer": "SITE_BOUNDARY",
    "name_zh": "总体设计范围（临时替代边界）",
    "name_en": "Overall design area (provisional surrogate boundary)",
    "note_zh": "官方 polygon 未发布，面积与占比均须在正式数据发布后重算。",
    "note_en": "Official polygon not released; all areas must be recomputed.",
    "area_ha": 1141.28
   },
   "geometry": {
    "type": "Polygon",
    "coordinates": [
     [
      [
       116.3407,
       39.939
      ],
      [
       116.3553,
       39.939
      ],
      [
       116.3553,
       39.965
      ],
      [
       116.3533,
       39.99
      ],
      [
       116.3553,
       40.0265
      ],
      [
       116.3427,
       40.0265
      ],
      [
       116.3417,
       40.006
      ],
      [
       116.3397,
       39.975
      ],
      [
       116.3407,
       39.939
      ]
     ]
    ]
   }
  }
 ]
}