{
 "type": "FeatureCollection",
 "name": "land_use",
 "features": [
  {
   "type": "Feature",
   "id": "LU-ZHON",
   "properties": {
    "id": "LU-ZHON",
    "layer": "LAND_USE",
    "land_use_code": "0802",
    "label_zh": "科研用地",
    "official_boundary": false,
    "geometry_role": "design_proposal",
    "confidence": "low",
    "source_type": "agent_generated_design"
   },
   "geometry": {
    "type": "Polygon",
    "coordinates": [
     [
      [
       116.354,
       40.02600000000001
      ],
      [
       116.354,
       40.00749999999998
      ],
      [
       116.34299999999999,
       40.0075
      ],
      [
       116.34299999999999,
       40.025999999999996
      ],
      [
       116.354,
       40.02600000000001
      ]
     ],
     [
      [
       116.3511954069361,
       40.01528031414083
      ],
      [
       116.35116728173188,
       40.01825005164727
      ],
      [
       116.34580300584268,
       40.018219892778205
      ],
      [
       116.345831363534,
       40.0152501584252
      ],
      [
       116.3511954069361,
       40.01528031414083
      ]
     ]
    ]
   }
  },
  {
   "type": "Feature",
   "id": "LU-BEIJ",
   "properties": {
    "id": "LU-BEIJ",
    "layer": "LAND_USE",
    "land_use_code": "0902",
    "label_zh": "商务金融用地",
    "official_boundary": false,
    "geometry_role": "design_proposal",
    "confidence": "low",
    "source_type": "agent_generated_design"
   },
   "geometry": {
    "type": "Polygon",
    "coordinates": [
     [
      [
       116.34200000000001,
       39.99349999999999
      ],
      [
       116.353,
       39.99349999999998
      ],
      [
       116.353,
       39.9835
      ],
      [
       116.34200000000001,
       39.98349999999999
      ],
      [
       116.34200000000001,
       39.99349999999999
      ]
     ]
    ]
   }
  },
  {
   "type": "Feature",
   "id": "LU-DAZH",
   "properties": {
    "id": "LU-DAZH",
    "layer": "LAND_USE",
    "land_use_code": "0901",
    "label_zh": "商业用地",
    "official_boundary": false,
    "geometry_role": "design_proposal",
    "confidence": "low",
    "source_type": "agent_generated_design"
   },
   "geometry": {
    "type": "Polygon",
    "coordinates": [
     [
      [
       116.34200000000001,
       39.94984
      ],
      [
       116.35500000000002,
       39.94983999999999
      ],
      [
       116.35500000000002,
       39.944
      ],
      [
       116.34200000000001,
       39.943999999999996
      ],
      [
       116.34200000000001,
       39.94984
      ]
     ]
    ]
   }
  },
  {
   "type": "Feature",
   "id": "LU-CORRIDOR",
   "properties": {
    "id": "LU-CORRIDOR",
    "layer": "LAND_USE",
    "land_use_code": "1401",
    "label_zh": "公园绿地(京张遗址公园活力带概念)",
    "official_boundary": false,
    "geometry_role": "design_proposal",
    "confidence": "low",
    "source_type": "agent_generated_design"
   },
   "geometry": {
    "type": "MultiPolygon",
    "coordinates": [
     [
      [
       [
        116.34973446887633,
        39.94984017565352
       ],
       [
        116.34844707721054,
        39.949840182214146
       ],
       [
        116.34761405420812,
        39.983500130440284
       ],
       [
        116.3489020777255,
        39.98350012201596
       ],
       [
        116.34973446887633,
        39.94984017565352
       ]
      ]
     ],
     [
      [
       [
        116.34688245468723,
        40.00750011922647
       ],
       [
        116.3481710846142,
        40.00750013004852
       ],
       [
        116.34861865241753,
        39.99350012510557
       ],
       [
        116.34733028530094,
        39.99350013038002
       ],
       [
        116.34688245468723,
        40.00750011922647
       ]
      ]
     ]
    ]
   }
  },
  {
   "type": "Feature",
   "id": "LU-G00-00",
   "properties": {
    "id": "LU-G00-00",
    "layer": "LAND_USE",
    "land_use_code": "0701",
    "label_zh": "城镇住宅用地",
    "official_boundary": false,
    "geometry_role": "design_proposal",
    "confidence": "low",
    "source_type": "agent_generated_design"
   },
   "geometry": {
    "type": "Polygon",
    "coordinates": [
     [
      [
       116.3397,
       39.975
      ],
      [
       116.34087482873106,
       39.99321290418487
      ],
      [
       116.34200000027236,
       39.99321929756138
      ],
      [
       116.34200000000001,
       39.98349999999999
      ],
      [
       116.34315713666506,
       39.983500049133674
      ],
      [
       116.34333226481712,
       39.965204196379325
      ],
      [
       116.33997276603202,
       39.9651851167327
      ],
      [
       116.3397,
       39.975
      ]
     ]
    ]
   }
  },
  {
   "type": "Feature",
   "id": "LU-G00-01",
   "properties": {
    "id": "LU-G00-01",
    "layer": "LAND_USE",
    "land_use_code": "0701",
    "label_zh": "城镇住宅用地",
    "official_boundary": false,
    "geometry_role": "design_proposal",
    "confidence": "low",
    "source_type": "agent_generated_design"
   },
   "geometry": {
    "type": "Polygon",
    "coordinates": [
     [
      [
       116.34333226481712,
       39.965204196379325
      ],
      [
       116.34347920636057,
       39.94984007350137
      ],
      [
       116.34200000000001,
       39.94984
      ],
      [
       116.34200000000001,
       39.943999999999996
      ],
      [
       116.34353503006331,
       39.944000075902935
      ],
      [
       116.34358281069728,
       39.93900014567839
      ],
      [
       116.34070000000001,
       39.93899999999999
      ],
      [
       116.33997276603202,
       39.9651851167327
      ],
      [
       116.34333226481712,
       39.965204196379325
      ]
     ]
    ]
   }
  },
  {
   "type": "Feature",
   "id": "LU-G00-02",
   "properties": {
    "id": "LU-G00-02",
    "layer": "LAND_USE",
    "land_use_code": "0701",
    "label_zh": "城镇住宅用地",
    "official_boundary": false,
    "geometry_role": "design_proposal",
    "confidence": "low",
    "source_type": "agent_generated_design"
   },
   "geometry": {
    "type": "Polygon",
    "coordinates": [
     [
      [
       116.34333226481712,
       39.965204196379325
      ],
      [
       116.34315713666506,
       39.983500049133674
      ],
      [
       116.34685695584378,
       39.98350012871257
      ],
      [
       116.34703089944603,
       39.965225089476405
      ],
      [
       116.34333226481712,
       39.965204196379325
      ]
     ]
    ]
   }
  },
  {
   "type": "Feature",
   "id": "LU-G01-00",
   "properties": {
    "id": "LU-G01-00",
    "layer": "LAND_USE",
    "land_use_code": "0702",
    "label_zh": "城镇社区服务设施用地",
    "official_boundary": false,
    "geometry_role": "design_proposal",
    "confidence": "low",
    "source_type": "agent_generated_design"
   },
   "geometry": {
    "type": "Polygon",
    "coordinates": [
     [
      [
       116.34717721104428,
       39.9498401746794
      ],
      [
       116.34347920636057,
       39.94984007350137
      ],
      [
       116.34333226481712,
       39.965204196379325
      ],
      [
       116.34703089944603,
       39.965225089476405
      ],
      [
       116.34717721104428,
       39.9498401746794
      ]
     ]
    ]
   }
  },
  {
   "type": "Feature",
   "id": "LU-G02-00",
   "properties": {
    "id": "LU-G02-00",
    "layer": "LAND_USE",
    "land_use_code": "0802",
    "label_zh": "科研用地",
    "official_boundary": false,
    "geometry_role": "design_proposal",
    "confidence": "low",
    "source_type": "agent_generated_design"
   },
   "geometry": {
    "type": "Polygon",
    "coordinates": [
     [
      [
       116.34644704816269,
       40.02650014314067
      ],
      [
       116.34645181990415,
       40.026000112428086
      ],
      [
       116.34299999999999,
       40.025999999999996
      ],
      [
       116.34299999999999,
       40.0075
      ],
      [
       116.346628279372,
       40.00750011539994
      ],
      [
       116.34676170737936,
       39.993500128152725
      ],
      [
       116.3430613486347,
       39.9935000455077
      ],
      [
       116.34274490738854,
       40.026500002432904
      ],
      [
       116.34644704816269,
       40.02650014314067
      ]
     ],
     [
      [
       116.34404193476374,
       39.994259865099515
      ],
      [
       116.34576660232692,
       39.99425990388048
      ],
      [
       116.34564747691263,
       40.006740310809455
      ],
      [
       116.34392249544435,
       40.00674025566472
      ],
      [
       116.34404193476374,
       39.994259865099515
      ]
     ]
    ]
   }
  },
  {
   "type": "Feature",
   "id": "LU-G02-01",
   "properties": {
    "id": "LU-G02-01",
    "layer": "LAND_USE",
    "land_use_code": "0802",
    "label_zh": "科研用地",
    "official_boundary": false,
    "geometry_role": "design_proposal",
    "confidence": "low",
    "source_type": "agent_generated_design"
   },
   "geometry": {
    "type": "Polygon",
    "coordinates": [
     [
      [
       116.3553,
       39.965
      ],
      [
       116.3553,
       39.939
      ],
      [
       116.35290674559754,
       39.93900012599234
      ],
      [
       116.3528596432969,
       39.94400010024676
      ],
      [
       116.35500000000002,
       39.944
      ],
      [
       116.35500000000002,
       39.94983999999999
      ],
      [
       116.35280461255606,
       39.9498401023068
      ],
      [
       116.35265926387008,
       39.96525665691655
      ],
      [
       116.35527830829979,
       39.96527125300529
      ],
      [
       116.3553,
       39.965
      ]
     ],
     [
      [
       116.35368583498833,
       39.94336872803933
      ],
      [
       116.35372099763265,
       39.93963142734237
      ],
      [
       116.35447982438546,
       39.9396313874695
      ],
      [
       116.35447978743535,
       39.9433686897471
      ],
      [
       116.35368583498833,
       39.94336872803933
      ]
     ],
     [
      [
       116.35447952501097,
       39.96463545513542
      ],
      [
       116.35348567227018,
       39.964629916475324
      ],
      [
       116.35361899079896,
       39.95047140669381
      ],
      [
       116.3544797096607,
       39.95047136555534
      ],
      [
       116.35447952501097,
       39.96463545513542
      ]
     ]
    ]
   }
  },
  {
   "type": "Feature",
   "id": "LU-G03-00",
   "properties": {
    "id": "LU-G03-00",
    "layer": "LAND_USE",
    "land_use_code": "0901",
    "label_zh": "商业用地",
    "official_boundary": false,
    "geometry_role": "design_proposal",
    "confidence": "low",
    "source_type": "agent_generated_design"
   },
   "geometry": {
    "type": "Polygon",
    "coordinates": [
     [
      [
       116.34976467534321,
       39.965240456360895
      ],
      [
       116.34959160583634,
       39.983500111623734
      ],
      [
       116.3524871185406,
       39.98350002320312
      ],
      [
       116.35265926387008,
       39.96525665691655
      ],
      [
       116.34976467534321,
       39.965240456360895
      ]
     ]
    ]
   }
  },
  {
   "type": "Feature",
   "id": "LU-G03-01",
   "properties": {
    "id": "LU-G03-01",
    "layer": "LAND_USE",
    "land_use_code": "0901",
    "label_zh": "商业用地",
    "official_boundary": false,
    "geometry_role": "design_proposal",
    "confidence": "low",
    "source_type": "agent_generated_design"
   },
   "geometry": {
    "type": "Polygon",
    "coordinates": [
     [
      [
       116.35280461255606,
       39.949840102306794
      ],
      [
       116.34991051988939,
       39.949840173645114
      ],
      [
       116.34976467534321,
       39.965240456360895
      ],
      [
       116.35265926387008,
       39.96525665691655
      ],
      [
       116.35280461255606,
       39.949840102306794
      ]
     ]
    ]
   }
  },
  {
   "type": "Feature",
   "id": "LU-G04-00",
   "properties": {
    "id": "LU-G04-00",
    "layer": "LAND_USE",
    "land_use_code": "0803",
    "label_zh": "文化用地",
    "official_boundary": false,
    "geometry_role": "design_proposal",
    "confidence": "low",
    "source_type": "agent_generated_design"
   },
   "geometry": {
    "type": "Polygon",
    "coordinates": [
     [
      [
       116.35347986283632,
       39.9932839033892
      ],
      [
       116.3533,
       39.989999999999995
      ],
      [
       116.35527830829979,
       39.9652712530053
      ],
      [
       116.35265926387008,
       39.96525665691655
      ],
      [
       116.3524871185406,
       39.98350002320312
      ],
      [
       116.353,
       39.9835
      ],
      [
       116.35300000021003,
       39.99328122561408
      ],
      [
       116.35347986283632,
       39.9932839033892
      ]
     ]
    ]
   }
  },
  {
   "type": "Feature",
   "id": "LU-G04-01",
   "properties": {
    "id": "LU-G04-01",
    "layer": "LAND_USE",
    "land_use_code": "0803",
    "label_zh": "文化用地",
    "official_boundary": false,
    "geometry_role": "design_proposal",
    "confidence": "low",
    "source_type": "agent_generated_design"
   },
   "geometry": {
    "type": "Polygon",
    "coordinates": [
     [
      [
       116.35239269115586,
       39.993500027229324
      ],
      [
       116.34949675618189,
       39.99350011330344
      ],
      [
       116.34936388661998,
       40.00750012729532
      ],
      [
       116.35226041289164,
       40.00750006950442
      ],
      [
       116.35239269115586,
       39.993500027229324
      ]
     ]
    ]
   }
  },
  {
   "type": "Feature",
   "id": "LU-G05-00",
   "properties": {
    "id": "LU-G05-00",
    "layer": "LAND_USE",
    "land_use_code": "1401",
    "label_zh": "公园绿地",
    "official_boundary": false,
    "geometry_role": "design_proposal",
    "confidence": "low",
    "source_type": "agent_generated_design"
   },
   "geometry": {
    "type": "Polygon",
    "coordinates": [
     [
      [
       116.35208074373674,
       40.02650013031019
      ],
      [
       116.3553,
       40.0265
      ],
      [
       116.35347986283632,
       39.9932839033892
      ],
      [
       116.35300000021003,
       39.99328122561408
      ],
      [
       116.353,
       39.99349999999998
      ],
      [
       116.35239269115586,
       39.993500027229324
      ],
      [
       116.35226041289164,
       40.00750006950442
      ],
      [
       116.354,
       40.007499999999986
      ],
      [
       116.354,
       40.02600000000001
      ],
      [
       116.35208547457388,
       40.02600007505734
      ],
      [
       116.35208074373674,
       40.02650013031019
      ]
     ]
    ]
   }
  },
  {
   "type": "Feature",
   "id": "LU-G05-01",
   "properties": {
    "id": "LU-G05-01",
    "layer": "LAND_USE",
    "land_use_code": "1401",
    "label_zh": "公园绿地",
    "official_boundary": false,
    "geometry_role": "design_proposal",
    "confidence": "low",
    "source_type": "agent_generated_design"
   },
   "geometry": {
    "type": "Polygon",
    "coordinates": [
     [
      [
       116.34087482873106,
       39.99321290418487
      ],
      [
       116.34169999999999,
       40.00600000000001
      ],
      [
       116.34270000000001,
       40.0265
      ],
      [
       116.34274490738854,
       40.026500002432904
      ],
      [
       116.3430613486347,
       39.9935000455077
      ],
      [
       116.34200000000001,
       39.99349999999999
      ],
      [
       116.34200000027236,
       39.99321929756138
      ],
      [
       116.34087482873106,
       39.99321290418487
      ]
     ]
    ]
   }
  },
  {
   "type": "Feature",
   "id": "LU-G05-02",
   "properties": {
    "id": "LU-G05-02",
    "layer": "LAND_USE",
    "land_use_code": "1401",
    "label_zh": "公园绿地",
    "official_boundary": false,
    "geometry_role": "design_proposal",
    "confidence": "low",
    "source_type": "agent_generated_design"
   },
   "geometry": {
    "type": "Polygon",
    "coordinates": [
     [
      [
       116.3472802319381,
       39.939000227592786
      ],
      [
       116.34358281069728,
       39.93900014567839
      ],
      [
       116.34353503006331,
       39.944000075902935
      ],
      [
       116.34723272029684,
       39.94400017529325
      ],
      [
       116.3472802319381,
       39.939000227592786
      ]
     ]
    ]
   }
  },
  {
   "type": "Feature",
   "id": "LU-G05-03",
   "properties": {
    "id": "LU-G05-03",
    "layer": "LAND_USE",
    "land_use_code": "1401",
    "label_zh": "公园绿地",
    "official_boundary": false,
    "geometry_role": "design_proposal",
    "confidence": "low",
    "source_type": "agent_generated_design"
   },
   "geometry": {
    "type": "Polygon",
    "coordinates": [
     [
      [
       116.34844707721054,
       39.949840182214146
      ],
      [
       116.34717721104428,
       39.9498401746794
      ],
      [
       116.34703089944603,
       39.965225089476405
      ],
      [
       116.34806631410883,
       39.96523091725276
      ],
      [
       116.34844707721054,
       39.949840182214146
      ]
     ]
    ]
   }
  },
  {
   "type": "Feature",
   "id": "LU-G05-04",
   "properties": {
    "id": "LU-G05-04",
    "layer": "LAND_USE",
    "land_use_code": "1401",
    "label_zh": "公园绿地",
    "official_boundary": false,
    "geometry_role": "design_proposal",
    "confidence": "low",
    "source_type": "agent_generated_design"
   },
   "geometry": {
    "type": "Polygon",
    "coordinates": [
     [
      [
       116.34703089944603,
       39.965225089476405
      ],
      [
       116.34685695584378,
       39.98350012871257
      ],
      [
       116.34761405420812,
       39.983500130440284
      ],
      [
       116.34806631410883,
       39.96523091725276
      ],
      [
       116.34703089944603,
       39.965225089476405
      ]
     ]
    ]
   }
  },
  {
   "type": "Feature",
   "id": "LU-G05-05",
   "properties": {
    "id": "LU-G05-05",
    "layer": "LAND_USE",
    "land_use_code": "1401",
    "label_zh": "公园绿地",
    "official_boundary": false,
    "geometry_role": "design_proposal",
    "confidence": "low",
    "source_type": "agent_generated_design"
   },
   "geometry": {
    "type": "Polygon",
    "coordinates": [
     [
      [
       116.34949675618189,
       39.99350011330344
      ],
      [
       116.34861865241753,
       39.99350012510557
      ],
      [
       116.3481710846142,
       40.00750013004852
      ],
      [
       116.34936388661998,
       40.00750012729532
      ],
      [
       116.34949675618189,
       39.99350011330344
      ]
     ]
    ]
   }
  },
  {
   "type": "Feature",
   "id": "LU-G05-06",
   "properties": {
    "id": "LU-G05-06",
    "layer": "LAND_USE",
    "land_use_code": "1401",
    "label_zh": "公园绿地",
    "official_boundary": false,
    "geometry_role": "design_proposal",
    "confidence": "low",
    "source_type": "agent_generated_design"
   },
   "geometry": {
    "type": "Polygon",
    "coordinates": [
     [
      [
       116.35290674559754,
       39.93900012599234
      ],
      [
       116.3500131095413,
       39.939000212349114
      ],
      [
       116.34996579672206,
       39.94400017295322
      ],
      [
       116.3528596432969,
       39.94400010024676
      ],
      [
       116.35290674559754,
       39.93900012599234
      ]
     ]
    ]
   }
  },
  {
   "type": "Feature",
   "id": "LU-G05-07",
   "properties": {
    "id": "LU-G05-07",
    "layer": "LAND_USE",
    "land_use_code": "1401",
    "label_zh": "公园绿地",
    "official_boundary": false,
    "geometry_role": "design_proposal",
    "confidence": "low",
    "source_type": "agent_generated_design"
   },
   "geometry": {
    "type": "Polygon",
    "coordinates": [
     [
      [
       116.3500131095413,
       39.939000212349114
      ],
      [
       116.3472802319381,
       39.939000227592786
      ],
      [
       116.34723272029684,
       39.94400017529325
      ],
      [
       116.34996579672206,
       39.94400017295322
      ],
      [
       116.3500131095413,
       39.939000212349114
      ]
     ]
    ]
   }
  },
  {
   "type": "Feature",
   "id": "LU-G05-08",
   "properties": {
    "id": "LU-G05-08",
    "layer": "LAND_USE",
    "land_use_code": "1401",
    "label_zh": "公园绿地",
    "official_boundary": false,
    "geometry_role": "design_proposal",
    "confidence": "low",
    "source_type": "agent_generated_design"
   },
   "geometry": {
    "type": "Polygon",
    "coordinates": [
     [
      [
       116.34935381549145,
       39.9652381509849
      ],
      [
       116.3489020777255,
       39.98350012201596
      ],
      [
       116.34959160583634,
       39.983500111623734
      ],
      [
       116.34976467534321,
       39.965240456360895
      ],
      [
       116.34935381549145,
       39.9652381509849
      ]
     ]
    ]
   }
  },
  {
   "type": "Feature",
   "id": "LU-G05-09",
   "properties": {
    "id": "LU-G05-09",
    "layer": "LAND_USE",
    "land_use_code": "1401",
    "label_zh": "公园绿地",
    "official_boundary": false,
    "geometry_role": "design_proposal",
    "confidence": "low",
    "source_type": "agent_generated_design"
   },
   "geometry": {
    "type": "Polygon",
    "coordinates": [
     [
      [
       116.346628279372,
       40.00750011539995
      ],
      [
       116.34688245468723,
       40.00750011922647
      ],
      [
       116.34733028530094,
       39.99350013038002
      ],
      [
       116.34676170737936,
       39.993500128152725
      ],
      [
       116.346628279372,
       40.00750011539995
      ]
     ]
    ]
   }
  },
  {
   "type": "Feature",
   "id": "LU-G05-10",
   "properties": {
    "id": "LU-G05-10",
    "layer": "LAND_USE",
    "land_use_code": "1401",
    "label_zh": "公园绿地",
    "official_boundary": false,
    "geometry_role": "design_proposal",
    "confidence": "low",
    "source_type": "agent_generated_design"
   },
   "geometry": {
    "type": "Polygon",
    "coordinates": [
     [
      [
       116.34991051988939,
       39.949840173645114
      ],
      [
       116.34973446887633,
       39.94984017565352
      ],
      [
       116.34935381549145,
       39.9652381509849
      ],
      [
       116.34976467534321,
       39.965240456360895
      ],
      [
       116.34991051988939,
       39.949840173645114
      ]
     ]
    ]
   }
  },
  {
   "type": "Feature",
   "id": "LU-G05-11",
   "properties": {
    "id": "LU-G05-11",
    "layer": "LAND_USE",
    "land_use_code": "1401",
    "label_zh": "公园绿地",
    "official_boundary": false,
    "geometry_role": "design_proposal",
    "confidence": "low",
    "source_type": "agent_generated_design"
   },
   "geometry": {
    "type": "Polygon",
    "coordinates": [
     [
      [
       116.34918341412202,
       40.026500171119075
      ],
      [
       116.35208074373674,
       40.02650013031019
      ],
      [
       116.35208547457388,
       40.02600007505734
      ],
      [
       116.34918816599618,
       40.02600012848633
      ],
      [
       116.34918341412202,
       40.026500171119075
      ]
     ]
    ]
   }
  },
  {
   "type": "Feature",
   "id": "LU-G05-12",
   "properties": {
    "id": "LU-G05-12",
    "layer": "LAND_USE",
    "land_use_code": "1401",
    "label_zh": "公园绿地",
    "official_boundary": false,
    "geometry_role": "design_proposal",
    "confidence": "low",
    "source_type": "agent_generated_design"
   },
   "geometry": {
    "type": "Polygon",
    "coordinates": [
     [
      [
       116.34644704816269,
       40.02650014314067
      ],
      [
       116.34918341412202,
       40.026500171119075
      ],
      [
       116.34918816599618,
       40.02600012848633
      ],
      [
       116.34645181990415,
       40.026000112428086
      ],
      [
       116.34644704816269,
       40.02650014314067
      ]
     ]
    ]
   }
  },
  {
   "type": "Feature",
   "id": "LU-ROAD-00",
   "properties": {
    "id": "LU-ZHON",
    "layer": "LAND_USE",
    "land_use_code": "1207",
    "label_zh": "城镇村道路用地（概念）",
    "official_boundary": false,
    "geometry_role": "design_proposal",
    "confidence": "low",
    "source_type": "agent_generated_design",
    "note": "category implemented in round-2 repair (interior re-cut, union-preserving) so the conceptual 9-category table is visible on the map"
   },
   "geometry": {
    "type": "Polygon",
    "coordinates": [
     [
      [
       116.345831363534,
       40.0152501584252
      ],
      [
       116.34580300584268,
       40.018219892778205
      ],
      [
       116.35116728173188,
       40.01825005164727
      ],
      [
       116.3511954069361,
       40.01528031414083
      ],
      [
       116.345831363534,
       40.0152501584252
      ]
     ]
    ]
   }
  },
  {
   "type": "Feature",
   "id": "LU-EDU-00",
   "properties": {
    "id": "LU-G02-00",
    "layer": "LAND_USE",
    "land_use_code": "0804",
    "label_zh": "教育科研设计用地（概念）",
    "official_boundary": false,
    "geometry_role": "design_proposal",
    "confidence": "low",
    "source_type": "agent_generated_design",
    "note": "category implemented in round-2 repair (interior re-cut, union-preserving) so the conceptual 9-category table is visible on the map"
   },
   "geometry": {
    "type": "Polygon",
    "coordinates": [
     [
      [
       116.34392249544435,
       40.00674025566472
      ],
      [
       116.34564747691263,
       40.006740310809455
      ],
      [
       116.34576660232692,
       39.99425990388048
      ],
      [
       116.34404193476374,
       39.994259865099515
      ],
      [
       116.34392249544435,
       40.00674025566472
      ]
     ]
    ]
   }
  },
  {
   "type": "Feature",
   "id": "LU-RESV-00",
   "properties": {
    "id": "LU-G02-01",
    "layer": "LAND_USE",
    "land_use_code": "16",
    "label_zh": "留白用地（概念）",
    "official_boundary": false,
    "geometry_role": "design_proposal",
    "confidence": "low",
    "source_type": "agent_generated_design",
    "note": "category implemented in round-2 repair (interior re-cut, union-preserving) so the conceptual 9-category table is visible on the map"
   },
   "geometry": {
    "type": "MultiPolygon",
    "coordinates": [
     [
      [
       [
        116.35447978743535,
        39.9433686897471
       ],
       [
        116.35447982438546,
        39.9396313874695
       ],
       [
        116.35372099763265,
        39.93963142734237
       ],
       [
        116.35368583498833,
        39.94336872803933
       ],
       [
        116.35447978743535,
        39.9433686897471
       ]
      ]
     ],
     [
      [
       [
        116.3544797096607,
        39.95047136555534
       ],
       [
        116.35361899079896,
        39.95047140669381
       ],
       [
        116.35348567227018,
        39.964629916475324
       ],
       [
        116.35447952501097,
        39.96463545513542
       ],
       [
        116.3544797096607,
        39.95047136555534
       ]
      ]
     ]
    ]
   }
  }
 ]
}