{
  "type": "FeatureCollection",
  "name": "open_weave_constraints_gap",
  "features": [],
  "data_gap": {
    "status": "official_constraint_geometry_unavailable",
    "assumption_ids": [
      "A-CONTROLS-001",
      "A-HERITAGE-001"
    ],
    "missing_layers": [
      "REGULATORY_CONTROL",
      "HERITAGE_PROTECTION",
      "PARCEL",
      "EXISTING_PRIMARY_ROAD",
      "EXISTING_RAIL",
      "EXISTING_WATER"
    ],
    "note_zh": "官方控规、文保、权属、道路、轨道和水系几何仍未公开；本空图层优于编造 official_constraint。",
    "note_en": "Official control, heritage, cadastral, road, rail and water geometries are not public in the site package; an empty layer is preferred to fabricated official constraints."
  }
}
