{
  "type": "FeatureCollection",
  "name": "open_weave_green_network",
  "metadata": {
    "note": "design proposal; official water and green-line controls remain pending"
  },
  "features": [
    {
      "type": "Feature",
      "id": "GREEN-001",
      "properties": {
        "id": "GREEN-001",
        "layer": "GREEN_SPACE",
        "source_type": "agent_generated_design",
        "confidence": "medium",
        "geometry_role": "design_proposal",
        "label_zh": "京张遗址公园蓝绿主轴",
        "label_en": "Jingzhang heritage blue-green spine",
        "land_use_code": "1401",
        "network_role": "blue-green-seam",
        "area_sqm_declared": 1596158.767
      },
      "geometry": {
        "type": "Polygon",
        "coordinates": [
          [
            [
              116.3462,
              40.0265
            ],
            [
              116.3462,
              39.95
            ],
            [
              116.344,
              39.95
            ],
            [
              116.344,
              40.0265
            ],
            [
              116.3462,
              40.0265
            ]
          ]
        ]
      }
    },
    {
      "type": "Feature",
      "id": "GREEN-002",
      "properties": {
        "id": "GREEN-002",
        "layer": "GREEN_SPACE",
        "source_type": "agent_generated_design",
        "confidence": "medium",
        "geometry_role": "design_proposal",
        "label_zh": "众智园清河创新界面",
        "label_en": "Qinghe innovation edge",
        "land_use_code": "1401",
        "network_role": "blue-green-seam",
        "area_sqm_declared": 328513.973
      },
      "geometry": {
        "type": "Polygon",
        "coordinates": [
          [
            [
              116.3513,
              40.0265
            ],
            [
              116.3513,
              39.995
            ],
            [
              116.3502,
              39.995
            ],
            [
              116.3502,
              40.0265
            ],
            [
              116.3513,
              40.0265
            ]
          ]
        ]
      }
    },
    {
      "type": "Feature",
      "id": "GREEN-003",
      "properties": {
        "id": "GREEN-003",
        "layer": "GREEN_SPACE",
        "source_type": "agent_generated_design",
        "confidence": "medium",
        "geometry_role": "design_proposal",
        "label_zh": "大钟寺城市绿缝",
        "label_en": "Dazhongsi urban green seam",
        "land_use_code": "1401",
        "network_role": "blue-green-seam",
        "area_sqm_declared": 323561.581
      },
      "geometry": {
        "type": "Polygon",
        "coordinates": [
          [
            [
              116.3502,
              39.939
            ],
            [
              116.3502,
              39.97
            ],
            [
              116.3513,
              39.97
            ],
            [
              116.3513,
              39.939
            ],
            [
              116.3502,
              39.939
            ]
          ]
        ]
      }
    },
    {
      "type": "Feature",
      "id": "GREEN-004",
      "properties": {
        "id": "GREEN-004",
        "layer": "GREEN_SPACE",
        "source_type": "agent_generated_design",
        "confidence": "medium",
        "geometry_role": "design_proposal",
        "label_zh": "原点社区口袋花园串联",
        "label_en": "Origin community pocket-garden chain",
        "land_use_code": "1401",
        "network_role": "blue-green-seam",
        "area_sqm_declared": 193484.154
      },
      "geometry": {
        "type": "Polygon",
        "coordinates": [
          [
            [
              116.3474,
              39.976
            ],
            [
              116.3474,
              39.993
            ],
            [
              116.3486,
              39.993
            ],
            [
              116.3486,
              39.976
            ],
            [
              116.3474,
              39.976
            ]
          ]
        ]
      }
    }
  ]
}
