{
  "type": "FeatureCollection",
  "name": "open_weave_land_use_partition",
  "metadata": {
    "topology": "same-site-stripe-intersections",
    "crs": "EPSG:4326"
  },
  "features": [
    {
      "type": "Feature",
      "id": "LU-001",
      "properties": {
        "id": "LU-001",
        "layer": "LAND_USE",
        "source_type": "agent_generated_design",
        "confidence": "medium",
        "geometry_role": "design_proposal",
        "label_zh": "科研与开源研发混合带",
        "label_en": "Research and Open-source R&D band",
        "land_use_code": "0802",
        "design_intent": "open-weave-structure",
        "area_sqm_declared": 2452144.851
      },
      "geometry": {
        "type": "Polygon",
        "coordinates": [
          [
            [
              116.3407,
              39.939
            ],
            [
              116.3397,
              39.975
            ],
            [
              116.3417,
              40.006
            ],
            [
              116.3427,
              40.0265
            ],
            [
              116.3438,
              40.0265
            ],
            [
              116.3438,
              39.939
            ],
            [
              116.3407,
              39.939
            ]
          ]
        ]
      }
    },
    {
      "type": "Feature",
      "id": "LU-002",
      "properties": {
        "id": "LU-002",
        "layer": "LAND_USE",
        "source_type": "agent_generated_design",
        "confidence": "medium",
        "geometry_role": "design_proposal",
        "label_zh": "遗址公园与蓝绿公共空间",
        "label_en": "Heritage park and blue-green commons",
        "land_use_code": "1401",
        "design_intent": "open-weave-structure",
        "area_sqm_declared": 2655732.695
      },
      "geometry": {
        "type": "Polygon",
        "coordinates": [
          [
            [
              116.3438,
              39.939
            ],
            [
              116.3438,
              40.0265
            ],
            [
              116.347,
              40.0265
            ],
            [
              116.347,
              39.939
            ],
            [
              116.3438,
              39.939
            ]
          ]
        ]
      }
    },
    {
      "type": "Feature",
      "id": "LU-003",
      "properties": {
        "id": "LU-003",
        "layer": "LAND_USE",
        "source_type": "agent_generated_design",
        "confidence": "medium",
        "geometry_role": "design_proposal",
        "label_zh": "文化展示与创新交往",
        "label_en": "Culture, exhibition and innovation commons",
        "land_use_code": "0803",
        "design_intent": "open-weave-structure",
        "area_sqm_declared": 2987696.901
      },
      "geometry": {
        "type": "Polygon",
        "coordinates": [
          [
            [
              116.347,
              39.939
            ],
            [
              116.347,
              40.0265
            ],
            [
              116.3506,
              40.0265
            ],
            [
              116.3506,
              39.939
            ],
            [
              116.347,
              39.939
            ]
          ]
        ]
      }
    },
    {
      "type": "Feature",
      "id": "LU-004",
      "properties": {
        "id": "LU-004",
        "layer": "LAND_USE",
        "source_type": "agent_generated_design",
        "confidence": "medium",
        "geometry_role": "design_proposal",
        "label_zh": "企业服务与国际路演",
        "label_en": "Enterprise services and global demo space",
        "land_use_code": "09",
        "design_intent": "open-weave-structure",
        "area_sqm_declared": 1991796.54
      },
      "geometry": {
        "type": "Polygon",
        "coordinates": [
          [
            [
              116.3506,
              39.939
            ],
            [
              116.3506,
              40.0265
            ],
            [
              116.353,
              40.0265
            ],
            [
              116.353,
              39.939
            ],
            [
              116.3506,
              39.939
            ]
          ]
        ]
      }
    },
    {
      "type": "Feature",
      "id": "LU-005",
      "properties": {
        "id": "LU-005",
        "layer": "LAND_USE",
        "source_type": "agent_generated_design",
        "confidence": "medium",
        "geometry_role": "design_proposal",
        "label_zh": "社区服务与人才生活",
        "label_en": "Community services and talent life",
        "land_use_code": "0702",
        "design_intent": "open-weave-structure",
        "area_sqm_declared": 1325461.798
      },
      "geometry": {
        "type": "Polygon",
        "coordinates": [
          [
            [
              116.3553,
              40.0265
            ],
            [
              116.3533,
              39.99
            ],
            [
              116.3553,
              39.965
            ],
            [
              116.3553,
              39.939
            ],
            [
              116.353,
              39.939
            ],
            [
              116.353,
              40.0265
            ],
            [
              116.3553,
              40.0265
            ]
          ]
        ]
      }
    }
  ]
}
