{
  "type": "FeatureCollection",
  "name": "open_weave_phasing_framework",
  "metadata": {
    "note": "conceptual sequencing, not a government implementation commitment"
  },
  "features": [
    {
      "type": "Feature",
      "id": "PHASE-001",
      "properties": {
        "id": "PHASE-001",
        "layer": "PHASE",
        "source_type": "agent_generated_design",
        "confidence": "medium",
        "geometry_role": "design_proposal",
        "label_zh": "先行：轻量公共空间与步行连续性",
        "label_en": "Phase 1: light public-space and walking continuity",
        "phase": "phase_1",
        "dependency": "official boundary, controls, rights and professional review",
        "area_sqm_declared": 4696433.999
      },
      "geometry": {
        "type": "Polygon",
        "coordinates": [
          [
            [
              116.3553,
              39.965
            ],
            [
              116.3553,
              39.939
            ],
            [
              116.3407,
              39.939
            ],
            [
              116.33978333333333,
              39.972
            ],
            [
              116.35474,
              39.972
            ],
            [
              116.3553,
              39.965
            ]
          ]
        ]
      }
    },
    {
      "type": "Feature",
      "id": "PHASE-002",
      "properties": {
        "id": "PHASE-002",
        "layer": "PHASE",
        "source_type": "agent_generated_design",
        "confidence": "medium",
        "geometry_role": "design_proposal",
        "label_zh": "协同：场景测试与社区服务",
        "label_en": "Phase 2: scenario pilots and community services",
        "phase": "phase_2",
        "dependency": "official boundary, controls, rights and professional review",
        "area_sqm_declared": 3924345.531
      },
      "geometry": {
        "type": "Polygon",
        "coordinates": [
          [
            [
              116.3533,
              39.99
            ],
            [
              116.35474,
              39.972
            ],
            [
              116.33978333333333,
              39.972
            ],
            [
              116.3397,
              39.975
            ],
            [
              116.3415064516129,
              40.003
            ],
            [
              116.35401232876713,
              40.003
            ],
            [
              116.3533,
              39.99
            ]
          ]
        ]
      }
    },
    {
      "type": "Feature",
      "id": "PHASE-003",
      "properties": {
        "id": "PHASE-003",
        "layer": "PHASE",
        "source_type": "agent_generated_design",
        "confidence": "medium",
        "geometry_role": "design_proposal",
        "label_zh": "深化：产业协同与长期运营",
        "label_en": "Phase 3: ecosystem integration and long-term operations",
        "phase": "phase_3",
        "dependency": "official boundary, controls, rights and professional review",
        "area_sqm_declared": 2792062.308
      },
      "geometry": {
        "type": "Polygon",
        "coordinates": [
          [
            [
              116.3417,
              40.006
            ],
            [
              116.3427,
              40.0265
            ],
            [
              116.3553,
              40.0265
            ],
            [
              116.35401232876713,
              40.003
            ],
            [
              116.3415064516129,
              40.003
            ],
            [
              116.3417,
              40.006
            ]
          ]
        ]
      }
    }
  ]
}
