{
  "type": "FeatureCollection",
  "name": "open_weave_public_space_nodes",
  "metadata": {
    "note": "conceptual public-space nodes; accessibility and safety to be professionally confirmed"
  },
  "features": [
    {
      "type": "Feature",
      "id": "PUBLIC-001",
      "properties": {
        "id": "PUBLIC-001",
        "layer": "PUBLIC_SPACE",
        "source_type": "agent_generated_design",
        "confidence": "medium",
        "geometry_role": "design_proposal",
        "label_zh": "众智园开源广场",
        "label_en": "Zhongzhiyuan open-source plaza",
        "public_space_type": "commons-node",
        "accessibility": "step-free route to be confirmed",
        "area_sqm_declared": 41712.839
      },
      "geometry": {
        "type": "Polygon",
        "coordinates": [
          [
            [
              116.3439,
              40.0152
            ],
            [
              116.3439,
              40.017199999999995
            ],
            [
              116.34609999999999,
              40.017199999999995
            ],
            [
              116.34609999999999,
              40.0152
            ],
            [
              116.3439,
              40.0152
            ]
          ]
        ]
      }
    },
    {
      "type": "Feature",
      "id": "PUBLIC-002",
      "properties": {
        "id": "PUBLIC-002",
        "layer": "PUBLIC_SPACE",
        "source_type": "agent_generated_design",
        "confidence": "medium",
        "geometry_role": "design_proposal",
        "label_zh": "原点社区共学庭院",
        "label_en": "Origin community learning court",
        "public_space_type": "commons-node",
        "accessibility": "step-free route to be confirmed",
        "area_sqm_declared": 41729.534
      },
      "geometry": {
        "type": "Polygon",
        "coordinates": [
          [
            [
              116.34670000000001,
              39.989399999999996
            ],
            [
              116.3489,
              39.989399999999996
            ],
            [
              116.3489,
              39.9874
            ],
            [
              116.34670000000001,
              39.9874
            ],
            [
              116.34670000000001,
              39.989399999999996
            ]
          ]
        ]
      }
    },
    {
      "type": "Feature",
      "id": "PUBLIC-003",
      "properties": {
        "id": "PUBLIC-003",
        "layer": "PUBLIC_SPACE",
        "source_type": "agent_generated_design",
        "confidence": "medium",
        "geometry_role": "design_proposal",
        "label_zh": "大钟寺四象限共享前场",
        "label_en": "Dazhongsi four-quadrant commons",
        "public_space_type": "commons-node",
        "accessibility": "step-free route to be confirmed",
        "area_sqm_declared": 41754.58
      },
      "geometry": {
        "type": "Polygon",
        "coordinates": [
          [
            [
              116.3486,
              39.9477
            ],
            [
              116.35079999999999,
              39.9477
            ],
            [
              116.35079999999999,
              39.9457
            ],
            [
              116.3486,
              39.9457
            ],
            [
              116.3486,
              39.9477
            ]
          ]
        ]
      }
    },
    {
      "type": "Feature",
      "id": "PUBLIC-004",
      "properties": {
        "id": "PUBLIC-004",
        "layer": "PUBLIC_SPACE",
        "source_type": "agent_generated_design",
        "confidence": "medium",
        "geometry_role": "design_proposal",
        "label_zh": "京张贡献墙节点",
        "label_en": "Jingzhang contribution-wall node",
        "public_space_type": "commons-node",
        "accessibility": "step-free route to be confirmed",
        "area_sqm_declared": 41720.741
      },
      "geometry": {
        "type": "Polygon",
        "coordinates": [
          [
            [
              116.34790000000001,
              40.004
            ],
            [
              116.3501,
              40.004
            ],
            [
              116.3501,
              40.002
            ],
            [
              116.34790000000001,
              40.002
            ],
            [
              116.34790000000001,
              40.004
            ]
          ]
        ]
      }
    },
    {
      "type": "Feature",
      "id": "PUBLIC-005",
      "properties": {
        "id": "PUBLIC-005",
        "layer": "PUBLIC_SPACE",
        "source_type": "agent_generated_design",
        "confidence": "medium",
        "geometry_role": "design_proposal",
        "label_zh": "企业服务会客厅",
        "label_en": "Enterprise service living room",
        "public_space_type": "commons-node",
        "accessibility": "step-free route to be confirmed",
        "area_sqm_declared": 41744.762
      },
      "geometry": {
        "type": "Polygon",
        "coordinates": [
          [
            [
              116.351,
              39.964
            ],
            [
              116.35319999999999,
              39.964
            ],
            [
              116.35319999999999,
              39.962
            ],
            [
              116.351,
              39.962
            ],
            [
              116.351,
              39.964
            ]
          ]
        ]
      }
    },
    {
      "type": "Feature",
      "id": "PUBLIC-006",
      "properties": {
        "id": "PUBLIC-006",
        "layer": "PUBLIC_SPACE",
        "source_type": "agent_generated_design",
        "confidence": "medium",
        "geometry_role": "design_proposal",
        "label_zh": "遗址故事驿站",
        "label_en": "Heritage story stop",
        "public_space_type": "commons-node",
        "accessibility": "step-free route to be confirmed",
        "area_sqm_declared": 41735.814
      },
      "geometry": {
        "type": "Polygon",
        "coordinates": [
          [
            [
              116.3439,
              39.979
            ],
            [
              116.34609999999999,
              39.979
            ],
            [
              116.34609999999999,
              39.977000000000004
            ],
            [
              116.3439,
              39.977000000000004
            ],
            [
              116.3439,
              39.979
            ]
          ]
        ]
      }
    }
  ]
}
