{
  "type": "FeatureCollection",
  "name": "open_weave_mobility_network",
  "metadata": {
    "note": "conceptual slow-mobility and station-connection lines; not approved road alignments"
  },
  "features": [
    {
      "type": "Feature",
      "id": "ROAD-001",
      "properties": {
        "id": "ROAD-001",
        "layer": "ROAD_CENTERLINE",
        "source_type": "agent_generated_design",
        "confidence": "medium",
        "geometry_role": "design_proposal",
        "label_zh": "京张遗址慢行主轴",
        "label_en": "Jingzhang heritage slow-mobility spine",
        "road_class": "greenway",
        "usage_note": "conceptual centerline; not an engineering redline"
      },
      "geometry": {
        "type": "LineString",
        "coordinates": [
          [
            116.345,
            39.94
          ],
          [
            116.345,
            39.969
          ],
          [
            116.345,
            39.988
          ],
          [
            116.345,
            40.016
          ],
          [
            116.345,
            40.0265
          ]
        ]
      }
    },
    {
      "type": "Feature",
      "id": "ROAD-002",
      "properties": {
        "id": "ROAD-002",
        "layer": "ROAD_CENTERLINE",
        "source_type": "agent_generated_design",
        "confidence": "medium",
        "geometry_role": "design_proposal",
        "label_zh": "东翼骑行服务线",
        "label_en": "East-wing cycle service line",
        "road_class": "cycleway",
        "usage_note": "conceptual centerline; not an engineering redline"
      },
      "geometry": {
        "type": "LineString",
        "coordinates": [
          [
            116.351,
            39.94
          ],
          [
            116.351,
            39.97
          ],
          [
            116.351,
            39.988
          ],
          [
            116.351,
            40.016
          ],
          [
            116.351,
            40.0265
          ]
        ]
      }
    },
    {
      "type": "Feature",
      "id": "ROAD-003",
      "properties": {
        "id": "ROAD-003",
        "layer": "ROAD_CENTERLINE",
        "source_type": "agent_generated_design",
        "confidence": "medium",
        "geometry_role": "design_proposal",
        "label_zh": "原点社区横向接驳线",
        "label_en": "Origin community cross-link",
        "road_class": "transit_connection",
        "usage_note": "conceptual centerline; not an engineering redline"
      },
      "geometry": {
        "type": "LineString",
        "coordinates": [
          [
            116.341,
            39.988
          ],
          [
            116.35346,
            39.988
          ]
        ]
      }
    },
    {
      "type": "Feature",
      "id": "ROAD-004",
      "properties": {
        "id": "ROAD-004",
        "layer": "ROAD_CENTERLINE",
        "source_type": "agent_generated_design",
        "confidence": "medium",
        "geometry_role": "design_proposal",
        "label_zh": "众智园开放测试横向线",
        "label_en": "Zhongzhiyuan open-test cross-link",
        "road_class": "pedestrian",
        "usage_note": "conceptual centerline; not an engineering redline"
      },
      "geometry": {
        "type": "LineString",
        "coordinates": [
          [
            116.34218780487805,
            40.016
          ],
          [
            116.35472465753425,
            40.016
          ]
        ]
      }
    },
    {
      "type": "Feature",
      "id": "ROAD-005",
      "properties": {
        "id": "ROAD-005",
        "layer": "ROAD_CENTERLINE",
        "source_type": "agent_generated_design",
        "confidence": "medium",
        "geometry_role": "design_proposal",
        "label_zh": "大钟寺四象限步行线",
        "label_en": "Dazhongsi four-quadrant walking link",
        "road_class": "pedestrian",
        "usage_note": "conceptual centerline; not an engineering redline"
      },
      "geometry": {
        "type": "LineString",
        "coordinates": [
          [
            116.341,
            39.9465
          ],
          [
            116.3553,
            39.9465
          ]
        ]
      }
    }
  ]
}
