{
  "type": "FeatureCollection",
  "features": [
    {
      "type": "Feature",
      "id": "GREEN-001",
      "properties": {
        "id": "GREEN-001",
        "layer": "GREEN_SPACE",
        "source_type": "agent_generated_design",
        "confidence": "low",
        "geometry_role": "design_proposal",
        "land_use_code": "1402",
        "name_zh": "东侧蓝绿防护界面（概念示意）",
        "area_sqm_declared": 216029.87
      },
      "geometry": {
        "type": "Polygon",
        "coordinates": [
          [
            [
              116.3553,
              39.939
            ],
            [
              116.3532,
              39.939
            ],
            [
              116.3532,
              39.94984
            ],
            [
              116.3553,
              39.94984
            ],
            [
              116.3553,
              39.939
            ]
          ]
        ]
      }
    },
    {
      "type": "Feature",
      "id": "GREEN-002",
      "properties": {
        "id": "GREEN-002",
        "layer": "GREEN_SPACE",
        "source_type": "agent_generated_design",
        "confidence": "low",
        "geometry_role": "design_proposal",
        "land_use_code": "1402",
        "name_zh": "东侧蓝绿防护界面（概念示意）",
        "area_sqm_declared": 540744.879
      },
      "geometry": {
        "type": "Polygon",
        "coordinates": [
          [
            [
              116.3553,
              39.965
            ],
            [
              116.3553,
              39.94984
            ],
            [
              116.3532,
              39.94984
            ],
            [
              116.3532,
              39.9835
            ],
            [
              116.35382,
              39.9835
            ],
            [
              116.3553,
              39.965
            ]
          ]
        ]
      }
    },
    {
      "type": "Feature",
      "id": "GREEN-003",
      "properties": {
        "id": "GREEN-003",
        "layer": "GREEN_SPACE",
        "source_type": "agent_generated_design",
        "confidence": "low",
        "geometry_role": "design_proposal",
        "land_use_code": "1402",
        "name_zh": "东侧蓝绿防护界面（概念示意）",
        "area_sqm_declared": 28695.649
      },
      "geometry": {
        "type": "Polygon",
        "coordinates": [
          [
            [
              116.3533,
              39.99
            ],
            [
              116.35382,
              39.9835
            ],
            [
              116.3532,
              39.9835
            ],
            [
              116.3532,
              39.9935
            ],
            [
              116.35349178082193,
              39.9935
            ],
            [
              116.3533,
              39.99
            ]
          ]
        ]
      }
    },
    {
      "type": "Feature",
      "id": "GREEN-004",
      "properties": {
        "id": "GREEN-004",
        "layer": "GREEN_SPACE",
        "source_type": "agent_generated_design",
        "confidence": "low",
        "geometry_role": "design_proposal",
        "land_use_code": "1402",
        "name_zh": "东侧蓝绿防护界面（概念示意）",
        "area_sqm_declared": 89648.176
      },
      "geometry": {
        "type": "Polygon",
        "coordinates": [
          [
            [
              116.35349178082193,
              39.9935
            ],
            [
              116.3532,
              39.9935
            ],
            [
              116.3532,
              40.0075
            ],
            [
              116.35425890410959,
              40.0075
            ],
            [
              116.35349178082193,
              39.9935
            ]
          ]
        ]
      }
    },
    {
      "type": "Feature",
      "id": "GREEN-005",
      "properties": {
        "id": "GREEN-005",
        "layer": "GREEN_SPACE",
        "source_type": "agent_generated_design",
        "confidence": "low",
        "geometry_role": "design_proposal",
        "land_use_code": "1402",
        "name_zh": "东侧蓝绿防护界面（概念示意）",
        "area_sqm_declared": 284479.785
      },
      "geometry": {
        "type": "Polygon",
        "coordinates": [
          [
            [
              116.35425890410959,
              40.0075
            ],
            [
              116.3532,
              40.0075
            ],
            [
              116.3532,
              40.0265
            ],
            [
              116.3553,
              40.0265
            ],
            [
              116.35425890410959,
              40.0075
            ]
          ]
        ]
      }
    },
    {
      "type": "Feature",
      "id": "GREEN-006",
      "properties": {
        "id": "GREEN-006",
        "layer": "GREEN_SPACE",
        "source_type": "agent_generated_design",
        "confidence": "low",
        "geometry_role": "design_proposal",
        "land_use_code": "1401",
        "name_zh": "京张遗址公园绿廊段（b1_dazhongsi）",
        "area_sqm_declared": 138782.638
      },
      "geometry": {
        "type": "MultiPolygon",
        "coordinates": [
          [
            [
              [
                116.3484,
                39.9462
              ],
              [
                116.3484,
                39.939
              ],
              [
                116.3468,
                39.939
              ],
              [
                116.3468,
                39.9462
              ],
              [
                116.3484,
                39.9462
              ]
            ]
          ],
          [
            [
              [
                116.3484,
                39.9479
              ],
              [
                116.3468,
                39.9479
              ],
              [
                116.3468,
                39.94984
              ],
              [
                116.3484,
                39.94984
              ],
              [
                116.3484,
                39.9479
              ]
            ]
          ]
        ]
      }
    },
    {
      "type": "Feature",
      "id": "GREEN-007",
      "properties": {
        "id": "GREEN-007",
        "layer": "GREEN_SPACE",
        "source_type": "agent_generated_design",
        "confidence": "low",
        "geometry_role": "design_proposal",
        "land_use_code": "1401",
        "name_zh": "京张遗址公园绿廊段（b2_south_mid）",
        "area_sqm_declared": 510929.399
      },
      "geometry": {
        "type": "Polygon",
        "coordinates": [
          [
            [
              116.3484,
              39.94984
            ],
            [
              116.3468,
              39.94984
            ],
            [
              116.3468,
              39.9835
            ],
            [
              116.3484,
              39.9835
            ],
            [
              116.3484,
              39.94984
            ]
          ]
        ]
      }
    },
    {
      "type": "Feature",
      "id": "GREEN-008",
      "properties": {
        "id": "GREEN-008",
        "layer": "GREEN_SPACE",
        "source_type": "agent_generated_design",
        "confidence": "low",
        "geometry_role": "design_proposal",
        "land_use_code": "1401",
        "name_zh": "京张遗址公园绿廊段（b3_origin）",
        "area_sqm_declared": 151743.547
      },
      "geometry": {
        "type": "Polygon",
        "coordinates": [
          [
            [
              116.3484,
              39.9835
            ],
            [
              116.3468,
              39.9835
            ],
            [
              116.3468,
              39.9935
            ],
            [
              116.3484,
              39.9935
            ],
            [
              116.3484,
              39.9835
            ]
          ]
        ]
      }
    },
    {
      "type": "Feature",
      "id": "GREEN-009",
      "properties": {
        "id": "GREEN-009",
        "layer": "GREEN_SPACE",
        "source_type": "agent_generated_design",
        "confidence": "low",
        "geometry_role": "design_proposal",
        "land_use_code": "1401",
        "name_zh": "京张遗址公园绿廊段（b4_north_mid）",
        "area_sqm_declared": 212404.223
      },
      "geometry": {
        "type": "Polygon",
        "coordinates": [
          [
            [
              116.3484,
              39.9935
            ],
            [
              116.3468,
              39.9935
            ],
            [
              116.3468,
              40.0075
            ],
            [
              116.3484,
              40.0075
            ],
            [
              116.3484,
              39.9935
            ]
          ]
        ]
      }
    },
    {
      "type": "Feature",
      "id": "GREEN-010",
      "properties": {
        "id": "GREEN-010",
        "layer": "GREEN_SPACE",
        "source_type": "agent_generated_design",
        "confidence": "low",
        "geometry_role": "design_proposal",
        "land_use_code": "1401",
        "name_zh": "京张遗址公园绿廊段（b5_zhongzhiyuan）",
        "area_sqm_declared": 288194.289
      },
      "geometry": {
        "type": "Polygon",
        "coordinates": [
          [
            [
              116.3484,
              40.0265
            ],
            [
              116.3484,
              40.0075
            ],
            [
              116.3468,
              40.0075
            ],
            [
              116.3468,
              40.0265
            ],
            [
              116.3484,
              40.0265
            ]
          ]
        ]
      }
    }
  ]
}