{
  "type": "FeatureCollection",
  "features": [
    {
      "type": "Feature",
      "id": "LU-001",
      "properties": {
        "id": "LU-001",
        "layer": "LAND_USE",
        "source_type": "agent_generated_design",
        "confidence": "low",
        "geometry_role": "design_proposal",
        "land_use_code": "0902",
        "name_zh": "大钟寺商务金融组团（概念）",
        "area_sqm_declared": 643003.802
      },
      "geometry": {
        "type": "Polygon",
        "coordinates": [
          [
            [
              116.34039888888888,
              39.94984
            ],
            [
              116.3468,
              39.94984
            ],
            [
              116.3468,
              39.939
            ],
            [
              116.3407,
              39.939
            ],
            [
              116.34039888888888,
              39.94984
            ]
          ]
        ]
      }
    },
    {
      "type": "Feature",
      "id": "LU-002",
      "properties": {
        "id": "LU-002",
        "layer": "LAND_USE",
        "source_type": "agent_generated_design",
        "confidence": "low",
        "geometry_role": "design_proposal",
        "land_use_code": "0901",
        "name_zh": "大钟寺智能原生商业组团（概念）",
        "area_sqm_declared": 493782.956
      },
      "geometry": {
        "type": "Polygon",
        "coordinates": [
          [
            [
              116.3484,
              39.94984
            ],
            [
              116.3532,
              39.94984
            ],
            [
              116.3532,
              39.939
            ],
            [
              116.3484,
              39.939
            ],
            [
              116.3484,
              39.94984
            ]
          ]
        ]
      }
    },
    {
      "type": "Feature",
      "id": "LU-003",
      "properties": {
        "id": "LU-003",
        "layer": "LAND_USE",
        "source_type": "agent_generated_design",
        "confidence": "low",
        "geometry_role": "design_proposal",
        "land_use_code": "1402",
        "name_zh": "东侧蓝绿防护界面（概念示意）",
        "area_sqm_declared": 216029.87
      },
      "geometry": {
        "type": "Polygon",
        "coordinates": [
          [
            [
              116.3553,
              39.939
            ],
            [
              116.3532,
              39.939
            ],
            [
              116.3532,
              39.94984
            ],
            [
              116.3553,
              39.94984
            ],
            [
              116.3553,
              39.939
            ]
          ]
        ]
      }
    },
    {
      "type": "Feature",
      "id": "LU-004",
      "properties": {
        "id": "LU-004",
        "layer": "LAND_USE",
        "source_type": "agent_generated_design",
        "confidence": "low",
        "geometry_role": "design_proposal",
        "land_use_code": "0802",
        "name_zh": "知春科研走廊西组团（概念）",
        "area_sqm_declared": 2161719.632
      },
      "geometry": {
        "type": "Polygon",
        "coordinates": [
          [
            [
              116.3397,
              39.975
            ],
            [
              116.34024838709676,
              39.9835
            ],
            [
              116.3468,
              39.9835
            ],
            [
              116.3468,
              39.94984
            ],
            [
              116.34039888888888,
              39.94984
            ],
            [
              116.3397,
              39.975
            ]
          ]
        ]
      }
    },
    {
      "type": "Feature",
      "id": "LU-005",
      "properties": {
        "id": "LU-005",
        "layer": "LAND_USE",
        "source_type": "agent_generated_design",
        "confidence": "low",
        "geometry_role": "design_proposal",
        "land_use_code": "0701",
        "name_zh": "铁路东居住修补组团（概念）",
        "area_sqm_declared": 1532787.051
      },
      "geometry": {
        "type": "Polygon",
        "coordinates": [
          [
            [
              116.3484,
              39.9835
            ],
            [
              116.3532,
              39.9835
            ],
            [
              116.3532,
              39.94984
            ],
            [
              116.3484,
              39.94984
            ],
            [
              116.3484,
              39.9835
            ]
          ]
        ]
      }
    },
    {
      "type": "Feature",
      "id": "LU-006",
      "properties": {
        "id": "LU-006",
        "layer": "LAND_USE",
        "source_type": "agent_generated_design",
        "confidence": "low",
        "geometry_role": "design_proposal",
        "land_use_code": "1402",
        "name_zh": "东侧蓝绿防护界面（概念示意）",
        "area_sqm_declared": 540744.879
      },
      "geometry": {
        "type": "Polygon",
        "coordinates": [
          [
            [
              116.3553,
              39.965
            ],
            [
              116.3553,
              39.94984
            ],
            [
              116.3532,
              39.94984
            ],
            [
              116.3532,
              39.9835
            ],
            [
              116.35382,
              39.9835
            ],
            [
              116.3553,
              39.965
            ]
          ]
        ]
      }
    },
    {
      "type": "Feature",
      "id": "LU-007",
      "properties": {
        "id": "LU-007",
        "layer": "LAND_USE",
        "source_type": "agent_generated_design",
        "confidence": "low",
        "geometry_role": "design_proposal",
        "land_use_code": "0701",
        "name_zh": "原点社区青年居住组团（概念）",
        "area_sqm_declared": 590761.918
      },
      "geometry": {
        "type": "Polygon",
        "coordinates": [
          [
            [
              116.3408935483871,
              39.9935
            ],
            [
              116.3468,
              39.9935
            ],
            [
              116.3468,
              39.9835
            ],
            [
              116.34024838709676,
              39.9835
            ],
            [
              116.3408935483871,
              39.9935
            ]
          ]
        ]
      }
    },
    {
      "type": "Feature",
      "id": "LU-008",
      "properties": {
        "id": "LU-008",
        "layer": "LAND_USE",
        "source_type": "agent_generated_design",
        "confidence": "low",
        "geometry_role": "design_proposal",
        "land_use_code": "0802",
        "name_zh": "某科研院落群 L3 试点（示意）",
        "area_sqm_declared": 455230.3
      },
      "geometry": {
        "type": "Polygon",
        "coordinates": [
          [
            [
              116.3484,
              39.9935
            ],
            [
              116.3532,
              39.9935
            ],
            [
              116.3532,
              39.9835
            ],
            [
              116.3484,
              39.9835
            ],
            [
              116.3484,
              39.9935
            ]
          ]
        ]
      }
    },
    {
      "type": "Feature",
      "id": "LU-009",
      "properties": {
        "id": "LU-009",
        "layer": "LAND_USE",
        "source_type": "agent_generated_design",
        "confidence": "low",
        "geometry_role": "design_proposal",
        "land_use_code": "1402",
        "name_zh": "东侧蓝绿防护界面（概念示意）",
        "area_sqm_declared": 28695.649
      },
      "geometry": {
        "type": "Polygon",
        "coordinates": [
          [
            [
              116.3533,
              39.99
            ],
            [
              116.35382,
              39.9835
            ],
            [
              116.3532,
              39.9835
            ],
            [
              116.3532,
              39.9935
            ],
            [
              116.35349178082193,
              39.9935
            ],
            [
              116.3533,
              39.99
            ]
          ]
        ]
      }
    },
    {
      "type": "Feature",
      "id": "LU-010",
      "properties": {
        "id": "LU-010",
        "layer": "LAND_USE",
        "source_type": "agent_generated_design",
        "confidence": "low",
        "geometry_role": "design_proposal",
        "land_use_code": "0804",
        "name_zh": "学院教育科研组团（概念）",
        "area_sqm_declared": 724317.215
      },
      "geometry": {
        "type": "Polygon",
        "coordinates": [
          [
            [
              116.3417,
              40.006
            ],
            [
              116.34177317073171,
              40.0075
            ],
            [
              116.3468,
              40.0075
            ],
            [
              116.3468,
              39.9935
            ],
            [
              116.3408935483871,
              39.9935
            ],
            [
              116.3417,
              40.006
            ]
          ]
        ]
      }
    },
    {
      "type": "Feature",
      "id": "LU-011",
      "properties": {
        "id": "LU-011",
        "layer": "LAND_USE",
        "source_type": "agent_generated_design",
        "confidence": "low",
        "geometry_role": "design_proposal",
        "land_use_code": "16",
        "name_zh": "战略留白预留地（概念）",
        "area_sqm_declared": 637212.193
      },
      "geometry": {
        "type": "Polygon",
        "coordinates": [
          [
            [
              116.3484,
              40.0075
            ],
            [
              116.3532,
              40.0075
            ],
            [
              116.3532,
              39.9935
            ],
            [
              116.3484,
              39.9935
            ],
            [
              116.3484,
              40.0075
            ]
          ]
        ]
      }
    },
    {
      "type": "Feature",
      "id": "LU-012",
      "properties": {
        "id": "LU-012",
        "layer": "LAND_USE",
        "source_type": "agent_generated_design",
        "confidence": "low",
        "geometry_role": "design_proposal",
        "land_use_code": "1402",
        "name_zh": "东侧蓝绿防护界面（概念示意）",
        "area_sqm_declared": 89648.176
      },
      "geometry": {
        "type": "Polygon",
        "coordinates": [
          [
            [
              116.35349178082193,
              39.9935
            ],
            [
              116.3532,
              39.9935
            ],
            [
              116.3532,
              40.0075
            ],
            [
              116.35425890410959,
              40.0075
            ],
            [
              116.35349178082193,
              39.9935
            ]
          ]
        ]
      }
    },
    {
      "type": "Feature",
      "id": "LU-013",
      "properties": {
        "id": "LU-013",
        "layer": "LAND_USE",
        "source_type": "agent_generated_design",
        "confidence": "low",
        "geometry_role": "design_proposal",
        "land_use_code": "0802",
        "name_zh": "众智园全栈研发组团（概念）",
        "area_sqm_declared": 821980.551
      },
      "geometry": {
        "type": "Polygon",
        "coordinates": [
          [
            [
              116.3427,
              40.0265
            ],
            [
              116.3468,
              40.0265
            ],
            [
              116.3468,
              40.0075
            ],
            [
              116.34177317073171,
              40.0075
            ],
            [
              116.3427,
              40.0265
            ]
          ]
        ]
      }
    },
    {
      "type": "Feature",
      "id": "LU-014",
      "properties": {
        "id": "LU-014",
        "layer": "LAND_USE",
        "source_type": "agent_generated_design",
        "confidence": "low",
        "geometry_role": "design_proposal",
        "land_use_code": "16",
        "name_zh": "受控测试场弹性预留（概念）",
        "area_sqm_declared": 864582.221
      },
      "geometry": {
        "type": "Polygon",
        "coordinates": [
          [
            [
              116.3484,
              40.0265
            ],
            [
              116.3532,
              40.0265
            ],
            [
              116.3532,
              40.0075
            ],
            [
              116.3484,
              40.0075
            ],
            [
              116.3484,
              40.0265
            ]
          ]
        ]
      }
    },
    {
      "type": "Feature",
      "id": "LU-015",
      "properties": {
        "id": "LU-015",
        "layer": "LAND_USE",
        "source_type": "agent_generated_design",
        "confidence": "low",
        "geometry_role": "design_proposal",
        "land_use_code": "1402",
        "name_zh": "东侧蓝绿防护界面（概念示意）",
        "area_sqm_declared": 284479.785
      },
      "geometry": {
        "type": "Polygon",
        "coordinates": [
          [
            [
              116.35425890410959,
              40.0075
            ],
            [
              116.3532,
              40.0075
            ],
            [
              116.3532,
              40.0265
            ],
            [
              116.3553,
              40.0265
            ],
            [
              116.35425890410959,
              40.0075
            ]
          ]
        ]
      }
    },
    {
      "type": "Feature",
      "id": "LU-016",
      "properties": {
        "id": "LU-016",
        "layer": "LAND_USE",
        "source_type": "agent_generated_design",
        "confidence": "low",
        "geometry_role": "design_proposal",
        "land_use_code": "1403",
        "name_zh": "五钟广场（概念）",
        "area_sqm_declared": 25811.805
      },
      "geometry": {
        "type": "Polygon",
        "coordinates": [
          [
            [
              116.3468,
              39.9479
            ],
            [
              116.3484,
              39.9479
            ],
            [
              116.3484,
              39.9462
            ],
            [
              116.3468,
              39.9462
            ],
            [
              116.3468,
              39.9479
            ]
          ]
        ]
      }
    },
    {
      "type": "Feature",
      "id": "LU-017",
      "properties": {
        "id": "LU-017",
        "layer": "LAND_USE",
        "source_type": "agent_generated_design",
        "confidence": "low",
        "geometry_role": "design_proposal",
        "land_use_code": "1401",
        "name_zh": "京张遗址公园绿廊段（概念·b1_dazhongsi）",
        "area_sqm_declared": 138782.638
      },
      "geometry": {
        "type": "MultiPolygon",
        "coordinates": [
          [
            [
              [
                116.3484,
                39.9462
              ],
              [
                116.3484,
                39.939
              ],
              [
                116.3468,
                39.939
              ],
              [
                116.3468,
                39.9462
              ],
              [
                116.3484,
                39.9462
              ]
            ]
          ],
          [
            [
              [
                116.3484,
                39.9479
              ],
              [
                116.3468,
                39.9479
              ],
              [
                116.3468,
                39.94984
              ],
              [
                116.3484,
                39.94984
              ],
              [
                116.3484,
                39.9479
              ]
            ]
          ]
        ]
      }
    },
    {
      "type": "Feature",
      "id": "LU-018",
      "properties": {
        "id": "LU-018",
        "layer": "LAND_USE",
        "source_type": "agent_generated_design",
        "confidence": "low",
        "geometry_role": "design_proposal",
        "land_use_code": "1401",
        "name_zh": "京张遗址公园绿廊段（概念·b2_south_mid）",
        "area_sqm_declared": 510929.399
      },
      "geometry": {
        "type": "Polygon",
        "coordinates": [
          [
            [
              116.3484,
              39.94984
            ],
            [
              116.3468,
              39.94984
            ],
            [
              116.3468,
              39.9835
            ],
            [
              116.3484,
              39.9835
            ],
            [
              116.3484,
              39.94984
            ]
          ]
        ]
      }
    },
    {
      "type": "Feature",
      "id": "LU-019",
      "properties": {
        "id": "LU-019",
        "layer": "LAND_USE",
        "source_type": "agent_generated_design",
        "confidence": "low",
        "geometry_role": "design_proposal",
        "land_use_code": "1401",
        "name_zh": "京张遗址公园绿廊段（概念·b3_origin）",
        "area_sqm_declared": 151743.547
      },
      "geometry": {
        "type": "Polygon",
        "coordinates": [
          [
            [
              116.3484,
              39.9835
            ],
            [
              116.3468,
              39.9835
            ],
            [
              116.3468,
              39.9935
            ],
            [
              116.3484,
              39.9935
            ],
            [
              116.3484,
              39.9835
            ]
          ]
        ]
      }
    },
    {
      "type": "Feature",
      "id": "LU-020",
      "properties": {
        "id": "LU-020",
        "layer": "LAND_USE",
        "source_type": "agent_generated_design",
        "confidence": "low",
        "geometry_role": "design_proposal",
        "land_use_code": "1401",
        "name_zh": "京张遗址公园绿廊段（概念·b4_north_mid）",
        "area_sqm_declared": 212404.223
      },
      "geometry": {
        "type": "Polygon",
        "coordinates": [
          [
            [
              116.3484,
              39.9935
            ],
            [
              116.3468,
              39.9935
            ],
            [
              116.3468,
              40.0075
            ],
            [
              116.3484,
              40.0075
            ],
            [
              116.3484,
              39.9935
            ]
          ]
        ]
      }
    },
    {
      "type": "Feature",
      "id": "LU-021",
      "properties": {
        "id": "LU-021",
        "layer": "LAND_USE",
        "source_type": "agent_generated_design",
        "confidence": "low",
        "geometry_role": "design_proposal",
        "land_use_code": "1401",
        "name_zh": "京张遗址公园绿廊段（概念·b5_zhongzhiyuan）",
        "area_sqm_declared": 288194.289
      },
      "geometry": {
        "type": "Polygon",
        "coordinates": [
          [
            [
              116.3484,
              40.0265
            ],
            [
              116.3484,
              40.0075
            ],
            [
              116.3468,
              40.0075
            ],
            [
              116.3468,
              40.0265
            ],
            [
              116.3484,
              40.0265
            ]
          ]
        ]
      }
    }
  ]
}