{
  "type": "FeatureCollection",
  "features": [
    {
      "type": "Feature",
      "id": "PS-PLAZA",
      "properties": {
        "id": "PS-PLAZA",
        "layer": "PUBLIC_SPACE",
        "source_type": "agent_generated_design",
        "confidence": "low",
        "geometry_role": "design_proposal",
        "name_zh": "五钟广场（概念）",
        "area_sqm_declared": 25811.805
      },
      "geometry": {
        "type": "Polygon",
        "coordinates": [
          [
            [
              116.3468,
              39.9479
            ],
            [
              116.3484,
              39.9479
            ],
            [
              116.3484,
              39.9462
            ],
            [
              116.3468,
              39.9462
            ],
            [
              116.3468,
              39.9479
            ]
          ]
        ]
      }
    },
    {
      "type": "Feature",
      "id": "PS-WALK",
      "properties": {
        "id": "PS-WALK",
        "layer": "PUBLIC_SPACE",
        "source_type": "agent_generated_design",
        "confidence": "low",
        "geometry_role": "design_proposal",
        "name_zh": "遗址公园连续步行界面（概念）",
        "area_sqm_declared": 325513.512
      },
      "geometry": {
        "type": "MultiPolygon",
        "coordinates": [
          [
            [
              [
                116.3474,
                39.9479
              ],
              [
                116.347,
                39.9479
              ],
              [
                116.347,
                40.0265
              ],
              [
                116.3474,
                40.0265
              ],
              [
                116.3474,
                39.9479
              ]
            ]
          ],
          [
            [
              [
                116.3474,
                39.939
              ],
              [
                116.347,
                39.939
              ],
              [
                116.347,
                39.9462
              ],
              [
                116.3474,
                39.9462
              ],
              [
                116.3474,
                39.939
              ]
            ]
          ]
        ]
      }
    },
    {
      "type": "Feature",
      "id": "PS-DEVBAND",
      "properties": {
        "id": "PS-DEVBAND",
        "layer": "PUBLIC_SPACE",
        "source_type": "agent_generated_design",
        "confidence": "low",
        "geometry_role": "design_proposal",
        "name_zh": "设备带示范街可逆安装带（0.8–1.5 m 路缘带，概念放大表达）",
        "area_sqm_declared": 26544.233
      },
      "geometry": {
        "type": "Polygon",
        "coordinates": [
          [
            [
              116.3439,
              40.01
            ],
            [
              116.3439,
              40.024
            ],
            [
              116.3441,
              40.024
            ],
            [
              116.3441,
              40.01
            ],
            [
              116.3439,
              40.01
            ]
          ]
        ]
      }
    },
    {
      "type": "Feature",
      "id": "PS-LEASE-STATION",
      "properties": {
        "id": "PS-LEASE-STATION",
        "layer": "PUBLIC_SPACE",
        "source_type": "agent_generated_design",
        "confidence": "low",
        "geometry_role": "design_proposal",
        "name_zh": "L5 租约服务站前广场（概念）",
        "area_sqm_declared": 7587.403
      },
      "geometry": {
        "type": "Polygon",
        "coordinates": [
          [
            [
              116.3495,
              39.986
            ],
            [
              116.3495,
              39.9868
            ],
            [
              116.3505,
              39.9868
            ],
            [
              116.3505,
              39.986
            ],
            [
              116.3495,
              39.986
            ]
          ]
        ]
      }
    },
    {
      "type": "Feature",
      "id": "PS-EASE-1",
      "properties": {
        "id": "PS-EASE-1",
        "layer": "PUBLIC_SPACE",
        "source_type": "agent_generated_design",
        "confidence": "low",
        "geometry_role": "design_proposal",
        "name_zh": "贯通公共通道地役权一（概念示意）",
        "area_sqm_declared": 13657.362
      },
      "geometry": {
        "type": "Polygon",
        "coordinates": [
          [
            [
              116.3484,
              39.98605
            ],
            [
              116.3484,
              39.98635
            ],
            [
              116.3532,
              39.98635
            ],
            [
              116.3532,
              39.98605
            ],
            [
              116.3484,
              39.98605
            ]
          ]
        ]
      }
    },
    {
      "type": "Feature",
      "id": "PS-EASE-2",
      "properties": {
        "id": "PS-EASE-2",
        "layer": "PUBLIC_SPACE",
        "source_type": "agent_generated_design",
        "confidence": "low",
        "geometry_role": "design_proposal",
        "name_zh": "贯通公共通道地役权二（概念示意）",
        "area_sqm_declared": 13656.378
      },
      "geometry": {
        "type": "Polygon",
        "coordinates": [
          [
            [
              116.3484,
              39.99105
            ],
            [
              116.3484,
              39.99135
            ],
            [
              116.3532,
              39.99135
            ],
            [
              116.3532,
              39.99105
            ],
            [
              116.3484,
              39.99105
            ]
          ]
        ]
      }
    },
    {
      "type": "Feature",
      "id": "PS-DZS-GATE",
      "properties": {
        "id": "PS-DZS-GATE",
        "layer": "PUBLIC_SPACE",
        "source_type": "agent_generated_design",
        "confidence": "low",
        "geometry_role": "design_proposal",
        "name_zh": "大钟寺站前公共界面（概念）",
        "area_sqm_declared": 13665.549
      },
      "geometry": {
        "type": "Polygon",
        "coordinates": [
          [
            [
              116.3488,
              39.944
            ],
            [
              116.3488,
              39.9452
            ],
            [
              116.35,
              39.9452
            ],
            [
              116.35,
              39.944
            ],
            [
              116.3488,
              39.944
            ]
          ]
        ]
      }
    },
    {
      "type": "Feature",
      "id": "PS-ZZY-TEST-EDGE",
      "properties": {
        "id": "PS-ZZY-TEST-EDGE",
        "layer": "PUBLIC_SPACE",
        "source_type": "agent_generated_design",
        "confidence": "low",
        "geometry_role": "design_proposal",
        "name_zh": "测试场速度隔离公共观察界面（概念）",
        "area_sqm_declared": 37918.373
      },
      "geometry": {
        "type": "Polygon",
        "coordinates": [
          [
            [
              116.3488,
              40.018
            ],
            [
              116.3488,
              40.023
            ],
            [
              116.3496,
              40.023
            ],
            [
              116.3496,
              40.018
            ],
            [
              116.3488,
              40.018
            ]
          ]
        ]
      }
    }
  ]
}