{
  "type": "FeatureCollection",
  "features": [
    {
      "type": "Feature",
      "id": "ROW-EW-1",
      "properties": {
        "id": "ROW-EW-1",
        "layer": "ROAD_CENTERLINE",
        "source_type": "agent_generated_design",
        "confidence": "low",
        "geometry_role": "design_proposal",
        "road_class": "secondary",
        "name_zh": "预留东西向线位一（大钟寺缝合，概念走廊）",
        "length_m_declared": 1266.753
      },
      "geometry": {
        "type": "LineString",
        "coordinates": [
          [
            116.34047777777778,
            39.947
          ],
          [
            116.3553,
            39.947
          ]
        ]
      }
    },
    {
      "type": "Feature",
      "id": "ROW-EW-2",
      "properties": {
        "id": "ROW-EW-2",
        "layer": "ROAD_CENTERLINE",
        "source_type": "agent_generated_design",
        "confidence": "low",
        "geometry_role": "design_proposal",
        "road_class": "secondary",
        "name_zh": "预留东西向线位二（原点社区缝合，概念走廊）",
        "length_m_declared": 1097.454
      },
      "geometry": {
        "type": "LineString",
        "coordinates": [
          [
            116.34057096774194,
            39.9885
          ],
          [
            116.35342,
            39.9885
          ]
        ]
      }
    },
    {
      "type": "Feature",
      "id": "ROW-EW-3",
      "properties": {
        "id": "ROW-EW-3",
        "layer": "ROAD_CENTERLINE",
        "source_type": "agent_generated_design",
        "confidence": "low",
        "geometry_role": "design_proposal",
        "road_class": "secondary",
        "name_zh": "预留东西向线位三（众智园缝合，概念走廊）",
        "length_m_declared": 1070.859
      },
      "geometry": {
        "type": "LineString",
        "coordinates": [
          [
            116.34223658536585,
            40.017
          ],
          [
            116.3547794520548,
            40.017
          ]
        ]
      }
    },
    {
      "type": "Feature",
      "id": "ROW-NS-SLOW",
      "properties": {
        "id": "ROW-NS-SLOW",
        "layer": "ROAD_CENTERLINE",
        "source_type": "agent_generated_design",
        "confidence": "low",
        "geometry_role": "design_proposal",
        "road_class": "cycleway",
        "name_zh": "纵向慢行冗余预留线（概念走廊）",
        "length_m_declared": 9715.875
      },
      "geometry": {
        "type": "LineString",
        "coordinates": [
          [
            116.3455,
            39.939
          ],
          [
            116.3455,
            40.0265
          ]
        ]
      }
    },
    {
      "type": "Feature",
      "id": "SPINE-WALK",
      "properties": {
        "id": "SPINE-WALK",
        "layer": "ROAD_CENTERLINE",
        "source_type": "agent_generated_design",
        "confidence": "low",
        "geometry_role": "design_proposal",
        "road_class": "greenway",
        "name_zh": "京张遗址公园百年步道主脊（概念）",
        "length_m_declared": 9715.873
      },
      "geometry": {
        "type": "LineString",
        "coordinates": [
          [
            116.3476,
            39.939
          ],
          [
            116.3476,
            40.0265
          ]
        ]
      }
    },
    {
      "type": "Feature",
      "id": "EASE-1",
      "properties": {
        "id": "EASE-1",
        "layer": "ROAD_CENTERLINE",
        "source_type": "agent_generated_design",
        "confidence": "low",
        "geometry_role": "design_proposal",
        "road_class": "pedestrian",
        "name_zh": "院落群贯通公共通道地役权一（概念示意）",
        "length_m_declared": 409.989
      },
      "geometry": {
        "type": "LineString",
        "coordinates": [
          [
            116.3484,
            39.9862
          ],
          [
            116.3532,
            39.9862
          ]
        ]
      }
    },
    {
      "type": "Feature",
      "id": "EASE-2",
      "properties": {
        "id": "EASE-2",
        "layer": "ROAD_CENTERLINE",
        "source_type": "agent_generated_design",
        "confidence": "low",
        "geometry_role": "design_proposal",
        "road_class": "pedestrian",
        "name_zh": "院落群贯通公共通道地役权二（概念示意）",
        "length_m_declared": 409.959
      },
      "geometry": {
        "type": "LineString",
        "coordinates": [
          [
            116.3484,
            39.9912
          ],
          [
            116.3532,
            39.9912
          ]
        ]
      }
    },
    {
      "type": "Feature",
      "id": "DEV-BAND-ST",
      "properties": {
        "id": "DEV-BAND-ST",
        "layer": "ROAD_CENTERLINE",
        "source_type": "agent_generated_design",
        "confidence": "low",
        "geometry_role": "design_proposal",
        "road_class": "branch",
        "name_zh": "设备带示范街（众智园，概念）",
        "length_m_declared": 1554.549
      },
      "geometry": {
        "type": "LineString",
        "coordinates": [
          [
            116.344,
            40.01
          ],
          [
            116.344,
            40.024
          ]
        ]
      }
    }
  ]
}