{
  "type": "FeatureCollection",
  "name": "Switchback Belt design-sensitivity helpers (not statutory lines)",
  "features": [
    {
      "type": "Feature",
      "id": "CONSTRAINTS-RAIL-HERITAGE",
      "properties": {
        "layer": "REGULATORY_CONTROL",
        "source_type": "agent_inferred_from_public_data",
        "confidence": "low",
        "geometry_role": "analysis_helper",
        "official_boundary": false,
        "name_zh": "京张铁路遗址与遗存关注带（设计提示，非文保范围）",
        "usage_note_zh": "仅提示遗存敏感性，不是文物保护范围或建设控制地带；正式文保边界须由官方数据替换后重新校核",
        "replace_with_zh": "官方文物保护范围与建设控制地带矢量数据",
        "id": "CONSTRAINTS-RAIL-HERITAGE",
        "area_sqm_declared": 1167561.468
      },
      "geometry": {
        "type": "Polygon",
        "coordinates": [
          [
            [
              116.3469968,
              39.965
            ],
            [
              116.3463967,
              39.975
            ],
            [
              116.3460966,
              39.9835
            ],
            [
              116.3462965,
              39.99
            ],
            [
              116.3464965,
              39.9935
            ],
            [
              116.3472963,
              40.006
            ],
            [
              116.3478962,
              40.016
            ],
            [
              116.3481724,
              40.0265
            ],
            [
              116.3495802,
              40.0265
            ],
            [
              116.3493038,
              40.016
            ],
            [
              116.3487037,
              40.006
            ],
            [
              116.3479035,
              39.9935
            ],
            [
              116.3477035,
              39.99
            ],
            [
              116.3475034,
              39.9835
            ],
            [
              116.3478033,
              39.975
            ],
            [
              116.3484032,
              39.965
            ],
            [
              116.3486031,
              39.95
            ],
            [
              116.348703,
              39.939
            ],
            [
              116.347297,
              39.939
            ],
            [
              116.3471969,
              39.95
            ],
            [
              116.3469968,
              39.965
            ]
          ]
        ]
      }
    },
    {
      "type": "Feature",
      "id": "CONSTRAINTS-清河水系",
      "properties": {
        "layer": "REGULATORY_CONTROL",
        "source_type": "agent_inferred_from_public_data",
        "confidence": "low",
        "geometry_role": "analysis_helper",
        "official_boundary": false,
        "name_zh": "清河水系与滨水影响关注带（设计提示，非蓝线）",
        "usage_note_zh": "仅用于识别设计敏感区段，不构成蓝线、红线、审批依据或工程结论",
        "replace_with_zh": "官方水系蓝线、道路红线与市政管线数据",
        "id": "CONSTRAINTS-清河水系",
        "area_sqm_declared": 1250996.19
      },
      "geometry": {
        "type": "Polygon",
        "coordinates": [
          [
            [
              116.3544,
              40.016
            ],
            [
              116.3542,
              40.016
            ],
            [
              116.354,
              40.016
            ],
            [
              116.3538,
              40.016
            ],
            [
              116.3536,
              40.016
            ],
            [
              116.3534,
              40.016
            ],
            [
              116.3532,
              40.016
            ],
            [
              116.353,
              40.016
            ],
            [
              116.3528,
              40.016
            ],
            [
              116.3526,
              40.016
            ],
            [
              116.3524,
              40.016
            ],
            [
              116.3522,
              40.016
            ],
            [
              116.352,
              40.016
            ],
            [
              116.3518,
              40.016
            ],
            [
              116.3516,
              40.016
            ],
            [
              116.3514,
              40.016
            ],
            [
              116.3512,
              40.016
            ],
            [
              116.351,
              40.016
            ],
            [
              116.3508,
              40.016
            ],
            [
              116.3506,
              40.016
            ],
            [
              116.3504,
              40.016
            ],
            [
              116.3502,
              40.016
            ],
            [
              116.35,
              40.016
            ],
            [
              116.3498,
              40.016
            ],
            [
              116.3496,
              40.016
            ],
            [
              116.3494,
              40.016
            ],
            [
              116.3492,
              40.016
            ],
            [
              116.349,
              40.016
            ],
            [
              116.3488,
              40.016
            ],
            [
              116.3486,
              40.016
            ],
            [
              116.3484,
              40.016
            ],
            [
              116.3482,
              40.016
            ],
            [
              116.348,
              40.016
            ],
            [
              116.3478,
              40.016
            ],
            [
              116.3476,
              40.016
            ],
            [
              116.3474,
              40.016
            ],
            [
              116.3472,
              40.016
            ],
            [
              116.347,
              40.016
            ],
            [
              116.3468,
              40.016
            ],
            [
              116.3466,
              40.016
            ],
            [
              116.3464,
              40.016
            ],
            [
              116.3462,
              40.016
            ],
            [
              116.346,
              40.016
            ],
            [
              116.3458,
              40.016
            ],
            [
              116.3456,
              40.016
            ],
            [
              116.3454,
              40.016
            ],
            [
              116.3452,
              40.016
            ],
            [
              116.345,
              40.016
            ],
            [
              116.3448,
              40.016
            ],
            [
              116.3446,
              40.016
            ],
            [
              116.3444,
              40.016
            ],
            [
              116.3442,
              40.016
            ],
            [
              116.344,
              40.016
            ],
            [
              116.3438,
              40.016
            ],
            [
              116.3436,
              40.016
            ],
            [
              116.3434,
              40.016
            ],
            [
              116.3432,
              40.016
            ],
            [
              116.343,
              40.016
            ],
            [
              116.3428,
              40.016
            ],
            [
              116.3426,
              40.016
            ],
            [
              116.3424,
              40.016
            ],
            [
              116.3422,
              40.016
            ],
            [
              116.3421878,
              40.016
            ],
            [
              116.3427,
              40.0265
            ],
            [
              116.3428,
              40.0265
            ],
            [
              116.343,
              40.0265
            ],
            [
              116.3432,
              40.0265
            ],
            [
              116.3434,
              40.0265
            ],
            [
              116.3436,
              40.0265
            ],
            [
              116.3438,
              40.0265
            ],
            [
              116.344,
              40.0265
            ],
            [
              116.3442,
              40.0265
            ],
            [
              116.3444,
              40.0265
            ],
            [
              116.3446,
              40.0265
            ],
            [
              116.3448,
              40.0265
            ],
            [
              116.345,
              40.0265
            ],
            [
              116.3452,
              40.0265
            ],
            [
              116.3454,
              40.0265
            ],
            [
              116.3456,
              40.0265
            ],
            [
              116.3458,
              40.0265
            ],
            [
              116.346,
              40.0265
            ],
            [
              116.3462,
              40.0265
            ],
            [
              116.3464,
              40.0265
            ],
            [
              116.3466,
              40.0265
            ],
            [
              116.3468,
              40.0265
            ],
            [
              116.347,
              40.0265
            ],
            [
              116.3472,
              40.0265
            ],
            [
              116.3474,
              40.0265
            ],
            [
              116.3476,
              40.0265
            ],
            [
              116.3478,
              40.0265
            ],
            [
              116.348,
              40.0265
            ],
            [
              116.3482,
              40.0265
            ],
            [
              116.3484,
              40.0265
            ],
            [
              116.3486,
              40.0265
            ],
            [
              116.3488,
              40.0265
            ],
            [
              116.349,
              40.0265
            ],
            [
              116.3492,
              40.0265
            ],
            [
              116.3494,
              40.0265
            ],
            [
              116.3496,
              40.0265
            ],
            [
              116.3498,
              40.0265
            ],
            [
              116.35,
              40.0265
            ],
            [
              116.3502,
              40.0265
            ],
            [
              116.3504,
              40.0265
            ],
            [
              116.3506,
              40.0265
            ],
            [
              116.3508,
              40.0265
            ],
            [
              116.351,
              40.0265
            ],
            [
              116.3512,
              40.0265
            ],
            [
              116.3514,
              40.0265
            ],
            [
              116.3516,
              40.0265
            ],
            [
              116.3518,
              40.0265
            ],
            [
              116.352,
              40.0265
            ],
            [
              116.3522,
              40.0265
            ],
            [
              116.3524,
              40.0265
            ],
            [
              116.3526,
              40.0265
            ],
            [
              116.3528,
              40.0265
            ],
            [
              116.353,
              40.0265
            ],
            [
              116.3532,
              40.0265
            ],
            [
              116.3534,
              40.0265
            ],
            [
              116.3536,
              40.0265
            ],
            [
              116.3538,
              40.0265
            ],
            [
              116.354,
              40.0265
            ],
            [
              116.3542,
              40.0265
            ],
            [
              116.3544,
              40.0265
            ],
            [
              116.3546,
              40.0265
            ],
            [
              116.3548,
              40.0265
            ],
            [
              116.355,
              40.0265
            ],
            [
              116.3552,
              40.0265
            ],
            [
              116.3553,
              40.0265
            ],
            [
              116.3547247,
              40.016
            ],
            [
              116.3546,
              40.016
            ],
            [
              116.3544,
              40.016
            ]
          ]
        ]
      }
    },
    {
      "type": "Feature",
      "id": "CONSTRAINTS-北三环快",
      "properties": {
        "layer": "REGULATORY_CONTROL",
        "source_type": "agent_inferred_from_public_data",
        "confidence": "low",
        "geometry_role": "analysis_helper",
        "official_boundary": false,
        "name_zh": "北三环快速路交通影响关注带（设计提示，非红线）",
        "usage_note_zh": "仅用于识别设计敏感区段，不构成蓝线、红线、审批依据或工程结论",
        "replace_with_zh": "官方水系蓝线、道路红线与市政管线数据",
        "id": "CONSTRAINTS-北三环快",
        "area_sqm_declared": 1094436.537
      },
      "geometry": {
        "type": "Polygon",
        "coordinates": [
          [
            [
              116.355,
              39.956
            ],
            [
              116.3548,
              39.956
            ],
            [
              116.3546,
              39.956
            ],
            [
              116.3544,
              39.956
            ],
            [
              116.3542,
              39.956
            ],
            [
              116.354,
              39.956
            ],
            [
              116.3538,
              39.956
            ],
            [
              116.3536,
              39.956
            ],
            [
              116.3534,
              39.956
            ],
            [
              116.3532,
              39.956
            ],
            [
              116.353,
              39.956
            ],
            [
              116.3528,
              39.956
            ],
            [
              116.3526,
              39.956
            ],
            [
              116.3524,
              39.956
            ],
            [
              116.3522,
              39.956
            ],
            [
              116.352,
              39.956
            ],
            [
              116.3518,
              39.956
            ],
            [
              116.3516,
              39.956
            ],
            [
              116.3514,
              39.956
            ],
            [
              116.3512,
              39.956
            ],
            [
              116.351,
              39.956
            ],
            [
              116.3508,
              39.956
            ],
            [
              116.3506,
              39.956
            ],
            [
              116.3504,
              39.956
            ],
            [
              116.3502,
              39.956
            ],
            [
              116.35,
              39.956
            ],
            [
              116.3498,
              39.956
            ],
            [
              116.3496,
              39.956
            ],
            [
              116.3494,
              39.956
            ],
            [
              116.3492,
              39.956
            ],
            [
              116.349,
              39.956
            ],
            [
              116.3488,
              39.956
            ],
            [
              116.3486,
              39.956
            ],
            [
              116.3484,
              39.956
            ],
            [
              116.3482,
              39.956
            ],
            [
              116.348,
              39.956
            ],
            [
              116.3478,
              39.956
            ],
            [
              116.3476,
              39.956
            ],
            [
              116.3474,
              39.956
            ],
            [
              116.3472,
              39.956
            ],
            [
              116.347,
              39.956
            ],
            [
              116.3468,
              39.956
            ],
            [
              116.3466,
              39.956
            ],
            [
              116.3464,
              39.956
            ],
            [
              116.3462,
              39.956
            ],
            [
              116.346,
              39.956
            ],
            [
              116.3458,
              39.956
            ],
            [
              116.3456,
              39.956
            ],
            [
              116.3454,
              39.956
            ],
            [
              116.3452,
              39.956
            ],
            [
              116.345,
              39.956
            ],
            [
              116.3448,
              39.956
            ],
            [
              116.3446,
              39.956
            ],
            [
              116.3444,
              39.956
            ],
            [
              116.3442,
              39.956
            ],
            [
              116.344,
              39.956
            ],
            [
              116.3438,
              39.956
            ],
            [
              116.3436,
              39.956
            ],
            [
              116.3434,
              39.956
            ],
            [
              116.3432,
              39.956
            ],
            [
              116.343,
              39.956
            ],
            [
              116.3428,
              39.956
            ],
            [
              116.3426,
              39.956
            ],
            [
              116.3424,
              39.956
            ],
            [
              116.3422,
              39.956
            ],
            [
              116.342,
              39.956
            ],
            [
              116.3418,
              39.956
            ],
            [
              116.3416,
              39.956
            ],
            [
              116.3414,
              39.956
            ],
            [
              116.3412,
              39.956
            ],
            [
              116.341,
              39.956
            ],
            [
              116.3408,
              39.956
            ],
            [
              116.3406,
              39.956
            ],
            [
              116.3404,
              39.956
            ],
            [
              116.3402278,
              39.956
            ],
            [
              116.3400167,
              39.9636
            ],
            [
              116.3402,
              39.9636
            ],
            [
              116.3404,
              39.9636
            ],
            [
              116.3406,
              39.9636
            ],
            [
              116.3408,
              39.9636
            ],
            [
              116.341,
              39.9636
            ],
            [
              116.3412,
              39.9636
            ],
            [
              116.3414,
              39.9636
            ],
            [
              116.3416,
              39.9636
            ],
            [
              116.3418,
              39.9636
            ],
            [
              116.342,
              39.9636
            ],
            [
              116.3422,
              39.9636
            ],
            [
              116.3424,
              39.9636
            ],
            [
              116.3426,
              39.9636
            ],
            [
              116.3428,
              39.9636
            ],
            [
              116.343,
              39.9636
            ],
            [
              116.3432,
              39.9636
            ],
            [
              116.3434,
              39.9636
            ],
            [
              116.3436,
              39.9636
            ],
            [
              116.3438,
              39.9636
            ],
            [
              116.344,
              39.9636
            ],
            [
              116.3442,
              39.9636
            ],
            [
              116.3444,
              39.9636
            ],
            [
              116.3446,
              39.9636
            ],
            [
              116.3448,
              39.9636
            ],
            [
              116.345,
              39.9636
            ],
            [
              116.3452,
              39.9636
            ],
            [
              116.3454,
              39.9636
            ],
            [
              116.3456,
              39.9636
            ],
            [
              116.3458,
              39.9636
            ],
            [
              116.346,
              39.9636
            ],
            [
              116.3462,
              39.9636
            ],
            [
              116.3464,
              39.9636
            ],
            [
              116.3466,
              39.9636
            ],
            [
              116.3468,
              39.9636
            ],
            [
              116.347,
              39.9636
            ],
            [
              116.3472,
              39.9636
            ],
            [
              116.3474,
              39.9636
            ],
            [
              116.3476,
              39.9636
            ],
            [
              116.3478,
              39.9636
            ],
            [
              116.348,
              39.9636
            ],
            [
              116.3482,
              39.9636
            ],
            [
              116.3484,
              39.9636
            ],
            [
              116.3486,
              39.9636
            ],
            [
              116.3488,
              39.9636
            ],
            [
              116.349,
              39.9636
            ],
            [
              116.3492,
              39.9636
            ],
            [
              116.3494,
              39.9636
            ],
            [
              116.3496,
              39.9636
            ],
            [
              116.3498,
              39.9636
            ],
            [
              116.35,
              39.9636
            ],
            [
              116.3502,
              39.9636
            ],
            [
              116.3504,
              39.9636
            ],
            [
              116.3506,
              39.9636
            ],
            [
              116.3508,
              39.9636
            ],
            [
              116.351,
              39.9636
            ],
            [
              116.3512,
              39.9636
            ],
            [
              116.3514,
              39.9636
            ],
            [
              116.3516,
              39.9636
            ],
            [
              116.3518,
              39.9636
            ],
            [
              116.352,
              39.9636
            ],
            [
              116.3522,
              39.9636
            ],
            [
              116.3524,
              39.9636
            ],
            [
              116.3526,
              39.9636
            ],
            [
              116.3528,
              39.9636
            ],
            [
              116.353,
              39.9636
            ],
            [
              116.3532,
              39.9636
            ],
            [
              116.3534,
              39.9636
            ],
            [
              116.3536,
              39.9636
            ],
            [
              116.3538,
              39.9636
            ],
            [
              116.354,
              39.9636
            ],
            [
              116.3542,
              39.9636
            ],
            [
              116.3544,
              39.9636
            ],
            [
              116.3546,
              39.9636
            ],
            [
              116.3548,
              39.9636
            ],
            [
              116.355,
              39.9636
            ],
            [
              116.3552,
              39.9636
            ],
            [
              116.3553,
              39.9636
            ],
            [
              116.3553,
              39.956
            ],
            [
              116.3552,
              39.956
            ],
            [
              116.355,
              39.956
            ]
          ]
        ]
      }
    },
    {
      "type": "Feature",
      "id": "CONSTRAINTS-西直门外",
      "properties": {
        "layer": "REGULATORY_CONTROL",
        "source_type": "agent_inferred_from_public_data",
        "confidence": "low",
        "geometry_role": "analysis_helper",
        "official_boundary": false,
        "name_zh": "西直门外大街交通影响关注带（设计提示，非红线）",
        "usage_note_zh": "仅用于识别设计敏感区段，不构成蓝线、红线、审批依据或工程结论",
        "replace_with_zh": "官方水系蓝线、道路红线与市政管线数据",
        "id": "CONSTRAINTS-西直门外",
        "area_sqm_declared": 696093.971
      },
      "geometry": {
        "type": "Polygon",
        "coordinates": [
          [
            [
              116.3405611,
              39.944
            ],
            [
              116.3406,
              39.944
            ],
            [
              116.3408,
              39.944
            ],
            [
              116.341,
              39.944
            ],
            [
              116.3412,
              39.944
            ],
            [
              116.3414,
              39.944
            ],
            [
              116.3416,
              39.944
            ],
            [
              116.3418,
              39.944
            ],
            [
              116.342,
              39.944
            ],
            [
              116.3422,
              39.944
            ],
            [
              116.3424,
              39.944
            ],
            [
              116.3426,
              39.944
            ],
            [
              116.3428,
              39.944
            ],
            [
              116.343,
              39.944
            ],
            [
              116.3432,
              39.944
            ],
            [
              116.3434,
              39.944
            ],
            [
              116.3436,
              39.944
            ],
            [
              116.3438,
              39.944
            ],
            [
              116.344,
              39.944
            ],
            [
              116.3442,
              39.944
            ],
            [
              116.3444,
              39.944
            ],
            [
              116.3446,
              39.944
            ],
            [
              116.3448,
              39.944
            ],
            [
              116.345,
              39.944
            ],
            [
              116.3452,
              39.944
            ],
            [
              116.3454,
              39.944
            ],
            [
              116.3456,
              39.944
            ],
            [
              116.3458,
              39.944
            ],
            [
              116.346,
              39.944
            ],
            [
              116.3462,
              39.944
            ],
            [
              116.3464,
              39.944
            ],
            [
              116.3466,
              39.944
            ],
            [
              116.3468,
              39.944
            ],
            [
              116.347,
              39.944
            ],
            [
              116.3472,
              39.944
            ],
            [
              116.3474,
              39.944
            ],
            [
              116.3476,
              39.944
            ],
            [
              116.3478,
              39.944
            ],
            [
              116.348,
              39.944
            ],
            [
              116.3482,
              39.944
            ],
            [
              116.3484,
              39.944
            ],
            [
              116.3486,
              39.944
            ],
            [
              116.3488,
              39.944
            ],
            [
              116.349,
              39.944
            ],
            [
              116.3492,
              39.944
            ],
            [
              116.3494,
              39.944
            ],
            [
              116.3496,
              39.944
            ],
            [
              116.3498,
              39.944
            ],
            [
              116.35,
              39.944
            ],
            [
              116.3502,
              39.944
            ],
            [
              116.3504,
              39.944
            ],
            [
              116.3506,
              39.944
            ],
            [
              116.3508,
              39.944
            ],
            [
              116.351,
              39.944
            ],
            [
              116.3512,
              39.944
            ],
            [
              116.3514,
              39.944
            ],
            [
              116.3516,
              39.944
            ],
            [
              116.3518,
              39.944
            ],
            [
              116.352,
              39.944
            ],
            [
              116.3522,
              39.944
            ],
            [
              116.3524,
              39.944
            ],
            [
              116.3526,
              39.944
            ],
            [
              116.3528,
              39.944
            ],
            [
              116.353,
              39.944
            ],
            [
              116.3532,
              39.944
            ],
            [
              116.3534,
              39.944
            ],
            [
              116.3536,
              39.944
            ],
            [
              116.3538,
              39.944
            ],
            [
              116.354,
              39.944
            ],
            [
              116.3542,
              39.944
            ],
            [
              116.3544,
              39.944
            ],
            [
              116.3546,
              39.944
            ],
            [
              116.3548,
              39.944
            ],
            [
              116.355,
              39.944
            ],
            [
              116.3552,
              39.944
            ],
            [
              116.3553,
              39.944
            ],
            [
              116.3553,
              39.939
            ],
            [
              116.3552,
              39.939
            ],
            [
              116.355,
              39.939
            ],
            [
              116.3548,
              39.939
            ],
            [
              116.3546,
              39.939
            ],
            [
              116.3544,
              39.939
            ],
            [
              116.3542,
              39.939
            ],
            [
              116.354,
              39.939
            ],
            [
              116.3538,
              39.939
            ],
            [
              116.3536,
              39.939
            ],
            [
              116.3534,
              39.939
            ],
            [
              116.3532,
              39.939
            ],
            [
              116.353,
              39.939
            ],
            [
              116.3528,
              39.939
            ],
            [
              116.3526,
              39.939
            ],
            [
              116.3524,
              39.939
            ],
            [
              116.3522,
              39.939
            ],
            [
              116.352,
              39.939
            ],
            [
              116.3518,
              39.939
            ],
            [
              116.3516,
              39.939
            ],
            [
              116.3514,
              39.939
            ],
            [
              116.3512,
              39.939
            ],
            [
              116.351,
              39.939
            ],
            [
              116.3508,
              39.939
            ],
            [
              116.3506,
              39.939
            ],
            [
              116.3504,
              39.939
            ],
            [
              116.3502,
              39.939
            ],
            [
              116.35,
              39.939
            ],
            [
              116.3498,
              39.939
            ],
            [
              116.3496,
              39.939
            ],
            [
              116.3494,
              39.939
            ],
            [
              116.3492,
              39.939
            ],
            [
              116.349,
              39.939
            ],
            [
              116.3488,
              39.939
            ],
            [
              116.3486,
              39.939
            ],
            [
              116.3484,
              39.939
            ],
            [
              116.3482,
              39.939
            ],
            [
              116.348,
              39.939
            ],
            [
              116.3478,
              39.939
            ],
            [
              116.3476,
              39.939
            ],
            [
              116.3474,
              39.939
            ],
            [
              116.3472,
              39.939
            ],
            [
              116.347,
              39.939
            ],
            [
              116.3468,
              39.939
            ],
            [
              116.3466,
              39.939
            ],
            [
              116.3464,
              39.939
            ],
            [
              116.3462,
              39.939
            ],
            [
              116.346,
              39.939
            ],
            [
              116.3458,
              39.939
            ],
            [
              116.3456,
              39.939
            ],
            [
              116.3454,
              39.939
            ],
            [
              116.3452,
              39.939
            ],
            [
              116.345,
              39.939
            ],
            [
              116.3448,
              39.939
            ],
            [
              116.3446,
              39.939
            ],
            [
              116.3444,
              39.939
            ],
            [
              116.3442,
              39.939
            ],
            [
              116.344,
              39.939
            ],
            [
              116.3438,
              39.939
            ],
            [
              116.3436,
              39.939
            ],
            [
              116.3434,
              39.939
            ],
            [
              116.3432,
              39.939
            ],
            [
              116.343,
              39.939
            ],
            [
              116.3428,
              39.939
            ],
            [
              116.3426,
              39.939
            ],
            [
              116.3424,
              39.939
            ],
            [
              116.3422,
              39.939
            ],
            [
              116.342,
              39.939
            ],
            [
              116.3418,
              39.939
            ],
            [
              116.3416,
              39.939
            ],
            [
              116.3414,
              39.939
            ],
            [
              116.3412,
              39.939
            ],
            [
              116.341,
              39.939
            ],
            [
              116.3408,
              39.939
            ],
            [
              116.3407,
              39.939
            ],
            [
              116.3405611,
              39.944
            ]
          ]
        ]
      }
    }
  ]
}
