{
  "type": "FeatureCollection",
  "name": "Switchback Belt green system",
  "features": [
    {
      "type": "Feature",
      "id": "GREEN-001",
      "properties": {
        "layer": "GREEN_SPACE",
        "source_type": "agent_generated_design",
        "confidence": "medium",
        "geometry_role": "design_proposal",
        "land_use_code": "1401",
        "name_zh": "折返脊·南起笔园段",
        "green_type": "park",
        "belt_segment_id": "S1",
        "design_intent_zh": "遗址公园南端起笔，承接西直门外大街人流",
        "id": "GREEN-001",
        "area_sqm_declared": 62831.669
      },
      "geometry": {
        "type": "Polygon",
        "coordinates": [
          [
            [
              116.3484,
              39.939
            ],
            [
              116.3482,
              39.939
            ],
            [
              116.348,
              39.939
            ],
            [
              116.3478,
              39.939
            ],
            [
              116.3476,
              39.939
            ],
            [
              116.3474,
              39.939
            ],
            [
              116.347297,
              39.939
            ],
            [
              116.347253,
              39.943836
            ],
            [
              116.3472724,
              39.943823
            ],
            [
              116.3473934,
              39.9437609
            ],
            [
              116.347524,
              39.9437116
            ],
            [
              116.3476619,
              39.9436757
            ],
            [
              116.3478047,
              39.9436539
            ],
            [
              116.34795,
              39.9436466
            ],
            [
              116.3480953,
              39.9436539
            ],
            [
              116.3482381,
              39.9436757
            ],
            [
              116.348376,
              39.9437116
            ],
            [
              116.3485066,
              39.9437609
            ],
            [
              116.3486276,
              39.943823
            ],
            [
              116.348659,
              39.9438441
            ],
            [
              116.348703,
              39.939
            ],
            [
              116.3486,
              39.939
            ],
            [
              116.3484,
              39.939
            ]
          ]
        ]
      }
    },
    {
      "type": "Feature",
      "id": "GREEN-002",
      "properties": {
        "layer": "GREEN_SPACE",
        "source_type": "agent_generated_design",
        "confidence": "medium",
        "geometry_role": "design_proposal",
        "land_use_code": "1401",
        "name_zh": "折返脊·回响园段",
        "green_type": "park",
        "belt_segment_id": "S2",
        "design_intent_zh": "回响区段公园，串联钟声主题公共空间",
        "id": "GREEN-002",
        "area_sqm_declared": 53501.756
      },
      "geometry": {
        "type": "MultiPolygon",
        "coordinates": [
          [
            [
              [
                116.3472267,
                39.9467305
              ],
              [
                116.3474,
                39.9467305
              ],
              [
                116.3476,
                39.9467305
              ],
              [
                116.3478,
                39.9467305
              ],
              [
                116.348,
                39.9467305
              ],
              [
                116.3482,
                39.9467305
              ],
              [
                116.3484,
                39.9467305
              ],
              [
                116.3486,
                39.9467305
              ],
              [
                116.3486328,
                39.9467305
              ],
              [
                116.348647,
                39.9451639
              ],
              [
                116.3486276,
                39.945177
              ],
              [
                116.3485066,
                39.9452391
              ],
              [
                116.348376,
                39.9452884
              ],
              [
                116.3482381,
                39.9453243
              ],
              [
                116.3480953,
                39.9453461
              ],
              [
                116.34795,
                39.9453534
              ],
              [
                116.3478047,
                39.9453461
              ],
              [
                116.3476619,
                39.9453243
              ],
              [
                116.347524,
                39.9452884
              ],
              [
                116.3473934,
                39.9452391
              ],
              [
                116.3472724,
                39.945177
              ],
              [
                116.347241,
                39.9451559
              ],
              [
                116.3472267,
                39.9467305
              ]
            ]
          ],
          [
            [
              [
                116.3471984,
                39.94984
              ],
              [
                116.3472,
                39.94984
              ],
              [
                116.3474,
                39.94984
              ],
              [
                116.3476,
                39.94984
              ],
              [
                116.3478,
                39.94984
              ],
              [
                116.348,
                39.94984
              ],
              [
                116.3482,
                39.94984
              ],
              [
                116.3484,
                39.94984
              ],
              [
                116.3486,
                39.94984
              ],
              [
                116.3486045,
                39.94984
              ],
              [
                116.3486279,
                39.9472695
              ],
              [
                116.3486,
                39.9472695
              ],
              [
                116.3484,
                39.9472695
              ],
              [
                116.3482,
                39.9472695
              ],
              [
                116.348,
                39.9472695
              ],
              [
                116.3478,
                39.9472695
              ],
              [
                116.3476,
                39.9472695
              ],
              [
                116.3474,
                39.9472695
              ],
              [
                116.3472218,
                39.9472695
              ],
              [
                116.3471984,
                39.94984
              ]
            ]
          ]
        ]
      }
    },
    {
      "type": "Feature",
      "id": "GREEN-003",
      "properties": {
        "layer": "GREEN_SPACE",
        "source_type": "agent_generated_design",
        "confidence": "medium",
        "geometry_role": "design_proposal",
        "land_use_code": "1401",
        "name_zh": "折返脊·回响北园段",
        "green_type": "park",
        "belt_segment_id": "S3",
        "design_intent_zh": "公园连续段，缝合居住区与产业界面",
        "id": "GREEN-003",
        "area_sqm_declared": 61077.897
      },
      "geometry": {
        "type": "MultiPolygon",
        "coordinates": [
          [
            [
              [
                116.3484,
                39.94984
              ],
              [
                116.3482,
                39.94984
              ],
              [
                116.348,
                39.94984
              ],
              [
                116.3478,
                39.94984
              ],
              [
                116.3476,
                39.94984
              ],
              [
                116.3474,
                39.94984
              ],
              [
                116.3472,
                39.94984
              ],
              [
                116.3471984,
                39.94984
              ],
              [
                116.3471969,
                39.95
              ],
              [
                116.3471524,
                39.9533341
              ],
              [
                116.3471689,
                39.953323
              ],
              [
                116.34729,
                39.9532609
              ],
              [
                116.3474206,
                39.9532116
              ],
              [
                116.3475585,
                39.9531757
              ],
              [
                116.3477014,
                39.9531539
              ],
              [
                116.3478467,
                39.9531466
              ],
              [
                116.347992,
                39.9531539
              ],
              [
                116.3481348,
                39.9531757
              ],
              [
                116.3482727,
                39.9532116
              ],
              [
                116.3484033,
                39.9532609
              ],
              [
                116.3485244,
                39.953323
              ],
              [
                116.3485585,
                39.9533459
              ],
              [
                116.3486031,
                39.95
              ],
              [
                116.3486045,
                39.94984
              ],
              [
                116.3486,
                39.94984
              ],
              [
                116.3484,
                39.94984
              ]
            ]
          ],
          [
            [
              [
                116.3471169,
                39.956
              ],
              [
                116.3472,
                39.956
              ],
              [
                116.3474,
                39.956
              ],
              [
                116.3476,
                39.956
              ],
              [
                116.3478,
                39.956
              ],
              [
                116.348,
                39.956
              ],
              [
                116.3482,
                39.956
              ],
              [
                116.3484,
                39.956
              ],
              [
                116.3485231,
                39.956
              ],
              [
                116.3485409,
                39.9546659
              ],
              [
                116.3485244,
                39.954677
              ],
              [
                116.3484033,
                39.9547391
              ],
              [
                116.3482727,
                39.9547884
              ],
              [
                116.3481348,
                39.9548243
              ],
              [
                116.347992,
                39.9548461
              ],
              [
                116.3478467,
                39.9548534
              ],
              [
                116.3477014,
                39.9548461
              ],
              [
                116.3475585,
                39.9548243
              ],
              [
                116.3474206,
                39.9547884
              ],
              [
                116.34729,
                39.9547391
              ],
              [
                116.3471689,
                39.954677
              ],
              [
                116.3471348,
                39.9546541
              ],
              [
                116.3471169,
                39.956
              ]
            ]
          ]
        ]
      }
    },
    {
      "type": "Feature",
      "id": "GREEN-004",
      "properties": {
        "layer": "GREEN_SPACE",
        "source_type": "agent_generated_design",
        "confidence": "medium",
        "geometry_role": "design_proposal",
        "land_use_code": "1402",
        "name_zh": "北三环防护绿带",
        "green_type": "buffer",
        "belt_segment_id": "S4",
        "design_intent_zh": "沿快速路的防护绿地与噪声缓冲",
        "id": "GREEN-004",
        "area_sqm_declared": 498517.604
      },
      "geometry": {
        "type": "Polygon",
        "coordinates": [
          [
            [
              116.3468,
              39.956
            ],
            [
              116.3466,
              39.956
            ],
            [
              116.3464,
              39.956
            ],
            [
              116.3462,
              39.956
            ],
            [
              116.346,
              39.956
            ],
            [
              116.3458,
              39.956
            ],
            [
              116.3456,
              39.956
            ],
            [
              116.3454,
              39.956
            ],
            [
              116.3452,
              39.956
            ],
            [
              116.345,
              39.956
            ],
            [
              116.3448,
              39.956
            ],
            [
              116.3446,
              39.956
            ],
            [
              116.3444,
              39.956
            ],
            [
              116.3442,
              39.956
            ],
            [
              116.344,
              39.956
            ],
            [
              116.3438,
              39.956
            ],
            [
              116.3436,
              39.956
            ],
            [
              116.3434,
              39.956
            ],
            [
              116.3432,
              39.956
            ],
            [
              116.343,
              39.956
            ],
            [
              116.3428,
              39.956
            ],
            [
              116.3426,
              39.956
            ],
            [
              116.3424,
              39.956
            ],
            [
              116.3422,
              39.956
            ],
            [
              116.342,
              39.956
            ],
            [
              116.3418,
              39.956
            ],
            [
              116.3416,
              39.956
            ],
            [
              116.3414,
              39.956
            ],
            [
              116.3412,
              39.956
            ],
            [
              116.341,
              39.956
            ],
            [
              116.3408,
              39.956
            ],
            [
              116.3406,
              39.956
            ],
            [
              116.3404,
              39.956
            ],
            [
              116.3402278,
              39.956
            ],
            [
              116.3400167,
              39.9636
            ],
            [
              116.3402,
              39.9636
            ],
            [
              116.3404,
              39.9636
            ],
            [
              116.3406,
              39.9636
            ],
            [
              116.3408,
              39.9636
            ],
            [
              116.341,
              39.9636
            ],
            [
              116.3412,
              39.9636
            ],
            [
              116.3414,
              39.9636
            ],
            [
              116.3416,
              39.9636
            ],
            [
              116.3418,
              39.9636
            ],
            [
              116.342,
              39.9636
            ],
            [
              116.3422,
              39.9636
            ],
            [
              116.3424,
              39.9636
            ],
            [
              116.3426,
              39.9636
            ],
            [
              116.3428,
              39.9636
            ],
            [
              116.343,
              39.9636
            ],
            [
              116.3432,
              39.9636
            ],
            [
              116.3434,
              39.9636
            ],
            [
              116.3436,
              39.9636
            ],
            [
              116.3438,
              39.9636
            ],
            [
              116.344,
              39.9636
            ],
            [
              116.3442,
              39.9636
            ],
            [
              116.3444,
              39.9636
            ],
            [
              116.3446,
              39.9636
            ],
            [
              116.3448,
              39.9636
            ],
            [
              116.345,
              39.9636
            ],
            [
              116.3452,
              39.9636
            ],
            [
              116.3454,
              39.9636
            ],
            [
              116.3456,
              39.9636
            ],
            [
              116.3458,
              39.9636
            ],
            [
              116.346,
              39.9636
            ],
            [
              116.3462,
              39.9636
            ],
            [
              116.3464,
              39.9636
            ],
            [
              116.3466,
              39.9636
            ],
            [
              116.3466151,
              39.9636
            ],
            [
              116.3466066,
              39.9635
            ],
            [
              116.3466161,
              39.9633886
            ],
            [
              116.3466445,
              39.9632791
            ],
            [
              116.3466913,
              39.9631734
            ],
            [
              116.3467557,
              39.9630733
            ],
            [
              116.3468367,
              39.9629805
            ],
            [
              116.3469327,
              39.9628966
            ],
            [
              116.3470256,
              39.9628341
            ],
            [
              116.3471169,
              39.956
            ],
            [
              116.347,
              39.956
            ],
            [
              116.3468,
              39.956
            ]
          ]
        ]
      }
    },
    {
      "type": "Feature",
      "id": "GREEN-005",
      "properties": {
        "layer": "GREEN_SPACE",
        "source_type": "agent_generated_design",
        "confidence": "medium",
        "geometry_role": "design_proposal",
        "land_use_code": "1401",
        "name_zh": "折返脊·联络园段",
        "green_type": "park",
        "belt_segment_id": "S4",
        "design_intent_zh": "跨北三环节点两侧的公园连接段",
        "id": "GREEN-005",
        "area_sqm_declared": 89514.997
      },
      "geometry": {
        "type": "Polygon",
        "coordinates": [
          [
            [
              116.3482,
              39.956
            ],
            [
              116.348,
              39.956
            ],
            [
              116.3478,
              39.956
            ],
            [
              116.3476,
              39.956
            ],
            [
              116.3474,
              39.956
            ],
            [
              116.3472,
              39.956
            ],
            [
              116.3471169,
              39.956
            ],
            [
              116.3470256,
              39.9628341
            ],
            [
              116.3470422,
              39.962823
            ],
            [
              116.3471633,
              39.9627609
            ],
            [
              116.3472939,
              39.9627116
            ],
            [
              116.3474318,
              39.9626757
            ],
            [
              116.3475747,
              39.9626539
            ],
            [
              116.34772,
              39.9626466
            ],
            [
              116.3478653,
              39.9626539
            ],
            [
              116.3480082,
              39.9626757
            ],
            [
              116.3481461,
              39.9627116
            ],
            [
              116.3482767,
              39.9627609
            ],
            [
              116.3483978,
              39.962823
            ],
            [
              116.3484319,
              39.9628459
            ],
            [
              116.3485231,
              39.956
            ],
            [
              116.3484,
              39.956
            ],
            [
              116.3482,
              39.956
            ]
          ]
        ]
      }
    },
    {
      "type": "Feature",
      "id": "GREEN-006",
      "properties": {
        "layer": "GREEN_SPACE",
        "source_type": "agent_generated_design",
        "confidence": "medium",
        "geometry_role": "design_proposal",
        "land_use_code": "1401",
        "name_zh": "折返脊·策源园段",
        "green_type": "park",
        "belt_segment_id": "S5",
        "design_intent_zh": "策源段公园，承载开发者散步道主段",
        "id": "GREEN-006",
        "area_sqm_declared": 115192.958
      },
      "geometry": {
        "type": "MultiPolygon",
        "coordinates": [
          [
            [
              [
                116.3469968,
                39.965
              ],
              [
                116.3468916,
                39.966753
              ],
              [
                116.347,
                39.966753
              ],
              [
                116.3472,
                39.966753
              ],
              [
                116.3474,
                39.966753
              ],
              [
                116.3476,
                39.966753
              ],
              [
                116.3478,
                39.966753
              ],
              [
                116.348,
                39.966753
              ],
              [
                116.3482,
                39.966753
              ],
              [
                116.348298,
                39.966753
              ],
              [
                116.3484032,
                39.965
              ],
              [
                116.3484143,
                39.9641659
              ],
              [
                116.3483978,
                39.964177
              ],
              [
                116.3482767,
                39.9642391
              ],
              [
                116.3481461,
                39.9642884
              ],
              [
                116.3480082,
                39.9643243
              ],
              [
                116.3478653,
                39.9643461
              ],
              [
                116.34772,
                39.9643534
              ],
              [
                116.3475747,
                39.9643461
              ],
              [
                116.3474318,
                39.9643243
              ],
              [
                116.3472939,
                39.9642884
              ],
              [
                116.3471633,
                39.9642391
              ],
              [
                116.3470422,
                39.964177
              ],
              [
                116.347008,
                39.964154
              ],
              [
                116.3469968,
                39.965
              ]
            ]
          ],
          [
            [
              [
                116.3466178,
                39.9713149
              ],
              [
                116.3467232,
                39.9712609
              ],
              [
                116.3468539,
                39.9712116
              ],
              [
                116.3469918,
                39.9711757
              ],
              [
                116.3471346,
                39.9711539
              ],
              [
                116.34728,
                39.9711466
              ],
              [
                116.3474254,
                39.9711539
              ],
              [
                116.3475682,
                39.9711757
              ],
              [
                116.3477061,
                39.9712116
              ],
              [
                116.3478368,
                39.9712609
              ],
              [
                116.3479579,
                39.971323
              ],
              [
                116.3480213,
                39.9713656
              ],
              [
                116.3482684,
                39.967247
              ],
              [
                116.3482,
                39.967247
              ],
              [
                116.348,
                39.967247
              ],
              [
                116.3478,
                39.967247
              ],
              [
                116.3476,
                39.967247
              ],
              [
                116.3474,
                39.967247
              ],
              [
                116.3472,
                39.967247
              ],
              [
                116.347,
                39.967247
              ],
              [
                116.346862,
                39.967247
              ],
              [
                116.3466178,
                39.9713149
              ]
            ]
          ],
          [
            [
              [
                116.3463967,
                39.975
              ],
              [
                116.3464,
                39.975
              ],
              [
                116.3466,
                39.975
              ],
              [
                116.3468,
                39.975
              ],
              [
                116.347,
                39.975
              ],
              [
                116.3472,
                39.975
              ],
              [
                116.3474,
                39.975
              ],
              [
                116.3476,
                39.975
              ],
              [
                116.3478,
                39.975
              ],
              [
                116.3478033,
                39.975
              ],
              [
                116.3479422,
                39.9726851
              ],
              [
                116.3478368,
                39.9727391
              ],
              [
                116.3477061,
                39.9727884
              ],
              [
                116.3475682,
                39.9728243
              ],
              [
                116.3474254,
                39.9728461
              ],
              [
                116.34728,
                39.9728534
              ],
              [
                116.3471346,
                39.9728461
              ],
              [
                116.3469918,
                39.9728243
              ],
              [
                116.3468539,
                39.9727884
              ],
              [
                116.3467232,
                39.9727391
              ],
              [
                116.3466021,
                39.972677
              ],
              [
                116.3465387,
                39.9726344
              ],
              [
                116.3463967,
                39.975
              ]
            ]
          ]
        ]
      }
    },
    {
      "type": "Feature",
      "id": "GREEN-007",
      "properties": {
        "layer": "GREEN_SPACE",
        "source_type": "agent_generated_design",
        "confidence": "medium",
        "geometry_role": "design_proposal",
        "land_use_code": "1401",
        "name_zh": "折返脊·缝合园段",
        "green_type": "park",
        "belt_segment_id": "S6",
        "design_intent_zh": "校园与公园之间的缝合公园段",
        "id": "GREEN-007",
        "area_sqm_declared": 85711.608
      },
      "geometry": {
        "type": "MultiPolygon",
        "coordinates": [
          [
            [
              [
                116.3464,
                39.9835
              ],
              [
                116.3466,
                39.9835
              ],
              [
                116.3468,
                39.9835
              ],
              [
                116.347,
                39.9835
              ],
              [
                116.3472,
                39.9835
              ],
              [
                116.3474,
                39.9835
              ],
              [
                116.3475034,
                39.9835
              ],
              [
                116.3475854,
                39.981176
              ],
              [
                116.3475839,
                39.981177
              ],
              [
                116.3474627,
                39.9812391
              ],
              [
                116.3473321,
                39.9812884
              ],
              [
                116.3471941,
                39.9813243
              ],
              [
                116.3470513,
                39.9813461
              ],
              [
                116.3469059,
                39.9813534
              ],
              [
                116.3467605,
                39.9813461
              ],
              [
                116.3466176,
                39.9813243
              ],
              [
                116.3464797,
                39.9812884
              ],
              [
                116.346349,
                39.9812391
              ],
              [
                116.3462279,
                39.981177
              ],
              [
                116.3461798,
                39.9811446
              ],
              [
                116.3460966,
                39.9835
              ],
              [
                116.3462,
                39.9835
              ],
              [
                116.3464,
                39.9835
              ]
            ]
          ],
          [
            [
              [
                116.3476535,
                39.979247
              ],
              [
                116.3476,
                39.979247
              ],
              [
                116.3474,
                39.979247
              ],
              [
                116.3472,
                39.979247
              ],
              [
                116.347,
                39.979247
              ],
              [
                116.3468,
                39.979247
              ],
              [
                116.3466,
                39.979247
              ],
              [
                116.3464,
                39.979247
              ],
              [
                116.3462468,
                39.979247
              ],
              [
                116.3462264,
                39.979824
              ],
              [
                116.3462279,
                39.979823
              ],
              [
                116.346349,
                39.9797609
              ],
              [
                116.3464797,
                39.9797116
              ],
              [
                116.3466176,
                39.9796757
              ],
              [
                116.3467605,
                39.9796539
              ],
              [
                116.3469059,
                39.9796466
              ],
              [
                116.3470513,
                39.9796539
              ],
              [
                116.3471941,
                39.9796757
              ],
              [
                116.3473321,
                39.9797116
              ],
              [
                116.3474627,
                39.9797609
              ],
              [
                116.3475839,
                39.979823
              ],
              [
                116.347632,
                39.9798553
              ],
              [
                116.3476535,
                39.979247
              ]
            ]
          ],
          [
            [
              [
                116.3478033,
                39.975
              ],
              [
                116.3478,
                39.975
              ],
              [
                116.3476,
                39.975
              ],
              [
                116.3474,
                39.975
              ],
              [
                116.3472,
                39.975
              ],
              [
                116.347,
                39.975
              ],
              [
                116.3468,
                39.975
              ],
              [
                116.3466,
                39.975
              ],
              [
                116.3464,
                39.975
              ],
              [
                116.3463967,
                39.975
              ],
              [
                116.3462642,
                39.978753
              ],
              [
                116.3464,
                39.978753
              ],
              [
                116.3466,
                39.978753
              ],
              [
                116.3468,
                39.978753
              ],
              [
                116.347,
                39.978753
              ],
              [
                116.3472,
                39.978753
              ],
              [
                116.3474,
                39.978753
              ],
              [
                116.3476,
                39.978753
              ],
              [
                116.3476709,
                39.978753
              ],
              [
                116.3478033,
                39.975
              ]
            ]
          ]
        ]
      }
    },
    {
      "type": "Feature",
      "id": "GREEN-008",
      "properties": {
        "layer": "GREEN_SPACE",
        "source_type": "agent_generated_design",
        "confidence": "medium",
        "geometry_role": "design_proposal",
        "land_use_code": "1401",
        "name_zh": "折返脊·原点园段",
        "green_type": "park",
        "belt_segment_id": "S7",
        "design_intent_zh": "K0原点所在的公园核心段",
        "id": "GREEN-008",
        "area_sqm_declared": 111850.959
      },
      "geometry": {
        "type": "MultiPolygon",
        "coordinates": [
          [
            [
              [
                116.3468,
                39.9935
              ],
              [
                116.347,
                39.9935
              ],
              [
                116.3472,
                39.9935
              ],
              [
                116.3474,
                39.9935
              ],
              [
                116.3476,
                39.9935
              ],
              [
                116.3478,
                39.9935
              ],
              [
                116.3479035,
                39.9935
              ],
              [
                116.3477035,
                39.99
              ],
              [
                116.3476926,
                39.9896465
              ],
              [
                116.3476473,
                39.989677
              ],
              [
                116.3475262,
                39.9897391
              ],
              [
                116.3473955,
                39.9897884
              ],
              [
                116.3472575,
                39.9898243
              ],
              [
                116.3471146,
                39.9898461
              ],
              [
                116.3469692,
                39.9898534
              ],
              [
                116.3468238,
                39.9898461
              ],
              [
                116.3466809,
                39.9898243
              ],
              [
                116.346543,
                39.9897884
              ],
              [
                116.3464123,
                39.9897391
              ],
              [
                116.3462912,
                39.989677
              ],
              [
                116.3462865,
                39.9896738
              ],
              [
                116.3462965,
                39.99
              ],
              [
                116.3464965,
                39.9935
              ],
              [
                116.3466,
                39.9935
              ],
              [
                116.3468,
                39.9935
              ]
            ]
          ],
          [
            [
              [
                116.3475034,
                39.9835
              ],
              [
                116.3474,
                39.9835
              ],
              [
                116.3472,
                39.9835
              ],
              [
                116.347,
                39.9835
              ],
              [
                116.3468,
                39.9835
              ],
              [
                116.3466,
                39.9835
              ],
              [
                116.3464,
                39.9835
              ],
              [
                116.3462,
                39.9835
              ],
              [
                116.3460966,
                39.9835
              ],
              [
                116.3462407,
                39.9881856
              ],
              [
                116.3464,
                39.9881856
              ],
              [
                116.3466,
                39.9881856
              ],
              [
                116.3466429,
                39.9881856
              ],
              [
                116.3466809,
                39.9881757
              ],
              [
                116.3468238,
                39.9881539
              ],
              [
                116.3469692,
                39.9881466
              ],
              [
                116.3471146,
                39.9881539
              ],
              [
                116.3472575,
                39.9881757
              ],
              [
                116.3472956,
                39.9881856
              ],
              [
                116.3474,
                39.9881856
              ],
              [
                116.3476,
                39.9881856
              ],
              [
                116.3476476,
                39.9881856
              ],
              [
                116.3475034,
                39.9835
              ]
            ]
          ]
        ]
      }
    },
    {
      "type": "Feature",
      "id": "GREEN-009",
      "properties": {
        "layer": "GREEN_SPACE",
        "source_type": "agent_generated_design",
        "confidence": "medium",
        "geometry_role": "design_proposal",
        "land_use_code": "1401",
        "name_zh": "折返脊·五道口园段",
        "green_type": "park",
        "belt_segment_id": "S8",
        "design_intent_zh": "公园一期已建成段，保留既有球场与铁轨遗存",
        "id": "GREEN-009",
        "area_sqm_declared": 144617.467
      },
      "geometry": {
        "type": "MultiPolygon",
        "coordinates": [
          [
            [
              [
                116.3476,
                40.0075
              ],
              [
                116.3478,
                40.0075
              ],
              [
                116.348,
                40.0075
              ],
              [
                116.3482,
                40.0075
              ],
              [
                116.3484,
                40.0075
              ],
              [
                116.3486,
                40.0075
              ],
              [
                116.3487937,
                40.0075
              ],
              [
                116.3487037,
                40.006
              ],
              [
                116.3486162,
                40.0046327
              ],
              [
                116.3485502,
                40.004677
              ],
              [
                116.348429,
                40.0047391
              ],
              [
                116.3482983,
                40.0047884
              ],
              [
                116.3481603,
                40.0048243
              ],
              [
                116.3480174,
                40.0048461
              ],
              [
                116.347872,
                40.0048534
              ],
              [
                116.3477266,
                40.0048461
              ],
              [
                116.3475837,
                40.0048243
              ],
              [
                116.3474457,
                40.0047884
              ],
              [
                116.347315,
                40.0047391
              ],
              [
                116.3472123,
                40.0046865
              ],
              [
                116.3472963,
                40.006
              ],
              [
                116.3473863,
                40.0075
              ],
              [
                116.3474,
                40.0075
              ],
              [
                116.3476,
                40.0075
              ]
            ]
          ],
          [
            [
              [
                116.348104,
                39.9966327
              ],
              [
                116.3480381,
                39.996677
              ],
              [
                116.347917,
                39.9967391
              ],
              [
                116.3477863,
                39.9967884
              ],
              [
                116.3476483,
                39.9968243
              ],
              [
                116.3475054,
                39.9968461
              ],
              [
                116.34736,
                39.9968534
              ],
              [
                116.3472146,
                39.9968461
              ],
              [
                116.3470717,
                39.9968243
              ],
              [
                116.3469337,
                39.9967884
              ],
              [
                116.346803,
                39.9967391
              ],
              [
                116.3467004,
                39.9966865
              ],
              [
                116.3471278,
                40.0033673
              ],
              [
                116.3471938,
                40.003323
              ],
              [
                116.347315,
                40.0032609
              ],
              [
                116.3474457,
                40.0032116
              ],
              [
                116.3475837,
                40.0031757
              ],
              [
                116.3477266,
                40.0031539
              ],
              [
                116.347872,
                40.0031466
              ],
              [
                116.3480174,
                40.0031539
              ],
              [
                116.3481603,
                40.0031757
              ],
              [
                116.3482983,
                40.0032116
              ],
              [
                116.348429,
                40.0032609
              ],
              [
                116.3485317,
                40.0033135
              ],
              [
                116.348104,
                39.9966327
              ]
            ]
          ],
          [
            [
              [
                116.3479035,
                39.9935
              ],
              [
                116.3478,
                39.9935
              ],
              [
                116.3476,
                39.9935
              ],
              [
                116.3474,
                39.9935
              ],
              [
                116.3472,
                39.9935
              ],
              [
                116.347,
                39.9935
              ],
              [
                116.3468,
                39.9935
              ],
              [
                116.3466,
                39.9935
              ],
              [
                116.3464965,
                39.9935
              ],
              [
                116.346616,
                39.9953673
              ],
              [
                116.3466819,
                39.995323
              ],
              [
                116.346803,
                39.9952609
              ],
              [
                116.3469337,
                39.9952116
              ],
              [
                116.3470717,
                39.9951757
              ],
              [
                116.3472146,
                39.9951539
              ],
              [
                116.34736,
                39.9951466
              ],
              [
                116.3475054,
                39.9951539
              ],
              [
                116.3476483,
                39.9951757
              ],
              [
                116.3477863,
                39.9952116
              ],
              [
                116.347917,
                39.9952609
              ],
              [
                116.3480196,
                39.9953135
              ],
              [
                116.3479035,
                39.9935
              ]
            ]
          ]
        ]
      }
    },
    {
      "type": "Feature",
      "id": "GREEN-010",
      "properties": {
        "layer": "GREEN_SPACE",
        "source_type": "agent_generated_design",
        "confidence": "medium",
        "geometry_role": "design_proposal",
        "land_use_code": "1401",
        "name_zh": "折返脊·上行园段",
        "green_type": "park",
        "belt_segment_id": "S9",
        "design_intent_zh": "上行区段公园，承载折返台地标",
        "id": "GREEN-010",
        "area_sqm_declared": 80770.599
      },
      "geometry": {
        "type": "MultiPolygon",
        "coordinates": [
          [
            [
              [
                116.3482,
                40.016
              ],
              [
                116.3484,
                40.016
              ],
              [
                116.3486,
                40.016
              ],
              [
                116.3488,
                40.016
              ],
              [
                116.349,
                40.016
              ],
              [
                116.3492,
                40.016
              ],
              [
                116.3493038,
                40.016
              ],
              [
                116.3491477,
                40.0133983
              ],
              [
                116.3487407,
                40.0133983
              ],
              [
                116.3487407,
                40.0122695
              ],
              [
                116.3486,
                40.0122695
              ],
              [
                116.3484,
                40.0122695
              ],
              [
                116.3482,
                40.0122695
              ],
              [
                116.348,
                40.0122695
              ],
              [
                116.3478,
                40.0122695
              ],
              [
                116.3476724,
                40.0122695
              ],
              [
                116.3478962,
                40.016
              ],
              [
                116.348,
                40.016
              ],
              [
                116.3482,
                40.016
              ]
            ]
          ],
          [
            [
              [
                116.3490118,
                40.0111344
              ],
              [
                116.3489483,
                40.011177
              ],
              [
                116.3488271,
                40.0112391
              ],
              [
                116.3486964,
                40.0112884
              ],
              [
                116.3485584,
                40.0113243
              ],
              [
                116.3484154,
                40.0113461
              ],
              [
                116.34827,
                40.0113534
              ],
              [
                116.3481246,
                40.0113461
              ],
              [
                116.3479816,
                40.0113243
              ],
              [
                116.3478436,
                40.0112884
              ],
              [
                116.3477129,
                40.0112391
              ],
              [
                116.3476074,
                40.011185
              ],
              [
                116.3476401,
                40.0117305
              ],
              [
                116.3478,
                40.0117305
              ],
              [
                116.348,
                40.0117305
              ],
              [
                116.3482,
                40.0117305
              ],
              [
                116.3484,
                40.0117305
              ],
              [
                116.3486,
                40.0117305
              ],
              [
                116.3487407,
                40.0117305
              ],
              [
                116.3487407,
                40.0116017
              ],
              [
                116.3490399,
                40.0116017
              ],
              [
                116.3490118,
                40.0111344
              ]
            ]
          ],
          [
            [
              [
                116.3487937,
                40.0075
              ],
              [
                116.3486,
                40.0075
              ],
              [
                116.3484,
                40.0075
              ],
              [
                116.3482,
                40.0075
              ],
              [
                116.348,
                40.0075
              ],
              [
                116.3478,
                40.0075
              ],
              [
                116.3476,
                40.0075
              ],
              [
                116.3474,
                40.0075
              ],
              [
                116.3473863,
                40.0075
              ],
              [
                116.3475282,
                40.0098656
              ],
              [
                116.3475917,
                40.009823
              ],
              [
                116.3477129,
                40.0097609
              ],
              [
                116.3478436,
                40.0097116
              ],
              [
                116.3479816,
                40.0096757
              ],
              [
                116.3481246,
                40.0096539
              ],
              [
                116.34827,
                40.0096466
              ],
              [
                116.3484154,
                40.0096539
              ],
              [
                116.3485584,
                40.0096757
              ],
              [
                116.3486964,
                40.0097116
              ],
              [
                116.3488271,
                40.0097609
              ],
              [
                116.3489326,
                40.009815
              ],
              [
                116.3487937,
                40.0075
              ]
            ]
          ]
        ]
      }
    },
    {
      "type": "Feature",
      "id": "GREEN-011",
      "properties": {
        "layer": "GREEN_SPACE",
        "source_type": "agent_generated_design",
        "confidence": "medium",
        "geometry_role": "design_proposal",
        "land_use_code": "1402",
        "name_zh": "北五环防护绿带",
        "green_type": "buffer",
        "belt_segment_id": "S10",
        "design_intent_zh": "沿北五环的防护绿地与生态缓冲",
        "id": "GREEN-011",
        "area_sqm_declared": 552879.039
      },
      "geometry": {
        "type": "Polygon",
        "coordinates": [
          [
            [
              116.343,
              40.0265
            ],
            [
              116.3432,
              40.0265
            ],
            [
              116.3434,
              40.0265
            ],
            [
              116.3436,
              40.0265
            ],
            [
              116.3438,
              40.0265
            ],
            [
              116.344,
              40.0265
            ],
            [
              116.3442,
              40.0265
            ],
            [
              116.3444,
              40.0265
            ],
            [
              116.3446,
              40.0265
            ],
            [
              116.3448,
              40.0265
            ],
            [
              116.345,
              40.0265
            ],
            [
              116.3452,
              40.0265
            ],
            [
              116.3454,
              40.0265
            ],
            [
              116.3456,
              40.0265
            ],
            [
              116.3458,
              40.0265
            ],
            [
              116.346,
              40.0265
            ],
            [
              116.3462,
              40.0265
            ],
            [
              116.3464,
              40.0265
            ],
            [
              116.3466,
              40.0265
            ],
            [
              116.3468,
              40.0265
            ],
            [
              116.347,
              40.0265
            ],
            [
              116.3472,
              40.0265
            ],
            [
              116.3474,
              40.0265
            ],
            [
              116.3476,
              40.0265
            ],
            [
              116.3478,
              40.0265
            ],
            [
              116.348,
              40.0265
            ],
            [
              116.3481724,
              40.0265
            ],
            [
              116.3480454,
              40.0216718
            ],
            [
              116.3479436,
              40.0216034
            ],
            [
              116.3478475,
              40.0215195
            ],
            [
              116.3477665,
              40.0214267
            ],
            [
              116.347702,
              40.0213266
            ],
            [
              116.3476552,
              40.0212209
            ],
            [
              116.3476267,
              40.0211114
            ],
            [
              116.3476172,
              40.021
            ],
            [
              116.3476267,
              40.0208886
            ],
            [
              116.3476552,
              40.0207791
            ],
            [
              116.347702,
              40.0206734
            ],
            [
              116.3477665,
              40.0205733
            ],
            [
              116.3478475,
              40.0204805
            ],
            [
              116.3479436,
              40.0203966
            ],
            [
              116.3480107,
              40.0203516
            ],
            [
              116.3478962,
              40.016
            ],
            [
              116.3478,
              40.016
            ],
            [
              116.3476,
              40.016
            ],
            [
              116.3474,
              40.016
            ],
            [
              116.3472,
              40.016
            ],
            [
              116.347,
              40.016
            ],
            [
              116.3468,
              40.016
            ],
            [
              116.3466,
              40.016
            ],
            [
              116.3464,
              40.016
            ],
            [
              116.3462,
              40.016
            ],
            [
              116.346,
              40.016
            ],
            [
              116.3458,
              40.016
            ],
            [
              116.3456,
              40.016
            ],
            [
              116.3454,
              40.016
            ],
            [
              116.3452,
              40.016
            ],
            [
              116.345,
              40.016
            ],
            [
              116.3448,
              40.016
            ],
            [
              116.3446,
              40.016
            ],
            [
              116.3444,
              40.016
            ],
            [
              116.3442,
              40.016
            ],
            [
              116.344,
              40.016
            ],
            [
              116.3438,
              40.016
            ],
            [
              116.3436,
              40.016
            ],
            [
              116.3434,
              40.016
            ],
            [
              116.3432,
              40.016
            ],
            [
              116.343,
              40.016
            ],
            [
              116.3428,
              40.016
            ],
            [
              116.3426,
              40.016
            ],
            [
              116.3424,
              40.016
            ],
            [
              116.3422,
              40.016
            ],
            [
              116.3421878,
              40.016
            ],
            [
              116.3427,
              40.0265
            ],
            [
              116.3428,
              40.0265
            ],
            [
              116.343,
              40.0265
            ]
          ]
        ]
      }
    },
    {
      "type": "Feature",
      "id": "GREEN-012",
      "properties": {
        "layer": "GREEN_SPACE",
        "source_type": "agent_generated_design",
        "confidence": "medium",
        "geometry_role": "design_proposal",
        "land_use_code": "1401",
        "name_zh": "折返脊·清河门户园段",
        "green_type": "park",
        "belt_segment_id": "S10",
        "design_intent_zh": "清河界面的公园门户段",
        "id": "GREEN-012",
        "area_sqm_declared": 118997.485
      },
      "geometry": {
        "type": "MultiPolygon",
        "coordinates": [
          [
            [
              [
                116.3484,
                40.0265
              ],
              [
                116.3486,
                40.0265
              ],
              [
                116.3488,
                40.0265
              ],
              [
                116.349,
                40.0265
              ],
              [
                116.3492,
                40.0265
              ],
              [
                116.3494,
                40.0265
              ],
              [
                116.3495802,
                40.0265
              ],
              [
                116.3494525,
                40.0216485
              ],
              [
                116.34941,
                40.021677
              ],
              [
                116.3492888,
                40.0217391
              ],
              [
                116.349158,
                40.0217884
              ],
              [
                116.34902,
                40.0218243
              ],
              [
                116.348877,
                40.0218461
              ],
              [
                116.3487316,
                40.0218534
              ],
              [
                116.3485861,
                40.0218461
              ],
              [
                116.3484432,
                40.0218243
              ],
              [
                116.3483051,
                40.0217884
              ],
              [
                116.3481744,
                40.0217391
              ],
              [
                116.3480532,
                40.021677
              ],
              [
                116.3480454,
                40.0216718
              ],
              [
                116.3481724,
                40.0265
              ],
              [
                116.3482,
                40.0265
              ],
              [
                116.3484,
                40.0265
              ]
            ]
          ],
          [
            [
              [
                116.3493038,
                40.016
              ],
              [
                116.3492,
                40.016
              ],
              [
                116.349,
                40.016
              ],
              [
                116.3488,
                40.016
              ],
              [
                116.3486,
                40.016
              ],
              [
                116.3484,
                40.016
              ],
              [
                116.3482,
                40.016
              ],
              [
                116.348,
                40.016
              ],
              [
                116.3478962,
                40.016
              ],
              [
                116.3480107,
                40.0203516
              ],
              [
                116.3480532,
                40.020323
              ],
              [
                116.3481744,
                40.0202609
              ],
              [
                116.3483051,
                40.0202116
              ],
              [
                116.3484432,
                40.0201757
              ],
              [
                116.3485861,
                40.0201539
              ],
              [
                116.3487316,
                40.0201466
              ],
              [
                116.348877,
                40.0201539
              ],
              [
                116.34902,
                40.0201757
              ],
              [
                116.349158,
                40.0202116
              ],
              [
                116.3492888,
                40.0202609
              ],
              [
                116.34941,
                40.020323
              ],
              [
                116.3494177,
                40.0203282
              ],
              [
                116.3493038,
                40.016
              ]
            ]
          ]
        ]
      }
    }
  ]
}
