{
  "type": "FeatureCollection",
  "name": "Switchback Belt mobility network",
  "features": [
    {
      "type": "Feature",
      "id": "ROAD-001",
      "properties": {
        "layer": "ROAD_CENTERLINE",
        "source_type": "agent_generated_design",
        "confidence": "medium",
        "geometry_role": "design_proposal",
        "road_class": "greenway",
        "name_zh": "折返脊·开发者散步道（主线慢行）",
        "design_intent_zh": "全长贯通的步行与骑行主线，串联K0-K9里程碑节点",
        "control_status_zh": "概念建议，不构成道路红线或工程线位结论",
        "id": "ROAD-001"
      },
      "geometry": {
        "type": "LineString",
        "coordinates": [
          [
            116.348,
            39.939
          ],
          [
            116.3479,
            39.95
          ],
          [
            116.3477,
            39.965
          ],
          [
            116.3471,
            39.975
          ],
          [
            116.3468,
            39.9835
          ],
          [
            116.347,
            39.99
          ],
          [
            116.3472,
            39.9935
          ],
          [
            116.348,
            40.006
          ],
          [
            116.3486,
            40.016
          ],
          [
            116.34887631578948,
            40.0265
          ]
        ]
      }
    },
    {
      "type": "Feature",
      "id": "ROAD-002",
      "properties": {
        "layer": "ROAD_CENTERLINE",
        "source_type": "agent_generated_design",
        "confidence": "medium",
        "geometry_role": "design_proposal",
        "road_class": "pedestrian",
        "name_zh": "回响缝合廊·大钟寺四象限步行连通（步行主线）",
        "design_intent_zh": "把轨道站点四个象限用连续地面步行空间缝合起来",
        "control_status_zh": "概念建议，不构成道路红线或工程线位结论",
        "id": "ROAD-002"
      },
      "geometry": {
        "type": "LineString",
        "coordinates": [
          [
            116.34047777777778,
            39.947
          ],
          [
            116.3553,
            39.947
          ]
        ]
      }
    },
    {
      "type": "Feature",
      "id": "ROAD-003",
      "properties": {
        "layer": "ROAD_CENTERLINE",
        "source_type": "agent_generated_design",
        "confidence": "medium",
        "geometry_role": "design_proposal",
        "road_class": "pedestrian",
        "name_zh": "联络缝合廊·北三环两侧连通（步行主线）",
        "design_intent_zh": "跨快速路两侧的地面与桥下步行连通",
        "control_status_zh": "概念建议，不构成道路红线或工程线位结论",
        "id": "ROAD-003"
      },
      "geometry": {
        "type": "LineString",
        "coordinates": [
          [
            116.33992222222221,
            39.967
          ],
          [
            116.35514,
            39.967
          ]
        ]
      }
    },
    {
      "type": "Feature",
      "id": "ROAD-004",
      "properties": {
        "layer": "ROAD_CENTERLINE",
        "source_type": "agent_generated_design",
        "confidence": "medium",
        "geometry_role": "design_proposal",
        "road_class": "pedestrian",
        "name_zh": "策源缝合廊·校区园区连通（步行主线）",
        "design_intent_zh": "把高校校区、院所和公园连成日常步行网络",
        "control_status_zh": "概念建议，不构成道路红线或工程线位结论",
        "id": "ROAD-004"
      },
      "geometry": {
        "type": "LineString",
        "coordinates": [
          [
            116.33995806451613,
            39.979
          ],
          [
            116.35418,
            39.979
          ]
        ]
      }
    },
    {
      "type": "Feature",
      "id": "ROAD-005",
      "properties": {
        "layer": "ROAD_CENTERLINE",
        "source_type": "agent_generated_design",
        "confidence": "medium",
        "geometry_role": "design_proposal",
        "road_class": "pedestrian",
        "name_zh": "原点缝合廊·清华园车站前区（步行主线）",
        "design_intent_zh": "K0原点前区，串联车站遗存、发布厅与社区",
        "control_status_zh": "概念建议，不构成道路红线或工程线位结论",
        "id": "ROAD-005"
      },
      "geometry": {
        "type": "LineString",
        "coordinates": [
          [
            116.34057096774194,
            39.9885
          ],
          [
            116.35342,
            39.9885
          ]
        ]
      }
    },
    {
      "type": "Feature",
      "id": "ROAD-006",
      "properties": {
        "layer": "ROAD_CENTERLINE",
        "source_type": "agent_generated_design",
        "confidence": "medium",
        "geometry_role": "design_proposal",
        "road_class": "pedestrian",
        "name_zh": "上行缝合廊·众智园东西连通（步行主线）",
        "design_intent_zh": "把清河界面、公园与研发街区缝合",
        "control_status_zh": "概念建议，不构成道路红线或工程线位结论",
        "id": "ROAD-006"
      },
      "geometry": {
        "type": "LineString",
        "coordinates": [
          [
            116.34199268292683,
            40.012
          ],
          [
            116.35450547945206,
            40.012
          ]
        ]
      }
    },
    {
      "type": "Feature",
      "id": "ROAD-010",
      "properties": {
        "layer": "ROAD_CENTERLINE",
        "source_type": "agent_generated_design",
        "confidence": "medium",
        "geometry_role": "design_proposal",
        "road_class": "transit_connection",
        "name_zh": "大钟寺站接驳连廊（概念建议）",
        "design_intent_zh": "轨道站点与创新街区之间的地面接驳，线位待交通专业复核",
        "control_status_zh": "概念建议，不构成道路红线或工程线位结论",
        "id": "ROAD-010"
      },
      "geometry": {
        "type": "LineString",
        "coordinates": [
          [
            116.3435,
            39.9475
          ],
          [
            116.354,
            39.9475
          ]
        ]
      }
    },
    {
      "type": "Feature",
      "id": "ROAD-011",
      "properties": {
        "layer": "ROAD_CENTERLINE",
        "source_type": "agent_generated_design",
        "confidence": "medium",
        "geometry_role": "design_proposal",
        "road_class": "transit_connection",
        "name_zh": "五道口站接驳连廊（概念建议）",
        "design_intent_zh": "轨道站点与创新街区之间的地面接驳，线位待交通专业复核",
        "control_status_zh": "概念建议，不构成道路红线或工程线位结论",
        "id": "ROAD-011"
      },
      "geometry": {
        "type": "LineString",
        "coordinates": [
          [
            116.3415,
            39.9925
          ],
          [
            116.3525,
            39.9925
          ]
        ]
      }
    },
    {
      "type": "Feature",
      "id": "ROAD-012",
      "properties": {
        "layer": "ROAD_CENTERLINE",
        "source_type": "agent_generated_design",
        "confidence": "medium",
        "geometry_role": "design_proposal",
        "road_class": "transit_connection",
        "name_zh": "清河方向接驳连廊（概念建议）",
        "design_intent_zh": "轨道站点与创新街区之间的地面接驳，线位待交通专业复核",
        "control_status_zh": "概念建议，不构成道路红线或工程线位结论",
        "id": "ROAD-012"
      },
      "geometry": {
        "type": "LineString",
        "coordinates": [
          [
            116.3435,
            40.0235
          ],
          [
            116.354,
            40.0235
          ]
        ]
      }
    },
    {
      "type": "Feature",
      "id": "ROAD-013",
      "properties": {
        "layer": "ROAD_CENTERLINE",
        "source_type": "agent_generated_design",
        "confidence": "medium",
        "geometry_role": "design_proposal",
        "road_class": "transit_connection",
        "name_zh": "学院路方向接驳连廊（概念建议）",
        "design_intent_zh": "轨道站点与创新街区之间的地面接驳，线位待交通专业复核",
        "control_status_zh": "概念建议，不构成道路红线或工程线位结论",
        "id": "ROAD-013"
      },
      "geometry": {
        "type": "LineString",
        "coordinates": [
          [
            116.341,
            39.9705
          ],
          [
            116.3545,
            39.9705
          ]
        ]
      }
    },
    {
      "type": "Feature",
      "id": "ROAD-020",
      "properties": {
        "layer": "ROAD_CENTERLINE",
        "source_type": "agent_generated_design",
        "confidence": "medium",
        "geometry_role": "design_proposal",
        "road_class": "branch",
        "name_zh": "回响区西侧支路微循环",
        "design_intent_zh": "支路与骑行微循环，红线与断面待交通专业深化",
        "control_status_zh": "概念建议，不构成道路红线或工程线位结论",
        "id": "ROAD-020"
      },
      "geometry": {
        "type": "LineString",
        "coordinates": [
          [
            116.3435,
            39.941
          ],
          [
            116.344,
            39.955
          ],
          [
            116.3445,
            39.963
          ]
        ]
      }
    },
    {
      "type": "Feature",
      "id": "ROAD-021",
      "properties": {
        "layer": "ROAD_CENTERLINE",
        "source_type": "agent_generated_design",
        "confidence": "medium",
        "geometry_role": "design_proposal",
        "road_class": "branch",
        "name_zh": "试车翼东侧支路微循环",
        "design_intent_zh": "支路与骑行微循环，红线与断面待交通专业深化",
        "control_status_zh": "概念建议，不构成道路红线或工程线位结论",
        "id": "ROAD-021"
      },
      "geometry": {
        "type": "LineString",
        "coordinates": [
          [
            116.351,
            39.952
          ],
          [
            116.3515,
            39.97
          ],
          [
            116.3505,
            39.985
          ]
        ]
      }
    },
    {
      "type": "Feature",
      "id": "ROAD-022",
      "properties": {
        "layer": "ROAD_CENTERLINE",
        "source_type": "agent_generated_design",
        "confidence": "medium",
        "geometry_role": "design_proposal",
        "road_class": "branch",
        "name_zh": "编组翼西侧支路微循环",
        "design_intent_zh": "支路与骑行微循环，红线与断面待交通专业深化",
        "control_status_zh": "概念建议，不构成道路红线或工程线位结论",
        "id": "ROAD-022"
      },
      "geometry": {
        "type": "LineString",
        "coordinates": [
          [
            116.3435,
            39.985
          ],
          [
            116.343,
            40.002
          ],
          [
            116.344,
            40.015
          ]
        ]
      }
    },
    {
      "type": "Feature",
      "id": "ROAD-023",
      "properties": {
        "layer": "ROAD_CENTERLINE",
        "source_type": "agent_generated_design",
        "confidence": "medium",
        "geometry_role": "design_proposal",
        "road_class": "cycleway",
        "name_zh": "上行区骑行环线（概念建议）",
        "design_intent_zh": "支路与骑行微循环，红线与断面待交通专业深化",
        "control_status_zh": "概念建议，不构成道路红线或工程线位结论",
        "id": "ROAD-023"
      },
      "geometry": {
        "type": "LineString",
        "coordinates": [
          [
            116.3505,
            40.009
          ],
          [
            116.3515,
            40.018
          ],
          [
            116.352,
            40.024
          ]
        ]
      }
    }
  ]
}
