{
  "type": "FeatureCollection",
  "name": "jingzhang_human_loop_twelve_concept_building_prototypes",
  "metadata": {
    "coordinate_reference_system": "EPSG:4326",
    "measurement_crs": "EPSG:4548",
    "generated_date": "2026-08-10",
    "layer_purpose": "Twelve illustrative prototype footprints; no existing-building, demolition, height, FAR, or approval claim.",
    "status_notice": "Concept-design evidence only. Repository provisional boundaries are not official redlines, statutory controls, survey data, or an implementation basis.",
    "prototype_count": 12,
    "total_buildout": false,
    "existing_building_survey": false
  },
  "features": [
    {
      "type": "Feature",
      "id": "BLDG-001",
      "properties": {
        "id": "BLDG-001",
        "layer": "BUILDING_FOOTPRINT",
        "name_zh": "可信AI研发原型",
        "name_en": "Concept prototype 1",
        "building_type": "ai_r_and_d",
        "key_area_id": "PROV-KEY-001",
        "source_type": "agent_generated_design",
        "confidence": "low",
        "geometry_role": "design_proposal",
        "concept_status": "illustrative_prototype_footprint_only",
        "existing_condition_claim": false,
        "demolition_or_retention_claim": false,
        "floor_count": null,
        "height_m": null,
        "design_intent": "Prototype placement for relationship testing; not total buildout or engineering siting.",
        "area_sqm_declared": 7700.0
      },
      "geometry": {
        "type": "Polygon",
        "coordinates": [
          [
            [
              116.34512173562875,
              40.015622976805645
            ],
            [
              116.34639624057549,
              40.0157680464841
            ],
            [
              116.34651629825024,
              40.01514443376116
            ],
            [
              116.34524180461453,
              40.01499936547887
            ],
            [
              116.34512173562875,
              40.015622976805645
            ]
          ]
        ]
      }
    },
    {
      "type": "Feature",
      "id": "BLDG-002",
      "properties": {
        "id": "BLDG-002",
        "layer": "BUILDING_FOOTPRINT",
        "name_zh": "公共验证实验原型",
        "name_en": "Concept prototype 2",
        "building_type": "lab",
        "key_area_id": "PROV-KEY-001",
        "source_type": "agent_generated_design",
        "confidence": "low",
        "geometry_role": "design_proposal",
        "concept_status": "illustrative_prototype_footprint_only",
        "existing_condition_claim": false,
        "demolition_or_retention_claim": false,
        "floor_count": null,
        "height_m": null,
        "design_intent": "Prototype placement for relationship testing; not total buildout or engineering siting.",
        "area_sqm_declared": 7700.0
      },
      "geometry": {
        "type": "Polygon",
        "coordinates": [
          [
            [
              116.35050941942981,
              40.01565329793652
            ],
            [
              116.35178393714801,
              40.015798308453846
            ],
            [
              116.35190394591312,
              40.01517468976161
            ],
            [
              116.35062943950672,
              40.015029680639174
            ],
            [
              116.35050941942981,
              40.01565329793652
            ]
          ]
        ]
      }
    },
    {
      "type": "Feature",
      "id": "BLDG-003",
      "properties": {
        "id": "BLDG-003",
        "layer": "BUILDING_FOOTPRINT",
        "name_zh": "开放孵化原型",
        "name_en": "Concept prototype 3",
        "building_type": "incubator",
        "key_area_id": "PROV-KEY-001",
        "source_type": "agent_generated_design",
        "confidence": "low",
        "geometry_role": "design_proposal",
        "concept_status": "illustrative_prototype_footprint_only",
        "existing_condition_claim": false,
        "demolition_or_retention_claim": false,
        "floor_count": null,
        "height_m": null,
        "design_intent": "Prototype placement for relationship testing; not total buildout or engineering siting.",
        "area_sqm_declared": 7700.0
      },
      "geometry": {
        "type": "Polygon",
        "coordinates": [
          [
            [
              116.34509590945385,
              40.0183246516773
            ],
            [
              116.34637046452822,
              40.01846972197578
            ],
            [
              116.34649052750615,
              40.017846109609174
            ],
            [
              116.34521598374431,
              40.017701040706974
            ],
            [
              116.34509590945385,
              40.0183246516773
            ]
          ]
        ]
      }
    },
    {
      "type": "Feature",
      "id": "BLDG-004",
      "properties": {
        "id": "BLDG-004",
        "layer": "BUILDING_FOOTPRINT",
        "name_zh": "人本接驳原型",
        "name_en": "Concept prototype 4",
        "building_type": "mobility_hub",
        "key_area_id": "PROV-KEY-001",
        "source_type": "agent_generated_design",
        "confidence": "low",
        "geometry_role": "design_proposal",
        "concept_status": "illustrative_prototype_footprint_only",
        "existing_condition_claim": false,
        "demolition_or_retention_claim": false,
        "floor_count": null,
        "height_m": null,
        "design_intent": "Prototype placement for relationship testing; not total buildout or engineering siting.",
        "area_sqm_declared": 7700.0
      },
      "geometry": {
        "type": "Polygon",
        "coordinates": [
          [
            [
              116.35048380569029,
              40.018354975692674
            ],
            [
              116.35175837353789,
              40.01849998682441
            ],
            [
              116.35187838759958,
              40.01787636848795
            ],
            [
              116.35060383106529,
              40.017731358751234
            ],
            [
              116.35048380569029,
              40.018354975692674
            ]
          ]
        ]
      }
    },
    {
      "type": "Feature",
      "id": "BLDG-005",
      "properties": {
        "id": "BLDG-005",
        "layer": "BUILDING_FOOTPRINT",
        "name_zh": "开放学习原型",
        "name_en": "Concept prototype 5",
        "building_type": "education",
        "key_area_id": "PROV-KEY-002",
        "source_type": "agent_generated_design",
        "confidence": "low",
        "geometry_role": "design_proposal",
        "concept_status": "illustrative_prototype_footprint_only",
        "existing_condition_claim": false,
        "demolition_or_retention_claim": false,
        "floor_count": null,
        "height_m": null,
        "design_intent": "Prototype placement for relationship testing; not total buildout or engineering siting.",
        "area_sqm_declared": 7700.0
      },
      "geometry": {
        "type": "Polygon",
        "coordinates": [
          [
            [
              116.34423586995084,
              39.9875117559843
            ],
            [
              116.34551248256457,
              39.98738109677808
            ],
            [
              116.34540438498722,
              39.98675619352244
            ],
            [
              116.34412778383273,
              39.98688685164428
            ],
            [
              116.34423586995084,
              39.9875117559843
            ]
          ]
        ]
      }
    },
    {
      "type": "Feature",
      "id": "BLDG-006",
      "properties": {
        "id": "BLDG-006",
        "layer": "BUILDING_FOOTPRINT",
        "name_zh": "职住服务混合原型",
        "name_en": "Concept prototype 6",
        "building_type": "mixed_use",
        "key_area_id": "PROV-KEY-002",
        "source_type": "agent_generated_design",
        "confidence": "low",
        "geometry_role": "design_proposal",
        "concept_status": "illustrative_prototype_footprint_only",
        "existing_condition_claim": false,
        "demolition_or_retention_claim": false,
        "floor_count": null,
        "height_m": null,
        "design_intent": "Prototype placement for relationship testing; not total buildout or engineering siting.",
        "area_sqm_declared": 7700.0
      },
      "geometry": {
        "type": "Polygon",
        "coordinates": [
          [
            [
              116.34962134380882,
              39.98754210075067
            ],
            [
              116.35089794752986,
              39.98741138214812
            ],
            [
              116.35078980076729,
              39.986786483525485
            ],
            [
              116.3495132085049,
              39.9869172010424
            ],
            [
              116.34962134380882,
              39.98754210075067
            ]
          ]
        ]
      }
    },
    {
      "type": "Feature",
      "id": "BLDG-007",
      "properties": {
        "id": "BLDG-007",
        "layer": "BUILDING_FOOTPRINT",
        "name_zh": "京张文化展示原型",
        "name_en": "Concept prototype 7",
        "building_type": "cultural",
        "key_area_id": "PROV-KEY-002",
        "source_type": "agent_generated_design",
        "confidence": "low",
        "geometry_role": "design_proposal",
        "concept_status": "illustrative_prototype_footprint_only",
        "existing_condition_claim": false,
        "demolition_or_retention_claim": false,
        "floor_count": null,
        "height_m": null,
        "design_intent": "Prototype placement for relationship testing; not total buildout or engineering siting.",
        "area_sqm_declared": 7700.0
      },
      "geometry": {
        "type": "Polygon",
        "coordinates": [
          [
            [
              116.34421003455532,
              39.990213443521185
            ],
            [
              116.34548669758134,
              39.990082785066015
            ],
            [
              116.34537859631574,
              39.98945788204417
            ],
            [
              116.34410194475056,
              39.989588539414854
            ],
            [
              116.34421003455532,
              39.990213443521185
            ]
          ]
        ]
      }
    },
    {
      "type": "Feature",
      "id": "BLDG-008",
      "properties": {
        "id": "BLDG-008",
        "layer": "BUILDING_FOOTPRINT",
        "name_zh": "有人求助服务原型",
        "name_en": "Concept prototype 8",
        "building_type": "community_service",
        "key_area_id": "PROV-KEY-002",
        "source_type": "agent_generated_design",
        "confidence": "low",
        "geometry_role": "design_proposal",
        "concept_status": "illustrative_prototype_footprint_only",
        "existing_condition_claim": false,
        "demolition_or_retention_claim": false,
        "floor_count": null,
        "height_m": null,
        "design_intent": "Prototype placement for relationship testing; not total buildout or engineering siting.",
        "area_sqm_declared": 7700.0
      },
      "geometry": {
        "type": "Polygon",
        "coordinates": [
          [
            [
              116.3495957205503,
              39.990243791174855
            ],
            [
              116.35087237468245,
              39.99011307331767
            ],
            [
              116.35076422422502,
              39.9894881749293
            ],
            [
              116.34948758155309,
              39.98961889170071
            ],
            [
              116.3495957205503,
              39.990243791174855
            ]
          ]
        ]
      }
    },
    {
      "type": "Feature",
      "id": "BLDG-009",
      "properties": {
        "id": "BLDG-009",
        "layer": "BUILDING_FOOTPRINT",
        "name_zh": "责任型企业服务原型",
        "name_en": "Concept prototype 9",
        "building_type": "office",
        "key_area_id": "PROV-KEY-003",
        "source_type": "agent_generated_design",
        "confidence": "low",
        "geometry_role": "design_proposal",
        "concept_status": "illustrative_prototype_footprint_only",
        "existing_condition_claim": false,
        "demolition_or_retention_claim": false,
        "floor_count": null,
        "height_m": null,
        "design_intent": "Prototype placement for relationship testing; not total buildout or engineering siting.",
        "area_sqm_declared": 7700.0
      },
      "geometry": {
        "type": "Polygon",
        "coordinates": [
          [
            [
              116.34512514865287,
              39.94579341099742
            ],
            [
              116.34639835881433,
              39.94593847193712
            ],
            [
              116.34651828568283,
              39.94531485074173
            ],
            [
              116.34524508679296,
              39.94516979119495
            ],
            [
              116.34512514865287,
              39.94579341099742
            ]
          ]
        ]
      }
    },
    {
      "type": "Feature",
      "id": "BLDG-010",
      "properties": {
        "id": "BLDG-010",
        "layer": "BUILDING_FOOTPRINT",
        "name_zh": "等价双通道商业原型",
        "name_en": "Concept prototype 10",
        "building_type": "retail",
        "key_area_id": "PROV-KEY-003",
        "source_type": "agent_generated_design",
        "confidence": "low",
        "geometry_role": "design_proposal",
        "concept_status": "illustrative_prototype_footprint_only",
        "existing_condition_claim": false,
        "demolition_or_retention_claim": false,
        "floor_count": null,
        "height_m": null,
        "design_intent": "Prototype placement for relationship testing; not total buildout or engineering siting.",
        "area_sqm_declared": 7700.0
      },
      "geometry": {
        "type": "Polygon",
        "coordinates": [
          [
            [
              116.35050735094877,
              39.945823688424724
            ],
            [
              116.35178057383838,
              39.94596869034886
            ],
            [
              116.35190045196774,
              39.945345063197855
            ],
            [
              116.35062724035045,
              39.94520006266539
            ],
            [
              116.35050735094877,
              39.945823688424724
            ]
          ]
        ]
      }
    },
    {
      "type": "Feature",
      "id": "BLDG-011",
      "properties": {
        "id": "BLDG-011",
        "layer": "BUILDING_FOOTPRINT",
        "name_zh": "人才生活支持原型",
        "name_en": "Concept prototype 11",
        "building_type": "talent_apartment",
        "key_area_id": "PROV-KEY-003",
        "source_type": "agent_generated_design",
        "confidence": "low",
        "geometry_role": "design_proposal",
        "concept_status": "illustrative_prototype_footprint_only",
        "existing_condition_claim": false,
        "demolition_or_retention_claim": false,
        "floor_count": null,
        "height_m": null,
        "design_intent": "Prototype placement for relationship testing; not total buildout or engineering siting.",
        "area_sqm_declared": 7700.0
      },
      "geometry": {
        "type": "Polygon",
        "coordinates": [
          [
            [
              116.34509938636042,
              39.94849511851745
            ],
            [
              116.34637264647483,
              39.94864018007652
            ],
            [
              116.3464925786285,
              39.94801655923728
            ],
            [
              116.3452193297872,
              39.94787149907126
            ],
            [
              116.34509938636042,
              39.94849511851745
            ]
          ]
        ]
      }
    },
    {
      "type": "Feature",
      "id": "BLDG-012",
      "properties": {
        "id": "BLDG-012",
        "layer": "BUILDING_FOOTPRINT",
        "name_zh": "照护友好服务原型",
        "name_en": "Concept prototype 12",
        "building_type": "community_service",
        "key_area_id": "PROV-KEY-003",
        "source_type": "agent_generated_design",
        "confidence": "low",
        "geometry_role": "design_proposal",
        "concept_status": "illustrative_prototype_footprint_only",
        "existing_condition_claim": false,
        "demolition_or_retention_claim": false,
        "floor_count": null,
        "height_m": null,
        "design_intent": "Prototype placement for relationship testing; not total buildout or engineering siting.",
        "area_sqm_declared": 7700.0
      },
      "geometry": {
        "type": "Polygon",
        "coordinates": [
          [
            [
              116.35048180035176,
              39.94852539882641
            ],
            [
              116.35175507319607,
              39.94867040136431
            ],
            [
              116.35187495660401,
              39.94804677456889
            ],
            [
              116.35060169503353,
              39.94790177342279
            ],
            [
              116.35048180035176,
              39.94852539882641
            ]
          ]
        ]
      }
    }
  ]
}
