{
  "type": "FeatureCollection",
  "name": "jingzhang_human_loop_concept_green_space",
  "metadata": {
    "coordinate_reference_system": "EPSG:4326",
    "measurement_crs": "EPSG:4548",
    "generated_date": "2026-08-10",
    "layer_purpose": "Concept green spine and gardens; not an existing-condition survey or approved green-space quota.",
    "status_notice": "Concept-design evidence only. Repository provisional boundaries are not official redlines, statutory controls, survey data, or an implementation basis.",
    "approved_green_ratio_status": "unknown",
    "ecological_survey_status": "not_available"
  },
  "features": [
    {
      "type": "Feature",
      "id": "GREEN-001",
      "properties": {
        "id": "GREEN-001",
        "layer": "GREEN_SPACE",
        "name_zh": "京张有人连续绿脊",
        "name_en": "Continuous Jing-Zhang Human Loop green spine",
        "land_use_code": "1401",
        "source_type": "agent_generated_design",
        "confidence": "low",
        "geometry_role": "design_proposal",
        "concept_status": "conceptual_blue_green_public_space",
        "ecological_baseline_claim": false,
        "engineering_feasibility": false,
        "area_sqm_declared": 963169.055
      },
      "geometry": {
        "type": "Polygon",
        "coordinates": [
          [
            [
              116.34711440195247,
              39.956466778338616
            ],
            [
              116.3470535572403,
              39.96084451972735
            ],
            [
              116.34698197363612,
              39.96521505553497
            ],
            [
              116.3467464826677,
              39.969585140535614
            ],
            [
              116.34651057332844,
              39.97396235706312
            ],
            [
              116.34651008853976,
              39.97397567836937
            ],
            [
              116.34642734264303,
              39.9783537547843
            ],
            [
              116.34642728597615,
              39.97835800992669
            ],
            [
              116.34639342272193,
              39.98273635864003
            ],
            [
              116.34635955134237,
              39.9871147040128
            ],
            [
              116.34635958768561,
              39.98712368370966
            ],
            [
              116.34642891844896,
              39.99150260778433
            ],
            [
              116.3464295470925,
              39.99151927226342
            ],
            [
              116.34669076392665,
              39.995899274830414
            ],
            [
              116.3472132255445,
              40.00465824968057
            ],
            [
              116.34745092731302,
              40.00903661082491
            ],
            [
              116.34790447389781,
              40.01779571596122
            ],
            [
              116.34813129739324,
              40.022175502536726
            ],
            [
              116.34941879317077,
              40.02213608075656
            ],
            [
              116.34919188741812,
              40.01775629601424
            ],
            [
              116.34873815159627,
              40.008996715996304
            ],
            [
              116.34873810082227,
              40.00899575894312
            ],
            [
              116.34850023553395,
              40.004615901632604
            ],
            [
              116.34850011932967,
              40.00461386259734
            ],
            [
              116.3479774326443,
              39.99585387273825
            ],
            [
              116.34771663051794,
              39.991482200544574
            ],
            [
              116.34764742082537,
              39.987116102600936
            ],
            [
              116.34768117535147,
              39.9827422461719
            ],
            [
              116.34771494001106,
              39.97836602409158
            ],
            [
              116.3477974378155,
              39.97399673675075
            ],
            [
              116.34803290655866,
              39.969626175126386
            ],
            [
              116.34826870017528,
              39.965248951337415
            ],
            [
              116.348269201366,
              39.96523467468011
            ],
            [
              116.3483408275947,
              39.96085652430979
            ],
            [
              116.34834084186824,
              39.960855580280864
            ],
            [
              116.34840161107137,
              39.95647736554505
            ],
            [
              116.34852311486247,
              39.94772092590527
            ],
            [
              116.3485838494565,
              39.94334270100157
            ],
            [
              116.34729688644019,
              39.94333211777715
            ],
            [
              116.34723606982992,
              39.947710341353734
            ],
            [
              116.34711440195247,
              39.956466778338616
            ]
          ]
        ]
      }
    },
    {
      "type": "Feature",
      "id": "GREEN-002",
      "properties": {
        "id": "GREEN-002",
        "layer": "GREEN_SPACE",
        "name_zh": "众智园开放验证花园",
        "name_en": "Zhongzhiyuan open validation garden",
        "land_use_code": "1401",
        "source_type": "agent_generated_design",
        "confidence": "low",
        "geometry_role": "design_proposal",
        "concept_status": "conceptual_blue_green_public_space",
        "ecological_baseline_claim": false,
        "engineering_feasibility": false,
        "area_sqm_declared": 66004.838
      },
      "geometry": {
        "type": "Polygon",
        "coordinates": [
          [
            [
              116.3468886078044,
              40.01648588649475
            ],
            [
              116.3468641651672,
              40.016402526654566
            ],
            [
              116.34683268417557,
              40.016320574448564
            ],
            [
              116.3467942996589,
              40.01624038080322
            ],
            [
              116.34674917600644,
              40.01616228911351
            ],
            [
              116.34669750646302,
              40.01608663377256
            ],
            [
              116.34663951230121,
              40.016013738739765
            ],
            [
              116.34657544187353,
              40.01594391615375
            ],
            [
              116.34650556954875,
              40.015877464995924
            ],
            [
              116.34643019453692,
              40.01581466981028
            ],
            [
              116.3463496396078,
              40.01575579948518
            ],
            [
              116.34626424970888,
              40.015701106102085
            ],
            [
              116.3461743904882,
              40.01565082385627
            ],
            [
              116.34608044672866,
              40.01560516805413
            ],
            [
              116.34598282070046,
              40.01556433419144
            ],
            [
              116.34588193043872,
              40.01552849711624
            ],
            [
              116.34577820795366,
              40.01549781028043
            ],
            [
              116.34567209738087,
              40.01547240508266
            ],
            [
              116.34556405307995,
              40.015452390305846
            ],
            [
              116.34545453768916,
              40.015437851651434
            ],
            [
              116.34534402014467,
              40.01542885137254
            ],
            [
              116.34523297367309,
              40.015425428007326
            ],
            [
              116.34512187376545,
              40.01542759621415
            ],
            [
              116.34501119614143,
              40.015435346708706
            ],
            [
              116.34490141471288,
              40.01544864630386
            ],
            [
              116.34479299955476,
              40.01546743805163
            ],
            [
              116.34468641489279,
              40.01549164148713
            ],
            [
              116.34458211711588,
              40.015521152972944
            ],
            [
              116.3444805528223,
              40.01555584614288
            ],
            [
              116.34438215690749,
              40.01559557244297
            ],
            [
              116.34428735070223,
              40.01564016176746
            ],
            [
              116.34419654016861,
              40.01568942318712
            ],
            [
              116.3441101141619,
              40.01574314576661
            ],
            [
              116.34402844276556,
              40.01580109946768
            ],
            [
              116.3439518757066,
              40.01586303613391
            ],
            [
              116.34388074085801,
              40.015928690553324
            ],
            [
              116.34381534283474,
              40.0159977815938
            ],
            [
              116.34375596168928,
              40.01607001340679
            ],
            [
              116.34370285171218,
              40.01614507669398
            ],
            [
              116.34365624034307,
              40.016222650031665
            ],
            [
              116.34361632719629,
              40.016302401246875
            ],
            [
              116.34358328320612,
              40.01638398883974
            ],
            [
              116.34355724989413,
              40.016467063445724
            ],
            [
              116.34353833876303,
              40.01655126933147
            ],
            [
              116.34352663081869,
              40.016636245918164
            ],
            [
              116.3435221762228,
              40.016721629325346
            ],
            [
              116.34352499407771,
              40.01680705392923
            ],
            [
              116.34353507234405,
              40.016892153928225
            ],
            [
              116.34355236789193,
              40.016976564909434
            ],
            [
              116.34357680668504,
              40.017059925409114
            ],
            [
              116.3436082840974,
              40.01714187846057
            ],
            [
              116.34364666536088,
              40.01722207312284
            ],
            [
              116.34369178614185,
              40.017300165983535
            ],
            [
              116.34374345324464,
              40.01737582262954
            ],
            [
              116.34380144543844,
              40.01744871907911
            ],
            [
              116.34386551440437,
              40.01751854316935
            ],
            [
              116.34393538579872,
              40.01758499589316
            ],
            [
              116.34401076042737,
              40.01764779267971
            ],
            [
              116.34409131552707,
              40.01770666461328
            ],
            [
              116.3441767061474,
              40.017761359584874
            ],
            [
              116.34426656662802,
              40.017811643372035
            ],
            [
              116.34436051216444,
              40.01785730064197
            ],
            [
              116.3444581404561,
              40.01789813587385
            ],
            [
              116.34455903342914,
              40.01793397419615
            ],
            [
              116.3446627590269,
              40.01796466213566
            ],
            [
              116.34476887306057,
              40.01799006827485
            ],
            [
              116.34487692111134,
              40.018010083814694
            ],
            [
              116.34498644047679,
              40.01802462304067
            ],
            [
              116.3450969621527,
              40.01803362368991
            ],
            [
              116.34520801284178,
              40.018037047217874
            ],
            [
              116.3453191169809,
              40.01803487896346
            ],
            [
              116.34542979877791,
              40.01802712821178
            ],
            [
              116.34553958424961,
              40.01801382815437
            ],
            [
              116.34564800325181,
              40.017995035747084
            ],
            [
              116.34575459149306,
              40.01797083146614
            ],
            [
              116.34585889252315,
              40.017941318963416
            ],
            [
              116.34596045968823,
              40.01790662462247
            ],
            [
              116.34605885804368,
              40.01786689701734
            ],
            [
              116.34615366621696,
              40.01782230627608
            ],
            [
              116.34624447821233,
              40.01777304335218
            ],
            [
              116.34633090514943,
              40.017719319206705
            ],
            [
              116.34641257692898,
              40.01766136390474
            ],
            [
              116.34648914381735,
              40.01759942563004
            ],
            [
              116.34656027794452,
              40.01753376962214
            ],
            [
              116.34662567470784,
              40.017464677040316
            ],
            [
              116.34668505407639,
              40.017392443759505
            ],
            [
              116.34673816179004,
              40.01731737910313
            ],
            [
              116.34678477044791,
              40.01723980451834
            ],
            [
              116.34682468048196,
              40.01716005219943
            ],
            [
              116.34685772101126,
              40.01707846366514
            ],
            [
              116.34688375057341,
              40.01699538829616
            ],
            [
              116.34690265772986,
              40.016911181838836
            ],
            [
              116.34691436154276,
              40.01682620488181
            ],
            [
              116.34691881192113,
              40.016740821311856
            ],
            [
              116.34691598983476,
              40.01665539675556
            ],
            [
              116.3469059073954,
              40.016570297013686
            ],
            [
              116.3468886078044,
              40.01648588649475
            ]
          ]
        ]
      }
    },
    {
      "type": "Feature",
      "id": "GREEN-003",
      "properties": {
        "id": "GREEN-003",
        "layer": "GREEN_SPACE",
        "name_zh": "AI原点公共学习花园",
        "name_en": "AI Origin public learning garden",
        "land_use_code": "1401",
        "source_type": "agent_generated_design",
        "confidence": "low",
        "geometry_role": "design_proposal",
        "concept_status": "conceptual_blue_green_public_space",
        "ecological_baseline_claim": false,
        "engineering_feasibility": false,
        "area_sqm_declared": 66004.838
      },
      "geometry": {
        "type": "Polygon",
        "coordinates": [
          [
            [
              116.35244556991475,
              39.988272981623666
            ],
            [
              116.35242113009977,
              39.988189622577444
            ],
            [
              116.35238965494419,
              39.98810767153371
            ],
            [
              116.35235127925239,
              39.988027479414015
            ],
            [
              116.35230616737583,
              39.98794938960679
            ],
            [
              116.35225451250885,
              39.9878737364971
            ],
            [
              116.35219653586117,
              39.98780084403477
            ],
            [
              116.35213248571029,
              39.98773102434748
            ],
            [
              116.35206263633813,
              39.98766457640417
            ],
            [
              116.35198728685637,
              39.987601784735126
            ],
            [
              116.35190675992554,
              39.98754291821364
            ],
            [
              116.3518214003732,
              39.98748822890491
            ],
            [
              116.3517315737174,
              39.98743795098677
            ],
            [
              116.35163766460165,
              39.98739229974707
            ],
            [
              116.3515400751478,
              39.98735147066209
            ],
            [
              116.35143922323434,
              39.987315638559416
            ],
            [
              116.3513355407073,
              39.98728495686966
            ],
            [
              116.35122947153124,
              39.98725955696943
            ],
            [
              116.35112146988848,
              39.987239547618984
            ],
            [
              116.35101199823464,
              39.98722501449653
            ],
            [
              116.35090152531865,
              39.98721601983151
            ],
            [
              116.35079052417606,
              39.987212602138044
            ],
            [
              116.3506794701038,
              39.98721477605022
            ],
            [
              116.35056883862532,
              39.9872225322593
            ],
            [
              116.35045910345492,
              39.987235837553655
            ],
            [
              116.35035073446952,
              39.98725463496094
            ],
            [
              116.35024419569714,
              39.987278843992
            ],
            [
              116.35013994333026,
              39.98730836098546
            ],
            [
              116.35003842377265,
              39.98734305955155
            ],
            [
              116.34994007172828,
              39.98738279111318
            ],
            [
              116.34984530834008,
              39.98742738554206
            ],
            [
              116.34975453938682,
              39.9874766518871
            ],
            [
              116.34966815354574,
              39.98753037919187
            ],
            [
              116.34958652072828,
              39.987588337397824
            ],
            [
              116.34950999049629,
              39.98765027832932
            ],
            [
              116.34943889056507,
              39.98771593675605
            ],
            [
              116.34937352540005,
              39.98778503152874
            ],
            [
              116.34931417491298,
              39.987857266782854
            ],
            [
              116.34926109326312,
              39.98793233320532
            ],
            [
              116.34921450776878,
              39.988009909359
            ],
            [
              116.34917461793354,
              39.98808966305886
            ],
            [
              116.34914159459174,
              39.988171252794395
            ],
            [
              116.3491155791766,
              39.98825432919184
            ],
            [
              116.3490966831141,
              39.98833853651021
            ],
            [
              116.34908498734555,
              39.98842351416451
            ],
            [
              116.3490805419805,
              39.988508898269735
            ],
            [
              116.34908336608167,
              39.98859432319909
            ],
            [
              116.34909344758296,
              39.988679423149605
            ],
            [
              116.34911074334057,
              39.98876383370855
            ],
            [
              116.34913517931726,
              39.98884719341402
            ],
            [
              116.3491666508991,
              39.988929145302734
            ],
            [
              116.3492050233428,
              39.98900933843869
            ],
            [
              116.34925013235258,
              39.98908742941604
            ],
            [
              116.3493017847831,
              39.989163083829744
            ],
            [
              116.34935975946631,
              39.98923597770762
            ],
            [
              116.34942380815836,
              39.989305798897796
            ],
            [
              116.34949365660225,
              39.98937224840561
            ],
            [
              116.34956900570222,
              39.98943504167399
            ],
            [
              116.34964953280425,
              39.989493909802306
            ],
            [
              116.34973489307788,
              39.98954860069786
            ],
            [
              116.34982472099267,
              39.98959888015566
            ],
            [
              116.34991863188363,
              39.989644532861504
            ],
            [
              116.35001622359847,
              39.98968536331405
            ],
            [
              116.35011707822007,
              39.989721196662295
            ],
            [
              116.350220763856,
              39.98975187945431
            ],
            [
              116.35032683648859,
              39.989777280294646
            ],
            [
              116.35043484187628,
              39.98979729040693
            ],
            [
              116.35054431749948,
              39.989811824099945
            ],
            [
              116.35065479454127,
              39.98982081913449
            ],
            [
              116.35076579989551,
              39.9898242369901
            ],
            [
              116.35087685819326,
              39.98982206302994
            ],
            [
              116.35098749383869,
              39.989814306563545
            ],
            [
              116.35109723304626,
              39.98980100080695
            ],
            [
              116.35120560586999,
              39.989782202740415
            ],
            [
              116.3513121482161,
              39.98975799286438
            ],
            [
              116.35141640383108,
              39.989728474854665
            ],
            [
              116.35151792625547,
              39.98969377511843
            ],
            [
              116.35161628073628,
              39.989654042252816
            ],
            [
              116.35171104608895,
              39.989609446408366
            ],
            [
              116.35180181650107,
              39.98956017856047
            ],
            [
              116.35188820327042,
              39.989506449691184
            ],
            [
              116.35196983646964,
              39.98944848988587
            ],
            [
              116.35204636653042,
              39.98938654734756
            ],
            [
              116.35211746574036,
              39.98932088733401
            ],
            [
              116.35218282964638,
              39.989251791021665
            ],
            [
              116.35224217835828,
              39.989179554301394
            ],
            [
              116.35229525774712,
              39.989104486511366
            ],
            [
              116.35234184053334,
              39.98902690911212
            ],
            [
              116.35238172725964,
              39.988947154310004
            ],
            [
              116.35241474714493,
              39.98886556363437
            ],
            [
              116.35244075881512,
              39.988782486475074
            ],
            [
              116.35245965090829,
              39.98869827858613
            ],
            [
              116.35247134255104,
              39.988613300562314
            ],
            [
              116.35247578370443,
              39.988527916294935
            ],
            [
              116.35247295537778,
              39.98844249141357
            ],
            [
              116.35246286970953,
              39.98835739172038
            ],
            [
              116.35244556991475,
              39.988272981623666
            ]
          ]
        ]
      }
    },
    {
      "type": "Feature",
      "id": "GREEN-004",
      "properties": {
        "id": "GREEN-004",
        "layer": "GREEN_SPACE",
        "name_zh": "大钟寺照护友好花园",
        "name_en": "Dazhongsi care-friendly garden",
        "land_use_code": "1401",
        "source_type": "agent_generated_design",
        "confidence": "low",
        "geometry_role": "design_proposal",
        "concept_status": "conceptual_blue_green_public_space",
        "ecological_baseline_claim": false,
        "engineering_feasibility": false,
        "area_sqm_declared": 66004.838
      },
      "geometry": {
        "type": "Polygon",
        "coordinates": [
          [
            [
              116.34689023500648,
              39.946656316526585
            ],
            [
              116.34686581608523,
              39.946572955886005
            ],
            [
              116.34683436599056,
              39.94649100295421
            ],
            [
              116.34679601941947,
              39.94641080866084
            ],
            [
              116.34675094059862,
              39.94633271640367
            ],
            [
              116.34669932258085,
              39.94625706057822
            ],
            [
              116.346641386418,
              39.94618416514602
            ],
            [
              116.34657738021419,
              39.946114342247434
            ],
            [
              116.34650757806318,
              39.94604789086521
            ],
            [
              116.34643227887442,
              39.94598509554433
            ],
            [
              116.34635180509305,
              39.945926225173764
            ],
            [
              116.34626650131906,
              39.945871531835216
            ],
            [
              116.3461767328317,
              39.94582124972375
            ],
            [
              116.34608288402536,
              39.94577559414526
            ],
            [
              116.34598535676368,
              39.94573476059455
            ],
            [
              116.3458845686589,
              39.945698923918364
            ],
            [
              116.34578095128383,
              39.945668237566906
            ],
            [
              116.34567494832406,
              39.94564283293676
            ],
            [
              116.34556701367846,
              39.945622818808445
            ],
            [
              116.34545760951576,
              39.945608280880634
            ],
            [
              116.34534720429599,
              39.94559928140333
            ],
            [
              116.34523627076483,
              39.94559585891128
            ],
            [
              116.34512528392978,
              39.9455980280591
            ],
            [
              116.34501471902638,
              39.94560577955846
            ],
            [
              116.34490504948393,
              39.94561908021791
            ],
            [
              116.34479674489837,
              39.94563787308492
            ],
            [
              116.34469026902201,
              39.945662077689754
            ],
            [
              116.344586077778,
              39.945691590390034
            ],
            [
              116.34448461730847,
              39.94572628481432
            ],
            [
              116.34438632206437,
              39.94576601240324
            ],
            [
              116.34429161294541,
              39.94581060304553
            ],
            [
              116.34420089549803,
              39.94585986580628
            ],
            [
              116.3441145581789,
              39.94591358974439
            ],
            [
              116.3440329706917,
              39.945971544815755
            ],
            [
              116.34395648240421,
              39.94603348285807
            ],
            [
              116.34388542085202,
              39.946099138653445
            ],
            [
              116.34382009033624,
              39.94616823106383
            ],
            [
              116.34376077062024,
              39.94624046423478
            ],
            [
              116.34370771573148,
              39.946315528862186
            ],
            [
              116.34366115287362,
              39.94639310351651
            ],
            [
              116.3436212814533,
              39.946472856019206
            ],
            [
              116.34358827222594,
              39.94655444486483
            ],
            [
              116.34356226656425,
              39.94663752068343
            ],
            [
              116.3435433758524,
              39.94672172773653
            ],
            [
              116.34353168100877,
              39.94680670544023
            ],
            [
              116.34352723213885,
              39.946892089909326
            ],
            [
              116.34353004832036,
              39.946977515515464
            ],
            [
              116.343540117521,
              39.9470626164528
            ],
            [
              116.3435573966496,
              39.947147028304364
            ],
            [
              116.34358181174012,
              39.94723038960272
            ],
            [
              116.34361325826796,
              39.947312343377796
            ],
            [
              116.34365160159716,
              39.9473925386855
            ],
            [
              116.34369667755644,
              39.94747063211072
            ],
            [
              116.34374829314206,
              39.94754628923793
            ],
            [
              116.34380622734368,
              39.94761918608334
            ],
            [
              116.34387023209078,
              39.9476890104824
            ],
            [
              116.34394003331455,
              39.94775546342671
            ],
            [
              116.34401533212137,
              39.947818260344526
            ],
            [
              116.34409580607267,
              39.94787713231956
            ],
            [
              116.3441811105655,
              39.94793182724268
            ],
            [
              116.34427088030836,
              39.94798211089169
            ],
            [
              116.34436473088535,
              39.948027767934384
            ],
            [
              116.34446226040255,
              39.948068602850924
            ],
            [
              116.34456305120911,
              39.948104440771175
            ],
            [
              116.34466667168601,
              39.948135128223676
            ],
            [
              116.34477267809457,
              39.948160533792965
            ],
            [
              116.34488061647691,
              39.948180548682494
            ],
            [
              116.34499002460039,
              39.948195087180544
            ],
            [
              116.3451004339372,
              39.94820408702734
            ],
            [
              116.34521137167118,
              39.94820750968183
            ],
            [
              116.345322362723,
              39.94820534048662
            ],
            [
              116.34543293178483,
              39.94819758873087
            ],
            [
              116.34554260535637,
              39.94818428761038
            ],
            [
              116.34565091377263,
              39.948165494085586
            ],
            [
              116.34575739321585,
              39.94814128863746
            ],
            [
              116.34586158770179,
              39.948111774922864
            ],
            [
              116.34596305103284,
              39.94807707933053
            ],
            [
              116.34606134870913,
              39.948037350439854
            ],
            [
              116.3461560597893,
              39.94799275838434
            ],
            [
              116.34624677869337,
              39.947943494123116
            ],
            [
              116.34633311693975,
              39.94788976862292
            ],
            [
              116.34641470480886,
              39.947831811954636
            ],
            [
              116.34649119292648,
              39.947769872307845
            ],
            [
              116.3465622537598,
              39.9477042149279
            ],
            [
              116.34662758302008,
              39.947635120979974
            ],
            [
              116.34668690096544,
              39.947562886344784
            ],
            [
              116.34673995359866,
              39.94748782035157
            ],
            [
              116.34678651375475,
              39.94741024445316
            ],
            [
              116.34682638207325,
              39.947330490849446
            ],
            [
              116.34685938785181,
              39.947248901064675
            ],
            [
              116.34688538977676,
              39.94716582448486
            ],
            [
              116.34690427652782,
              39.947081616861546
            ],
            [
              116.34691596725442,
              39.946996638788335
            ],
            [
              116.34692041192152,
              39.94691125415679
            ],
            [
              116.3469175915233,
              39.94682582859803
            ],
            [
              116.34690751816416,
              39.94674072791711
            ],
            [
              116.34689023500648,
              39.946656316526585
            ]
          ]
        ]
      }
    }
  ]
}
