{
  "type": "FeatureCollection",
  "name": "jingzhang_human_loop_provisional_key_areas",
  "metadata": {
    "coordinate_reference_system": "EPSG:4326",
    "measurement_crs": "EPSG:4548",
    "generated_date": "2026-08-10",
    "layer_purpose": "Three immutable key-area working constraints copied from the repository provisional source.",
    "status_notice": "Concept-design evidence only. Repository provisional boundaries are not official redlines, statutory controls, survey data, or an implementation basis.",
    "boundary_status": "repository_maintained_provisional_rough",
    "official_boundary_available": false,
    "spatial_edit": "none",
    "source_path": "brief/site-package/geometry/provisional_boundaries.geojson#PROV-KEY-001..003"
  },
  "features": [
    {
      "type": "Feature",
      "id": "PROV-KEY-001",
      "properties": {
        "id": "PROV-KEY-001",
        "layer": "KEY_AREA",
        "parent_scope_id": "key_detailed_design_area",
        "area_id": "zhongzhiyuan_ai_acceleration_area",
        "name_zh": "众智园AI自主创新加速区临时粗略工作范围（非官方红线）",
        "source_type": "agent_inferred_from_public_data",
        "confidence": "medium",
        "geometry_role": "provisional_constraint",
        "official_boundary": false,
        "boundary_precision": "provisional_rough",
        "announced_area_sqm": 1921000,
        "area_sqm_calculated": 1929201.877,
        "source_id": "DATA-SRC-PROVISIONAL-BOUNDARIES-20260605",
        "derived_from_source_ids": [
          "DATA-SRC-OFFICIAL-ANNOUNCEMENT-20260509"
        ],
        "source_title": "依据公告重点片区名称、南北顺序、公告约面积和临时 SITE_BOUNDARY 形成的临时粗略范围",
        "derivation_method": "按公告自北向南第一处、众智园AI自主创新加速区、约192.1公顷及五环路/清河相关任务线索，在临时总体设计范围内粗略定位并校核面积；公告未给出四至，矩形边不得解释为地块或道路红线。",
        "usage_note": "仅用于三处概念详细设计的定位与临时复算；矩形边不得解释为道路、地块、权属或法定片区边界。",
        "area_sqm_declared": 1929201.877,
        "area_sqm_calculated_epsg4548": 1929201.877,
        "concept_status": "repository_provisional_input_copied_without_spatial_edit",
        "formal_use_limit": "content_review_and_recomputation_only",
        "replacement_trigger": "official_or_cleared_KEY_AREA_polygons_with_CRS_and_version"
      },
      "geometry": {
        "type": "Polygon",
        "coordinates": [
          [
            [
              116.343,
              40.0075
            ],
            [
              116.354,
              40.0075
            ],
            [
              116.354,
              40.026
            ],
            [
              116.343,
              40.026
            ],
            [
              116.343,
              40.0075
            ]
          ]
        ]
      }
    },
    {
      "type": "Feature",
      "id": "PROV-KEY-002",
      "properties": {
        "id": "PROV-KEY-002",
        "layer": "KEY_AREA",
        "parent_scope_id": "key_detailed_design_area",
        "area_id": "beijing_ai_origin_community",
        "name_zh": "北京AI原点社区临时粗略工作范围（非官方红线）",
        "source_type": "agent_inferred_from_public_data",
        "confidence": "medium",
        "geometry_role": "provisional_constraint",
        "official_boundary": false,
        "boundary_precision": "provisional_rough",
        "announced_area_sqm": 1043000,
        "area_sqm_calculated": 1043236.909,
        "source_id": "DATA-SRC-PROVISIONAL-BOUNDARIES-20260605",
        "derived_from_source_ids": [
          "DATA-SRC-OFFICIAL-ANNOUNCEMENT-20260509"
        ],
        "source_title": "依据公告重点片区名称、南北顺序、公告约面积和临时 SITE_BOUNDARY 形成的临时粗略范围",
        "derivation_method": "按公告自北向南第二处、北京AI原点社区、约104.3公顷及五道口/清华东路西口相关任务线索，在临时总体设计范围内粗略定位并校核面积；公告未给出四至，矩形边不得解释为地块或道路红线。",
        "usage_note": "仅用于三处概念详细设计的定位与临时复算；矩形边不得解释为道路、地块、权属或法定片区边界。",
        "area_sqm_declared": 1043236.909,
        "area_sqm_calculated_epsg4548": 1043236.909,
        "concept_status": "repository_provisional_input_copied_without_spatial_edit",
        "formal_use_limit": "content_review_and_recomputation_only",
        "replacement_trigger": "official_or_cleared_KEY_AREA_polygons_with_CRS_and_version"
      },
      "geometry": {
        "type": "Polygon",
        "coordinates": [
          [
            [
              116.342,
              39.9835
            ],
            [
              116.353,
              39.9835
            ],
            [
              116.353,
              39.9935
            ],
            [
              116.342,
              39.9935
            ],
            [
              116.342,
              39.9835
            ]
          ]
        ]
      }
    },
    {
      "type": "Feature",
      "id": "PROV-KEY-003",
      "properties": {
        "id": "PROV-KEY-003",
        "layer": "KEY_AREA",
        "parent_scope_id": "key_detailed_design_area",
        "area_id": "dazhongsi_ai_industry_cluster",
        "name_zh": "大钟寺AI产业聚集区临时粗略工作范围（非官方红线）",
        "source_type": "agent_inferred_from_public_data",
        "confidence": "medium",
        "geometry_role": "provisional_constraint",
        "official_boundary": false,
        "boundary_precision": "provisional_rough",
        "announced_area_sqm": 720000,
        "area_sqm_calculated": 720454.221,
        "source_id": "DATA-SRC-PROVISIONAL-BOUNDARIES-20260605",
        "derived_from_source_ids": [
          "DATA-SRC-OFFICIAL-ANNOUNCEMENT-20260509"
        ],
        "source_title": "依据公告重点片区名称、南北顺序、公告约面积和临时 SITE_BOUNDARY 形成的临时粗略范围",
        "derivation_method": "按公告自北向南第三处、大钟寺AI产业聚集区、约72.0公顷及大钟寺站相关任务线索，在临时总体设计范围内粗略定位并校核面积；公告未给出四至，矩形边不得解释为地块或道路红线。",
        "usage_note": "仅用于三处概念详细设计的定位与临时复算；矩形边不得解释为道路、地块、权属或法定片区边界。",
        "area_sqm_declared": 720454.219,
        "area_sqm_calculated_epsg4548": 720454.219,
        "concept_status": "repository_provisional_input_copied_without_spatial_edit",
        "formal_use_limit": "content_review_and_recomputation_only",
        "replacement_trigger": "official_or_cleared_KEY_AREA_polygons_with_CRS_and_version"
      },
      "geometry": {
        "type": "Polygon",
        "coordinates": [
          [
            [
              116.342,
              39.944
            ],
            [
              116.355,
              39.944
            ],
            [
              116.355,
              39.94984
            ],
            [
              116.342,
              39.94984
            ],
            [
              116.342,
              39.944
            ]
          ]
        ]
      }
    }
  ]
}
