{
  "type": "FeatureCollection",
  "name": "jingzhang_human_loop_concept_land_use_partition",
  "metadata": {
    "coordinate_reference_system": "EPSG:4326",
    "measurement_crs": "EPSG:4548",
    "generated_date": "2026-08-10",
    "layer_purpose": "Complete, non-overlapping conceptual land-use partition of the provisional working boundary.",
    "status_notice": "Concept-design evidence only. Repository provisional boundaries are not official redlines, statutory controls, survey data, or an implementation basis.",
    "topology_method": "one shared band stack intersected with the exact submitted site boundary",
    "partition_coverage": "full_provisional_site",
    "statutory_zoning": false
  },
  "features": [
    {
      "type": "Feature",
      "id": "LU-001",
      "properties": {
        "id": "LU-001",
        "layer": "LAND_USE",
        "name_zh": "产业服务与公共界面概念区",
        "name_en": "Industry services and public interface concept zone",
        "land_use_code": "05",
        "source_type": "agent_generated_design",
        "confidence": "low",
        "geometry_role": "design_proposal",
        "concept_status": "conceptual_partition_not_statutory_zoning",
        "derivation_method": "shared_EPSG4548_northing_band_partition_clipped_to_PROV-SITE-001",
        "design_intent": "Narrative spatial allocation only; professional teams must rebuild it against official controls.",
        "official_approval": false,
        "area_sqm_declared": 971321.389
      },
      "geometry": {
        "type": "Polygon",
        "coordinates": [
          [
            [
              116.34070000000001,
              39.93899999999999
            ],
            [
              116.34050781015375,
              39.94592250922664
            ],
            [
              116.35530001301402,
              39.946005711240495
            ],
            [
              116.3553,
              39.939
            ],
            [
              116.34070000000001,
              39.93899999999999
            ]
          ]
        ]
      }
    },
    {
      "type": "Feature",
      "id": "LU-002",
      "properties": {
        "id": "LU-002",
        "layer": "LAND_USE",
        "name_zh": "人本服务广场概念区",
        "name_en": "Human-service square concept zone",
        "land_use_code": "1403",
        "source_type": "agent_generated_design",
        "confidence": "low",
        "geometry_role": "design_proposal",
        "concept_status": "conceptual_partition_not_statutory_zoning",
        "derivation_method": "shared_EPSG4548_northing_band_partition_clipped_to_PROV-SITE-001",
        "design_intent": "Narrative spatial allocation only; professional teams must rebuild it against official controls.",
        "official_approval": false,
        "area_sqm_declared": 1489570.987
      },
      "geometry": {
        "type": "Polygon",
        "coordinates": [
          [
            [
              116.35530001301402,
              39.946005711240495
            ],
            [
              116.34050781015375,
              39.94592250922664
            ],
            [
              116.34021601432904,
              39.95642939456322
            ],
            [
              116.35530001453657,
              39.956514262280294
            ],
            [
              116.35530001301402,
              39.946005711240495
            ]
          ]
        ]
      }
    },
    {
      "type": "Feature",
      "id": "LU-003",
      "properties": {
        "id": "LU-003",
        "layer": "LAND_USE",
        "name_zh": "职住共生概念区",
        "name_en": "Work-life neighborhood concept zone",
        "land_use_code": "0701",
        "source_type": "agent_generated_design",
        "confidence": "low",
        "geometry_role": "design_proposal",
        "concept_status": "conceptual_partition_not_statutory_zoning",
        "derivation_method": "shared_EPSG4548_northing_band_partition_clipped_to_PROV-SITE-001",
        "design_intent": "Narrative spatial allocation only; professional teams must rebuild it against official controls.",
        "official_approval": false,
        "area_sqm_declared": 1516888.667
      },
      "geometry": {
        "type": "Polygon",
        "coordinates": [
          [
            [
              116.3553,
              39.965
            ],
            [
              116.35530001453657,
              39.956514262280294
            ],
            [
              116.34021601432904,
              39.95642939456322
            ],
            [
              116.33992410708365,
              39.96693625946346
            ],
            [
              116.35513830755562,
              39.96702189497779
            ],
            [
              116.3553,
              39.965
            ]
          ]
        ]
      }
    },
    {
      "type": "Feature",
      "id": "LU-004",
      "properties": {
        "id": "LU-004",
        "layer": "LAND_USE",
        "name_zh": "京张文化与公众学习概念区",
        "name_en": "Jing-Zhang culture and public learning concept zone",
        "land_use_code": "0803",
        "source_type": "agent_generated_design",
        "confidence": "low",
        "geometry_role": "design_proposal",
        "concept_status": "conceptual_partition_not_statutory_zoning",
        "derivation_method": "shared_EPSG4548_northing_band_partition_clipped_to_PROV-SITE-001",
        "design_intent": "Narrative spatial allocation only; professional teams must rebuild it against official controls.",
        "official_approval": false,
        "area_sqm_declared": 1606130.286
      },
      "geometry": {
        "type": "Polygon",
        "coordinates": [
          [
            [
              116.35513830755562,
              39.96702189497779
            ],
            [
              116.33992410708365,
              39.96693625946346
            ],
            [
              116.3397,
              39.975
            ],
            [
              116.33991414270704,
              39.97832041862304
            ],
            [
              116.354228114008,
              39.978401049446745
            ],
            [
              116.35513830755562,
              39.96702189497779
            ]
          ]
        ]
      }
    },
    {
      "type": "Feature",
      "id": "LU-005",
      "properties": {
        "id": "LU-005",
        "layer": "LAND_USE",
        "name_zh": "可信AI研发概念区",
        "name_en": "Trustworthy AI research concept zone",
        "land_use_code": "0802",
        "source_type": "agent_generated_design",
        "confidence": "low",
        "geometry_role": "design_proposal",
        "concept_status": "conceptual_partition_not_statutory_zoning",
        "derivation_method": "shared_EPSG4548_northing_band_partition_clipped_to_PROV-SITE-001",
        "design_intent": "Narrative spatial allocation only; professional teams must rebuild it against official controls.",
        "official_approval": false,
        "area_sqm_declared": 1456732.966
      },
      "geometry": {
        "type": "Polygon",
        "coordinates": [
          [
            [
              116.354228114008,
              39.978401049446745
            ],
            [
              116.33991414270704,
              39.97832041862304
            ],
            [
              116.34064875140486,
              39.989708793776856
            ],
            [
              116.35331759317174,
              39.98978017209798
            ],
            [
              116.354228114008,
              39.978401049446745
            ]
          ]
        ]
      }
    },
    {
      "type": "Feature",
      "id": "LU-006",
      "properties": {
        "id": "LU-006",
        "layer": "LAND_USE",
        "name_zh": "社区服务与人类求助概念区",
        "name_en": "Community service and human-help concept zone",
        "land_use_code": "0702",
        "source_type": "agent_generated_design",
        "confidence": "low",
        "geometry_role": "design_proposal",
        "concept_status": "conceptual_partition_not_statutory_zoning",
        "derivation_method": "shared_EPSG4548_northing_band_partition_clipped_to_PROV-SITE-001",
        "design_intent": "Narrative spatial allocation only; professional teams must rebuild it against official controls.",
        "official_approval": false,
        "area_sqm_declared": 1462512.774
      },
      "geometry": {
        "type": "Polygon",
        "coordinates": [
          [
            [
              116.3533,
              39.99
            ],
            [
              116.35331759317174,
              39.98978017209798
            ],
            [
              116.34064875140486,
              39.989708793776856
            ],
            [
              116.34144011244656,
              40.001973169859525
            ],
            [
              116.35395971703814,
              40.00204363514988
            ],
            [
              116.3533,
              39.99
            ]
          ]
        ]
      }
    },
    {
      "type": "Feature",
      "id": "LU-007",
      "properties": {
        "id": "LU-007",
        "layer": "LAND_USE",
        "name_zh": "开放教育与测试概念区",
        "name_en": "Open education and testing concept zone",
        "land_use_code": "0804",
        "source_type": "agent_generated_design",
        "confidence": "low",
        "geometry_role": "design_proposal",
        "concept_status": "conceptual_partition_not_statutory_zoning",
        "derivation_method": "shared_EPSG4548_northing_band_partition_clipped_to_PROV-SITE-001",
        "design_intent": "Narrative spatial allocation only; professional teams must rebuild it against official controls.",
        "official_approval": false,
        "area_sqm_declared": 1453390.048
      },
      "geometry": {
        "type": "Polygon",
        "coordinates": [
          [
            [
              116.35395971703814,
              40.00204363514988
            ],
            [
              116.34144011244656,
              40.001973169859525
            ],
            [
              116.34169999999999,
              40.00600000000001
            ],
            [
              116.34210173179991,
              40.01423677904547
            ],
            [
              116.35463169379051,
              40.01430723574354
            ],
            [
              116.35395971703814,
              40.00204363514988
            ]
          ]
        ]
      }
    },
    {
      "type": "Feature",
      "id": "LU-008",
      "properties": {
        "id": "LU-008",
        "layer": "LAND_USE",
        "name_zh": "北部门户公园概念区",
        "name_en": "Northern gateway park concept zone",
        "land_use_code": "1401",
        "source_type": "agent_generated_design",
        "confidence": "low",
        "geometry_role": "design_proposal",
        "concept_status": "conceptual_partition_not_statutory_zoning",
        "derivation_method": "shared_EPSG4548_northing_band_partition_clipped_to_PROV-SITE-001",
        "design_intent": "Narrative spatial allocation only; professional teams must rebuild it against official controls.",
        "official_approval": false,
        "area_sqm_declared": 1456278.269
      },
      "geometry": {
        "type": "Polygon",
        "coordinates": [
          [
            [
              116.3553,
              40.02649999999999
            ],
            [
              116.35463169379051,
              40.01430723574354
            ],
            [
              116.34210173179991,
              40.01423677904547
            ],
            [
              116.34270000000001,
              40.026500000000006
            ],
            [
              116.3553,
              40.02649999999999
            ]
          ]
        ]
      }
    }
  ]
}
