{
  "type": "FeatureCollection",
  "name": "jingzhang_human_loop_concept_phasing",
  "metadata": {
    "coordinate_reference_system": "EPSG:4326",
    "measurement_crs": "EPSG:4548",
    "generated_date": "2026-08-10",
    "layer_purpose": "Three-phase conceptual sequencing partition; no approved program, budget, procurement, or construction date.",
    "status_notice": "Concept-design evidence only. Repository provisional boundaries are not official redlines, statutory controls, survey data, or an implementation basis.",
    "implementation_commitment": false,
    "approved_schedule": false
  },
  "features": [
    {
      "type": "Feature",
      "id": "PHASE-001",
      "properties": {
        "id": "PHASE-001",
        "layer": "PHASE",
        "name_zh": "首发验证与大钟寺公共界面",
        "name_en": "Launch validation and Dazhongsi public interface",
        "phase_order": 1,
        "source_type": "agent_generated_design",
        "confidence": "low",
        "geometry_role": "design_proposal",
        "concept_status": "conceptual_sequence_not_delivery_commitment",
        "funding_status": "unknown",
        "schedule_status": "unknown",
        "trigger": "advance only after prior phase evaluation and all applicable professional/official gates",
        "area_sqm_declared": 4229811.537
      },
      "geometry": {
        "type": "Polygon",
        "coordinates": [
          [
            [
              116.34070000000001,
              39.93899999999999
            ],
            [
              116.3398754450381,
              39.96868740162649
            ],
            [
              116.35499829907123,
              39.96877253619743
            ],
            [
              116.3553,
              39.965
            ],
            [
              116.3553,
              39.939
            ],
            [
              116.34070000000001,
              39.93899999999999
            ]
          ]
        ]
      }
    },
    {
      "type": "Feature",
      "id": "PHASE-002",
      "properties": {
        "id": "PHASE-002",
        "layer": "PHASE",
        "name_zh": "原点社区协议扩展",
        "name_en": "AI Origin community protocol extension",
        "phase_order": 2,
        "source_type": "agent_generated_design",
        "confidence": "low",
        "geometry_role": "design_proposal",
        "concept_status": "conceptual_sequence_not_delivery_commitment",
        "funding_status": "unknown",
        "schedule_status": "unknown",
        "trigger": "advance only after prior phase evaluation and all applicable professional/official gates",
        "area_sqm_declared": 3752656.775
      },
      "geometry": {
        "type": "Polygon",
        "coordinates": [
          [
            [
              116.3533,
              39.99
            ],
            [
              116.35499829907123,
              39.96877253619743
            ],
            [
              116.3398754450381,
              39.96868740162649
            ],
            [
              116.3397,
              39.975
            ],
            [
              116.34115745444255,
              39.997593038869724
            ],
            [
              116.35371977648572,
              39.99766377104547
            ],
            [
              116.3533,
              39.99
            ]
          ]
        ]
      }
    },
    {
      "type": "Feature",
      "id": "PHASE-003",
      "properties": {
        "id": "PHASE-003",
        "layer": "PHASE",
        "name_zh": "众智园连续绿脊与网络完善",
        "name_en": "Zhongzhiyuan green-spine and network completion",
        "phase_order": 3,
        "source_type": "agent_generated_design",
        "confidence": "low",
        "geometry_role": "design_proposal",
        "concept_status": "conceptual_sequence_not_delivery_commitment",
        "funding_status": "unknown",
        "schedule_status": "unknown",
        "trigger": "advance only after prior phase evaluation and all applicable professional/official gates",
        "area_sqm_declared": 3430357.073
      },
      "geometry": {
        "type": "Polygon",
        "coordinates": [
          [
            [
              116.3553,
              40.02649999999999
            ],
            [
              116.35371977648572,
              39.99766377104547
            ],
            [
              116.34115745444255,
              39.997593038869724
            ],
            [
              116.34169999999999,
              40.00600000000001
            ],
            [
              116.34270000000001,
              40.026500000000006
            ],
            [
              116.3553,
              40.02649999999999
            ]
          ]
        ]
      }
    }
  ]
}
