{
  "type": "FeatureCollection",
  "name": "jingzhang_human_loop_concept_public_space",
  "metadata": {
    "coordinate_reference_system": "EPSG:4326",
    "measurement_crs": "EPSG:4548",
    "generated_date": "2026-08-10",
    "layer_purpose": "Concept Human Help Courts and launch commons; operators, land rights, costs, and delivery remain unconfirmed.",
    "status_notice": "Concept-design evidence only. Repository provisional boundaries are not official redlines, statutory controls, survey data, or an implementation basis.",
    "public_service_operator_status": "unknown",
    "implementation_commitment": false
  },
  "features": [
    {
      "type": "Feature",
      "id": "PUBLIC-001",
      "properties": {
        "id": "PUBLIC-001",
        "layer": "PUBLIC_SPACE",
        "name_zh": "众智园有人求助庭",
        "name_en": "Zhongzhiyuan Human Help Court",
        "source_type": "agent_generated_design",
        "confidence": "low",
        "geometry_role": "design_proposal",
        "concept_status": "conceptual_public_space_node",
        "staffed_help_required": true,
        "ai_use_mandatory": false,
        "operator_commitment_status": "unconfirmed",
        "area_sqm_declared": 75446.456
      },
      "geometry": {
        "type": "Polygon",
        "coordinates": [
          [
            [
              116.35030800650065,
              40.016623045864314
            ],
            [
              116.35029774377965,
              40.01655498738177
            ],
            [
              116.35028315018525,
              40.01648739806263
            ],
            [
              116.35026426088714,
              40.016420440734
            ],
            [
              116.35024112140333,
              40.016354276699985
            ],
            [
              116.35021378749025,
              40.016289065353085
            ],
            [
              116.35018232500839,
              40.016224963790364
            ],
            [
              116.35014680976359,
              40.01616212643488
            ],
            [
              116.35010732732417,
              40.01610070466375
            ],
            [
              116.35006397281492,
              40.0160408464435
            ],
            [
              116.35001685068764,
              40.01598269597367
            ],
            [
              116.34996607446953,
              40.015926393339406
            ],
            [
              116.34991176648975,
              40.01587207417405
            ],
            [
              116.3498540575844,
              40.01581986933243
            ],
            [
              116.34979308678157,
              40.015769904575734
            ],
            [
              116.34972900096624,
              40.01572230026842
            ],
            [
              116.34966195452641,
              40.01567717108848
            ],
            [
              116.34959210898126,
              40.01563462575111
            ],
            [
              116.34951963259194,
              40.01559476674689
            ],
            [
              116.34944469995631,
              40.015557690094894
            ],
            [
              116.34936749158834,
              40.01552348511144
            ],
            [
              116.34928819348332,
              40.01549223419498
            ],
            [
              116.34920699666979,
              40.01546401262762
            ],
            [
              116.34912409674938,
              40.015438888393746
            ],
            [
              116.34903969342584,
              40.0154169220164
            ],
            [
              116.3489539900238,
              40.01539816641139
            ],
            [
              116.34886719299918,
              40.015382666759876
            ],
            [
              116.34877951144192,
              40.01537046039962
            ],
            [
              116.34869115657237,
              40.015361576734946
            ],
            [
              116.34860234123248,
              40.015356037166015
            ],
            [
              116.34851327937332,
              40.01535385503722
            ],
            [
              116.34842418553959,
              40.015355035605076
            ],
            [
              116.34833527435303,
              40.01535957602557
            ],
            [
              116.3482467599955,
              40.01536746536098
            ],
            [
              116.34815885569306,
              40.01537868460622
            ],
            [
              116.34807177320238,
              40.015393206734686
            ],
            [
              116.34798572230085,
              40.015410996763265
            ],
            [
              116.34790091028123,
              40.01543201183661
            ],
            [
              116.34781754145234,
              40.015456201330394
            ],
            [
              116.34773581664712,
              40.01548350697321
            ],
            [
              116.3476559327387,
              40.015513862986985
            ],
            [
              116.34757808216635,
              40.01554719624526
            ],
            [
              116.3475024524719,
              40.015583426449496
            ],
            [
              116.34742922584803,
              40.01562246632239
            ],
            [
              116.34735857869936,
              40.01566422181808
            ],
            [
              116.3472906812175,
              40.01570859234872
            ],
            [
              116.34722569697126,
              40.0157554710267
            ],
            [
              116.34716378251237,
              40.01580474492214
            ],
            [
              116.34710508699852,
              40.01585629533491
            ],
            [
              116.3470497518339,
              40.015909998080474
            ],
            [
              116.34699791032867,
              40.01596572378911
            ],
            [
              116.34694968737764,
              40.01602333821742
            ],
            [
              116.34690519915948,
              40.016082702571815
            ],
            [
              116.34686455285659,
              40.01614367384269
            ],
            [
              116.34682784639706,
              40.01620610514904
            ],
            [
              116.34679516821848,
              40.016269846092186
            ],
            [
              116.34676659705497,
              40.01633474311809
            ],
            [
              116.3467422017473,
              40.01640063988721
            ],
            [
              116.34672204107694,
              40.01646737765122
            ],
            [
              116.34670616362446,
              40.01653479563525
            ],
            [
              116.34669460765222,
              40.01660273142533
            ],
            [
              116.34668740101222,
              40.01667102135958
            ],
            [
              116.34668456107879,
              40.016739500922455
            ],
            [
              116.34668609470666,
              40.01680800514113
            ],
            [
              116.34669199821427,
              40.016876368982864
            ],
            [
              116.34670225739262,
              40.01694442775263
            ],
            [
              116.3467168475392,
              40.01701201748986
            ],
            [
              116.34673573351752,
              40.01707897536343
            ],
            [
              116.3467588698416,
              40.017145140063995
            ],
            [
              116.34678620078539,
              40.0172103521926
            ],
            [
              116.34681766051703,
              40.017274454644685
            ],
            [
              116.34685317325717,
              40.0173372929886
            ],
            [
              116.34689265346157,
              40.017398715837736
            ],
            [
              116.34693600602698,
              40.01745857521516
            ],
            [
              116.34698312652037,
              40.0175167269102
            ],
            [
              116.34703390143018,
              40.01757303082593
            ],
            [
              116.34708820843997,
              40.01762735131664
            ],
            [
              116.34714591672285,
              40.01767955751473
            ],
            [
              116.34720688725683,
              40.017729523646
            ],
            [
              116.3472709731595,
              40.01777712933268
            ],
            [
              116.34733802004195,
              40.01782225988355
            ],
            [
              116.34740786638082,
              40.01786480657021
            ],
            [
              116.34748034390726,
              40.017904666889066
            ],
            [
              116.3475552780125,
              40.01794174480837
            ],
            [
              116.34763248816839,
              40.01797595099962
            ],
            [
              116.3477117883624,
              40.01800720305273
            ],
            [
              116.34779298754596,
              40.018035425674654
            ],
            [
              116.3478758900945,
              40.01806055087083
            ],
            [
              116.34796029627907,
              40.01808251810896
            ],
            [
              116.34804600274741,
              40.01810127446496
            ],
            [
              116.34813280301408,
              40.018116774750425
            ],
            [
              116.34822048795793,
              40.01812898162146
            ],
            [
              116.348308846326,
              40.018137865668876
            ],
            [
              116.34839766524264,
              40.018143405488786
            ],
            [
              116.34848673072237,
              40.018145587734395
            ],
            [
              116.34857582818556,
              40.01814440714806
            ],
            [
              116.34866474297554,
              40.01813986657398
            ],
            [
              116.34875326087572,
              40.01813197695135
            ],
            [
              116.34884116862602,
              40.01812075728801
            ],
            [
              116.34892825443649,
              40.01810623461459
            ],
            [
              116.34901430849773,
              40.018088443919495
            ],
            [
              116.34909912348665,
              40.018067428064455
            ],
            [
              116.34918249506573,
              40.01804323768129
            ],
            [
              116.34926422237567,
              40.018015931050044
            ],
            [
              116.34934410851909,
              40.01798557395828
            ],
            [
              116.34942196103525,
              40.017952239542815
            ],
            [
              116.34949759236362,
              40.01791600811337
            ],
            [
              116.34957082029575,
              40.01787696695901
            ],
            [
              116.34964146841448,
              40.01783521013796
            ],
            [
              116.34970936651874,
              40.01779083825083
            ],
            [
              116.34977435103384,
              40.0177439581983
            ],
            [
              116.34983626540543,
              40.01769468292348
            ],
            [
              116.34989496047665,
              40.017643131139785
            ],
            [
              116.34995029484755,
              40.01758942704494
            ],
            [
              116.35000213521563,
              40.01753370002168
            ],
            [
              116.35005035669705,
              40.01747608432604
            ],
            [
              116.35009484312732,
              40.01741671876386
            ],
            [
              116.35013548734119,
              40.01735574635632
            ],
            [
              116.35017219143073,
              40.01729331399542
            ],
            [
              116.35020486698112,
              40.017229572089974
            ],
            [
              116.35023343528364,
              40.01716467420328
            ],
            [
              116.35025782752503,
              40.01709877668316
            ],
            [
              116.3502779849533,
              40.01703203828522
            ],
            [
              116.3502938590192,
              40.016964619790386
            ],
            [
              116.35030541149294,
              40.01689668361758
            ],
            [
              116.35031261455616,
              40.01682839343234
            ],
            [
              116.35031545086906,
              40.01675991375266
            ],
            [
              116.35031391361171,
              40.01669140955247
            ],
            [
              116.35030800650065,
              40.016623045864314
            ]
          ]
        ]
      }
    },
    {
      "type": "Feature",
      "id": "PUBLIC-002",
      "properties": {
        "id": "PUBLIC-002",
        "layer": "PUBLIC_SPACE",
        "name_zh": "AI原点有人求助庭",
        "name_en": "AI Origin Human Help Court",
        "source_type": "agent_generated_design",
        "confidence": "low",
        "geometry_role": "design_proposal",
        "concept_status": "conceptual_public_space_node",
        "staffed_help_required": true,
        "ai_use_mandatory": false,
        "operator_commitment_status": "unconfirmed",
        "area_sqm_declared": 75446.456
      },
      "geometry": {
        "type": "Polygon",
        "coordinates": [
          [
            [
              116.34930725641392,
              39.98837334447341
            ],
            [
              116.34929699853735,
              39.988305285613414
            ],
            [
              116.34928241156828,
              39.98823769589593
            ],
            [
              116.34926353066038,
              39.98817073814902
            ],
            [
              116.34924040131143,
              39.988104573677795
            ],
            [
              116.34921307925345,
              39.98803936187585
            ],
            [
              116.34918163031837,
              39.98797525984128
            ],
            [
              116.34914613027931,
              39.98791242199835
            ],
            [
              116.34910666466803,
              39.98785099972531
            ],
            [
              116.34906332856873,
              39.987791140989934
            ],
            [
              116.34901622638884,
              39.987732989992985
            ],
            [
              116.34896547160753,
              39.987676686820876
            ],
            [
              116.34891118650224,
              39.98762236710827
            ],
            [
              116.34885350185405,
              39.987570161711325
            ],
            [
              116.34879255663256,
              39.98752019639252
            ],
            [
              116.34872849766111,
              39.98747259151775
            ],
            [
              116.34866147926307,
              39.987427461766316
            ],
            [
              116.34859166289003,
              39.987384915854825
            ],
            [
              116.34851921673288,
              39.98734505627523
            ],
            [
              116.34844431531667,
              39.987307979048005
            ],
            [
              116.34836713908018,
              39.98727377349086
            ],
            [
              116.34828787394125,
              39.98724252200363
            ],
            [
              116.34820671084903,
              39.98721429986979
            ],
            [
              116.34812384532398,
              39.98718917507512
            ],
            [
              116.34803947698694,
              39.987167208143994
            ],
            [
              116.34795380907826,
              39.987148451993555
            ],
            [
              116.34786704796844,
              39.9871329518063
            ],
            [
              116.34777940266085,
              39.98712074492127
            ],
            [
              116.34769108428856,
              39.98711186074406
            ],
            [
              116.3476023056056,
              39.98710632067604
            ],
            [
              116.34751328047474,
              39.98710413806285
            ],
            [
              116.34742422335225,
              39.98710531816214
            ],
            [
              116.34733534877144,
              39.98710985813104
            ],
            [
              116.34724687082598,
              39.987117747032904
            ],
            [
              116.34715900265421,
              39.98712896586371
            ],
            [
              116.34707195592583,
              39.987143487597834
            ],
            [
              116.34698594033206,
              39.9871612772531
            ],
            [
              116.3469011630806,
              39.987182291975074
            ],
            [
              116.34681782839658,
              39.98720648114028
            ],
            [
              116.34673613703065,
              39.987233786478086
            ],
            [
              116.34665628577541,
              39.98726414221113
            ],
            [
              116.34657846699145,
              39.98729747521367
            ],
            [
              116.34650286814409,
              39.987333705187766
            ],
            [
              116.34642967135163,
              39.98737274485663
            ],
            [
              116.34635905294687,
              39.98741450017493
            ],
            [
              116.3462911830522,
              39.987458870555216
            ],
            [
              116.34622622516991,
              39.987505749110234
            ],
            [
              116.34616433578827,
              39.98755502291041
            ],
            [
              116.34610566400454,
              39.98760657325585
            ],
            [
              116.34605035116574,
              39.98766027596214
            ],
            [
              116.34599853052825,
              39.98771600165967
            ],
            [
              116.3459503269366,
              39.987773616105066
            ],
            [
              116.34590585652275,
              39.987832980504685
            ],
            [
              116.34586522642628,
              39.98789395184882
            ],
            [
              116.34582853453621,
              39.987956383256254
            ],
            [
              116.34579586925501,
              39.98802012432811
            ],
            [
              116.3457673092857,
              39.98808502150998
            ],
            [
              116.34574292344209,
              39.988150918462
            ],
            [
              116.34572277048282,
              39.98821765643536
            ],
            [
              116.34570689896985,
              39.988285074654705
            ],
            [
              116.34569534715125,
              39.9883530107055
            ],
            [
              116.34568814286898,
              39.98842130092521
            ],
            [
              116.34568530349166,
              39.98848978079763
            ],
            [
              116.3456868358727,
              39.98855828534917
            ],
            [
              116.3456927363335,
              39.988626649546305
            ],
            [
              116.34570299067235,
              39.98869470869314
            ],
            [
              116.34571757419842,
              39.98876229882818
            ],
            [
              116.34573645179113,
              39.988829257119384
            ],
            [
              116.34575957798471,
              39.98889542225639
            ],
            [
              116.34578689707753,
              39.98896063483919
            ],
            [
              116.34581834326616,
              39.98902473776213
            ],
            [
              116.34585384080395,
              39.989087576592446
            ],
            [
              116.34589330418325,
              39.98914899994233
            ],
            [
              116.34593663834131,
              39.98920885983366
            ],
            [
              116.34598373888947,
              39.98926701205456
            ],
            [
              116.3460344923642,
              39.9893233165068
            ],
            [
              116.3460887765007,
              39.989377637543406
            ],
            [
              116.34614646052717,
              39.98942984429545
            ],
            [
              116.34620740548002,
              39.98947981098742
            ],
            [
              116.34627146453849,
              39.989527417240204
            ],
            [
              116.3463384833784,
              39.98957254836121
            ],
            [
              116.34640830054386,
              39.989615095620636
            ],
            [
              116.34648074783638,
              39.98965495651357
            ],
            [
              116.34655565071996,
              39.98969203500689
            ],
            [
              116.34663282874172,
              39.98972624177067
            ],
            [
              116.34671209596658,
              39.98975749439347
            ],
            [
              116.34679326142532,
              39.98978571758087
            ],
            [
              116.34687612957471,
              39.98981084333696
            ],
            [
              116.34696050076865,
              39.9898328111281
            ],
            [
              116.34704617173918,
              39.98985156802886
            ],
            [
              116.34713293608642,
              39.98986706884951
            ],
            [
              116.34722058477576,
              39.989879276244935
            ],
            [
              116.34730890664162,
              39.98988816080458
            ],
            [
              116.34739768889624,
              39.989893701123435
            ],
            [
              116.34748671764254,
              39.98989588385344
            ],
            [
              116.34757577838938,
              39.989894703735786
            ],
            [
              116.34766465656855,
              39.98989016361356
            ],
            [
              116.34775313805173,
              39.989882274424865
            ],
            [
              116.34784100966652,
              39.98987105517648
            ],
            [
              116.34792805971007,
              39.98985653289806
            ],
            [
              116.34801407845919,
              39.98983874257702
            ],
            [
              116.34809885867585,
              39.98981772707421
            ],
            [
              116.34818219610631,
              39.98979353702062
            ],
            [
              116.34826388997351,
              39.98976623069543
            ],
            [
              116.34834374346075,
              39.98973587388553
            ],
            [
              116.3484215641859,
              39.98970253972703
            ],
            [
              116.34849716466502,
              39.98966630852899
            ],
            [
              116.34857036276405,
              39.98962726758
            ],
            [
              116.34864098213764,
              39.989585510937715
            ],
            [
              116.34870885265401,
              39.98954113920232
            ],
            [
              116.34877381080493,
              39.98949425927412
            ],
            [
              116.34883570009954,
              39.98944498409593
            ],
            [
              116.34889437144143,
              39.98939343238094
            ],
            [
              116.3489496834878,
              39.9893397283267
            ],
            [
              116.34900150298992,
              39.98928400131583
            ],
            [
              116.34904970511418,
              39.989226385604354
            ],
            [
              116.34909417374278,
              39.9891670199981
            ],
            [
              116.34913480175331,
              39.98910604751839
            ],
            [
              116.34917149127683,
              39.98904361505739
            ],
            [
              116.3492041539337,
              39.98897987302412
            ],
            [
              116.34923271104613,
              39.98891497498223
            ],
            [
              116.34925709382789,
              39.98884907727989
            ],
            [
              116.34927724354974,
              39.988782338673126
            ],
            [
              116.34929311168095,
              39.988714919943405
            ],
            [
              116.349304660006,
              39.98864698351016
            ],
            [
              116.34931186071658,
              39.988578693039614
            ],
            [
              116.34931469647847,
              39.9885102130504
            ],
            [
              116.3493131604731,
              39.98844170851721
            ],
            [
              116.34930725641392,
              39.98837334447341
            ]
          ]
        ]
      }
    },
    {
      "type": "Feature",
      "id": "PUBLIC-003",
      "properties": {
        "id": "PUBLIC-003",
        "layer": "PUBLIC_SPACE",
        "name_zh": "大钟寺有人求助庭",
        "name_en": "Dazhongsi Human Help Court",
        "source_type": "agent_generated_design",
        "confidence": "low",
        "geometry_role": "design_proposal",
        "concept_status": "conceptual_public_space_node",
        "staffed_help_required": true,
        "ai_use_mandatory": false,
        "operator_commitment_status": "unconfirmed",
        "area_sqm_declared": 75446.456
      },
      "geometry": {
        "type": "Polygon",
        "coordinates": [
          [
            [
              116.3503061562716,
              39.94679344963193
            ],
            [
              116.3502959030586,
              39.94672539041565
            ],
            [
              116.3502813233854,
              39.946657800403614
            ],
            [
              116.35026245238807,
              39.94659084242458
            ],
            [
              116.35023933554046,
              39.946524677784225
            ],
            [
              116.35021202854445,
              39.94645946587654
            ],
            [
              116.35018059719567,
              39.94639536379994
            ],
            [
              116.35014511722487,
              39.94633252597871
            ],
            [
              116.35010567411543,
              39.94627110379113
            ],
            [
              116.35006236289732,
              39.94621124520473
            ],
            [
              116.35001528791801,
              39.94615309441992
            ],
            [
              116.34996456259114,
              39.94609679152262
            ],
            [
              116.34991030912319,
              39.946042472146836
            ],
            [
              116.34985265821899,
              39.94599026714793
            ],
            [
              116.34979174876685,
              39.94594030228741
            ],
            [
              116.34972772750395,
              39.945892697930084
            ],
            [
              116.34966074866283,
              39.945847568754026
            ],
            [
              116.34959097359972,
              39.94580502347444
            ],
            [
              116.34951857040609,
              39.94576516458178
            ],
            [
              116.34944371350342,
              39.94572808809487
            ],
            [
              116.3493665832233,
              39.945693883329646
            ],
            [
              116.34928736537287,
              39.94566263268404
            ],
            [
              116.34920625078735,
              39.94563441143949
            ],
            [
              116.34912343487038,
              39.94560928757968
            ],
            [
              116.3490391171233,
              39.94558732162668
            ],
            [
              116.34895350066462,
              39.94556856649532
            ],
            [
              116.3488667917409,
              39.945553067365644
            ],
            [
              116.34877919922984,
              39.94554086157414
            ],
            [
              116.34869093413728,
              39.94553197852377
            ],
            [
              116.34860220908898,
              39.945526439613204
            ],
            [
              116.34851323781851,
              39.945524258185266
            ],
            [
              116.34842423465241,
              39.94552543949478
            ],
            [
              116.34833541399405,
              39.94552998069596
            ],
            [
              116.34824698980717,
              39.94553787084917
            ],
            [
              116.34815917510069,
              39.94554909094739
            ],
            [
              116.3480721814155,
              39.945563613961944
            ],
            [
              116.34798621831507,
              39.94558140490754
            ],
            [
              116.34790149288065,
              39.94560242092666
            ],
            [
              116.34781820921258,
              39.945626611392704
            ],
            [
              116.34773656793861,
              39.94565391803188
            ],
            [
              116.34765676573069,
              39.9456842750637
            ],
            [
              116.34757899483131,
              39.945717609359264
            ],
            [
              116.34750344259032,
              39.94575384061753
            ],
            [
              116.34743029101391,
              39.945792881558624
            ],
            [
              116.34735971632585,
              39.9458346381341
            ],
            [
              116.34729188854331,
              39.945879009753526
            ],
            [
              116.34722697106704,
              39.94592588952663
            ],
            [
              116.34716512028804,
              39.94597516452088
            ],
            [
              116.34710648521053,
              39.9460267160335
            ],
            [
              116.34705120709313,
              39.94608041987728
            ],
            [
              116.34699941910854,
              39.946136146679855
            ],
            [
              116.34695124602264,
              39.94619376219518
            ],
            [
              116.34690680389387,
              39.94625312762701
            ],
            [
              116.34686619979368,
              39.94631409996318
            ],
            [
              116.34682953154841,
              39.94637653232005
            ],
            [
              116.3467968875036,
              39.94644027429644
            ],
            [
              116.34676834631107,
              39.946505172335826
            ],
            [
              116.34674397673932,
              39.94657107009619
            ],
            [
              116.34672383750784,
              39.9466378088268
            ],
            [
              116.34670797714547,
              39.94670522775049
            ],
            [
              116.3466964338734,
              39.946773164451
            ],
            [
              116.34668923551295,
              39.94684145526425
            ],
            [
              116.3466863994185,
              39.94690993567258
            ],
            [
              116.34668793243543,
              39.946978440701116
            ],
            [
              116.34669383088367,
              39.9470468053152
            ],
            [
              116.34670408056628,
              39.94711486481793
            ],
            [
              116.34671865680366,
              39.94718245524696
            ],
            [
              116.34673752449274,
              39.947249413769505
            ],
            [
              116.34676063819161,
              39.94731557907469
            ],
            [
              116.34678794222864,
              39.94738079176208
            ],
            [
              116.34681937083676,
              39.947444894725784
            ],
            [
              116.34685484831154,
              39.94750773353293
            ],
            [
              116.34689428919371,
              39.94756915679581
            ],
            [
              116.34693759847474,
              39.94762901653647
            ],
            [
              116.34698467182577,
              39.94768716854344
            ],
            [
              116.34703539584885,
              39.94774347271899
            ],
            [
              116.34708964835012,
              39.94779779341681
            ],
            [
              116.34714729863398,
              39.947849999768835
            ],
            [
              116.34720820781814,
              39.94789996600049
            ],
            [
              116.34727222916801,
              39.947947571733785
            ],
            [
              116.3473392084502,
              39.94799270227739
            ],
            [
              116.34740898430417,
              39.948035248902926
            ],
            [
              116.34748138863094,
              39.948075109106966
            ],
            [
              116.347556246998,
              39.948112186858076
            ],
            [
              116.3476333790598,
              39.94814639282814
            ],
            [
              116.3477125989919,
              39.94817764460764
            ],
            [
              116.34779371593913,
              39.94820586690415
            ],
            [
              116.34787653447505,
              39.94823099172396
            ],
            [
              116.34796085507315,
              39.94825295853566
            ],
            [
              116.3480464745874,
              39.948271714416215
            ],
            [
              116.34813318674188,
              39.94828721417832
            ],
            [
              116.34822078262773,
              39.94829942047943
            ],
            [
              116.34830905120661,
              39.94830830391166
            ],
            [
              116.3483977798192,
              39.94831384307265
            ],
            [
              116.34848675469759,
              39.94831602461719
            ],
            [
              116.34857576148052,
              39.9483148432893
            ],
            [
              116.34866458572978,
              39.948310301935
            ],
            [
              116.348753013447,
              39.94830241149534
            ],
            [
              116.34884083158934,
              39.948291190980136
            ],
            [
              116.34892782858276,
              39.948276667422064
            ],
            [
              116.34901379483195,
              39.948258875811625
            ],
            [
              116.34909852322532,
              39.9482378590128
            ],
            [
              116.34918180963408,
              39.94821366765968
            ],
            [
              116.34926345340405,
              39.94818636003456
            ],
            [
              116.34934325783924,
              39.94815600192746
            ],
            [
              116.34942103067573,
              39.948122666477616
            ],
            [
              116.34949658454497,
              39.94808643399721
            ],
            [
              116.34956973742516,
              39.94804739177786
            ],
            [
              116.3496403130799,
              39.94800563388033
            ],
            [
              116.34970814148278,
              39.94796126090781
            ],
            [
              116.349773059227,
              39.94791437976357
            ],
            [
              116.34983490991905,
              39.94786510339333
            ],
            [
              116.34989354455554,
              39.94781355051319
            ],
            [
              116.34994882188204,
              39.94775984532344
            ],
            [
              116.35000060873352,
              39.94770411720949
            ],
            [
              116.350048780355,
              39.94764650042996
            ],
            [
              116.35009322070209,
              39.9475871337933
            ],
            [
              116.3501338227206,
              39.94752616032325
            ],
            [
              116.35017048860416,
              39.94746372691438
            ],
            [
              116.35020313003001,
              39.94739998397801
            ],
            [
              116.35023166837155,
              39.94733508507993
            ],
            [
              116.35025603488769,
              39.94726918657038
            ],
            [
              116.35027617088843,
              39.94720244720734
            ],
            [
              116.35029202787601,
              39.94713502777405
            ],
            [
              116.35030356766178,
              39.94706709069169
            ],
            [
              116.35031076245794,
              39.946998799628005
            ],
            [
              116.35031359494447,
              39.94693031910307
            ],
            [
              116.35031205831072,
              39.946861814092884
            ],
            [
              116.3503061562716,
              39.94679344963193
            ]
          ]
        ]
      }
    },
    {
      "type": "Feature",
      "id": "PUBLIC-004",
      "properties": {
        "id": "PUBLIC-004",
        "layer": "PUBLIC_SPACE",
        "name_zh": "首发100米双路径共享前场",
        "name_en": "Launch 100 m dual-path commons",
        "source_type": "agent_generated_design",
        "confidence": "low",
        "geometry_role": "design_proposal",
        "concept_status": "conceptual_public_space_node",
        "staffed_help_required": true,
        "ai_use_mandatory": false,
        "operator_commitment_status": "unconfirmed",
        "area_sqm_declared": 12600.0
      },
      "geometry": {
        "type": "Polygon",
        "coordinates": [
          [
            [
              116.34764791649943,
              39.988951149440055
            ],
            [
              116.34823330638146,
              39.98895444277021
            ],
            [
              116.34824186535265,
              39.988053879480326
            ],
            [
              116.34765648315663,
              39.988050586254616
            ],
            [
              116.34735208445277,
              39.988048872608985
            ],
            [
              116.34676670240324,
              39.98804557488992
            ],
            [
              116.34675812406336,
              39.988946137916415
            ],
            [
              116.34734351379886,
              39.98894943574007
            ],
            [
              116.34764791649943,
              39.988951149440055
            ]
          ]
        ]
      }
    }
  ]
}
