{
  "type": "FeatureCollection",
  "name": "jingzhang_human_loop_concept_mobility_network",
  "metadata": {
    "coordinate_reference_system": "EPSG:4326",
    "measurement_crs": "EPSG:4548",
    "generated_date": "2026-08-10",
    "layer_purpose": "Concept network: a 100 m Human Loop launch pair and three transverse key-area connections.",
    "status_notice": "Concept-design evidence only. Repository provisional boundaries are not official redlines, statutory controls, survey data, or an implementation basis.",
    "road_redline_status": "unknown",
    "engineering_feasibility": "not_assessed",
    "equal_non_ai_route_included": true
  },
  "features": [
    {
      "type": "Feature",
      "id": "ROAD-001",
      "properties": {
        "id": "ROAD-001",
        "layer": "ROAD_CENTERLINE",
        "name_zh": "首发100米 Human Loop 有人服务径",
        "name_en": "Launch 100 m staffed Human Loop path",
        "road_class": "pedestrian",
        "source_type": "agent_generated_design",
        "confidence": "low",
        "geometry_role": "design_proposal",
        "concept_status": "conceptual_100m_pilot_alignment",
        "route_mode": "staffed_ai_assisted_path",
        "service_protocol": [
          "notice",
          "choice",
          "human_help",
          "equal_non_ai_path",
          "exit_and_appeal"
        ],
        "engineering_alignment": false,
        "length_m_declared": 100.0
      },
      "geometry": {
        "type": "LineString",
        "coordinates": [
          [
            116.34721159275206,
            39.98804808142601
          ],
          [
            116.34720302025354,
            39.988948644532
          ]
        ]
      }
    },
    {
      "type": "Feature",
      "id": "ROAD-002",
      "properties": {
        "id": "ROAD-002",
        "layer": "ROAD_CENTERLINE",
        "name_zh": "等长等权非AI路径",
        "name_en": "Equal-length, equal-rights non-AI path",
        "road_class": "pedestrian",
        "source_type": "agent_generated_design",
        "confidence": "low",
        "geometry_role": "design_proposal",
        "concept_status": "conceptual_100m_pilot_alignment",
        "route_mode": "fully_non_ai_accessible_path",
        "service_equivalence_to": "ROAD-001",
        "engineering_alignment": false,
        "length_m_declared": 100.0
      },
      "geometry": {
        "type": "LineString",
        "coordinates": [
          [
            116.34779697487487,
            39.98805137689838
          ],
          [
            116.34778841006232,
            39.9889519401089
          ]
        ]
      }
    },
    {
      "type": "Feature",
      "id": "ROAD-003",
      "properties": {
        "id": "ROAD-003",
        "layer": "ROAD_CENTERLINE",
        "name_zh": "重点区1横向人本连接",
        "name_en": "Key area 1 transverse human-centered connector",
        "road_class": "transit_connection",
        "source_type": "agent_generated_design",
        "confidence": "low",
        "geometry_role": "design_proposal",
        "concept_status": "conceptual_connection_not_road_redline",
        "key_area_id": "PROV-KEY-001",
        "engineering_alignment": false,
        "length_m_declared": 991.064
      },
      "geometry": {
        "type": "LineString",
        "coordinates": [
          [
            116.34269108326272,
            40.0167169182456
          ],
          [
            116.35429897291199,
            40.01678217819707
          ]
        ]
      }
    },
    {
      "type": "Feature",
      "id": "ROAD-004",
      "properties": {
        "id": "ROAD-004",
        "layer": "ROAD_CENTERLINE",
        "name_zh": "重点区2横向人本连接",
        "name_en": "Key area 2 transverse human-centered connector",
        "road_class": "cycleway",
        "source_type": "agent_generated_design",
        "confidence": "low",
        "geometry_role": "design_proposal",
        "concept_status": "conceptual_connection_not_road_redline",
        "key_area_id": "PROV-KEY-002",
        "engineering_alignment": false,
        "length_m_declared": 1017.494
      },
      "geometry": {
        "type": "LineString",
        "coordinates": [
          [
            116.34103654529574,
            39.988463443840274
          ],
          [
            116.35294908061807,
            39.98853055950972
          ]
        ]
      }
    },
    {
      "type": "Feature",
      "id": "ROAD-005",
      "properties": {
        "id": "ROAD-005",
        "layer": "ROAD_CENTERLINE",
        "name_zh": "重点区3横向人本连接",
        "name_en": "Key area 3 transverse human-centered connector",
        "road_class": "transit_connection",
        "source_type": "agent_generated_design",
        "confidence": "low",
        "geometry_role": "design_proposal",
        "concept_status": "conceptual_connection_not_road_redline",
        "key_area_id": "PROV-KEY-003",
        "engineering_alignment": false,
        "length_m_declared": 1186.483
      },
      "geometry": {
        "type": "LineString",
        "coordinates": [
          [
            116.34094939200011,
            39.94687746420755
          ],
          [
            116.35483198795446,
            39.94695555197384
          ]
        ]
      }
    }
  ]
}
