{
  "crs": {
    "properties": {
      "name": "urn:ogc:def:crs:OGC:1.3:CRS84"
    },
    "type": "name"
  },
  "features": [
    {
      "geometry": {
        "type": "Polygon",
        "coordinates": [
          [
            [
              116.3412168,
              39.9650743
            ],
            [
              116.3402647,
              39.9650635
            ],
            [
              116.3402506,
              39.9652669
            ],
            [
              116.3401656,
              39.9653266
            ],
            [
              116.3401621,
              39.9658094
            ],
            [
              116.3411743,
              39.965823
            ],
            [
              116.3412168,
              39.9650743
            ]
          ]
        ]
      },
      "id": "CTX-BLDG-WAY-466633071",
      "properties": {
        "clip_boundary_feature_id": null,
        "clipped_to_provisional_envelope": false,
        "confidence": "medium",
        "constraint_status": null,
        "context_only": true,
        "geometry_role": "existing_condition",
        "id": "CTX-BLDG-WAY-466633071",
        "layer": "BUILDING_FOOTPRINT",
        "licence": "ODbL-1.0 © OpenStreetMap contributors",
        "name": null,
        "no_building_action_inferred": true,
        "not_for_ownership_boundary_or_route_claim": true,
        "official_geometry": false,
        "osm_id": 466633071,
        "osm_type": "way",
        "retrieval_date": "2026-08-11",
        "source_feature_id": "way/466633071",
        "source_id": "F2-SRC-OSM-BBBIKE-20260811",
        "source_type": "osm"
      },
      "type": "Feature"
    },
    {
      "geometry": {
        "type": "Polygon",
        "coordinates": [
          [
            [
              116.341395,
              39.9680111
            ],
            [
              116.3420944,
              39.9680201
            ],
            [
              116.3421011,
              39.9677155
            ],
            [
              116.3414017,
              39.9677065
            ],
            [
              116.341395,
              39.9680111
            ]
          ]
        ]
      },
      "id": "CTX-BLDG-WAY-467677597",
      "properties": {
        "clip_boundary_feature_id": null,
        "clipped_to_provisional_envelope": false,
        "confidence": "medium",
        "constraint_status": null,
        "context_only": true,
        "geometry_role": "existing_condition",
        "id": "CTX-BLDG-WAY-467677597",
        "layer": "BUILDING_FOOTPRINT",
        "licence": "ODbL-1.0 © OpenStreetMap contributors",
        "name": null,
        "no_building_action_inferred": true,
        "not_for_ownership_boundary_or_route_claim": true,
        "official_geometry": false,
        "osm_id": 467677597,
        "osm_type": "way",
        "retrieval_date": "2026-08-11",
        "source_feature_id": "way/467677597",
        "source_id": "F2-SRC-OSM-BBBIKE-20260811",
        "source_type": "osm"
      },
      "type": "Feature"
    },
    {
      "geometry": {
        "type": "Polygon",
        "coordinates": [
          [
            [
              116.3412649,
              39.968601
            ],
            [
              116.3419929,
              39.968609
            ],
            [
              116.3419932,
              39.9685928
            ],
            [
              116.3420971,
              39.9685939
            ],
            [
              116.3420986,
              39.9685153
            ],
            [
              116.3420028,
              39.9685143
            ],
            [
              116.3420033,
              39.9684867
            ],
            [
              116.3412672,
              39.9684786
            ],
            [
              116.3412649,
              39.968601
            ]
          ]
        ]
      },
      "id": "CTX-BLDG-WAY-467677598",
      "properties": {
        "clip_boundary_feature_id": null,
        "clipped_to_provisional_envelope": false,
        "confidence": "medium",
        "constraint_status": null,
        "context_only": true,
        "geometry_role": "existing_condition",
        "id": "CTX-BLDG-WAY-467677598",
        "layer": "BUILDING_FOOTPRINT",
        "licence": "ODbL-1.0 © OpenStreetMap contributors",
        "name": null,
        "no_building_action_inferred": true,
        "not_for_ownership_boundary_or_route_claim": true,
        "official_geometry": false,
        "osm_id": 467677598,
        "osm_type": "way",
        "retrieval_date": "2026-08-11",
        "source_feature_id": "way/467677598",
        "source_id": "F2-SRC-OSM-BBBIKE-20260811",
        "source_type": "osm"
      },
      "type": "Feature"
    },
    {
      "geometry": {
        "type": "Polygon",
        "coordinates": [
          [
            [
              116.3405369,
              39.9676634
            ],
            [
              116.3400253,
              39.9676554
            ],
            [
              116.33989952314165,
              39.96781716690037
            ],
            [
              116.33989561913121,
              39.96795771127616
            ],
            [
              116.3399272,
              39.9679582
            ],
            [
              116.3399264,
              39.9679883
            ],
            [
              116.3403327,
              39.9679944
            ],
            [
              116.3403322,
              39.9680151
            ],
            [
              116.3412609,
              39.9680295
            ],
            [
              116.3412691,
              39.9677183
            ],
            [
              116.3405357,
              39.9677069
            ],
            [
              116.3405369,
              39.9676634
            ]
          ]
        ]
      },
      "id": "CTX-BLDG-WAY-467677601",
      "properties": {
        "clip_boundary_feature_id": null,
        "clipped_to_provisional_envelope": false,
        "confidence": "medium",
        "constraint_status": null,
        "context_only": true,
        "geometry_role": "existing_condition",
        "id": "CTX-BLDG-WAY-467677601",
        "layer": "BUILDING_FOOTPRINT",
        "licence": "ODbL-1.0 © OpenStreetMap contributors",
        "name": null,
        "no_building_action_inferred": true,
        "not_for_ownership_boundary_or_route_claim": true,
        "official_geometry": false,
        "osm_id": 467677601,
        "osm_type": "way",
        "retrieval_date": "2026-08-11",
        "source_feature_id": "way/467677601",
        "source_id": "F2-SRC-OSM-BBBIKE-20260811",
        "source_type": "osm"
      },
      "type": "Feature"
    }
  ],
  "metadata": {
    "analysis_windows": "three carrier envelopes expanded approximately 250 m; not project boundaries",
    "authority": "Existing context only; no ownership, access, condition, legal route, survey or building action is inferred.",
    "formal_use": "background_only",
    "licence": "ODbL-1.0 © OpenStreetMap contributors",
    "recoverable_source": "workbench/P5B-finalists/shared-basemap/source-layers/existing-buildings.geojson",
    "retrieval_date": "2026-08-11",
    "schema_version": "0.1.0",
    "scope_filter_boundary": "PROV-SITE-001",
    "scope_filter_clips_crossing_features": true,
    "scope_filter_rule": "retain source footprints intersecting the repository provisional site envelope; preserve covered geometries and explicitly clip crossing geometries",
    "source": "BBBike Beijing PBF / OpenStreetMap contributors",
    "source_id": "F2-SRC-OSM-BBBIKE-20260811"
  },
  "name": "formal_existing_building_context",
  "type": "FeatureCollection"
}
