{
  "crs": {
    "properties": {
      "name": "urn:ogc:def:crs:OGC:1.3:CRS84"
    },
    "type": "name"
  },
  "data_gap": {
    "missing": [
      "official road redlines",
      "ownership",
      "heritage controls",
      "fire",
      "municipal utilities",
      "water-management boundary"
    ],
    "status": "official_controls_missing"
  },
  "features": [
    {
      "geometry": {
        "type": "LineString",
        "coordinates": [
          [
            116.3479381,
            40.0211674
          ],
          [
            116.3496201,
            40.0189584
          ],
          [
            116.3527934,
            40.014905
          ],
          [
            116.3542026,
            40.0129171
          ],
          [
            116.3544606,
            40.0125464
          ],
          [
            116.35453049788275,
            40.01245658636021
          ]
        ]
      },
      "id": "CTX-ROAD-WAY-29235323",
      "properties": {
        "confidence": "medium",
        "constraint_status": "mapped_context_not_regulatory_control",
        "context_only": true,
        "geometry_role": "existing_condition",
        "id": "CTX-ROAD-WAY-29235323",
        "layer": "EXISTING_PRIMARY_ROAD",
        "licence": "ODbL-1.0 © OpenStreetMap contributors",
        "name": "京藏高速",
        "no_building_action_inferred": false,
        "not_for_ownership_boundary_or_route_claim": true,
        "official_geometry": false,
        "osm_id": 29235323,
        "osm_type": "way",
        "retrieval_date": "2026-08-11",
        "source_feature_id": "way/29235323",
        "source_id": "F2-SRC-OSM-BBBIKE-20260811",
        "source_type": "osm"
      },
      "type": "Feature"
    },
    {
      "geometry": {
        "type": "LineString",
        "coordinates": [
          [
            116.3458996,
            40.0209082
          ],
          [
            116.3460802,
            40.0208397
          ],
          [
            116.3464143,
            40.020713
          ],
          [
            116.3473064,
            40.0202717
          ],
          [
            116.3480768,
            40.0198494
          ],
          [
            116.3487417,
            40.019485
          ],
          [
            116.3488384,
            40.0194079
          ],
          [
            116.3491162,
            40.0191862
          ],
          [
            116.3494598,
            40.0188319
          ],
          [
            116.3504287,
            40.0176092
          ],
          [
            116.3512148,
            40.0166042
          ],
          [
            116.3512827,
            40.0165174
          ],
          [
            116.3514988,
            40.0162411
          ],
          [
            116.3536158,
            40.0135345
          ],
          [
            116.3539403,
            40.0130907
          ],
          [
            116.3541088,
            40.0128022
          ],
          [
            116.3543609,
            40.0120389
          ],
          [
            116.35449202413724,
            40.01175444050464
          ]
        ]
      },
      "id": "CTX-ROAD-WAY-48051223",
      "properties": {
        "confidence": "medium",
        "constraint_status": "mapped_context_not_regulatory_control",
        "context_only": true,
        "geometry_role": "existing_condition",
        "id": "CTX-ROAD-WAY-48051223",
        "layer": "EXISTING_PRIMARY_ROAD",
        "licence": "ODbL-1.0 © OpenStreetMap contributors",
        "name": "G6辅路",
        "no_building_action_inferred": false,
        "not_for_ownership_boundary_or_route_claim": true,
        "official_geometry": false,
        "osm_id": 48051223,
        "osm_type": "way",
        "retrieval_date": "2026-08-11",
        "source_feature_id": "way/48051223",
        "source_id": "F2-SRC-OSM-BBBIKE-20260811",
        "source_type": "osm"
      },
      "type": "Feature"
    },
    {
      "geometry": {
        "type": "LineString",
        "coordinates": [
          [
            116.3545467748672,
            40.012753641326434
          ],
          [
            116.3543879,
            40.0129538
          ],
          [
            116.3495547,
            40.0191978
          ],
          [
            116.3485828,
            40.0204632
          ],
          [
            116.348079,
            40.0212175
          ]
        ]
      },
      "id": "CTX-ROAD-WAY-121399160",
      "properties": {
        "confidence": "medium",
        "constraint_status": "mapped_context_not_regulatory_control",
        "context_only": true,
        "geometry_role": "existing_condition",
        "id": "CTX-ROAD-WAY-121399160",
        "layer": "EXISTING_PRIMARY_ROAD",
        "licence": "ODbL-1.0 © OpenStreetMap contributors",
        "name": "京藏高速",
        "no_building_action_inferred": false,
        "not_for_ownership_boundary_or_route_claim": true,
        "official_geometry": false,
        "osm_id": 121399160,
        "osm_type": "way",
        "retrieval_date": "2026-08-11",
        "source_feature_id": "way/121399160",
        "source_id": "F2-SRC-OSM-BBBIKE-20260811",
        "source_type": "osm"
      },
      "type": "Feature"
    },
    {
      "geometry": {
        "type": "LineString",
        "coordinates": [
          [
            116.3422763,
            39.9663621
          ],
          [
            116.3413624,
            39.9665122
          ]
        ]
      },
      "id": "CTX-ROAD-WAY-164919782",
      "properties": {
        "confidence": "medium",
        "constraint_status": "mapped_context_not_regulatory_control",
        "context_only": true,
        "geometry_role": "existing_condition",
        "id": "CTX-ROAD-WAY-164919782",
        "layer": "EXISTING_PRIMARY_ROAD",
        "licence": "ODbL-1.0 © OpenStreetMap contributors",
        "name": null,
        "no_building_action_inferred": false,
        "not_for_ownership_boundary_or_route_claim": true,
        "official_geometry": false,
        "osm_id": 164919782,
        "osm_type": "way",
        "retrieval_date": "2026-08-11",
        "source_feature_id": "way/164919782",
        "source_id": "F2-SRC-OSM-BBBIKE-20260811",
        "source_type": "osm"
      },
      "type": "Feature"
    },
    {
      "geometry": {
        "type": "LineString",
        "coordinates": [
          [
            116.3434707,
            39.9665211
          ],
          [
            116.3425204,
            39.9665166
          ],
          [
            116.3422588,
            39.9665154
          ],
          [
            116.3413624,
            39.9665122
          ]
        ]
      },
      "id": "CTX-ROAD-WAY-165169791",
      "properties": {
        "confidence": "medium",
        "constraint_status": "mapped_context_not_regulatory_control",
        "context_only": true,
        "geometry_role": "existing_condition",
        "id": "CTX-ROAD-WAY-165169791",
        "layer": "EXISTING_PRIMARY_ROAD",
        "licence": "ODbL-1.0 © OpenStreetMap contributors",
        "name": "北三环西路",
        "no_building_action_inferred": false,
        "not_for_ownership_boundary_or_route_claim": true,
        "official_geometry": false,
        "osm_id": 165169791,
        "osm_type": "way",
        "retrieval_date": "2026-08-11",
        "source_feature_id": "way/165169791",
        "source_id": "F2-SRC-OSM-BBBIKE-20260811",
        "source_type": "osm"
      },
      "type": "Feature"
    },
    {
      "geometry": {
        "type": "LineString",
        "coordinates": [
          [
            116.33994773266213,
            39.96608162416329
          ],
          [
            116.341456,
            39.9660893
          ]
        ]
      },
      "id": "CTX-ROAD-WAY-165174639",
      "properties": {
        "confidence": "medium",
        "constraint_status": "mapped_context_not_regulatory_control",
        "context_only": true,
        "geometry_role": "existing_condition",
        "id": "CTX-ROAD-WAY-165174639",
        "layer": "EXISTING_PRIMARY_ROAD",
        "licence": "ODbL-1.0 © OpenStreetMap contributors",
        "name": "北三环西路",
        "no_building_action_inferred": false,
        "not_for_ownership_boundary_or_route_claim": true,
        "official_geometry": false,
        "osm_id": 165174639,
        "osm_type": "way",
        "retrieval_date": "2026-08-11",
        "source_feature_id": "way/165174639",
        "source_id": "F2-SRC-OSM-BBBIKE-20260811",
        "source_type": "osm"
      },
      "type": "Feature"
    },
    {
      "geometry": {
        "type": "LineString",
        "coordinates": [
          [
            116.341456,
            39.9660893
          ],
          [
            116.3422739,
            39.9662263
          ]
        ]
      },
      "id": "CTX-ROAD-WAY-169102931",
      "properties": {
        "confidence": "medium",
        "constraint_status": "mapped_context_not_regulatory_control",
        "context_only": true,
        "geometry_role": "existing_condition",
        "id": "CTX-ROAD-WAY-169102931",
        "layer": "EXISTING_PRIMARY_ROAD",
        "licence": "ODbL-1.0 © OpenStreetMap contributors",
        "name": null,
        "no_building_action_inferred": false,
        "not_for_ownership_boundary_or_route_claim": true,
        "official_geometry": false,
        "osm_id": 169102931,
        "osm_type": "way",
        "retrieval_date": "2026-08-11",
        "source_feature_id": "way/169102931",
        "source_id": "F2-SRC-OSM-BBBIKE-20260811",
        "source_type": "osm"
      },
      "type": "Feature"
    },
    {
      "geometry": {
        "type": "LineString",
        "coordinates": [
          [
            116.341456,
            39.9660893
          ],
          [
            116.3422642,
            39.9660968
          ],
          [
            116.3429987,
            39.9661036
          ],
          [
            116.3436425,
            39.9661095
          ],
          [
            116.3437684,
            39.9661091
          ],
          [
            116.3439403,
            39.9661087
          ],
          [
            116.3447134,
            39.9661369
          ],
          [
            116.3448754,
            39.9661428
          ],
          [
            116.3463693,
            39.9661663
          ]
        ]
      },
      "id": "CTX-ROAD-WAY-169102939",
      "properties": {
        "confidence": "medium",
        "constraint_status": "mapped_context_not_regulatory_control",
        "context_only": true,
        "geometry_role": "existing_condition",
        "id": "CTX-ROAD-WAY-169102939",
        "layer": "EXISTING_PRIMARY_ROAD",
        "licence": "ODbL-1.0 © OpenStreetMap contributors",
        "name": "北三环西路",
        "no_building_action_inferred": false,
        "not_for_ownership_boundary_or_route_claim": true,
        "official_geometry": false,
        "osm_id": 169102939,
        "osm_type": "way",
        "retrieval_date": "2026-08-11",
        "source_feature_id": "way/169102939",
        "source_id": "F2-SRC-OSM-BBBIKE-20260811",
        "source_type": "osm"
      },
      "type": "Feature"
    },
    {
      "geometry": {
        "type": "LineString",
        "coordinates": [
          [
            116.3422763,
            39.9663621
          ],
          [
            116.33994059041022,
            39.96633874523182
          ]
        ]
      },
      "id": "CTX-ROAD-WAY-217986919",
      "properties": {
        "confidence": "medium",
        "constraint_status": "mapped_context_not_regulatory_control",
        "context_only": true,
        "geometry_role": "existing_condition",
        "id": "CTX-ROAD-WAY-217986919",
        "layer": "EXISTING_PRIMARY_ROAD",
        "licence": "ODbL-1.0 © OpenStreetMap contributors",
        "name": "北三环",
        "no_building_action_inferred": false,
        "not_for_ownership_boundary_or_route_claim": true,
        "official_geometry": false,
        "osm_id": 217986919,
        "osm_type": "way",
        "retrieval_date": "2026-08-11",
        "source_feature_id": "way/217986919",
        "source_id": "F2-SRC-OSM-BBBIKE-20260811",
        "source_type": "osm"
      },
      "type": "Feature"
    },
    {
      "geometry": {
        "type": "LineString",
        "coordinates": [
          [
            116.3413624,
            39.9665122
          ],
          [
            116.3413075,
            39.9665117
          ],
          [
            116.3401838,
            39.9665023
          ],
          [
            116.33993610532873,
            39.9665002081654
          ]
        ]
      },
      "id": "CTX-ROAD-WAY-217986920",
      "properties": {
        "confidence": "medium",
        "constraint_status": "mapped_context_not_regulatory_control",
        "context_only": true,
        "geometry_role": "existing_condition",
        "id": "CTX-ROAD-WAY-217986920",
        "layer": "EXISTING_PRIMARY_ROAD",
        "licence": "ODbL-1.0 © OpenStreetMap contributors",
        "name": "北三环西路",
        "no_building_action_inferred": false,
        "not_for_ownership_boundary_or_route_claim": true,
        "official_geometry": false,
        "osm_id": 217986920,
        "osm_type": "way",
        "retrieval_date": "2026-08-11",
        "source_feature_id": "way/217986920",
        "source_id": "F2-SRC-OSM-BBBIKE-20260811",
        "source_type": "osm"
      },
      "type": "Feature"
    },
    {
      "geometry": {
        "type": "LineString",
        "coordinates": [
          [
            116.33993237318896,
            39.966634565197154
          ],
          [
            116.3400227,
            39.9666084
          ],
          [
            116.3410956,
            39.9666043
          ],
          [
            116.3413077,
            39.9666045
          ]
        ]
      },
      "id": "CTX-ROAD-WAY-498275831",
      "properties": {
        "confidence": "medium",
        "constraint_status": "mapped_context_not_regulatory_control",
        "context_only": true,
        "geometry_role": "existing_condition",
        "id": "CTX-ROAD-WAY-498275831",
        "layer": "EXISTING_PRIMARY_ROAD",
        "licence": "ODbL-1.0 © OpenStreetMap contributors",
        "name": null,
        "no_building_action_inferred": false,
        "not_for_ownership_boundary_or_route_claim": true,
        "official_geometry": false,
        "osm_id": 498275831,
        "osm_type": "way",
        "retrieval_date": "2026-08-11",
        "source_feature_id": "way/498275831",
        "source_id": "F2-SRC-OSM-BBBIKE-20260811",
        "source_type": "osm"
      },
      "type": "Feature"
    },
    {
      "geometry": {
        "type": "LineString",
        "coordinates": [
          [
            116.3413077,
            39.9666045
          ],
          [
            116.3413075,
            39.9665117
          ]
        ]
      },
      "id": "CTX-ROAD-WAY-499473623",
      "properties": {
        "confidence": "medium",
        "constraint_status": "mapped_context_not_regulatory_control",
        "context_only": true,
        "geometry_role": "existing_condition",
        "id": "CTX-ROAD-WAY-499473623",
        "layer": "EXISTING_PRIMARY_ROAD",
        "licence": "ODbL-1.0 © OpenStreetMap contributors",
        "name": null,
        "no_building_action_inferred": false,
        "not_for_ownership_boundary_or_route_claim": true,
        "official_geometry": false,
        "osm_id": 499473623,
        "osm_type": "way",
        "retrieval_date": "2026-08-11",
        "source_feature_id": "way/499473623",
        "source_id": "F2-SRC-OSM-BBBIKE-20260811",
        "source_type": "osm"
      },
      "type": "Feature"
    },
    {
      "geometry": {
        "type": "LineString",
        "coordinates": [
          [
            116.33994420084811,
            39.96620876946766
          ],
          [
            116.3422739,
            39.9662263
          ]
        ]
      },
      "id": "CTX-ROAD-WAY-1064239197",
      "properties": {
        "confidence": "medium",
        "constraint_status": "mapped_context_not_regulatory_control",
        "context_only": true,
        "geometry_role": "existing_condition",
        "id": "CTX-ROAD-WAY-1064239197",
        "layer": "EXISTING_PRIMARY_ROAD",
        "licence": "ODbL-1.0 © OpenStreetMap contributors",
        "name": "北三环",
        "no_building_action_inferred": false,
        "not_for_ownership_boundary_or_route_claim": true,
        "official_geometry": false,
        "osm_id": 1064239197,
        "osm_type": "way",
        "retrieval_date": "2026-08-11",
        "source_feature_id": "way/1064239197",
        "source_id": "F2-SRC-OSM-BBBIKE-20260811",
        "source_type": "osm"
      },
      "type": "Feature"
    },
    {
      "geometry": {
        "type": "LineString",
        "coordinates": [
          [
            116.35384550947596,
            39.99995554793616
          ],
          [
            116.3490988,
            39.9998177
          ],
          [
            116.3466403,
            39.9997438
          ],
          [
            116.3439477,
            39.9996568
          ],
          [
            116.34128490039967,
            39.99956595619491
          ]
        ]
      },
      "id": "CTX-RAIL-WAY-120680613",
      "properties": {
        "confidence": "medium",
        "constraint_status": "mapped_context_not_regulatory_control",
        "context_only": true,
        "geometry_role": "existing_condition",
        "id": "CTX-RAIL-WAY-120680613",
        "layer": "EXISTING_RAIL",
        "licence": "ODbL-1.0 © OpenStreetMap contributors",
        "name": "北京地铁15号线",
        "no_building_action_inferred": false,
        "not_for_ownership_boundary_or_route_claim": true,
        "official_geometry": false,
        "osm_id": 120680613,
        "osm_type": "way",
        "retrieval_date": "2026-08-11",
        "source_feature_id": "way/120680613",
        "source_id": "F2-SRC-OSM-BBBIKE-20260811",
        "source_type": "osm"
      },
      "type": "Feature"
    },
    {
      "geometry": {
        "type": "LineString",
        "coordinates": [
          [
            116.3470711,
            39.9403046
          ],
          [
            116.3465728,
            39.9416209
          ],
          [
            116.3463313,
            39.9422551
          ],
          [
            116.3462506,
            39.9424387
          ],
          [
            116.3460778,
            39.9428879
          ],
          [
            116.3459627,
            39.9431678
          ],
          [
            116.3453275,
            39.9447884
          ],
          [
            116.3452326,
            39.945034
          ],
          [
            116.3451594,
            39.9452742
          ],
          [
            116.3451114,
            39.945611
          ],
          [
            116.3450934,
            39.9459738
          ],
          [
            116.3451062,
            39.9462339
          ],
          [
            116.3451513,
            39.946496
          ],
          [
            116.3452829,
            39.9473161
          ],
          [
            116.3453741,
            39.9478411
          ],
          [
            116.3454673,
            39.9483619
          ],
          [
            116.3454978,
            39.948522
          ],
          [
            116.3455153,
            39.9486957
          ],
          [
            116.345521,
            39.9490075
          ],
          [
            116.3455167,
            39.9491573
          ],
          [
            116.3455052,
            39.9493066
          ],
          [
            116.345489,
            39.9494449
          ],
          [
            116.3454604,
            39.9495778
          ],
          [
            116.3453892,
            39.9498337
          ],
          [
            116.3452529,
            39.9501592
          ],
          [
            116.3450957,
            39.9504532
          ],
          [
            116.3434819,
            39.9534911
          ],
          [
            116.3426438,
            39.9550012
          ],
          [
            116.3422182,
            39.9557639
          ],
          [
            116.3419732,
            39.9562157
          ],
          [
            116.3418051,
            39.9565511
          ],
          [
            116.341539,
            39.9571237
          ],
          [
            116.3413781,
            39.9574596
          ],
          [
            116.3411053,
            39.9580021
          ],
          [
            116.3405028,
            39.9590932
          ],
          [
            116.3403895,
            39.9593128
          ],
          [
            116.3402783,
            39.9595338
          ],
          [
            116.34011986427791,
            39.959884885995116
          ]
        ]
      },
      "id": "CTX-RAIL-WAY-122019975",
      "properties": {
        "confidence": "medium",
        "constraint_status": "mapped_context_not_regulatory_control",
        "context_only": true,
        "geometry_role": "existing_condition",
        "id": "CTX-RAIL-WAY-122019975",
        "layer": "EXISTING_RAIL",
        "licence": "ODbL-1.0 © OpenStreetMap contributors",
        "name": "13号线",
        "no_building_action_inferred": false,
        "not_for_ownership_boundary_or_route_claim": true,
        "official_geometry": false,
        "osm_id": 122019975,
        "osm_type": "way",
        "retrieval_date": "2026-08-11",
        "source_feature_id": "way/122019975",
        "source_id": "F2-SRC-OSM-BBBIKE-20260811",
        "source_type": "osm"
      },
      "type": "Feature"
    },
    {
      "geometry": {
        "type": "LineString",
        "coordinates": [
          [
            116.340122651058,
            39.95978456191197
          ],
          [
            116.3402352,
            39.9595183
          ],
          [
            116.3403419,
            39.9593039
          ],
          [
            116.3404579,
            39.9590796
          ],
          [
            116.3410651,
            39.9579884
          ],
          [
            116.3412201,
            39.9576869
          ],
          [
            116.3413425,
            39.9574487
          ],
          [
            116.3415004,
            39.9571171
          ],
          [
            116.3417676,
            39.956537
          ],
          [
            116.3419381,
            39.9562049
          ],
          [
            116.3421807,
            39.9557528
          ],
          [
            116.3426063,
            39.954985
          ],
          [
            116.3434561,
            39.9534854
          ],
          [
            116.3450766,
            39.9504463
          ],
          [
            116.3452306,
            39.9501486
          ],
          [
            116.3453635,
            39.9498233
          ],
          [
            116.3454324,
            39.949577
          ],
          [
            116.3454663,
            39.9494442
          ],
          [
            116.3454843,
            39.9492979
          ],
          [
            116.3454902,
            39.9491537
          ],
          [
            116.3454983,
            39.9490064
          ],
          [
            116.3454881,
            39.9486921
          ],
          [
            116.3454694,
            39.9485278
          ],
          [
            116.3454395,
            39.9483642
          ],
          [
            116.3453491,
            39.9478412
          ],
          [
            116.345256,
            39.9473183
          ],
          [
            116.3451258,
            39.9465025
          ],
          [
            116.3450814,
            39.946233
          ],
          [
            116.345068,
            39.9459725
          ],
          [
            116.3450799,
            39.9456061
          ],
          [
            116.3451255,
            39.9452658
          ],
          [
            116.3451948,
            39.9450213
          ],
          [
            116.3452874,
            39.9447743
          ],
          [
            116.3458438,
            39.9433506
          ],
          [
            116.3459797,
            39.942989
          ],
          [
            116.3461391,
            39.9425862
          ],
          [
            116.3462093,
            39.9424207
          ],
          [
            116.3462911,
            39.9422366
          ],
          [
            116.3464291,
            39.9416932
          ],
          [
            116.3469724,
            39.9402806
          ]
        ]
      },
      "id": "CTX-RAIL-WAY-122090416",
      "properties": {
        "confidence": "medium",
        "constraint_status": "mapped_context_not_regulatory_control",
        "context_only": true,
        "geometry_role": "existing_condition",
        "id": "CTX-RAIL-WAY-122090416",
        "layer": "EXISTING_RAIL",
        "licence": "ODbL-1.0 © OpenStreetMap contributors",
        "name": "13号线",
        "no_building_action_inferred": false,
        "not_for_ownership_boundary_or_route_claim": true,
        "official_geometry": false,
        "osm_id": 122090416,
        "osm_type": "way",
        "retrieval_date": "2026-08-11",
        "source_feature_id": "way/122090416",
        "source_id": "F2-SRC-OSM-BBBIKE-20260811",
        "source_type": "osm"
      },
      "type": "Feature"
    },
    {
      "geometry": {
        "type": "LineString",
        "coordinates": [
          [
            116.35450348969886,
            39.974956378764325
          ],
          [
            116.3477606,
            39.9749496
          ],
          [
            116.3467265,
            39.9749443
          ],
          [
            116.3456238,
            39.9750127
          ],
          [
            116.3439634,
            39.9750796
          ],
          [
            116.3435029,
            39.9751754
          ],
          [
            116.342634,
            39.9752205
          ],
          [
            116.3420483,
            39.9752224
          ],
          [
            116.3419889,
            39.9752226
          ],
          [
            116.33971482841537,
            39.97522984043837
          ]
        ]
      },
      "id": "CTX-RAIL-WAY-127024048",
      "properties": {
        "confidence": "medium",
        "constraint_status": "mapped_context_not_regulatory_control",
        "context_only": true,
        "geometry_role": "existing_condition",
        "id": "CTX-RAIL-WAY-127024048",
        "layer": "EXISTING_RAIL",
        "licence": "ODbL-1.0 © OpenStreetMap contributors",
        "name": null,
        "no_building_action_inferred": false,
        "not_for_ownership_boundary_or_route_claim": true,
        "official_geometry": false,
        "osm_id": 127024048,
        "osm_type": "way",
        "retrieval_date": "2026-08-11",
        "source_feature_id": "way/127024048",
        "source_id": "F2-SRC-OSM-BBBIKE-20260811",
        "source_type": "osm"
      },
      "type": "Feature"
    },
    {
      "geometry": {
        "type": "LineString",
        "coordinates": [
          [
            116.33970113995322,
            39.97501766927493
          ],
          [
            116.3420829,
            39.9750072
          ],
          [
            116.3433764,
            39.9749662
          ],
          [
            116.3440246,
            39.9749054
          ],
          [
            116.3453001,
            39.9748352
          ],
          [
            116.3458463,
            39.9748051
          ],
          [
            116.3467216,
            39.9747935
          ],
          [
            116.3477566,
            39.9748033
          ],
          [
            116.35451433574369,
            39.97482080320396
          ]
        ]
      },
      "id": "CTX-RAIL-WAY-127024049",
      "properties": {
        "confidence": "medium",
        "constraint_status": "mapped_context_not_regulatory_control",
        "context_only": true,
        "geometry_role": "existing_condition",
        "id": "CTX-RAIL-WAY-127024049",
        "layer": "EXISTING_RAIL",
        "licence": "ODbL-1.0 © OpenStreetMap contributors",
        "name": null,
        "no_building_action_inferred": false,
        "not_for_ownership_boundary_or_route_claim": true,
        "official_geometry": false,
        "osm_id": 127024049,
        "osm_type": "way",
        "retrieval_date": "2026-08-11",
        "source_feature_id": "way/127024049",
        "source_id": "F2-SRC-OSM-BBBIKE-20260811",
        "source_type": "osm"
      },
      "type": "Feature"
    },
    {
      "geometry": {
        "type": "LineString",
        "coordinates": [
          [
            116.34716389411766,
            39.939
          ],
          [
            116.3473398,
            39.9390168
          ],
          [
            116.3475569,
            39.939034
          ],
          [
            116.347756,
            39.9390472
          ],
          [
            116.3480085,
            39.9390568
          ],
          [
            116.3482483,
            39.9390625
          ],
          [
            116.3493268,
            39.9390927
          ],
          [
            116.3503022,
            39.9391193
          ],
          [
            116.3553,
            39.93924597489106
          ]
        ]
      },
      "id": "CTX-RAIL-WAY-154870219",
      "properties": {
        "confidence": "medium",
        "constraint_status": "mapped_context_not_regulatory_control",
        "context_only": true,
        "geometry_role": "existing_condition",
        "id": "CTX-RAIL-WAY-154870219",
        "layer": "EXISTING_RAIL",
        "licence": "ODbL-1.0 © OpenStreetMap contributors",
        "name": "北京地铁4号线",
        "no_building_action_inferred": false,
        "not_for_ownership_boundary_or_route_claim": true,
        "official_geometry": false,
        "osm_id": 154870219,
        "osm_type": "way",
        "retrieval_date": "2026-08-11",
        "source_feature_id": "way/154870219",
        "source_id": "F2-SRC-OSM-BBBIKE-20260811",
        "source_type": "osm"
      },
      "type": "Feature"
    },
    {
      "geometry": {
        "type": "LineString",
        "coordinates": [
          [
            116.3553,
            39.939345223714845
          ],
          [
            116.3502953,
            39.9392055
          ],
          [
            116.3493233,
            39.9391731
          ],
          [
            116.3482437,
            39.9391455
          ],
          [
            116.3473416,
            39.939091
          ],
          [
            116.3467079,
            39.9390235
          ],
          [
            116.34651831778436,
            39.939
          ]
        ]
      },
      "id": "CTX-RAIL-WAY-154870235",
      "properties": {
        "confidence": "medium",
        "constraint_status": "mapped_context_not_regulatory_control",
        "context_only": true,
        "geometry_role": "existing_condition",
        "id": "CTX-RAIL-WAY-154870235",
        "layer": "EXISTING_RAIL",
        "licence": "ODbL-1.0 © OpenStreetMap contributors",
        "name": "北京地铁4号线",
        "no_building_action_inferred": false,
        "not_for_ownership_boundary_or_route_claim": true,
        "official_geometry": false,
        "osm_id": 154870235,
        "osm_type": "way",
        "retrieval_date": "2026-08-11",
        "source_feature_id": "way/154870235",
        "source_id": "F2-SRC-OSM-BBBIKE-20260811",
        "source_type": "osm"
      },
      "type": "Feature"
    },
    {
      "geometry": {
        "type": "LineString",
        "coordinates": [
          [
            116.34127829798436,
            39.99946361875763
          ],
          [
            116.3425507,
            39.9994916
          ],
          [
            116.3425943,
            39.9994927
          ],
          [
            116.3426726,
            39.9994946
          ],
          [
            116.3457492,
            39.9995738
          ],
          [
            116.3466443,
            39.9995994
          ],
          [
            116.3489454,
            39.9996694
          ],
          [
            116.3502518,
            39.9997026
          ],
          [
            116.35383763906081,
            39.99981191285983
          ]
        ]
      },
      "id": "CTX-RAIL-WAY-200111964",
      "properties": {
        "confidence": "medium",
        "constraint_status": "mapped_context_not_regulatory_control",
        "context_only": true,
        "geometry_role": "existing_condition",
        "id": "CTX-RAIL-WAY-200111964",
        "layer": "EXISTING_RAIL",
        "licence": "ODbL-1.0 © OpenStreetMap contributors",
        "name": "北京地铁15号线",
        "no_building_action_inferred": false,
        "not_for_ownership_boundary_or_route_claim": true,
        "official_geometry": false,
        "osm_id": 200111964,
        "osm_type": "way",
        "retrieval_date": "2026-08-11",
        "source_feature_id": "way/200111964",
        "source_id": "F2-SRC-OSM-BBBIKE-20260811",
        "source_type": "osm"
      },
      "type": "Feature"
    },
    {
      "geometry": {
        "type": "LineString",
        "coordinates": [
          [
            116.33994786122558,
            39.96607699587906
          ],
          [
            116.3412327,
            39.9661255
          ],
          [
            116.3427768,
            39.9661693
          ],
          [
            116.3449243,
            39.9661988
          ],
          [
            116.3464868,
            39.9662233
          ],
          [
            116.3480785,
            39.9662223
          ],
          [
            116.3496623,
            39.9662289
          ],
          [
            116.3537145,
            39.9662457
          ],
          [
            116.35519964633407,
            39.96625442082418
          ]
        ]
      },
      "id": "CTX-RAIL-WAY-602211698",
      "properties": {
        "confidence": "medium",
        "constraint_status": "mapped_context_not_regulatory_control",
        "context_only": true,
        "geometry_role": "existing_condition",
        "id": "CTX-RAIL-WAY-602211698",
        "layer": "EXISTING_RAIL",
        "licence": "ODbL-1.0 © OpenStreetMap contributors",
        "name": "北京地铁12号线",
        "no_building_action_inferred": false,
        "not_for_ownership_boundary_or_route_claim": true,
        "official_geometry": false,
        "osm_id": 602211698,
        "osm_type": "way",
        "retrieval_date": "2026-08-11",
        "source_feature_id": "way/602211698",
        "source_id": "F2-SRC-OSM-BBBIKE-20260811",
        "source_type": "osm"
      },
      "type": "Feature"
    },
    {
      "geometry": {
        "type": "LineString",
        "coordinates": [
          [
            116.3431199,
            39.9544757
          ],
          [
            116.3421021,
            39.9563274
          ],
          [
            116.3406266,
            39.959086
          ],
          [
            116.3403376,
            39.9596663
          ],
          [
            116.3401184,
            39.9601983
          ],
          [
            116.34011046747807,
            39.960223170789334
          ]
        ]
      },
      "id": "CTX-RAIL-WAY-684153437",
      "properties": {
        "confidence": "medium",
        "constraint_status": "mapped_context_not_regulatory_control",
        "context_only": true,
        "geometry_role": "existing_condition",
        "id": "CTX-RAIL-WAY-684153437",
        "layer": "EXISTING_RAIL",
        "licence": "ODbL-1.0 © OpenStreetMap contributors",
        "name": "京包客专线",
        "no_building_action_inferred": false,
        "not_for_ownership_boundary_or_route_claim": true,
        "official_geometry": false,
        "osm_id": 684153437,
        "osm_type": "way",
        "retrieval_date": "2026-08-11",
        "source_feature_id": "way/684153437",
        "source_id": "F2-SRC-OSM-BBBIKE-20260811",
        "source_type": "osm"
      },
      "type": "Feature"
    },
    {
      "geometry": {
        "type": "LineString",
        "coordinates": [
          [
            116.34010323699624,
            39.96048346813519
          ],
          [
            116.3401634,
            39.9603009
          ],
          [
            116.3403967,
            39.9596929
          ],
          [
            116.3410359,
            39.9584234
          ],
          [
            116.341717,
            39.9571684
          ],
          [
            116.3421208,
            39.956417
          ],
          [
            116.3431788,
            39.95449
          ]
        ]
      },
      "id": "CTX-RAIL-WAY-741483405",
      "properties": {
        "confidence": "medium",
        "constraint_status": "mapped_context_not_regulatory_control",
        "context_only": true,
        "geometry_role": "existing_condition",
        "id": "CTX-RAIL-WAY-741483405",
        "layer": "EXISTING_RAIL",
        "licence": "ODbL-1.0 © OpenStreetMap contributors",
        "name": "京包客专线",
        "no_building_action_inferred": false,
        "not_for_ownership_boundary_or_route_claim": true,
        "official_geometry": false,
        "osm_id": 741483405,
        "osm_type": "way",
        "retrieval_date": "2026-08-11",
        "source_feature_id": "way/741483405",
        "source_id": "F2-SRC-OSM-BBBIKE-20260811",
        "source_type": "osm"
      },
      "type": "Feature"
    },
    {
      "geometry": {
        "type": "LineString",
        "coordinates": [
          [
            116.35518273688005,
            39.96646578899925
          ],
          [
            116.3525608,
            39.9663984
          ],
          [
            116.3496595,
            39.9663709
          ],
          [
            116.3428731,
            39.9663067
          ],
          [
            116.33994392302097,
            39.966218771245174
          ]
        ]
      },
      "id": "CTX-RAIL-WAY-1342316871",
      "properties": {
        "confidence": "medium",
        "constraint_status": "mapped_context_not_regulatory_control",
        "context_only": true,
        "geometry_role": "existing_condition",
        "id": "CTX-RAIL-WAY-1342316871",
        "layer": "EXISTING_RAIL",
        "licence": "ODbL-1.0 © OpenStreetMap contributors",
        "name": "北京地铁12号线",
        "no_building_action_inferred": false,
        "not_for_ownership_boundary_or_route_claim": true,
        "official_geometry": false,
        "osm_id": 1342316871,
        "osm_type": "way",
        "retrieval_date": "2026-08-11",
        "source_feature_id": "way/1342316871",
        "source_id": "F2-SRC-OSM-BBBIKE-20260811",
        "source_type": "osm"
      },
      "type": "Feature"
    },
    {
      "geometry": {
        "type": "LineString",
        "coordinates": [
          [
            116.3541241695566,
            40.005041094407815
          ],
          [
            116.3533862,
            40.0058027
          ],
          [
            116.3530171,
            40.0063681
          ],
          [
            116.3528898,
            40.0066377
          ],
          [
            116.351558,
            40.009458
          ],
          [
            116.3501844,
            40.0120927
          ],
          [
            116.3495124,
            40.0130409
          ],
          [
            116.348162,
            40.0153624
          ],
          [
            116.3467457,
            40.0172125
          ],
          [
            116.3460247,
            40.0182327
          ]
        ]
      },
      "id": "CTX-WATER-WAY-27065953",
      "properties": {
        "confidence": "medium",
        "constraint_status": "mapped_context_not_regulatory_control",
        "context_only": true,
        "geometry_role": "existing_condition",
        "id": "CTX-WATER-WAY-27065953",
        "layer": "EXISTING_WATER",
        "licence": "ODbL-1.0 © OpenStreetMap contributors",
        "name": "小月河",
        "no_building_action_inferred": false,
        "not_for_ownership_boundary_or_route_claim": true,
        "official_geometry": false,
        "osm_id": 27065953,
        "osm_type": "way",
        "retrieval_date": "2026-08-11",
        "source_feature_id": "way/27065953",
        "source_id": "F2-SRC-OSM-BBBIKE-20260811",
        "source_type": "osm"
      },
      "type": "Feature"
    },
    {
      "geometry": {
        "type": "Polygon",
        "coordinates": [
          [
            [
              116.3528194,
              40.0065001
            ],
            [
              116.3527508,
              40.0066535
            ],
            [
              116.3525423,
              40.0070758
            ],
            [
              116.352194,
              40.0077923
            ],
            [
              116.3519498,
              40.0083049
            ],
            [
              116.3514808,
              40.0093029
            ],
            [
              116.3509761,
              40.0102946
            ],
            [
              116.3504823,
              40.011198
            ],
            [
              116.3499474,
              40.0120614
            ],
            [
              116.3495771,
              40.0126098
            ],
            [
              116.3488914,
              40.0136833
            ],
            [
              116.3486527,
              40.0141098
            ],
            [
              116.3485485,
              40.0143093
            ],
            [
              116.3479752,
              40.0153429
            ],
            [
              116.3470278,
              40.0166942
            ],
            [
              116.3466974,
              40.0171823
            ],
            [
              116.3466139,
              40.0173075
            ],
            [
              116.3463737,
              40.0175631
            ],
            [
              116.3461317,
              40.0179222
            ],
            [
              116.3459643,
              40.0182108
            ],
            [
              116.3460247,
              40.0182327
            ],
            [
              116.3461034,
              40.0182645
            ],
            [
              116.3461484,
              40.0181831
            ],
            [
              116.3463706,
              40.0178323
            ],
            [
              116.3465818,
              40.0175277
            ],
            [
              116.3466915,
              40.0173576
            ],
            [
              116.346878,
              40.0171391
            ],
            [
              116.3469493,
              40.0171328
            ],
            [
              116.347273,
              40.0166286
            ],
            [
              116.3479039,
              40.0157526
            ],
            [
              116.3484415,
              40.0149522
            ],
            [
              116.3488502,
              40.0142358
            ],
            [
              116.3490806,
              40.0138514
            ],
            [
              116.3494537,
              40.0132211
            ],
            [
              116.3500928,
              40.0122925
            ],
            [
              116.3501943,
              40.0121371
            ],
            [
              116.3506195,
              40.0114312
            ],
            [
              116.3507978,
              40.0111013
            ],
            [
              116.3510638,
              40.0106055
            ],
            [
              116.3519005,
              40.0089226
            ],
            [
              116.3527288,
              40.0072607
            ],
            [
              116.3527755,
              40.0071305
            ],
            [
              116.3527755,
              40.0071137
            ],
            [
              116.3530031,
              40.0065989
            ],
            [
              116.3530333,
              40.0064476
            ],
            [
              116.3530717,
              40.0063384
            ],
            [
              116.3531897,
              40.0061703
            ],
            [
              116.3532226,
              40.0061178
            ],
            [
              116.3534749,
              40.0058005
            ],
            [
              116.35412908167969,
              40.005130740654195
            ],
            [
              116.35412604888359,
              40.00507539212539
            ],
            [
              116.35412536395364,
              40.00506289215394
            ],
            [
              116.35412526624219,
              40.00506110892002
            ],
            [
              116.35412262792616,
              40.005012959652404
            ],
            [
              116.35411713719446,
              40.00491275379904
            ],
            [
              116.3536615,
              40.0053824
            ],
            [
              116.353442,
              40.0055967
            ],
            [
              116.3533104,
              40.0057396
            ],
            [
              116.3531129,
              40.0059707
            ],
            [
              116.3529675,
              40.0062333
            ],
            [
              116.3529593,
              40.0063005
            ],
            [
              116.3529209,
              40.0063888
            ],
            [
              116.3528194,
              40.0065001
            ]
          ]
        ]
      },
      "id": "CTX-WATER-WAY-929726058",
      "properties": {
        "confidence": "medium",
        "constraint_status": "mapped_context_not_regulatory_control",
        "context_only": true,
        "geometry_role": "existing_condition",
        "id": "CTX-WATER-WAY-929726058",
        "layer": "EXISTING_WATER",
        "licence": "ODbL-1.0 © OpenStreetMap contributors",
        "name": null,
        "no_building_action_inferred": false,
        "not_for_ownership_boundary_or_route_claim": true,
        "official_geometry": false,
        "osm_id": 929726058,
        "osm_type": "way",
        "retrieval_date": "2026-08-11",
        "source_feature_id": "way/929726058",
        "source_id": "F2-SRC-OSM-BBBIKE-20260811",
        "source_type": "osm"
      },
      "type": "Feature"
    }
  ],
  "metadata": {
    "analysis_windows": "three carrier envelopes expanded approximately 250 m; not project boundaries",
    "authority": "Existing context only; no ownership, access, condition, legal route, survey or building action is inferred.",
    "formal_use": "background_only",
    "licence": "ODbL-1.0 © OpenStreetMap contributors",
    "retrieval_date": "2026-08-11",
    "schema_version": "0.1.0",
    "source": "BBBike Beijing PBF / OpenStreetMap contributors",
    "source_id": "F2-SRC-OSM-BBBIKE-20260811"
  },
  "name": "formal_existing_physical_context",
  "type": "FeatureCollection"
}
