{
  "type": "FeatureCollection",
  "name": "p818_provisional_green_space",
  "metadata": {
    "schema_version": "0.1.0",
    "coordinate_reference_system": "EPSG:4326",
    "area_check_crs": "EPSG:4548",
    "derivation": "Concept planting/rain-garden sub-band within the Northern permanent-public-base band."
  },
  "features": [
    {
      "type": "Feature",
      "id": "GREEN-P818-NORTHERN-01",
      "properties": {
        "id": "GREEN-P818-NORTHERN-01",
        "layer": "GREEN_SPACE",
        "name_zh": "北部陆侧种植与雨水花园概念子带",
        "site": "NORTHERN",
        "stitch_id": "S1",
        "design_role": "planting_rain_garden_threshold",
        "source_type": "agent_generated_design",
        "confidence": "low",
        "geometry_role": "design_proposal",
        "conceptual_status": true,
        "official_boundary": false,
        "area_sqm_declared": 29402.912551064386,
        "calculation_crs": "EPSG:4548",
        "provisional_status": "participant_conceptual_design",
        "limitation": "Concept location only; drainage, soil, water-control, survey and professional landscape approval remain unverified."
      },
      "geometry": {
        "type": "Polygon",
        "coordinates": [
          [
            [
              116.3459128,
              40.0176824
            ],
            [
              116.3459128,
              40.015817600000005
            ],
            [
              116.3442496,
              40.015817600000005
            ],
            [
              116.3442496,
              40.0176824
            ],
            [
              116.3459128,
              40.0176824
            ]
          ]
        ]
      }
    }
  ]
}
