{
  "type": "FeatureCollection",
  "name": "p818_provisional_public_base",
  "metadata": {
    "schema_version": "0.1.0",
    "coordinate_reference_system": "EPSG:4326",
    "area_check_crs": "EPSG:4548",
    "derivation": "Three proportional concept bands inset within PROV-KEY-001/002/003; no survey or rights inference."
  },
  "features": [
    {
      "type": "Feature",
      "id": "PUB-P818-NORTHERN-01",
      "properties": {
        "id": "PUB-P818-NORTHERN-01",
        "layer": "PUBLIC_SPACE",
        "name_zh": "北部换乘生产室永久公共基态概念带",
        "site": "NORTHERN",
        "stitch_id": "S1",
        "design_role": "permanent_public_base",
        "source_type": "agent_generated_design",
        "confidence": "low",
        "geometry_role": "design_proposal",
        "conceptual_status": true,
        "official_boundary": false,
        "area_sqm_declared": 194463.55168735964,
        "calculation_crs": "EPSG:4548",
        "source_ids": [
          "F1-SRC-003-PROVISIONAL-GEOMETRY",
          "F2-SRC-P82-APPROVED-SPATIAL"
        ],
        "provisional_status": "participant_conceptual_design_derived_within_provisional_key_area",
        "limitation": "Proportional concept band derived inside a repository-maintainer provisional key area; not surveyed public right, exact alignment, approval or construction geometry."
      },
      "geometry": {
        "type": "Polygon",
        "coordinates": [
          [
            [
              116.35312,
              40.01786
            ],
            [
              116.35312,
              40.015640000000005
            ],
            [
              116.34388,
              40.015640000000005
            ],
            [
              116.34388,
              40.01786
            ],
            [
              116.35312,
              40.01786
            ]
          ]
        ]
      }
    },
    {
      "type": "Feature",
      "id": "PUB-P818-ORIGIN-01",
      "properties": {
        "id": "PUB-P818-ORIGIN-01",
        "layer": "PUBLIC_SPACE",
        "name_zh": "AI原点知识社区室永久公共基态概念带",
        "site": "AI_ORIGIN",
        "stitch_id": "S3",
        "design_role": "permanent_public_base",
        "source_type": "agent_generated_design",
        "confidence": "low",
        "geometry_role": "design_proposal",
        "conceptual_status": true,
        "official_boundary": false,
        "area_sqm_declared": 105158.28076399531,
        "calculation_crs": "EPSG:4548",
        "source_ids": [
          "F1-SRC-003-PROVISIONAL-GEOMETRY",
          "F2-SRC-P82-APPROVED-SPATIAL"
        ],
        "provisional_status": "participant_conceptual_design_derived_within_provisional_key_area",
        "limitation": "Proportional concept band derived inside a repository-maintainer provisional key area; not surveyed public right, exact alignment, approval or construction geometry."
      },
      "geometry": {
        "type": "Polygon",
        "coordinates": [
          [
            [
              116.35212,
              39.9891
            ],
            [
              116.35212,
              39.987899999999996
            ],
            [
              116.34288,
              39.987899999999996
            ],
            [
              116.34288,
              39.9891
            ],
            [
              116.35212,
              39.9891
            ]
          ]
        ]
      }
    },
    {
      "type": "Feature",
      "id": "PUB-P818-DAZHONGSI-01",
      "properties": {
        "id": "PUB-P818-DAZHONGSI-01",
        "layer": "PUBLIC_SPACE",
        "name_zh": "大钟寺门户室永久到达线概念带",
        "site": "DAZHONGSI",
        "stitch_id": "S5",
        "design_role": "permanent_public_base",
        "source_type": "agent_generated_design",
        "confidence": "low",
        "geometry_role": "design_proposal",
        "conceptual_status": true,
        "official_boundary": false,
        "area_sqm_declared": 72621.78532746079,
        "calculation_crs": "EPSG:4548",
        "source_ids": [
          "F1-SRC-003-PROVISIONAL-GEOMETRY",
          "F2-SRC-P82-APPROVED-SPATIAL"
        ],
        "provisional_status": "participant_conceptual_design_derived_within_provisional_key_area",
        "limitation": "Proportional concept band derived inside a repository-maintainer provisional key area; not surveyed public right, exact alignment, approval or construction geometry."
      },
      "geometry": {
        "type": "Polygon",
        "coordinates": [
          [
            [
              116.35396,
              39.9472704
            ],
            [
              116.35396,
              39.946569600000004
            ],
            [
              116.34304,
              39.946569600000004
            ],
            [
              116.34304,
              39.9472704
            ],
            [
              116.35396,
              39.9472704
            ]
          ]
        ]
      }
    }
  ]
}
