{
  "type": "FeatureCollection",
  "name": "buildings",
  "features": [
    {
      "type": "Feature",
      "id": "BLDG-001",
      "properties": {
        "id": "BLDG-001",
        "layer": "BUILDING_FOOTPRINT",
        "source_type": "agent_inferred_from_public_data",
        "confidence": "medium",
        "geometry_role": "provisional_constraint",
        "official_boundary": false,
        "boundary_precision": "provisional_rough",
        "area_sqm_declared": 1518.48,
        "land_use_code": "05",
        "floors": 6,
        "name_zh": "大钟寺智能原生消费与商务区建筑1"
      },
      "geometry": {
        "type": "Polygon",
        "coordinates": [
          [
            [
              116.34231527777777,
              39.9408
            ],
            [
              116.34271527777778,
              39.9408
            ],
            [
              116.34271527777778,
              39.9412
            ],
            [
              116.34231527777777,
              39.9412
            ],
            [
              116.34231527777777,
              39.9408
            ]
          ]
        ]
      }
    },
    {
      "type": "Feature",
      "id": "BLDG-002",
      "properties": {
        "id": "BLDG-002",
        "layer": "BUILDING_FOOTPRINT",
        "source_type": "agent_inferred_from_public_data",
        "confidence": "medium",
        "geometry_role": "provisional_constraint",
        "official_boundary": false,
        "boundary_precision": "provisional_rough",
        "area_sqm_declared": 1518.46,
        "land_use_code": "05",
        "floors": 6,
        "name_zh": "大钟寺智能原生消费与商务区建筑2"
      },
      "geometry": {
        "type": "Polygon",
        "coordinates": [
          [
            [
              116.34301527777777,
              39.941300000000005
            ],
            [
              116.34341527777778,
              39.941300000000005
            ],
            [
              116.34341527777778,
              39.941700000000004
            ],
            [
              116.34301527777777,
              39.941700000000004
            ],
            [
              116.34301527777777,
              39.941300000000005
            ]
          ]
        ]
      }
    },
    {
      "type": "Feature",
      "id": "BLDG-003",
      "properties": {
        "id": "BLDG-003",
        "layer": "BUILDING_FOOTPRINT",
        "source_type": "agent_inferred_from_public_data",
        "confidence": "medium",
        "geometry_role": "provisional_constraint",
        "official_boundary": false,
        "boundary_precision": "provisional_rough",
        "area_sqm_declared": 1518.45,
        "land_use_code": "05",
        "floors": 6,
        "name_zh": "大钟寺智能原生消费与商务区建筑3"
      },
      "geometry": {
        "type": "Polygon",
        "coordinates": [
          [
            [
              116.34371527777778,
              39.94180000000001
            ],
            [
              116.34411527777779,
              39.94180000000001
            ],
            [
              116.34411527777779,
              39.94220000000001
            ],
            [
              116.34371527777778,
              39.94220000000001
            ],
            [
              116.34371527777778,
              39.94180000000001
            ]
          ]
        ]
      }
    },
    {
      "type": "Feature",
      "id": "BLDG-004",
      "properties": {
        "id": "BLDG-004",
        "layer": "BUILDING_FOOTPRINT",
        "source_type": "agent_inferred_from_public_data",
        "confidence": "medium",
        "geometry_role": "provisional_constraint",
        "official_boundary": false,
        "boundary_precision": "provisional_rough",
        "area_sqm_declared": 1518.47,
        "land_use_code": "0803",
        "floors": 4,
        "name_zh": "轨距门文化展示区建筑4"
      },
      "geometry": {
        "type": "Polygon",
        "coordinates": [
          [
            [
              116.34649999999999,
              39.9408
            ],
            [
              116.3469,
              39.9408
            ],
            [
              116.3469,
              39.9412
            ],
            [
              116.34649999999999,
              39.9412
            ],
            [
              116.34649999999999,
              39.9408
            ]
          ]
        ]
      }
    },
    {
      "type": "Feature",
      "id": "BLDG-005",
      "properties": {
        "id": "BLDG-005",
        "layer": "BUILDING_FOOTPRINT",
        "source_type": "agent_inferred_from_public_data",
        "confidence": "medium",
        "geometry_role": "provisional_constraint",
        "official_boundary": false,
        "boundary_precision": "provisional_rough",
        "area_sqm_declared": 1518.46,
        "land_use_code": "0803",
        "floors": 4,
        "name_zh": "轨距门文化展示区建筑5"
      },
      "geometry": {
        "type": "Polygon",
        "coordinates": [
          [
            [
              116.34719999999999,
              39.941300000000005
            ],
            [
              116.3476,
              39.941300000000005
            ],
            [
              116.3476,
              39.941700000000004
            ],
            [
              116.34719999999999,
              39.941700000000004
            ],
            [
              116.34719999999999,
              39.941300000000005
            ]
          ]
        ]
      }
    },
    {
      "type": "Feature",
      "id": "BLDG-006",
      "properties": {
        "id": "BLDG-006",
        "layer": "BUILDING_FOOTPRINT",
        "source_type": "agent_inferred_from_public_data",
        "confidence": "medium",
        "geometry_role": "provisional_constraint",
        "official_boundary": false,
        "boundary_precision": "provisional_rough",
        "area_sqm_declared": 1518.47,
        "land_use_code": "0803",
        "floors": 4,
        "name_zh": "轨距门文化展示区建筑6"
      },
      "geometry": {
        "type": "Polygon",
        "coordinates": [
          [
            [
              116.35114999999999,
              39.9408
            ],
            [
              116.35155,
              39.9408
            ],
            [
              116.35155,
              39.9412
            ],
            [
              116.35114999999999,
              39.9412
            ],
            [
              116.35114999999999,
              39.9408
            ]
          ]
        ]
      }
    },
    {
      "type": "Feature",
      "id": "BLDG-007",
      "properties": {
        "id": "BLDG-007",
        "layer": "BUILDING_FOOTPRINT",
        "source_type": "agent_inferred_from_public_data",
        "confidence": "medium",
        "geometry_role": "provisional_constraint",
        "official_boundary": false,
        "boundary_precision": "provisional_rough",
        "area_sqm_declared": 1518.46,
        "land_use_code": "0803",
        "floors": 4,
        "name_zh": "轨距门文化展示区建筑7"
      },
      "geometry": {
        "type": "Polygon",
        "coordinates": [
          [
            [
              116.35184999999998,
              39.941300000000005
            ],
            [
              116.35225,
              39.941300000000005
            ],
            [
              116.35225,
              39.941700000000004
            ],
            [
              116.35184999999998,
              39.941700000000004
            ],
            [
              116.35184999999998,
              39.941300000000005
            ]
          ]
        ]
      }
    },
    {
      "type": "Feature",
      "id": "BLDG-008",
      "properties": {
        "id": "BLDG-008",
        "layer": "BUILDING_FOOTPRINT",
        "source_type": "agent_inferred_from_public_data",
        "confidence": "medium",
        "geometry_role": "provisional_constraint",
        "official_boundary": false,
        "boundary_precision": "provisional_rough",
        "area_sqm_declared": 1518.36,
        "land_use_code": "1401",
        "floors": 1,
        "name_zh": "遗址公园绿脉与基准走廊建筑8"
      },
      "geometry": {
        "type": "Polygon",
        "coordinates": [
          [
            [
              116.34224,
              39.946220000000004
            ],
            [
              116.34264000000002,
              39.946220000000004
            ],
            [
              116.34264000000002,
              39.94662
            ],
            [
              116.34224,
              39.94662
            ],
            [
              116.34224,
              39.946220000000004
            ]
          ]
        ]
      }
    },
    {
      "type": "Feature",
      "id": "BLDG-009",
      "properties": {
        "id": "BLDG-009",
        "layer": "BUILDING_FOOTPRINT",
        "source_type": "agent_inferred_from_public_data",
        "confidence": "medium",
        "geometry_role": "provisional_constraint",
        "official_boundary": false,
        "boundary_precision": "provisional_rough",
        "area_sqm_declared": 1518.36,
        "land_use_code": "05",
        "floors": 6,
        "name_zh": "智能原生商业服务区建筑9"
      },
      "geometry": {
        "type": "Polygon",
        "coordinates": [
          [
            [
              116.34649999999999,
              39.946220000000004
            ],
            [
              116.3469,
              39.946220000000004
            ],
            [
              116.3469,
              39.94662
            ],
            [
              116.34649999999999,
              39.94662
            ],
            [
              116.34649999999999,
              39.946220000000004
            ]
          ]
        ]
      }
    },
    {
      "type": "Feature",
      "id": "BLDG-010",
      "properties": {
        "id": "BLDG-010",
        "layer": "BUILDING_FOOTPRINT",
        "source_type": "agent_inferred_from_public_data",
        "confidence": "medium",
        "geometry_role": "provisional_constraint",
        "official_boundary": false,
        "boundary_precision": "provisional_rough",
        "area_sqm_declared": 1518.34,
        "land_use_code": "05",
        "floors": 6,
        "name_zh": "智能原生商业服务区建筑10"
      },
      "geometry": {
        "type": "Polygon",
        "coordinates": [
          [
            [
              116.34719999999999,
              39.946720000000006
            ],
            [
              116.3476,
              39.946720000000006
            ],
            [
              116.3476,
              39.947120000000005
            ],
            [
              116.34719999999999,
              39.947120000000005
            ],
            [
              116.34719999999999,
              39.946720000000006
            ]
          ]
        ]
      }
    },
    {
      "type": "Feature",
      "id": "BLDG-011",
      "properties": {
        "id": "BLDG-011",
        "layer": "BUILDING_FOOTPRINT",
        "source_type": "agent_inferred_from_public_data",
        "confidence": "medium",
        "geometry_role": "provisional_constraint",
        "official_boundary": false,
        "boundary_precision": "provisional_rough",
        "area_sqm_declared": 1518.33,
        "land_use_code": "05",
        "floors": 6,
        "name_zh": "智能原生商业服务区建筑11"
      },
      "geometry": {
        "type": "Polygon",
        "coordinates": [
          [
            [
              116.3479,
              39.94722000000001
            ],
            [
              116.34830000000001,
              39.94722000000001
            ],
            [
              116.34830000000001,
              39.94762000000001
            ],
            [
              116.3479,
              39.94762000000001
            ],
            [
              116.3479,
              39.94722000000001
            ]
          ]
        ]
      }
    },
    {
      "type": "Feature",
      "id": "BLDG-012",
      "properties": {
        "id": "BLDG-012",
        "layer": "BUILDING_FOOTPRINT",
        "source_type": "agent_inferred_from_public_data",
        "confidence": "medium",
        "geometry_role": "provisional_constraint",
        "official_boundary": false,
        "boundary_precision": "provisional_rough",
        "area_sqm_declared": 1518.35,
        "land_use_code": "05",
        "floors": 6,
        "name_zh": "智能原生商业服务区建筑12"
      },
      "geometry": {
        "type": "Polygon",
        "coordinates": [
          [
            [
              116.35114999999999,
              39.946220000000004
            ],
            [
              116.35155,
              39.946220000000004
            ],
            [
              116.35155,
              39.94662
            ],
            [
              116.35114999999999,
              39.94662
            ],
            [
              116.35114999999999,
              39.946220000000004
            ]
          ]
        ]
      }
    },
    {
      "type": "Feature",
      "id": "BLDG-013",
      "properties": {
        "id": "BLDG-013",
        "layer": "BUILDING_FOOTPRINT",
        "source_type": "agent_inferred_from_public_data",
        "confidence": "medium",
        "geometry_role": "provisional_constraint",
        "official_boundary": false,
        "boundary_precision": "provisional_rough",
        "area_sqm_declared": 1518.34,
        "land_use_code": "05",
        "floors": 6,
        "name_zh": "智能原生商业服务区建筑13"
      },
      "geometry": {
        "type": "Polygon",
        "coordinates": [
          [
            [
              116.35184999999998,
              39.946720000000006
            ],
            [
              116.35225,
              39.946720000000006
            ],
            [
              116.35225,
              39.947120000000005
            ],
            [
              116.35184999999998,
              39.947120000000005
            ],
            [
              116.35184999999998,
              39.946720000000006
            ]
          ]
        ]
      }
    },
    {
      "type": "Feature",
      "id": "BLDG-014",
      "properties": {
        "id": "BLDG-014",
        "layer": "BUILDING_FOOTPRINT",
        "source_type": "agent_inferred_from_public_data",
        "confidence": "medium",
        "geometry_role": "provisional_constraint",
        "official_boundary": false,
        "boundary_precision": "provisional_rough",
        "area_sqm_declared": 1518.33,
        "land_use_code": "05",
        "floors": 6,
        "name_zh": "智能原生商业服务区建筑14"
      },
      "geometry": {
        "type": "Polygon",
        "coordinates": [
          [
            [
              116.35255,
              39.94722000000001
            ],
            [
              116.35295,
              39.94722000000001
            ],
            [
              116.35295,
              39.94762000000001
            ],
            [
              116.35255,
              39.94762000000001
            ],
            [
              116.35255,
              39.94722000000001
            ]
          ]
        ]
      }
    },
    {
      "type": "Feature",
      "id": "BLDG-015",
      "properties": {
        "id": "BLDG-015",
        "layer": "BUILDING_FOOTPRINT",
        "source_type": "agent_inferred_from_public_data",
        "confidence": "medium",
        "geometry_role": "provisional_constraint",
        "official_boundary": false,
        "boundary_precision": "provisional_rough",
        "area_sqm_declared": 1518.02,
        "land_use_code": "1401",
        "floors": 1,
        "name_zh": "遗址公园绿脉与基准走廊建筑15"
      },
      "geometry": {
        "type": "Polygon",
        "coordinates": [
          [
            [
              116.34202472222222,
              39.96172
            ],
            [
              116.34242472222223,
              39.96172
            ],
            [
              116.34242472222223,
              39.96212
            ],
            [
              116.34202472222222,
              39.96212
            ],
            [
              116.34202472222222,
              39.96172
            ]
          ]
        ]
      }
    },
    {
      "type": "Feature",
      "id": "BLDG-016",
      "properties": {
        "id": "BLDG-016",
        "layer": "BUILDING_FOOTPRINT",
        "source_type": "agent_inferred_from_public_data",
        "confidence": "medium",
        "geometry_role": "provisional_constraint",
        "official_boundary": false,
        "boundary_precision": "provisional_rough",
        "area_sqm_declared": 1517.92,
        "land_use_code": "05",
        "floors": 6,
        "name_zh": "智能原生商业服务区建筑16"
      },
      "geometry": {
        "type": "Polygon",
        "coordinates": [
          [
            [
              116.34649999999999,
              39.96597
            ],
            [
              116.3469,
              39.96597
            ],
            [
              116.3469,
              39.96637
            ],
            [
              116.34649999999999,
              39.96637
            ],
            [
              116.34649999999999,
              39.96597
            ]
          ]
        ]
      }
    },
    {
      "type": "Feature",
      "id": "BLDG-017",
      "properties": {
        "id": "BLDG-017",
        "layer": "BUILDING_FOOTPRINT",
        "source_type": "agent_inferred_from_public_data",
        "confidence": "medium",
        "geometry_role": "provisional_constraint",
        "official_boundary": false,
        "boundary_precision": "provisional_rough",
        "area_sqm_declared": 1517.91,
        "land_use_code": "05",
        "floors": 6,
        "name_zh": "智能原生商业服务区建筑17"
      },
      "geometry": {
        "type": "Polygon",
        "coordinates": [
          [
            [
              116.34719999999999,
              39.96647
            ],
            [
              116.3476,
              39.96647
            ],
            [
              116.3476,
              39.96687
            ],
            [
              116.34719999999999,
              39.96687
            ],
            [
              116.34719999999999,
              39.96647
            ]
          ]
        ]
      }
    },
    {
      "type": "Feature",
      "id": "BLDG-018",
      "properties": {
        "id": "BLDG-018",
        "layer": "BUILDING_FOOTPRINT",
        "source_type": "agent_inferred_from_public_data",
        "confidence": "medium",
        "geometry_role": "provisional_constraint",
        "official_boundary": false,
        "boundary_precision": "provisional_rough",
        "area_sqm_declared": 1517.9,
        "land_use_code": "05",
        "floors": 6,
        "name_zh": "智能原生商业服务区建筑18"
      },
      "geometry": {
        "type": "Polygon",
        "coordinates": [
          [
            [
              116.3479,
              39.96697
            ],
            [
              116.34830000000001,
              39.96697
            ],
            [
              116.34830000000001,
              39.96737
            ],
            [
              116.3479,
              39.96737
            ],
            [
              116.3479,
              39.96697
            ]
          ]
        ]
      }
    },
    {
      "type": "Feature",
      "id": "BLDG-019",
      "properties": {
        "id": "BLDG-019",
        "layer": "BUILDING_FOOTPRINT",
        "source_type": "agent_inferred_from_public_data",
        "confidence": "medium",
        "geometry_role": "provisional_constraint",
        "official_boundary": false,
        "boundary_precision": "provisional_rough",
        "area_sqm_declared": 1517.76,
        "land_use_code": "05",
        "floors": 6,
        "name_zh": "智能原生商业服务区建筑19"
      },
      "geometry": {
        "type": "Polygon",
        "coordinates": [
          [
            [
              116.35077999999999,
              39.973549999999996
            ],
            [
              116.35118,
              39.973549999999996
            ],
            [
              116.35118,
              39.973949999999995
            ],
            [
              116.35077999999999,
              39.973949999999995
            ],
            [
              116.35077999999999,
              39.973549999999996
            ]
          ]
        ]
      }
    },
    {
      "type": "Feature",
      "id": "BLDG-020",
      "properties": {
        "id": "BLDG-020",
        "layer": "BUILDING_FOOTPRINT",
        "source_type": "agent_inferred_from_public_data",
        "confidence": "medium",
        "geometry_role": "provisional_constraint",
        "official_boundary": false,
        "boundary_precision": "provisional_rough",
        "area_sqm_declared": 1517.75,
        "land_use_code": "05",
        "floors": 6,
        "name_zh": "智能原生商业服务区建筑20"
      },
      "geometry": {
        "type": "Polygon",
        "coordinates": [
          [
            [
              116.35147999999998,
              39.97405
            ],
            [
              116.35188,
              39.97405
            ],
            [
              116.35188,
              39.97445
            ],
            [
              116.35147999999998,
              39.97445
            ],
            [
              116.35147999999998,
              39.97405
            ]
          ]
        ]
      }
    },
    {
      "type": "Feature",
      "id": "BLDG-021",
      "properties": {
        "id": "BLDG-021",
        "layer": "BUILDING_FOOTPRINT",
        "source_type": "agent_inferred_from_public_data",
        "confidence": "medium",
        "geometry_role": "provisional_constraint",
        "official_boundary": false,
        "boundary_precision": "provisional_rough",
        "area_sqm_declared": 1517.73,
        "land_use_code": "05",
        "floors": 6,
        "name_zh": "智能原生商业服务区建筑21"
      },
      "geometry": {
        "type": "Polygon",
        "coordinates": [
          [
            [
              116.35217999999999,
              39.97455
            ],
            [
              116.35258,
              39.97455
            ],
            [
              116.35258,
              39.97495
            ],
            [
              116.35217999999999,
              39.97495
            ],
            [
              116.35217999999999,
              39.97455
            ]
          ]
        ]
      }
    },
    {
      "type": "Feature",
      "id": "BLDG-022",
      "properties": {
        "id": "BLDG-022",
        "layer": "BUILDING_FOOTPRINT",
        "source_type": "agent_inferred_from_public_data",
        "confidence": "medium",
        "geometry_role": "provisional_constraint",
        "official_boundary": false,
        "boundary_precision": "provisional_rough",
        "area_sqm_declared": 1517.31,
        "land_use_code": "0802",
        "floors": 8,
        "name_zh": "基准走廊评测产业区建筑22"
      },
      "geometry": {
        "type": "Polygon",
        "coordinates": [
          [
            [
              116.34248709677419,
              39.994049999999994
            ],
            [
              116.3428870967742,
              39.994049999999994
            ],
            [
              116.3428870967742,
              39.99444999999999
            ],
            [
              116.34248709677419,
              39.99444999999999
            ],
            [
              116.34248709677419,
              39.994049999999994
            ]
          ]
        ]
      }
    },
    {
      "type": "Feature",
      "id": "BLDG-023",
      "properties": {
        "id": "BLDG-023",
        "layer": "BUILDING_FOOTPRINT",
        "source_type": "agent_inferred_from_public_data",
        "confidence": "medium",
        "geometry_role": "provisional_constraint",
        "official_boundary": false,
        "boundary_precision": "provisional_rough",
        "area_sqm_declared": 1517.3,
        "land_use_code": "0802",
        "floors": 8,
        "name_zh": "基准走廊评测产业区建筑23"
      },
      "geometry": {
        "type": "Polygon",
        "coordinates": [
          [
            [
              116.34318709677419,
              39.99455
            ],
            [
              116.3435870967742,
              39.99455
            ],
            [
              116.3435870967742,
              39.994949999999996
            ],
            [
              116.34318709677419,
              39.994949999999996
            ],
            [
              116.34318709677419,
              39.99455
            ]
          ]
        ]
      }
    },
    {
      "type": "Feature",
      "id": "BLDG-024",
      "properties": {
        "id": "BLDG-024",
        "layer": "BUILDING_FOOTPRINT",
        "source_type": "agent_inferred_from_public_data",
        "confidence": "medium",
        "geometry_role": "provisional_constraint",
        "official_boundary": false,
        "boundary_precision": "provisional_rough",
        "area_sqm_declared": 1517.29,
        "land_use_code": "0802",
        "floors": 8,
        "name_zh": "基准走廊评测产业区建筑24"
      },
      "geometry": {
        "type": "Polygon",
        "coordinates": [
          [
            [
              116.3438870967742,
              39.99505
            ],
            [
              116.34428709677421,
              39.99505
            ],
            [
              116.34428709677421,
              39.99545
            ],
            [
              116.3438870967742,
              39.99545
            ],
            [
              116.3438870967742,
              39.99505
            ]
          ]
        ]
      }
    },
    {
      "type": "Feature",
      "id": "BLDG-025",
      "properties": {
        "id": "BLDG-025",
        "layer": "BUILDING_FOOTPRINT",
        "source_type": "agent_inferred_from_public_data",
        "confidence": "medium",
        "geometry_role": "provisional_constraint",
        "official_boundary": false,
        "boundary_precision": "provisional_rough",
        "area_sqm_declared": 1517.29,
        "land_use_code": "0701",
        "floors": 12,
        "name_zh": "AI原点社区混合居住区建筑25"
      },
      "geometry": {
        "type": "Polygon",
        "coordinates": [
          [
            [
              116.34649999999999,
              39.9948
            ],
            [
              116.3469,
              39.9948
            ],
            [
              116.3469,
              39.9952
            ],
            [
              116.34649999999999,
              39.9952
            ],
            [
              116.34649999999999,
              39.9948
            ]
          ]
        ]
      }
    },
    {
      "type": "Feature",
      "id": "BLDG-026",
      "properties": {
        "id": "BLDG-026",
        "layer": "BUILDING_FOOTPRINT",
        "source_type": "agent_inferred_from_public_data",
        "confidence": "medium",
        "geometry_role": "provisional_constraint",
        "official_boundary": false,
        "boundary_precision": "provisional_rough",
        "area_sqm_declared": 1517.28,
        "land_use_code": "0701",
        "floors": 12,
        "name_zh": "AI原点社区混合居住区建筑26"
      },
      "geometry": {
        "type": "Polygon",
        "coordinates": [
          [
            [
              116.34719999999999,
              39.9953
            ],
            [
              116.3476,
              39.9953
            ],
            [
              116.3476,
              39.9957
            ],
            [
              116.34719999999999,
              39.9957
            ],
            [
              116.34719999999999,
              39.9953
            ]
          ]
        ]
      }
    },
    {
      "type": "Feature",
      "id": "BLDG-027",
      "properties": {
        "id": "BLDG-027",
        "layer": "BUILDING_FOOTPRINT",
        "source_type": "agent_inferred_from_public_data",
        "confidence": "medium",
        "geometry_role": "provisional_constraint",
        "official_boundary": false,
        "boundary_precision": "provisional_rough",
        "area_sqm_declared": 1517.27,
        "land_use_code": "0701",
        "floors": 12,
        "name_zh": "AI原点社区混合居住区建筑27"
      },
      "geometry": {
        "type": "Polygon",
        "coordinates": [
          [
            [
              116.3479,
              39.9958
            ],
            [
              116.34830000000001,
              39.9958
            ],
            [
              116.34830000000001,
              39.9962
            ],
            [
              116.3479,
              39.9962
            ],
            [
              116.3479,
              39.9958
            ]
          ]
        ]
      }
    },
    {
      "type": "Feature",
      "id": "BLDG-028",
      "properties": {
        "id": "BLDG-028",
        "layer": "BUILDING_FOOTPRINT",
        "source_type": "agent_inferred_from_public_data",
        "confidence": "medium",
        "geometry_role": "provisional_constraint",
        "official_boundary": false,
        "boundary_precision": "provisional_rough",
        "area_sqm_declared": 1517.22,
        "land_use_code": "0701",
        "floors": 12,
        "name_zh": "AI原点社区混合居住区建筑28"
      },
      "geometry": {
        "type": "Polygon",
        "coordinates": [
          [
            [
              116.35038972602739,
              39.99805
            ],
            [
              116.3507897260274,
              39.99805
            ],
            [
              116.3507897260274,
              39.99845
            ],
            [
              116.35038972602739,
              39.99845
            ],
            [
              116.35038972602739,
              39.99805
            ]
          ]
        ]
      }
    },
    {
      "type": "Feature",
      "id": "BLDG-029",
      "properties": {
        "id": "BLDG-029",
        "layer": "BUILDING_FOOTPRINT",
        "source_type": "agent_inferred_from_public_data",
        "confidence": "medium",
        "geometry_role": "provisional_constraint",
        "official_boundary": false,
        "boundary_precision": "provisional_rough",
        "area_sqm_declared": 1517.21,
        "land_use_code": "0701",
        "floors": 12,
        "name_zh": "AI原点社区混合居住区建筑29"
      },
      "geometry": {
        "type": "Polygon",
        "coordinates": [
          [
            [
              116.35108972602738,
              39.99855
            ],
            [
              116.3514897260274,
              39.99855
            ],
            [
              116.3514897260274,
              39.99895
            ],
            [
              116.35108972602738,
              39.99895
            ],
            [
              116.35108972602738,
              39.99855
            ]
          ]
        ]
      }
    },
    {
      "type": "Feature",
      "id": "BLDG-030",
      "properties": {
        "id": "BLDG-030",
        "layer": "BUILDING_FOOTPRINT",
        "source_type": "agent_inferred_from_public_data",
        "confidence": "medium",
        "geometry_role": "provisional_constraint",
        "official_boundary": false,
        "boundary_precision": "provisional_rough",
        "area_sqm_declared": 1517.2,
        "land_use_code": "0701",
        "floors": 12,
        "name_zh": "AI原点社区混合居住区建筑30"
      },
      "geometry": {
        "type": "Polygon",
        "coordinates": [
          [
            [
              116.35178972602739,
              39.999050000000004
            ],
            [
              116.3521897260274,
              39.999050000000004
            ],
            [
              116.3521897260274,
              39.99945
            ],
            [
              116.35178972602739,
              39.99945
            ],
            [
              116.35178972602739,
              39.999050000000004
            ]
          ]
        ]
      }
    },
    {
      "type": "Feature",
      "id": "BLDG-031",
      "properties": {
        "id": "BLDG-031",
        "layer": "BUILDING_FOOTPRINT",
        "source_type": "agent_inferred_from_public_data",
        "confidence": "medium",
        "geometry_role": "provisional_constraint",
        "official_boundary": false,
        "boundary_precision": "provisional_rough",
        "area_sqm_declared": 1516.82,
        "land_use_code": "0802",
        "floors": 8,
        "name_zh": "标定场与评测研发区建筑31"
      },
      "geometry": {
        "type": "Polygon",
        "coordinates": [
          [
            [
              116.34311829268293,
              40.016299999999994
            ],
            [
              116.34351829268294,
              40.016299999999994
            ],
            [
              116.34351829268294,
              40.01669999999999
            ],
            [
              116.34311829268293,
              40.01669999999999
            ],
            [
              116.34311829268293,
              40.016299999999994
            ]
          ]
        ]
      }
    },
    {
      "type": "Feature",
      "id": "BLDG-032",
      "properties": {
        "id": "BLDG-032",
        "layer": "BUILDING_FOOTPRINT",
        "source_type": "agent_inferred_from_public_data",
        "confidence": "medium",
        "geometry_role": "provisional_constraint",
        "official_boundary": false,
        "boundary_precision": "provisional_rough",
        "area_sqm_declared": 1516.81,
        "land_use_code": "0802",
        "floors": 8,
        "name_zh": "标定场与评测研发区建筑32"
      },
      "geometry": {
        "type": "Polygon",
        "coordinates": [
          [
            [
              116.34381829268293,
              40.016799999999996
            ],
            [
              116.34421829268294,
              40.016799999999996
            ],
            [
              116.34421829268294,
              40.017199999999995
            ],
            [
              116.34381829268293,
              40.017199999999995
            ],
            [
              116.34381829268293,
              40.016799999999996
            ]
          ]
        ]
      }
    },
    {
      "type": "Feature",
      "id": "BLDG-033",
      "properties": {
        "id": "BLDG-033",
        "layer": "BUILDING_FOOTPRINT",
        "source_type": "agent_inferred_from_public_data",
        "confidence": "medium",
        "geometry_role": "provisional_constraint",
        "official_boundary": false,
        "boundary_precision": "provisional_rough",
        "area_sqm_declared": 1516.8,
        "land_use_code": "0802",
        "floors": 8,
        "name_zh": "标定场与评测研发区建筑33"
      },
      "geometry": {
        "type": "Polygon",
        "coordinates": [
          [
            [
              116.34451829268293,
              40.0173
            ],
            [
              116.34491829268295,
              40.0173
            ],
            [
              116.34491829268295,
              40.0177
            ],
            [
              116.34451829268293,
              40.0177
            ],
            [
              116.34451829268293,
              40.0173
            ]
          ]
        ]
      }
    },
    {
      "type": "Feature",
      "id": "BLDG-034",
      "properties": {
        "id": "BLDG-034",
        "layer": "BUILDING_FOOTPRINT",
        "source_type": "agent_inferred_from_public_data",
        "confidence": "medium",
        "geometry_role": "provisional_constraint",
        "official_boundary": false,
        "boundary_precision": "provisional_rough",
        "area_sqm_declared": 1516.82,
        "land_use_code": "16",
        "floors": 1,
        "name_zh": "中试与测试预留地建筑34"
      },
      "geometry": {
        "type": "Polygon",
        "coordinates": [
          [
            [
              116.34649999999999,
              40.016299999999994
            ],
            [
              116.3469,
              40.016299999999994
            ],
            [
              116.3469,
              40.01669999999999
            ],
            [
              116.34649999999999,
              40.01669999999999
            ],
            [
              116.34649999999999,
              40.016299999999994
            ]
          ]
        ]
      }
    },
    {
      "type": "Feature",
      "id": "BLDG-035",
      "properties": {
        "id": "BLDG-035",
        "layer": "BUILDING_FOOTPRINT",
        "source_type": "agent_inferred_from_public_data",
        "confidence": "medium",
        "geometry_role": "provisional_constraint",
        "official_boundary": false,
        "boundary_precision": "provisional_rough",
        "area_sqm_declared": 1516.82,
        "land_use_code": "16",
        "floors": 1,
        "name_zh": "中试与测试预留地建筑35"
      },
      "geometry": {
        "type": "Polygon",
        "coordinates": [
          [
            [
              116.35088972602739,
              40.016299999999994
            ],
            [
              116.3512897260274,
              40.016299999999994
            ],
            [
              116.3512897260274,
              40.01669999999999
            ],
            [
              116.35088972602739,
              40.01669999999999
            ],
            [
              116.35088972602739,
              40.016299999999994
            ]
          ]
        ]
      }
    }
  ]
}