{
  "type": "FeatureCollection",
  "name": "green_space",
  "features": [
    {
      "type": "Feature",
      "id": "GREEN-001",
      "properties": {
        "id": "GREEN-001",
        "layer": "GREEN_SPACE",
        "source_type": "agent_inferred_from_public_data",
        "confidence": "medium",
        "geometry_role": "provisional_constraint",
        "official_boundary": false,
        "boundary_precision": "provisional_rough",
        "area_sqm_declared": 2489748.17,
        "name_zh": "京张遗址公园绿脉 Heritage Green Spine"
      },
      "geometry": {
        "type": "Polygon",
        "coordinates": [
          [
            [
              116.34899999999999,
              39.939
            ],
            [
              116.346,
              39.939
            ],
            [
              116.346,
              40.0265
            ],
            [
              116.34899999999999,
              40.0265
            ],
            [
              116.34899999999999,
              39.939
            ]
          ]
        ]
      }
    },
    {
      "type": "Feature",
      "id": "GREEN-KEY-ZZY",
      "properties": {
        "id": "GREEN-KEY-ZZY",
        "layer": "GREEN_SPACE",
        "source_type": "agent_inferred_from_public_data",
        "confidence": "medium",
        "geometry_role": "provisional_constraint",
        "official_boundary": false,
        "boundary_precision": "provisional_rough",
        "area_sqm_declared": 118939.27,
        "name_zh": "众智园AI自主创新加速区节点绿地"
      },
      "geometry": {
        "type": "Polygon",
        "coordinates": [
          [
            [
              116.35049036945334,
              40.01655396571934
            ],
            [
              116.35046157056081,
              40.01635981935597
            ],
            [
              116.35041388067147,
              40.01616943064549
            ],
            [
              116.35034775906503,
              40.01598463313527
            ],
            [
              116.3502638425287,
              40.01580720652635
            ],
            [
              116.3501629392246,
              40.015638859533965
            ],
            [
              116.35004602090673,
              40.01548121343168
            ],
            [
              116.34991421356237,
              40.01533578643763
            ],
            [
              116.34976878656833,
              40.01520397909328
            ],
            [
              116.34961114046604,
              40.0150870607754
            ],
            [
              116.34944279347366,
              40.014986157471306
            ],
            [
              116.34926536686473,
              40.01490224093498
            ],
            [
              116.34908056935451,
              40.014836119328535
            ],
            [
              116.34889018064403,
              40.01478842943919
            ],
            [
              116.34869603428066,
              40.014759630546656
            ],
            [
              116.3485,
              40.01475
            ],
            [
              116.34830396571934,
              40.014759630546656
            ],
            [
              116.34810981935597,
              40.01478842943919
            ],
            [
              116.34791943064549,
              40.014836119328535
            ],
            [
              116.34773463313527,
              40.01490224093498
            ],
            [
              116.34755720652635,
              40.014986157471306
            ],
            [
              116.34738885953396,
              40.0150870607754
            ],
            [
              116.34723121343167,
              40.01520397909328
            ],
            [
              116.34708578643763,
              40.01533578643763
            ],
            [
              116.34695397909327,
              40.01548121343168
            ],
            [
              116.3468370607754,
              40.015638859533965
            ],
            [
              116.3467361574713,
              40.01580720652635
            ],
            [
              116.34665224093497,
              40.01598463313527
            ],
            [
              116.34658611932853,
              40.01616943064549
            ],
            [
              116.34653842943919,
              40.01635981935597
            ],
            [
              116.34650963054666,
              40.01655396571934
            ],
            [
              116.3465,
              40.01675
            ],
            [
              116.34650963054666,
              40.016946034280664
            ],
            [
              116.34653842943919,
              40.017140180644034
            ],
            [
              116.34658611932853,
              40.01733056935451
            ],
            [
              116.34665224093497,
              40.017515366864735
            ],
            [
              116.3467361574713,
              40.01769279347366
            ],
            [
              116.3468370607754,
              40.01786114046604
            ],
            [
              116.34695397909327,
              40.01801878656833
            ],
            [
              116.34708578643763,
              40.01816421356237
            ],
            [
              116.34723121343167,
              40.018296020906725
            ],
            [
              116.34738885953396,
              40.0184129392246
            ],
            [
              116.34755720652635,
              40.0185138425287
            ],
            [
              116.34773463313527,
              40.018597759065024
            ],
            [
              116.34791943064549,
              40.01866388067147
            ],
            [
              116.34810981935597,
              40.01871157056081
            ],
            [
              116.34830396571934,
              40.01874036945335
            ],
            [
              116.3485,
              40.018750000000004
            ],
            [
              116.34869603428066,
              40.01874036945335
            ],
            [
              116.34889018064403,
              40.01871157056081
            ],
            [
              116.34908056935451,
              40.01866388067147
            ],
            [
              116.34926536686473,
              40.018597759065024
            ],
            [
              116.34944279347366,
              40.0185138425287
            ],
            [
              116.34961114046604,
              40.0184129392246
            ],
            [
              116.34976878656833,
              40.018296020906725
            ],
            [
              116.34991421356237,
              40.01816421356237
            ],
            [
              116.35004602090673,
              40.01801878656833
            ],
            [
              116.3501629392246,
              40.01786114046604
            ],
            [
              116.3502638425287,
              40.01769279347366
            ],
            [
              116.35034775906503,
              40.017515366864735
            ],
            [
              116.35041388067147,
              40.01733056935451
            ],
            [
              116.35046157056081,
              40.017140180644034
            ],
            [
              116.35049036945334,
              40.016946034280664
            ],
            [
              116.3505,
              40.01675
            ],
            [
              116.35049036945334,
              40.01655396571934
            ]
          ]
        ]
      }
    },
    {
      "type": "Feature",
      "id": "GREEN-KEY-AIOR",
      "properties": {
        "id": "GREEN-KEY-AIOR",
        "layer": "GREEN_SPACE",
        "source_type": "agent_inferred_from_public_data",
        "confidence": "medium",
        "geometry_role": "provisional_constraint",
        "official_boundary": false,
        "boundary_precision": "provisional_rough",
        "area_sqm_declared": 118987.75,
        "name_zh": "北京AI原点社区节点绿地"
      },
      "geometry": {
        "type": "Polygon",
        "coordinates": [
          [
            [
              116.34949036945333,
              39.98830396571934
            ],
            [
              116.3494615705608,
              39.98810981935597
            ],
            [
              116.34941388067146,
              39.98791943064549
            ],
            [
              116.34934775906503,
              39.98773463313527
            ],
            [
              116.3492638425287,
              39.98755720652635
            ],
            [
              116.3491629392246,
              39.987388859533965
            ],
            [
              116.34904602090673,
              39.98723121343168
            ],
            [
              116.34891421356237,
              39.98708578643763
            ],
            [
              116.34876878656833,
              39.98695397909328
            ],
            [
              116.34861114046603,
              39.9868370607754
            ],
            [
              116.34844279347365,
              39.986736157471306
            ],
            [
              116.34826536686472,
              39.98665224093498
            ],
            [
              116.34808056935451,
              39.986586119328535
            ],
            [
              116.34789018064403,
              39.98653842943919
            ],
            [
              116.34769603428066,
              39.98650963054666
            ],
            [
              116.3475,
              39.9865
            ],
            [
              116.34730396571933,
              39.98650963054666
            ],
            [
              116.34710981935596,
              39.98653842943919
            ],
            [
              116.34691943064549,
              39.986586119328535
            ],
            [
              116.34673463313527,
              39.98665224093498
            ],
            [
              116.34655720652634,
              39.986736157471306
            ],
            [
              116.34638885953396,
              39.9868370607754
            ],
            [
              116.34623121343166,
              39.98695397909328
            ],
            [
              116.34608578643763,
              39.98708578643763
            ],
            [
              116.34595397909327,
              39.98723121343168
            ],
            [
              116.3458370607754,
              39.987388859533965
            ],
            [
              116.3457361574713,
              39.98755720652635
            ],
            [
              116.34565224093497,
              39.98773463313527
            ],
            [
              116.34558611932853,
              39.98791943064549
            ],
            [
              116.34553842943919,
              39.98810981935597
            ],
            [
              116.34550963054666,
              39.98830396571934
            ],
            [
              116.3455,
              39.9885
            ],
            [
              116.34550963054666,
              39.988696034280665
            ],
            [
              116.34553842943919,
              39.988890180644034
            ],
            [
              116.34558611932853,
              39.98908056935451
            ],
            [
              116.34565224093497,
              39.989265366864736
            ],
            [
              116.3457361574713,
              39.98944279347366
            ],
            [
              116.3458370607754,
              39.98961114046604
            ],
            [
              116.34595397909327,
              39.98976878656833
            ],
            [
              116.34608578643763,
              39.98991421356237
            ],
            [
              116.34623121343166,
              39.990046020906725
            ],
            [
              116.34638885953396,
              39.990162939224604
            ],
            [
              116.34655720652634,
              39.9902638425287
            ],
            [
              116.34673463313527,
              39.990347759065024
            ],
            [
              116.34691943064549,
              39.99041388067147
            ],
            [
              116.34710981935596,
              39.99046157056081
            ],
            [
              116.34730396571933,
              39.99049036945335
            ],
            [
              116.3475,
              39.990500000000004
            ],
            [
              116.34769603428066,
              39.99049036945335
            ],
            [
              116.34789018064403,
              39.99046157056081
            ],
            [
              116.34808056935451,
              39.99041388067147
            ],
            [
              116.34826536686472,
              39.990347759065024
            ],
            [
              116.34844279347365,
              39.9902638425287
            ],
            [
              116.34861114046603,
              39.990162939224604
            ],
            [
              116.34876878656833,
              39.990046020906725
            ],
            [
              116.34891421356237,
              39.98991421356237
            ],
            [
              116.34904602090673,
              39.98976878656833
            ],
            [
              116.3491629392246,
              39.98961114046604
            ],
            [
              116.3492638425287,
              39.98944279347366
            ],
            [
              116.34934775906503,
              39.989265366864736
            ],
            [
              116.34941388067146,
              39.98908056935451
            ],
            [
              116.3494615705608,
              39.988890180644034
            ],
            [
              116.34949036945333,
              39.988696034280665
            ],
            [
              116.34949999999999,
              39.9885
            ],
            [
              116.34949036945333,
              39.98830396571934
            ]
          ]
        ]
      }
    },
    {
      "type": "Feature",
      "id": "GREEN-KEY-DZS",
      "properties": {
        "id": "GREEN-KEY-DZS",
        "layer": "GREEN_SPACE",
        "source_type": "agent_inferred_from_public_data",
        "confidence": "medium",
        "geometry_role": "provisional_constraint",
        "official_boundary": false,
        "boundary_precision": "provisional_rough",
        "area_sqm_declared": 119058.99,
        "name_zh": "大钟寺AI产业聚集区节点绿地"
      },
      "geometry": {
        "type": "Polygon",
        "coordinates": [
          [
            [
              116.35049036945334,
              39.94672396571934
            ],
            [
              116.35046157056081,
              39.94652981935597
            ],
            [
              116.35041388067147,
              39.946339430645494
            ],
            [
              116.35034775906503,
              39.94615463313527
            ],
            [
              116.3502638425287,
              39.94597720652635
            ],
            [
              116.3501629392246,
              39.94580885953397
            ],
            [
              116.35004602090673,
              39.94565121343168
            ],
            [
              116.34991421356237,
              39.945505786437636
            ],
            [
              116.34976878656833,
              39.94537397909328
            ],
            [
              116.34961114046604,
              39.945257060775404
            ],
            [
              116.34944279347366,
              39.94515615747131
            ],
            [
              116.34926536686473,
              39.945072240934984
            ],
            [
              116.34908056935451,
              39.94500611932854
            ],
            [
              116.34889018064403,
              39.9449584294392
            ],
            [
              116.34869603428066,
              39.94492963054666
            ],
            [
              116.3485,
              39.94492
            ],
            [
              116.34830396571934,
              39.94492963054666
            ],
            [
              116.34810981935597,
              39.9449584294392
            ],
            [
              116.34791943064549,
              39.94500611932854
            ],
            [
              116.34773463313527,
              39.945072240934984
            ],
            [
              116.34755720652635,
              39.94515615747131
            ],
            [
              116.34738885953396,
              39.945257060775404
            ],
            [
              116.34723121343167,
              39.94537397909328
            ],
            [
              116.34708578643763,
              39.945505786437636
            ],
            [
              116.34695397909327,
              39.94565121343168
            ],
            [
              116.3468370607754,
              39.94580885953397
            ],
            [
              116.3467361574713,
              39.94597720652635
            ],
            [
              116.34665224093497,
              39.94615463313527
            ],
            [
              116.34658611932853,
              39.946339430645494
            ],
            [
              116.34653842943919,
              39.94652981935597
            ],
            [
              116.34650963054666,
              39.94672396571934
            ],
            [
              116.3465,
              39.946920000000006
            ],
            [
              116.34650963054666,
              39.94711603428067
            ],
            [
              116.34653842943919,
              39.94731018064404
            ],
            [
              116.34658611932853,
              39.94750056935452
            ],
            [
              116.34665224093497,
              39.94768536686474
            ],
            [
              116.3467361574713,
              39.94786279347366
            ],
            [
              116.3468370607754,
              39.94803114046604
            ],
            [
              116.34695397909327,
              39.94818878656833
            ],
            [
              116.34708578643763,
              39.948334213562376
            ],
            [
              116.34723121343167,
              39.94846602090673
            ],
            [
              116.34738885953396,
              39.94858293922461
            ],
            [
              116.34755720652635,
              39.9486838425287
            ],
            [
              116.34773463313527,
              39.94876775906503
            ],
            [
              116.34791943064549,
              39.94883388067147
            ],
            [
              116.34810981935597,
              39.948881570560815
            ],
            [
              116.34830396571934,
              39.94891036945335
            ],
            [
              116.3485,
              39.94892000000001
            ],
            [
              116.34869603428066,
              39.94891036945335
            ],
            [
              116.34889018064403,
              39.948881570560815
            ],
            [
              116.34908056935451,
              39.94883388067147
            ],
            [
              116.34926536686473,
              39.94876775906503
            ],
            [
              116.34944279347366,
              39.9486838425287
            ],
            [
              116.34961114046604,
              39.94858293922461
            ],
            [
              116.34976878656833,
              39.94846602090673
            ],
            [
              116.34991421356237,
              39.948334213562376
            ],
            [
              116.35004602090673,
              39.94818878656833
            ],
            [
              116.3501629392246,
              39.94803114046604
            ],
            [
              116.3502638425287,
              39.94786279347366
            ],
            [
              116.35034775906503,
              39.94768536686474
            ],
            [
              116.35041388067147,
              39.94750056935452
            ],
            [
              116.35046157056081,
              39.94731018064404
            ],
            [
              116.35049036945334,
              39.94711603428067
            ],
            [
              116.3505,
              39.946920000000006
            ],
            [
              116.35049036945334,
              39.94672396571934
            ]
          ]
        ]
      }
    }
  ]
}