{
  "type": "FeatureCollection",
  "name": "key_areas",
  "features": [
    {
      "type": "Feature",
      "id": "KEY-ZZY",
      "properties": {
        "id": "KEY-ZZY",
        "layer": "KEY_AREA",
        "source_type": "agent_inferred_from_public_data",
        "confidence": "medium",
        "geometry_role": "provisional_constraint",
        "official_boundary": false,
        "boundary_precision": "provisional_rough",
        "area_sqm_declared": 1921000,
        "scope_id": "zhongzhiyuan_ai_acceleration_area",
        "name_zh": "众智园AI自主创新加速区",
        "source_id": "DATA-SRC-PROVISIONAL-BOUNDARIES-20260605",
        "area_sqm_calculated": 1929201.88,
        "provisional_source_id": "PROV-KEY-001",
        "area_id": "zhongzhiyuan_ai_acceleration_area"
      },
      "geometry": {
        "type": "Polygon",
        "coordinates": [
          [
            [
              116.343,
              40.0075
            ],
            [
              116.354,
              40.0075
            ],
            [
              116.354,
              40.026
            ],
            [
              116.343,
              40.026
            ],
            [
              116.343,
              40.0075
            ]
          ]
        ]
      }
    },
    {
      "type": "Feature",
      "id": "KEY-AIOR",
      "properties": {
        "id": "KEY-AIOR",
        "layer": "KEY_AREA",
        "source_type": "agent_inferred_from_public_data",
        "confidence": "medium",
        "geometry_role": "provisional_constraint",
        "official_boundary": false,
        "boundary_precision": "provisional_rough",
        "area_sqm_declared": 1043000,
        "scope_id": "beijing_ai_origin_community",
        "name_zh": "北京AI原点社区",
        "source_id": "DATA-SRC-PROVISIONAL-BOUNDARIES-20260605",
        "area_sqm_calculated": 1043236.91,
        "provisional_source_id": "PROV-KEY-002",
        "area_id": "beijing_ai_origin_community"
      },
      "geometry": {
        "type": "Polygon",
        "coordinates": [
          [
            [
              116.342,
              39.9835
            ],
            [
              116.353,
              39.9835
            ],
            [
              116.353,
              39.9935
            ],
            [
              116.342,
              39.9935
            ],
            [
              116.342,
              39.9835
            ]
          ]
        ]
      }
    },
    {
      "type": "Feature",
      "id": "KEY-DZS",
      "properties": {
        "id": "KEY-DZS",
        "layer": "KEY_AREA",
        "source_type": "agent_inferred_from_public_data",
        "confidence": "medium",
        "geometry_role": "provisional_constraint",
        "official_boundary": false,
        "boundary_precision": "provisional_rough",
        "area_sqm_declared": 720000,
        "scope_id": "dazhongsi_ai_industry_cluster",
        "name_zh": "大钟寺AI产业聚集区",
        "source_id": "DATA-SRC-PROVISIONAL-BOUNDARIES-20260605",
        "area_sqm_calculated": 720454.22,
        "provisional_source_id": "PROV-KEY-003",
        "area_id": "dazhongsi_ai_industry_cluster"
      },
      "geometry": {
        "type": "Polygon",
        "coordinates": [
          [
            [
              116.342,
              39.944
            ],
            [
              116.355,
              39.944
            ],
            [
              116.355,
              39.94984
            ],
            [
              116.342,
              39.94984
            ],
            [
              116.342,
              39.944
            ]
          ]
        ]
      }
    }
  ]
}