{
  "type": "FeatureCollection",
  "name": "land_use",
  "features": [
    {
      "type": "Feature",
      "id": "LU-001",
      "properties": {
        "id": "LU-001",
        "layer": "LAND_USE",
        "source_type": "agent_inferred_from_public_data",
        "confidence": "medium",
        "geometry_role": "provisional_constraint",
        "official_boundary": false,
        "boundary_precision": "provisional_rough",
        "area_sqm_declared": 254790.88,
        "land_use_code": "05",
        "land_use_label_zh": "商业服务业用地",
        "name_zh": "大钟寺智能原生消费与商务区",
        "source_id": "DATA-SRC-PROVISIONAL-BOUNDARIES-20260605"
      },
      "geometry": {
        "type": "Polygon",
        "coordinates": [
          [
            [
              116.3407,
              39.939
            ],
            [
              116.34056111111111,
              39.944
            ],
            [
              116.346,
              39.944
            ],
            [
              116.346,
              39.939
            ],
            [
              116.3407,
              39.939
            ]
          ]
        ]
      }
    },
    {
      "type": "Feature",
      "id": "LU-002",
      "properties": {
        "id": "LU-002",
        "layer": "LAND_USE",
        "source_type": "agent_inferred_from_public_data",
        "confidence": "medium",
        "geometry_role": "provisional_constraint",
        "official_boundary": false,
        "boundary_precision": "provisional_rough",
        "area_sqm_declared": 142355.88,
        "land_use_code": "0803",
        "land_use_label_zh": "文化用地",
        "name_zh": "轨距门文化展示区",
        "source_id": "DATA-SRC-PROVISIONAL-BOUNDARIES-20260605"
      },
      "geometry": {
        "type": "Polygon",
        "coordinates": [
          [
            [
              116.346,
              39.939
            ],
            [
              116.346,
              39.944
            ],
            [
              116.34899999999999,
              39.944
            ],
            [
              116.34899999999999,
              39.939
            ],
            [
              116.346,
              39.939
            ]
          ]
        ]
      }
    },
    {
      "type": "Feature",
      "id": "LU-003",
      "properties": {
        "id": "LU-003",
        "layer": "LAND_USE",
        "source_type": "agent_inferred_from_public_data",
        "confidence": "medium",
        "geometry_role": "provisional_constraint",
        "official_boundary": false,
        "boundary_precision": "provisional_rough",
        "area_sqm_declared": 298947.03,
        "land_use_code": "0803",
        "land_use_label_zh": "文化用地",
        "name_zh": "轨距门文化展示区",
        "source_id": "DATA-SRC-PROVISIONAL-BOUNDARIES-20260605"
      },
      "geometry": {
        "type": "Polygon",
        "coordinates": [
          [
            [
              116.34899999999999,
              39.939
            ],
            [
              116.34899999999999,
              39.944
            ],
            [
              116.3553,
              39.944
            ],
            [
              116.3553,
              39.939
            ],
            [
              116.34899999999999,
              39.939
            ]
          ]
        ]
      }
    },
    {
      "type": "Feature",
      "id": "LU-004",
      "properties": {
        "id": "LU-004",
        "layer": "LAND_USE",
        "source_type": "agent_inferred_from_public_data",
        "confidence": "medium",
        "geometry_role": "provisional_constraint",
        "official_boundary": false,
        "boundary_precision": "provisional_rough",
        "area_sqm_declared": 305916.23,
        "land_use_code": "1401",
        "land_use_label_zh": "公园绿地",
        "name_zh": "遗址公园绿脉与基准走廊",
        "source_id": "DATA-SRC-PROVISIONAL-BOUNDARIES-20260605"
      },
      "geometry": {
        "type": "Polygon",
        "coordinates": [
          [
            [
              116.346,
              39.94984
            ],
            [
              116.346,
              39.944
            ],
            [
              116.34056111111111,
              39.944
            ],
            [
              116.34039888888888,
              39.94984
            ],
            [
              116.346,
              39.94984
            ]
          ]
        ]
      }
    },
    {
      "type": "Feature",
      "id": "LU-005",
      "properties": {
        "id": "LU-005",
        "layer": "LAND_USE",
        "source_type": "agent_inferred_from_public_data",
        "confidence": "medium",
        "geometry_role": "provisional_constraint",
        "official_boundary": false,
        "boundary_precision": "provisional_rough",
        "area_sqm_declared": 166258.7,
        "land_use_code": "05",
        "land_use_label_zh": "商业服务业用地",
        "name_zh": "智能原生商业服务区",
        "source_id": "DATA-SRC-PROVISIONAL-BOUNDARIES-20260605"
      },
      "geometry": {
        "type": "Polygon",
        "coordinates": [
          [
            [
              116.346,
              39.94984
            ],
            [
              116.34899999999999,
              39.94984
            ],
            [
              116.34899999999999,
              39.944
            ],
            [
              116.346,
              39.944
            ],
            [
              116.346,
              39.94984
            ]
          ]
        ]
      }
    },
    {
      "type": "Feature",
      "id": "LU-006",
      "properties": {
        "id": "LU-006",
        "layer": "LAND_USE",
        "source_type": "agent_inferred_from_public_data",
        "confidence": "medium",
        "geometry_role": "provisional_constraint",
        "official_boundary": false,
        "boundary_precision": "provisional_rough",
        "area_sqm_declared": 349142.9,
        "land_use_code": "05",
        "land_use_label_zh": "商业服务业用地",
        "name_zh": "智能原生商业服务区",
        "source_id": "DATA-SRC-PROVISIONAL-BOUNDARIES-20260605"
      },
      "geometry": {
        "type": "Polygon",
        "coordinates": [
          [
            [
              116.34899999999999,
              39.944
            ],
            [
              116.34899999999999,
              39.94984
            ],
            [
              116.3553,
              39.94984
            ],
            [
              116.3553,
              39.944
            ],
            [
              116.34899999999999,
              39.944
            ]
          ]
        ]
      }
    },
    {
      "type": "Feature",
      "id": "LU-007",
      "properties": {
        "id": "LU-007",
        "layer": "LAND_USE",
        "source_type": "agent_inferred_from_public_data",
        "confidence": "medium",
        "geometry_role": "provisional_constraint",
        "official_boundary": false,
        "boundary_precision": "provisional_rough",
        "area_sqm_declared": 1906254.83,
        "land_use_code": "1401",
        "land_use_label_zh": "公园绿地",
        "name_zh": "遗址公园绿脉与基准走廊",
        "source_id": "DATA-SRC-PROVISIONAL-BOUNDARIES-20260605"
      },
      "geometry": {
        "type": "Polygon",
        "coordinates": [
          [
            [
              116.346,
              39.9835
            ],
            [
              116.346,
              39.94984
            ],
            [
              116.34039888888888,
              39.94984
            ],
            [
              116.3397,
              39.975
            ],
            [
              116.34024838709676,
              39.9835
            ],
            [
              116.346,
              39.9835
            ]
          ]
        ]
      }
    },
    {
      "type": "Feature",
      "id": "LU-008",
      "properties": {
        "id": "LU-008",
        "layer": "LAND_USE",
        "source_type": "agent_inferred_from_public_data",
        "confidence": "medium",
        "geometry_role": "provisional_constraint",
        "official_boundary": false,
        "boundary_precision": "provisional_rough",
        "area_sqm_declared": 957992.65,
        "land_use_code": "05",
        "land_use_label_zh": "商业服务业用地",
        "name_zh": "智能原生商业服务区",
        "source_id": "DATA-SRC-PROVISIONAL-BOUNDARIES-20260605"
      },
      "geometry": {
        "type": "Polygon",
        "coordinates": [
          [
            [
              116.346,
              39.9835
            ],
            [
              116.34899999999999,
              39.9835
            ],
            [
              116.34899999999999,
              39.94984
            ],
            [
              116.346,
              39.94984
            ],
            [
              116.346,
              39.9835
            ]
          ]
        ]
      }
    },
    {
      "type": "Feature",
      "id": "LU-009",
      "properties": {
        "id": "LU-009",
        "layer": "LAND_USE",
        "source_type": "agent_inferred_from_public_data",
        "confidence": "medium",
        "geometry_role": "provisional_constraint",
        "official_boundary": false,
        "boundary_precision": "provisional_rough",
        "area_sqm_declared": 1881932.57,
        "land_use_code": "05",
        "land_use_label_zh": "商业服务业用地",
        "name_zh": "智能原生商业服务区",
        "source_id": "DATA-SRC-PROVISIONAL-BOUNDARIES-20260605"
      },
      "geometry": {
        "type": "Polygon",
        "coordinates": [
          [
            [
              116.34899999999999,
              39.94984
            ],
            [
              116.34899999999999,
              39.9835
            ],
            [
              116.35382,
              39.9835
            ],
            [
              116.3553,
              39.965
            ],
            [
              116.3553,
              39.94984
            ],
            [
              116.34899999999999,
              39.94984
            ]
          ]
        ]
      }
    },
    {
      "type": "Feature",
      "id": "LU-010",
      "properties": {
        "id": "LU-010",
        "layer": "LAND_USE",
        "source_type": "agent_inferred_from_public_data",
        "confidence": "medium",
        "geometry_role": "provisional_constraint",
        "official_boundary": false,
        "boundary_precision": "provisional_rough",
        "area_sqm_declared": 1133018.35,
        "land_use_code": "0802",
        "land_use_label_zh": "科研用地",
        "name_zh": "基准走廊评测产业区",
        "source_id": "DATA-SRC-PROVISIONAL-BOUNDARIES-20260605"
      },
      "geometry": {
        "type": "Polygon",
        "coordinates": [
          [
            [
              116.346,
              40.0075
            ],
            [
              116.346,
              39.9835
            ],
            [
              116.34024838709676,
              39.9835
            ],
            [
              116.3417,
              40.006
            ],
            [
              116.34177317073171,
              40.0075
            ],
            [
              116.346,
              40.0075
            ]
          ]
        ]
      }
    },
    {
      "type": "Feature",
      "id": "LU-011",
      "properties": {
        "id": "LU-011",
        "layer": "LAND_USE",
        "source_type": "agent_inferred_from_public_data",
        "confidence": "medium",
        "geometry_role": "provisional_constraint",
        "official_boundary": false,
        "boundary_precision": "provisional_rough",
        "area_sqm_declared": 682777.08,
        "land_use_code": "0701",
        "land_use_label_zh": "城镇住宅用地",
        "name_zh": "AI原点社区混合居住区",
        "source_id": "DATA-SRC-PROVISIONAL-BOUNDARIES-20260605"
      },
      "geometry": {
        "type": "Polygon",
        "coordinates": [
          [
            [
              116.346,
              40.0075
            ],
            [
              116.34899999999999,
              40.0075
            ],
            [
              116.34899999999999,
              39.9835
            ],
            [
              116.346,
              39.9835
            ],
            [
              116.346,
              40.0075
            ]
          ]
        ]
      }
    },
    {
      "type": "Feature",
      "id": "LU-012",
      "properties": {
        "id": "LU-012",
        "layer": "LAND_USE",
        "source_type": "agent_inferred_from_public_data",
        "confidence": "medium",
        "geometry_role": "provisional_constraint",
        "official_boundary": false,
        "boundary_precision": "provisional_rough",
        "area_sqm_declared": 1074226.71,
        "land_use_code": "0701",
        "land_use_label_zh": "城镇住宅用地",
        "name_zh": "AI原点社区混合居住区",
        "source_id": "DATA-SRC-PROVISIONAL-BOUNDARIES-20260605"
      },
      "geometry": {
        "type": "Polygon",
        "coordinates": [
          [
            [
              116.34899999999999,
              39.9835
            ],
            [
              116.34899999999999,
              40.0075
            ],
            [
              116.35425890410959,
              40.0075
            ],
            [
              116.3533,
              39.99
            ],
            [
              116.35382,
              39.9835
            ],
            [
              116.34899999999999,
              39.9835
            ]
          ]
        ]
      }
    },
    {
      "type": "Feature",
      "id": "LU-013",
      "properties": {
        "id": "LU-013",
        "layer": "LAND_USE",
        "source_type": "agent_inferred_from_public_data",
        "confidence": "medium",
        "geometry_role": "provisional_constraint",
        "official_boundary": false,
        "boundary_precision": "provisional_rough",
        "area_sqm_declared": 677883.49,
        "land_use_code": "0802",
        "land_use_label_zh": "科研用地",
        "name_zh": "标定场与评测研发区",
        "source_id": "DATA-SRC-PROVISIONAL-BOUNDARIES-20260605"
      },
      "geometry": {
        "type": "Polygon",
        "coordinates": [
          [
            [
              116.346,
              40.0075
            ],
            [
              116.34177317073171,
              40.0075
            ],
            [
              116.3427,
              40.0265
            ],
            [
              116.346,
              40.0265
            ],
            [
              116.346,
              40.0075
            ]
          ]
        ]
      }
    },
    {
      "type": "Feature",
      "id": "LU-014",
      "properties": {
        "id": "LU-014",
        "layer": "LAND_USE",
        "source_type": "agent_inferred_from_public_data",
        "confidence": "medium",
        "geometry_role": "provisional_constraint",
        "official_boundary": false,
        "boundary_precision": "provisional_rough",
        "area_sqm_declared": 540364.3,
        "land_use_code": "16",
        "land_use_label_zh": "留白用地",
        "name_zh": "中试与测试预留地",
        "source_id": "DATA-SRC-PROVISIONAL-BOUNDARIES-20260605"
      },
      "geometry": {
        "type": "Polygon",
        "coordinates": [
          [
            [
              116.34899999999999,
              40.0075
            ],
            [
              116.346,
              40.0075
            ],
            [
              116.346,
              40.0265
            ],
            [
              116.34899999999999,
              40.0265
            ],
            [
              116.34899999999999,
              40.0075
            ]
          ]
        ]
      }
    },
    {
      "type": "Feature",
      "id": "LU-015",
      "properties": {
        "id": "LU-015",
        "layer": "LAND_USE",
        "source_type": "agent_inferred_from_public_data",
        "confidence": "medium",
        "geometry_role": "provisional_constraint",
        "official_boundary": false,
        "boundary_precision": "provisional_rough",
        "area_sqm_declared": 1040989.83,
        "land_use_code": "16",
        "land_use_label_zh": "留白用地",
        "name_zh": "中试与测试预留地",
        "source_id": "DATA-SRC-PROVISIONAL-BOUNDARIES-20260605"
      },
      "geometry": {
        "type": "Polygon",
        "coordinates": [
          [
            [
              116.34899999999999,
              40.0075
            ],
            [
              116.34899999999999,
              40.0265
            ],
            [
              116.3553,
              40.0265
            ],
            [
              116.35425890410959,
              40.0075
            ],
            [
              116.34899999999999,
              40.0075
            ]
          ]
        ]
      }
    }
  ]
}