{
  "type": "FeatureCollection",
  "name": "roads",
  "features": [
    {
      "type": "Feature",
      "id": "ROAD-001",
      "properties": {
        "id": "ROAD-001",
        "layer": "ROAD_CENTERLINE",
        "source_type": "agent_inferred_from_public_data",
        "confidence": "medium",
        "geometry_role": "provisional_constraint",
        "official_boundary": false,
        "boundary_precision": "provisional_rough",
        "name_zh": "基准走廊主脊 Benchmark Spine",
        "road_class": "greenway"
      },
      "geometry": {
        "type": "LineString",
        "coordinates": [
          [
            116.3475,
            39.939
          ],
          [
            116.3475,
            40.0265
          ]
        ]
      }
    },
    {
      "type": "Feature",
      "id": "ROAD-002",
      "properties": {
        "id": "ROAD-002",
        "layer": "ROAD_CENTERLINE",
        "source_type": "agent_inferred_from_public_data",
        "confidence": "medium",
        "geometry_role": "provisional_constraint",
        "official_boundary": false,
        "boundary_precision": "provisional_rough",
        "name_zh": "缝合口1 Stitching Link 1",
        "road_class": "pedestrian"
      },
      "geometry": {
        "type": "LineString",
        "coordinates": [
          [
            116.34349999999999,
            39.939
          ],
          [
            116.3515,
            39.939
          ]
        ]
      }
    },
    {
      "type": "Feature",
      "id": "ROAD-003",
      "properties": {
        "id": "ROAD-003",
        "layer": "ROAD_CENTERLINE",
        "source_type": "agent_inferred_from_public_data",
        "confidence": "medium",
        "geometry_role": "provisional_constraint",
        "official_boundary": false,
        "boundary_precision": "provisional_rough",
        "name_zh": "缝合口2 Stitching Link 2",
        "road_class": "pedestrian"
      },
      "geometry": {
        "type": "LineString",
        "coordinates": [
          [
            116.34349999999999,
            39.939
          ],
          [
            116.3515,
            39.939
          ]
        ]
      }
    },
    {
      "type": "Feature",
      "id": "ROAD-004",
      "properties": {
        "id": "ROAD-004",
        "layer": "ROAD_CENTERLINE",
        "source_type": "agent_inferred_from_public_data",
        "confidence": "medium",
        "geometry_role": "provisional_constraint",
        "official_boundary": false,
        "boundary_precision": "provisional_rough",
        "name_zh": "缝合口3 Stitching Link 3",
        "road_class": "pedestrian"
      },
      "geometry": {
        "type": "LineString",
        "coordinates": [
          [
            116.34349999999999,
            40.0265
          ],
          [
            116.3515,
            40.0265
          ]
        ]
      }
    },
    {
      "type": "Feature",
      "id": "ROAD-005",
      "properties": {
        "id": "ROAD-005",
        "layer": "ROAD_CENTERLINE",
        "source_type": "agent_inferred_from_public_data",
        "confidence": "medium",
        "geometry_role": "provisional_constraint",
        "official_boundary": false,
        "boundary_precision": "provisional_rough",
        "name_zh": "缝合口4 Stitching Link 4",
        "road_class": "pedestrian"
      },
      "geometry": {
        "type": "LineString",
        "coordinates": [
          [
            116.34349999999999,
            40.0265
          ],
          [
            116.3515,
            40.0265
          ]
        ]
      }
    },
    {
      "type": "Feature",
      "id": "ROAD-006",
      "properties": {
        "id": "ROAD-006",
        "layer": "ROAD_CENTERLINE",
        "source_type": "agent_inferred_from_public_data",
        "confidence": "medium",
        "geometry_role": "provisional_constraint",
        "official_boundary": false,
        "boundary_precision": "provisional_rough",
        "name_zh": "缝合口5 Stitching Link 5",
        "road_class": "pedestrian"
      },
      "geometry": {
        "type": "LineString",
        "coordinates": [
          [
            116.34349999999999,
            40.0265
          ],
          [
            116.3515,
            40.0265
          ]
        ]
      }
    }
  ]
}