{"type":"FeatureCollection","features":[{"type":"Feature","id":"BLDG-ZZY-01","properties":{"id":"BLDG-ZZY-01","layer":"BUILDING_FOOTPRINT","source_type":"agent_generated_design","confidence":"medium","geometry_role":"design_proposal","name_zh":"众智园标准化研发楼宇（12m×12m模组接口，概念体量）","name_en":"Zhongzhiyuan modular R&D block","area_sqm_declared":132712.296,"building_type":"ai_r_and_d","concept_storeys":8,"concept_note":"概念体量，预留空间弹性接口，非法定控制值 / concept massing with elastic interface reservations, not statutory control"},"geometry":{"type":"Polygon","coordinates":[[[116.3505,40.0195],[116.3505,40.0235],[116.354,40.0235],[116.354,40.0195],[116.3505,40.0195]]]}},{"type":"Feature","id":"BLDG-ZZY-02","properties":{"id":"BLDG-ZZY-02","layer":"BUILDING_FOOTPRINT","source_type":"agent_generated_design","confidence":"medium","geometry_role":"design_proposal","name_zh":"众智园硬科技中试基地（概念体量）","name_en":"Zhongzhiyuan hard-tech pilot base","area_sqm_declared":150754.287,"building_type":"lab","concept_storeys":3,"concept_note":"概念体量，预留空间弹性接口，非法定控制值 / concept massing with elastic interface reservations, not statutory control"},"geometry":{"type":"Polygon","coordinates":[[[116.3505,40.01],[116.3505,40.014],[116.3545,40.014],[116.3545,40.0119],[116.35439589041096,40.01],[116.3505,40.01]]]}},{"type":"Feature","id":"BLDG-ORIGIN-01","properties":{"id":"BLDG-ORIGIN-01","layer":"BUILDING_FOOTPRINT","source_type":"agent_generated_design","confidence":"medium","geometry_role":"design_proposal","name_zh":"原点社区24小时创客沙龙（概念体量）","name_en":"Origin 24h maker salon","area_sqm_declared":76817.465,"building_type":"incubator","concept_storeys":6,"concept_note":"概念体量，预留空间弹性接口，非法定控制值 / concept massing with elastic interface reservations, not statutory control"},"geometry":{"type":"Polygon","coordinates":[[[116.3428,39.9895],[116.3428,39.9925],[116.3455,39.9925],[116.3455,39.9895],[116.3428,39.9895]]]}},{"type":"Feature","id":"BLDG-ORIGIN-02","properties":{"id":"BLDG-ORIGIN-02","layer":"BUILDING_FOOTPRINT","source_type":"agent_generated_design","confidence":"medium","geometry_role":"design_proposal","name_zh":"原点社区职住一体青年社区（概念体量）","name_en":"Origin live-work youth community","area_sqm_declared":99489.979,"building_type":"talent_apartment","concept_storeys":12,"concept_note":"概念体量，预留空间弹性接口，非法定控制值 / concept massing with elastic interface reservations, not statutory control"},"geometry":{"type":"Polygon","coordinates":[[[116.3535,39.9845],[116.3505,39.9845],[116.3505,39.988],[116.35346,39.988],[116.3535,39.98750000000009],[116.3535,39.9845]]]}},{"type":"Feature","id":"BLDG-DZS-01","properties":{"id":"BLDG-DZS-01","layer":"BUILDING_FOOTPRINT","source_type":"agent_generated_design","confidence":"medium","geometry_role":"design_proposal","name_zh":"大钟寺智能终端与内容消费枢纽（概念体量）","name_en":"Dazhongsi device & content hub","area_sqm_declared":76867.26,"building_type":"retail","concept_storeys":4,"concept_note":"概念体量，预留空间弹性接口，非法定控制值 / concept massing with elastic interface reservations, not statutory control"},"geometry":{"type":"Polygon","coordinates":[[[116.3428,39.9445],[116.3428,39.9475],[116.3455,39.9475],[116.3455,39.9445],[116.3428,39.9445]]]}},{"type":"Feature","id":"BLDG-DZS-02","properties":{"id":"BLDG-DZS-02","layer":"BUILDING_FOOTPRINT","source_type":"agent_generated_design","confidence":"medium","geometry_role":"design_proposal","name_zh":"大钟寺AI产业展示馆（概念体量）","name_en":"Dazhongsi AI industry gallery","area_sqm_declared":47448.841,"building_type":"cultural","concept_storeys":3,"concept_note":"概念体量，预留空间弹性接口，非法定控制值 / concept massing with elastic interface reservations, not statutory control"},"geometry":{"type":"Polygon","coordinates":[[[116.3505,39.945],[116.3505,39.947],[116.353,39.947],[116.353,39.945],[116.3505,39.945]]]}},{"type":"Feature","id":"BLDG-CAMPUS-01","properties":{"id":"BLDG-CAMPUS-01","layer":"BUILDING_FOOTPRINT","source_type":"agent_generated_design","confidence":"medium","geometry_role":"design_proposal","name_zh":"高校带成果转化驿站（概念体量）","name_en":"Campus conversion depot","area_sqm_declared":71145.092,"building_type":"education","concept_storeys":5,"concept_note":"概念体量，预留空间弹性接口，非法定控制值 / concept massing with elastic interface reservations, not statutory control"},"geometry":{"type":"Polygon","coordinates":[[[116.3505,39.972],[116.3505,39.975],[116.353,39.975],[116.353,39.972],[116.3505,39.972]]]}}]}