{"type":"FeatureCollection","features":[{"type":"Feature","id":"GREEN-SPINE","properties":{"id":"GREEN-SPINE","layer":"GREEN_SPACE","source_type":"agent_generated_design","confidence":"medium","geometry_role":"design_proposal","name_zh":"京张遗址公园数字绿洲主轴","name_en":"Digital Oasis heritage spine","area_sqm_declared":2987698.031,"land_use_code":"1401"},"geometry":{"type":"Polygon","coordinates":[[[116.3462,39.958],[116.3462,39.97],[116.3462,39.9835],[116.3462,39.9935],[116.3462,39.999],[116.3462,40.0075],[116.3462,40.018],[116.3462,40.026],[116.3462,40.0265],[116.3498,40.0265],[116.3498,40.026],[116.3498,40.018],[116.3498,40.0075],[116.3498,39.999],[116.3498,39.9935],[116.3498,39.9835],[116.3498,39.97],[116.3498,39.958],[116.3498,39.94984],[116.3498,39.944],[116.3498,39.939],[116.3462,39.939],[116.3462,39.944],[116.3462,39.94984],[116.3462,39.958]]]}},{"type":"Feature","id":"GREEN-N-EDGE","properties":{"id":"GREEN-N-EDGE","layer":"GREEN_SPACE","source_type":"agent_generated_design","confidence":"medium","geometry_role":"design_proposal","name_zh":"北五环防护绿带与原生湿地","name_en":"North protective green & native wetland","area_sqm_declared":42647.514,"land_use_code":"1402"},"geometry":{"type":"MultiPolygon","coordinates":[[[[116.3462,40.026],[116.34267560975609,40.026],[116.3427,40.0265],[116.3462,40.0265],[116.3462,40.026]]],[[[116.3498,40.026],[116.3498,40.0265],[116.3553,40.0265],[116.35527260273973,40.026],[116.3498,40.026]]]]}},{"type":"Feature","id":"GREEN-PK-01","properties":{"id":"GREEN-PK-01","layer":"GREEN_SPACE","source_type":"agent_generated_design","confidence":"medium","geometry_role":"design_proposal","name_zh":"大钟寺口袋公园","name_en":"Dazhongsi pocket park","area_sqm_declared":47443.98,"land_use_code":"1401"},"geometry":{"type":"Polygon","coordinates":[[[116.3428,39.952],[116.3428,39.9545],[116.3448,39.9545],[116.3448,39.952],[116.3428,39.952]]]}},{"type":"Feature","id":"GREEN-PK-02","properties":{"id":"GREEN-PK-02","layer":"GREEN_SPACE","source_type":"agent_generated_design","confidence":"medium","geometry_role":"design_proposal","name_zh":"原点社区共享绿园","name_en":"Origin community shared green","area_sqm_declared":52162.829,"land_use_code":"1401"},"geometry":{"type":"Polygon","coordinates":[[[116.3428,39.986],[116.3428,39.9885],[116.345,39.9885],[116.345,39.986],[116.3428,39.986]]]}},{"type":"Feature","id":"GREEN-PK-03","properties":{"id":"GREEN-PK-03","layer":"GREEN_SPACE","source_type":"agent_generated_design","confidence":"medium","geometry_role":"design_proposal","name_zh":"众智园雨洪花园","name_en":"Zhongzhiyuan rain garden","area_sqm_declared":56877.208,"land_use_code":"1401"},"geometry":{"type":"Polygon","coordinates":[[[116.3438,40.0195],[116.3438,40.0225],[116.3458,40.0225],[116.3458,40.0195],[116.3438,40.0195]]]}}]}