{"type":"FeatureCollection","features":[{"type":"Feature","id":"ROAD-SPINE-GREENWAY","properties":{"id":"ROAD-SPINE-GREENWAY","layer":"ROAD_CENTERLINE","source_type":"agent_generated_design","confidence":"medium","geometry_role":"design_proposal","road_class":"greenway","name_zh":"数字绿洲慢行主轴（京张时轨绿道）","name_en":"Digital Oasis slow-mobility spine","length_m_declared":9715.9},"geometry":{"type":"LineString","coordinates":[[116.348,39.939],[116.348,40.0265]]}},{"type":"Feature","id":"ROAD-CYCLE-W","properties":{"id":"ROAD-CYCLE-W","layer":"ROAD_CENTERLINE","source_type":"agent_generated_design","confidence":"medium","geometry_role":"design_proposal","road_class":"cycleway","name_zh":"西侧自行车联络道","name_en":"West cycle link","length_m_declared":9109.5},"geometry":{"type":"LineString","coordinates":[[116.3435,39.944],[116.3425,39.99],[116.3445,40.026]]}},{"type":"Feature","id":"ROAD-X-01","properties":{"id":"ROAD-X-01","layer":"ROAD_CENTERLINE","source_type":"agent_generated_design","confidence":"medium","geometry_role":"design_proposal","road_class":"pedestrian","name_zh":"缝合通道01·西直门门户","name_en":"Stitch crossing 01 south gateway","length_m_declared":1162.4},"geometry":{"type":"LineString","coordinates":[[116.3412,39.9415],[116.3548,39.9415]]}},{"type":"Feature","id":"ROAD-X-02","properties":{"id":"ROAD-X-02","layer":"ROAD_CENTERLINE","source_type":"agent_generated_design","confidence":"medium","geometry_role":"design_proposal","road_class":"pedestrian","name_zh":"缝合通道02·大钟寺产业界面","name_en":"Stitch crossing 02 Dazhongsi","length_m_declared":1051.2},"geometry":{"type":"LineString","coordinates":[[116.3425,39.9469],[116.3548,39.9469]]}},{"type":"Feature","id":"ROAD-X-03","properties":{"id":"ROAD-X-03","layer":"ROAD_CENTERLINE","source_type":"agent_generated_design","confidence":"medium","geometry_role":"design_proposal","road_class":"pedestrian","name_zh":"缝合通道03·高校带联络","name_en":"Stitch crossing 03 campus link","length_m_declared":1179.1},"geometry":{"type":"LineString","coordinates":[[116.341,39.964],[116.3548,39.964]]}},{"type":"Feature","id":"ROAD-X-04","properties":{"id":"ROAD-X-04","layer":"ROAD_CENTERLINE","source_type":"agent_generated_design","confidence":"medium","geometry_role":"design_proposal","road_class":"pedestrian","name_zh":"缝合通道04·艺术阶梯枢纽","name_en":"Stitch crossing 04 Art Steps hub","length_m_declared":854.1},"geometry":{"type":"LineString","coordinates":[[116.3425,39.9885],[116.3525,39.9885]]}},{"type":"Feature","id":"ROAD-X-05","properties":{"id":"ROAD-X-05","layer":"ROAD_CENTERLINE","source_type":"agent_generated_design","confidence":"medium","geometry_role":"design_proposal","road_class":"pedestrian","name_zh":"缝合通道05·清河南服务","name_en":"Stitch crossing 05 residential service","length_m_declared":1008.7},"geometry":{"type":"LineString","coordinates":[[116.3422,40.003],[116.35401232876713,40.003]]}},{"type":"Feature","id":"ROAD-X-06","properties":{"id":"ROAD-X-06","layer":"ROAD_CENTERLINE","source_type":"agent_generated_design","confidence":"medium","geometry_role":"design_proposal","road_class":"pedestrian","name_zh":"缝合通道06·众智园加速区","name_en":"Stitch crossing 06 Zhongzhiyuan","length_m_declared":984.7},"geometry":{"type":"LineString","coordinates":[[116.343,40.0125],[116.35453287671233,40.0125]]}},{"type":"Feature","id":"ROAD-X-07","properties":{"id":"ROAD-X-07","layer":"ROAD_CENTERLINE","source_type":"agent_generated_design","confidence":"medium","geometry_role":"design_proposal","road_class":"pedestrian","name_zh":"缝合通道07·北五环接驳","name_en":"Stitch crossing 07 north connector","length_m_declared":990.3},"geometry":{"type":"LineString","coordinates":[[116.3432,40.022],[116.3548,40.022]]}},{"type":"Feature","id":"ROAD-SEC-DZS","properties":{"id":"ROAD-SEC-DZS","layer":"ROAD_CENTERLINE","source_type":"agent_generated_design","confidence":"medium","geometry_role":"design_proposal","road_class":"secondary","name_zh":"大钟寺东路交通组织段（概念）","name_en":"Dazhongsi E Rd concept section","length_m_declared":1554.5},"geometry":{"type":"LineString","coordinates":[[116.342,39.944],[116.342,39.958]]}},{"type":"Feature","id":"ROAD-BR-ZZY","properties":{"id":"ROAD-BR-ZZY","layer":"ROAD_CENTERLINE","source_type":"agent_generated_design","confidence":"medium","geometry_role":"design_proposal","road_class":"branch","name_zh":"低速无人微公交示范环线（概念）","name_en":"Low-speed autonomous micro-shuttle demo loop","length_m_declared":2348.7},"geometry":{"type":"LineString","coordinates":[[116.345,40.009],[116.353,40.009],[116.353,40.024]]}}]}