{
  "type": "FeatureCollection",
  "name": "three_station_adaptive_prototypes",
  "features": [
    {
      "type": "Feature",
      "id": "BLDG-001",
      "properties": {
        "id": "BLDG-001",
        "layer": "BUILDING_FOOTPRINT",
        "source_type": "agent_generated_design",
        "confidence": "low",
        "geometry_role": "design_proposal",
        "building_type": "ai_r_and_d",
        "name_zh": "众智园能力验证庭原型",
        "name_en": "Capability Validation Court prototype",
        "retain_renovate_demolish_status": "concept_adaptive_reuse_envelope",
        "design_intent": "Concept envelope: public baseline ground floor, removable AI service bay and visible evidence interface; subject to survey, ownership, controls and permits."
      },
      "geometry": {
        "type": "Polygon",
        "coordinates": [
          [
            [
              116.3468,
              40.01635
            ],
            [
              116.3492,
              40.01635
            ],
            [
              116.3492,
              40.01765
            ],
            [
              116.3468,
              40.01765
            ],
            [
              116.3468,
              40.01635
            ]
          ]
        ]
      }
    },
    {
      "type": "Feature",
      "id": "BLDG-002",
      "properties": {
        "id": "BLDG-002",
        "layer": "BUILDING_FOOTPRINT",
        "source_type": "agent_generated_design",
        "confidence": "low",
        "geometry_role": "design_proposal",
        "building_type": "ai_r_and_d",
        "name_zh": "AI 原点公共转译厅原型",
        "name_en": "AI Origin Public Translation Hall prototype",
        "retain_renovate_demolish_status": "concept_adaptive_reuse_envelope",
        "design_intent": "Concept envelope: public baseline ground floor, removable AI service bay and visible evidence interface; subject to survey, ownership, controls and permits."
      },
      "geometry": {
        "type": "Polygon",
        "coordinates": [
          [
            [
              116.3458,
              39.98835
            ],
            [
              116.34819999999999,
              39.98835
            ],
            [
              116.34819999999999,
              39.98965
            ],
            [
              116.3458,
              39.98965
            ],
            [
              116.3458,
              39.98835
            ]
          ]
        ]
      }
    },
    {
      "type": "Feature",
      "id": "BLDG-003",
      "properties": {
        "id": "BLDG-003",
        "layer": "BUILDING_FOOTPRINT",
        "source_type": "agent_generated_design",
        "confidence": "low",
        "geometry_role": "design_proposal",
        "building_type": "ai_r_and_d",
        "name_zh": "大钟寺城市采用场服务厅原型",
        "name_en": "Dazhongsi Civic Adoption service hall prototype",
        "retain_renovate_demolish_status": "concept_adaptive_reuse_envelope",
        "design_intent": "Concept envelope: public baseline ground floor, removable AI service bay and visible evidence interface; subject to survey, ownership, controls and permits."
      },
      "geometry": {
        "type": "Polygon",
        "coordinates": [
          [
            [
              116.3468,
              39.94635
            ],
            [
              116.3492,
              39.94635
            ],
            [
              116.3492,
              39.94765
            ],
            [
              116.3468,
              39.94765
            ],
            [
              116.3468,
              39.94635
            ]
          ]
        ]
      }
    },
    {
      "type": "Feature",
      "id": "V5-Z-REPRO",
      "properties": {
        "id": "V5-Z-REPRO",
        "layer": "BUILDING_FOOTPRINT",
        "source_type": "agent_generated_design",
        "confidence": "low",
        "geometry_role": "design_proposal",
        "status": "concept_proposal",
        "station": "zhongzhiyuan",
        "retain_renovate_demolish_status": "concept_adaptive_reuse_or_reversible_structure",
        "building_type": "lab",
        "name_zh": "模型复现室建议包络",
        "name_en": "Model reproduction room envelope"
      },
      "geometry": {
        "type": "Polygon",
        "coordinates": [
          [
            [
              116.3481654,
              40.0178914
            ],
            [
              116.3483531,
              40.0178914
            ],
            [
              116.3483531,
              40.0180724
            ],
            [
              116.3481654,
              40.0180724
            ],
            [
              116.3481654,
              40.0178914
            ]
          ]
        ]
      }
    },
    {
      "type": "Feature",
      "id": "V5-Z-CABINET",
      "properties": {
        "id": "V5-Z-CABINET",
        "layer": "BUILDING_FOOTPRINT",
        "source_type": "agent_generated_design",
        "confidence": "low",
        "geometry_role": "design_proposal",
        "status": "concept_proposal",
        "station": "zhongzhiyuan",
        "retain_renovate_demolish_status": "concept_adaptive_reuse_or_reversible_structure",
        "building_type": "ai_r_and_d",
        "name_zh": "端侧机柜运维院",
        "name_en": "Edge cabinet service yard"
      },
      "geometry": {
        "type": "Polygon",
        "coordinates": [
          [
            [
              116.3485759,
              40.0178824
            ],
            [
              116.3487167,
              40.0178824
            ],
            [
              116.3487167,
              40.0180905
            ],
            [
              116.3485759,
              40.0180905
            ],
            [
              116.3485759,
              40.0178824
            ]
          ]
        ]
      }
    },
    {
      "type": "Feature",
      "id": "V5-A-DESK",
      "properties": {
        "id": "V5-A-DESK",
        "layer": "BUILDING_FOOTPRINT",
        "source_type": "agent_generated_design",
        "confidence": "low",
        "geometry_role": "design_proposal",
        "status": "concept_proposal",
        "station": "ai_origin",
        "retain_renovate_demolish_status": "concept_adaptive_reuse_or_reversible_structure",
        "building_type": "community_service",
        "name_zh": "人工双语服务台",
        "name_en": "Staffed bilingual desk"
      },
      "geometry": {
        "type": "Polygon",
        "coordinates": [
          [
            [
              116.3470779,
              39.9890452
            ],
            [
              116.3473241,
              39.9890452
            ],
            [
              116.3473241,
              39.9891719
            ],
            [
              116.3470779,
              39.9891719
            ],
            [
              116.3470779,
              39.9890452
            ]
          ]
        ]
      }
    },
    {
      "type": "Feature",
      "id": "V5-A-BACK",
      "properties": {
        "id": "V5-A-BACK",
        "layer": "BUILDING_FOOTPRINT",
        "source_type": "agent_generated_design",
        "confidence": "low",
        "geometry_role": "design_proposal",
        "status": "concept_proposal",
        "station": "ai_origin",
        "retain_renovate_demolish_status": "concept_adaptive_reuse_or_reversible_structure",
        "building_type": "office",
        "name_zh": "专业复核后台",
        "name_en": "Professional review back office"
      },
      "geometry": {
        "type": "Polygon",
        "coordinates": [
          [
            [
              116.34784,
              39.988801
            ],
            [
              116.3481449,
              39.988801
            ],
            [
              116.3481449,
              39.989199
            ],
            [
              116.34784,
              39.989199
            ],
            [
              116.34784,
              39.988801
            ]
          ]
        ]
      }
    },
    {
      "type": "Feature",
      "id": "V7-D-PORCH",
      "properties": {
        "id": "V7-D-PORCH",
        "layer": "BUILDING_FOOTPRINT",
        "source_type": "agent_generated_design",
        "confidence": "low",
        "geometry_role": "design_proposal",
        "status": "concept_proposal",
        "station": "dazhongsi",
        "evidence_level": "E1_concept_design",
        "dimension_basis": "prototype_design_assumption_pending_survey",
        "assembly_state": "reversible_prototype",
        "maintenance_owner": "scenario_operator_pending_appointment",
        "retirement_destination": "reuse_or_return_to_supplier",
        "building_type": "community_service",
        "building_role": "staffed_evidence_porch",
        "quantity_method": "polygon_area(local_metre_design)",
        "name_zh": "staffed_evidence_porch",
        "name_en": "staffed evidence porch"
      },
      "geometry": {
        "type": "Polygon",
        "coordinates": [
          [
            [
              116.3481328,
              39.956421
            ],
            [
              116.3486953,
              39.956421
            ],
            [
              116.3486953,
              39.956602
            ],
            [
              116.3481328,
              39.956602
            ],
            [
              116.3481328,
              39.956421
            ]
          ]
        ]
      }
    },
    {
      "type": "Feature",
      "id": "V7-D-SERVICE",
      "properties": {
        "id": "V7-D-SERVICE",
        "layer": "BUILDING_FOOTPRINT",
        "source_type": "agent_generated_design",
        "confidence": "low",
        "geometry_role": "design_proposal",
        "status": "concept_proposal",
        "station": "dazhongsi",
        "evidence_level": "E1_concept_design",
        "dimension_basis": "prototype_design_assumption_pending_survey",
        "assembly_state": "reversible_prototype",
        "maintenance_owner": "scenario_operator_pending_appointment",
        "retirement_destination": "reuse_or_return_to_supplier",
        "building_type": "community_service",
        "building_role": "staffed_public_service",
        "quantity_method": "polygon_area(local_metre_design)",
        "name_zh": "staffed_public_service",
        "name_en": "staffed public service"
      },
      "geometry": {
        "type": "Polygon",
        "coordinates": [
          [
            [
              116.3481797,
              39.9572352
            ],
            [
              116.3484844,
              39.9572352
            ],
            [
              116.3484844,
              39.9573619
            ],
            [
              116.3481797,
              39.9573619
            ],
            [
              116.3481797,
              39.9572352
            ]
          ]
        ]
      }
    },
    {
      "type": "Feature",
      "id": "V7-D-CONTROL",
      "properties": {
        "id": "V7-D-CONTROL",
        "layer": "BUILDING_FOOTPRINT",
        "source_type": "agent_generated_design",
        "confidence": "low",
        "geometry_role": "design_proposal",
        "status": "concept_proposal",
        "station": "dazhongsi",
        "evidence_level": "E1_concept_design",
        "dimension_basis": "prototype_design_assumption_pending_survey",
        "assembly_state": "reversible_prototype",
        "maintenance_owner": "scenario_operator_pending_appointment",
        "retirement_destination": "reuse_or_return_to_supplier",
        "building_type": "mobility_hub",
        "building_role": "trial_control",
        "quantity_method": "polygon_area(local_metre_design)",
        "name_zh": "trial_control",
        "name_en": "trial control"
      },
      "geometry": {
        "type": "Polygon",
        "coordinates": [
          [
            [
              116.3496797,
              39.9568372
            ],
            [
              116.3499141,
              39.9568372
            ],
            [
              116.3499141,
              39.9569638
            ],
            [
              116.3496797,
              39.9569638
            ],
            [
              116.3496797,
              39.9568372
            ]
          ]
        ]
      }
    },
    {
      "type": "Feature",
      "id": "V7-D-STORAGE",
      "properties": {
        "id": "V7-D-STORAGE",
        "layer": "BUILDING_FOOTPRINT",
        "source_type": "agent_generated_design",
        "confidence": "low",
        "geometry_role": "design_proposal",
        "status": "concept_proposal",
        "station": "dazhongsi",
        "evidence_level": "E1_concept_design",
        "dimension_basis": "prototype_design_assumption_pending_survey",
        "assembly_state": "reversible_prototype",
        "maintenance_owner": "scenario_operator_pending_appointment",
        "retirement_destination": "reuse_or_return_to_supplier",
        "building_type": "mobility_hub",
        "building_role": "equipment_storage",
        "quantity_method": "polygon_area(local_metre_design)",
        "name_zh": "equipment_storage",
        "name_en": "equipment storage"
      },
      "geometry": {
        "type": "Polygon",
        "coordinates": [
          [
            [
              116.3495625,
              39.956222
            ],
            [
              116.3498907,
              39.956222
            ],
            [
              116.3498907,
              39.9563125
            ],
            [
              116.3495625,
              39.9563125
            ],
            [
              116.3495625,
              39.956222
            ]
          ]
        ]
      }
    },
    {
      "type": "Feature",
      "id": "V7-D-EVIDENCE-WALL",
      "properties": {
        "id": "V7-D-EVIDENCE-WALL",
        "layer": "BUILDING_FOOTPRINT",
        "source_type": "agent_generated_design",
        "confidence": "low",
        "geometry_role": "design_proposal",
        "status": "concept_proposal",
        "station": "dazhongsi",
        "evidence_level": "E1_concept_design",
        "dimension_basis": "prototype_design_assumption_pending_survey",
        "assembly_state": "reversible_prototype",
        "maintenance_owner": "scenario_operator_pending_appointment",
        "retirement_destination": "reuse_or_return_to_supplier",
        "building_type": "community_service",
        "building_role": "public_evidence_interface",
        "quantity_method": "polygon_area(local_metre_design)",
        "name_zh": "public_evidence_interface",
        "name_en": "public evidence interface"
      },
      "geometry": {
        "type": "Polygon",
        "coordinates": [
          [
            [
              116.3481562,
              39.9564391
            ],
            [
              116.3486719,
              39.9564391
            ],
            [
              116.3486719,
              39.9564753
            ],
            [
              116.3481562,
              39.9564753
            ],
            [
              116.3481562,
              39.9564391
            ]
          ]
        ]
      }
    }
  ]
}
