{
  "type": "FeatureCollection",
  "name": "public_baseline_spine_and_stitches",
  "features": [
    {
      "type": "Feature",
      "id": "ROAD-001",
      "properties": {
        "id": "ROAD-001",
        "layer": "ROAD_CENTERLINE",
        "source_type": "agent_generated_design",
        "confidence": "medium",
        "geometry_role": "design_proposal",
        "road_class": "greenway",
        "name_zh": "京张公共基线脊",
        "name_en": "Jing-Zhang Public Baseline Spine",
        "design_intent": "Continuous step-free walking, cycling, static wayfinding and staffed fallback; concept alignment under a provisional boundary."
      },
      "geometry": {
        "type": "LineString",
        "coordinates": [
          [
            116.3452,
            39.941
          ],
          [
            116.3461,
            39.963
          ],
          [
            116.3456,
            39.985
          ],
          [
            116.3482,
            40.007
          ],
          [
            116.3486,
            40.024
          ]
        ]
      }
    },
    {
      "type": "Feature",
      "id": "ROAD-002",
      "properties": {
        "id": "ROAD-002",
        "layer": "ROAD_CENTERLINE",
        "source_type": "agent_generated_design",
        "confidence": "low",
        "geometry_role": "design_proposal",
        "road_class": "pedestrian",
        "name_zh": "中关村科技服务翼概念缝合线",
        "name_en": "Zhongguancun Service Wing conceptual stitch",
        "design_intent": "Conceptual east-west walking and service connection; not a road redline."
      },
      "geometry": {
        "type": "LineString",
        "coordinates": [
          [
            116.3408,
            39.989
          ],
          [
            116.3532,
            39.989
          ]
        ]
      }
    },
    {
      "type": "Feature",
      "id": "ROAD-003",
      "properties": {
        "id": "ROAD-003",
        "layer": "ROAD_CENTERLINE",
        "source_type": "agent_generated_design",
        "confidence": "low",
        "geometry_role": "design_proposal",
        "road_class": "greenway",
        "name_zh": "小月河场景赋能翼概念缝合线",
        "name_en": "Xiaoyuehe Scene Wing conceptual stitch",
        "design_intent": "Conceptual climate and neighbourhood connection; not a water or road control line."
      },
      "geometry": {
        "type": "LineString",
        "coordinates": [
          [
            116.341,
            39.959
          ],
          [
            116.354,
            39.959
          ]
        ]
      }
    },
    {
      "type": "Feature",
      "id": "STITCH-01",
      "properties": {
        "id": "STITCH-01",
        "layer": "ROAD_CENTERLINE",
        "source_type": "agent_generated_design",
        "confidence": "low",
        "geometry_role": "design_proposal",
        "road_class": "pedestrian",
        "status": "concept_proposal",
        "name_zh": "众智园南缝合",
        "name_en": "Conceptual east-west stitch 1",
        "design_intent": "Conceptual step-free east-west connection; not a road alignment or redline."
      },
      "geometry": {
        "type": "LineString",
        "coordinates": [
          [
            116.3415,
            40.0125
          ],
          [
            116.354,
            40.0125
          ]
        ]
      }
    },
    {
      "type": "Feature",
      "id": "STITCH-02",
      "properties": {
        "id": "STITCH-02",
        "layer": "ROAD_CENTERLINE",
        "source_type": "agent_generated_design",
        "confidence": "low",
        "geometry_role": "design_proposal",
        "road_class": "pedestrian",
        "status": "concept_proposal",
        "name_zh": "众智园北缝合",
        "name_en": "Conceptual east-west stitch 2",
        "design_intent": "Conceptual step-free east-west connection; not a road alignment or redline."
      },
      "geometry": {
        "type": "LineString",
        "coordinates": [
          [
            116.3415,
            40.0205
          ],
          [
            116.354,
            40.0205
          ]
        ]
      }
    },
    {
      "type": "Feature",
      "id": "STITCH-03",
      "properties": {
        "id": "STITCH-03",
        "layer": "ROAD_CENTERLINE",
        "source_type": "agent_generated_design",
        "confidence": "low",
        "geometry_role": "design_proposal",
        "road_class": "pedestrian",
        "status": "concept_proposal",
        "name_zh": "AI原点南缝合",
        "name_en": "Conceptual east-west stitch 3",
        "design_intent": "Conceptual step-free east-west connection; not a road alignment or redline."
      },
      "geometry": {
        "type": "LineString",
        "coordinates": [
          [
            116.3415,
            39.985
          ],
          [
            116.354,
            39.985
          ]
        ]
      }
    },
    {
      "type": "Feature",
      "id": "STITCH-04",
      "properties": {
        "id": "STITCH-04",
        "layer": "ROAD_CENTERLINE",
        "source_type": "agent_generated_design",
        "confidence": "low",
        "geometry_role": "design_proposal",
        "road_class": "pedestrian",
        "status": "concept_proposal",
        "name_zh": "AI原点北缝合",
        "name_en": "Conceptual east-west stitch 4",
        "design_intent": "Conceptual step-free east-west connection; not a road alignment or redline."
      },
      "geometry": {
        "type": "LineString",
        "coordinates": [
          [
            116.3415,
            39.993
          ],
          [
            116.354,
            39.993
          ]
        ]
      }
    },
    {
      "type": "Feature",
      "id": "STITCH-05",
      "properties": {
        "id": "STITCH-05",
        "layer": "ROAD_CENTERLINE",
        "source_type": "agent_generated_design",
        "confidence": "low",
        "geometry_role": "design_proposal",
        "road_class": "pedestrian",
        "status": "concept_proposal",
        "name_zh": "大钟寺南缝合",
        "name_en": "Conceptual east-west stitch 5",
        "design_intent": "Conceptual step-free east-west connection; not a road alignment or redline."
      },
      "geometry": {
        "type": "LineString",
        "coordinates": [
          [
            116.3415,
            39.9438
          ],
          [
            116.354,
            39.9438
          ]
        ]
      }
    },
    {
      "type": "Feature",
      "id": "STITCH-06",
      "properties": {
        "id": "STITCH-06",
        "layer": "ROAD_CENTERLINE",
        "source_type": "agent_generated_design",
        "confidence": "low",
        "geometry_role": "design_proposal",
        "road_class": "pedestrian",
        "status": "concept_proposal",
        "name_zh": "大钟寺北缝合",
        "name_en": "Conceptual east-west stitch 6",
        "design_intent": "Conceptual step-free east-west connection; not a road alignment or redline."
      },
      "geometry": {
        "type": "LineString",
        "coordinates": [
          [
            116.3415,
            39.9505
          ],
          [
            116.354,
            39.9505
          ]
        ]
      }
    },
    {
      "type": "Feature",
      "id": "V5-Z-BYPASS",
      "properties": {
        "id": "V5-Z-BYPASS",
        "layer": "ROAD_CENTERLINE",
        "source_type": "agent_generated_design",
        "confidence": "low",
        "geometry_role": "design_proposal",
        "status": "concept_proposal",
        "station": "zhongzhiyuan",
        "route_role": "baseline",
        "name_zh": "24 小时完整公共旁路",
        "name_en": "24/7 complete public bypass",
        "design_width_m": 3
      },
      "geometry": {
        "type": "LineString",
        "coordinates": [
          [
            116.3476728,
            40.0175839
          ],
          [
            116.3491272,
            40.0175839
          ],
          [
            116.3491272,
            40.0184161
          ],
          [
            116.3476728,
            40.0184161
          ],
          [
            116.3476728,
            40.0175839
          ]
        ]
      }
    },
    {
      "type": "Feature",
      "id": "V5-Z-EMERGENCY",
      "properties": {
        "id": "V5-Z-EMERGENCY",
        "layer": "ROAD_CENTERLINE",
        "source_type": "agent_generated_design",
        "confidence": "low",
        "geometry_role": "design_proposal",
        "status": "concept_proposal",
        "station": "zhongzhiyuan",
        "route_role": "emergency",
        "name_zh": "人工急停与消防到达线",
        "name_en": "Human E-stop and emergency access"
      },
      "geometry": {
        "type": "LineString",
        "coordinates": [
          [
            116.3484,
            40.018
          ],
          [
            116.3489396,
            40.018
          ],
          [
            116.3492445,
            40.018
          ]
        ]
      }
    },
    {
      "type": "Feature",
      "id": "V5-Z-REMOVAL",
      "properties": {
        "id": "V5-Z-REMOVAL",
        "layer": "ROAD_CENTERLINE",
        "source_type": "agent_generated_design",
        "confidence": "low",
        "geometry_role": "design_proposal",
        "status": "concept_proposal",
        "station": "zhongzhiyuan",
        "route_role": "removal",
        "name_zh": "机器人与机柜撤场通道",
        "name_en": "Robot and cabinet removal route"
      },
      "geometry": {
        "type": "LineString",
        "coordinates": [
          [
            116.3486581,
            40.0179095
          ],
          [
            116.348963,
            40.017801
          ],
          [
            116.3492445,
            40.017801
          ]
        ]
      }
    },
    {
      "type": "Feature",
      "id": "V5-A-PASS-01",
      "properties": {
        "id": "V5-A-PASS-01",
        "layer": "ROAD_CENTERLINE",
        "source_type": "agent_generated_design",
        "confidence": "low",
        "geometry_role": "design_proposal",
        "status": "concept_proposal",
        "station": "ai_origin",
        "route_role": "baseline",
        "name_zh": "北侧无门槛穿行路径",
        "name_en": "North step-free passage",
        "design_width_m": 3
      },
      "geometry": {
        "type": "LineString",
        "coordinates": [
          [
            116.3467027,
            39.9892533
          ],
          [
            116.3482973,
            39.9892533
          ]
        ]
      }
    },
    {
      "type": "Feature",
      "id": "V5-A-PASS-02",
      "properties": {
        "id": "V5-A-PASS-02",
        "layer": "ROAD_CENTERLINE",
        "source_type": "agent_generated_design",
        "confidence": "low",
        "geometry_role": "design_proposal",
        "status": "concept_proposal",
        "station": "ai_origin",
        "route_role": "baseline",
        "name_zh": "中央无门槛穿行路径",
        "name_en": "Central step-free passage",
        "design_width_m": 3
      },
      "geometry": {
        "type": "LineString",
        "coordinates": [
          [
            116.3467027,
            39.989
          ],
          [
            116.3482973,
            39.989
          ]
        ]
      }
    },
    {
      "type": "Feature",
      "id": "V5-A-PASS-03",
      "properties": {
        "id": "V5-A-PASS-03",
        "layer": "ROAD_CENTERLINE",
        "source_type": "agent_generated_design",
        "confidence": "low",
        "geometry_role": "design_proposal",
        "status": "concept_proposal",
        "station": "ai_origin",
        "route_role": "baseline",
        "name_zh": "南侧无门槛穿行路径",
        "name_en": "South step-free passage",
        "design_width_m": 3
      },
      "geometry": {
        "type": "LineString",
        "coordinates": [
          [
            116.3467027,
            39.9887467
          ],
          [
            116.3482973,
            39.9887467
          ]
        ]
      }
    },
    {
      "type": "Feature",
      "id": "V5-A-EMERGENCY",
      "properties": {
        "id": "V5-A-EMERGENCY",
        "layer": "ROAD_CENTERLINE",
        "source_type": "agent_generated_design",
        "confidence": "low",
        "geometry_role": "design_proposal",
        "status": "concept_proposal",
        "station": "ai_origin",
        "route_role": "emergency",
        "name_zh": "人工接管与疏散路线",
        "name_en": "Human takeover and egress route"
      },
      "geometry": {
        "type": "LineString",
        "coordinates": [
          [
            116.3476876,
            39.989
          ],
          [
            116.3481097,
            39.989
          ],
          [
            116.3483442,
            39.989
          ]
        ]
      }
    },
    {
      "type": "Feature",
      "id": "V5-A-REMOVAL",
      "properties": {
        "id": "V5-A-REMOVAL",
        "layer": "ROAD_CENTERLINE",
        "source_type": "agent_generated_design",
        "confidence": "low",
        "geometry_role": "design_proposal",
        "status": "concept_proposal",
        "station": "ai_origin",
        "route_role": "removal",
        "name_zh": "插件墙撤场通道",
        "name_en": "Plug-in wall removal route"
      },
      "geometry": {
        "type": "LineString",
        "coordinates": [
          [
            116.347711,
            39.9892171
          ],
          [
            116.3481331,
            39.9892171
          ],
          [
            116.3483442,
            39.9892171
          ]
        ]
      }
    },
    {
      "type": "Feature",
      "id": "V7-D-BASE-NS",
      "properties": {
        "id": "V7-D-BASE-NS",
        "layer": "ROAD_CENTERLINE",
        "source_type": "agent_generated_design",
        "confidence": "low",
        "geometry_role": "design_proposal",
        "status": "concept_proposal",
        "station": "dazhongsi",
        "evidence_level": "E1_concept_design",
        "dimension_basis": "prototype_design_assumption_pending_survey",
        "assembly_state": "reversible_prototype",
        "maintenance_owner": "scenario_operator_pending_appointment",
        "retirement_destination": "reuse_or_return_to_supplier",
        "route_role": "baseline",
        "design_width_m": 4,
        "quantity_method": "line_length × 4m",
        "name_zh": "baseline",
        "name_en": "baseline"
      },
      "geometry": {
        "type": "LineString",
        "coordinates": [
          [
            116.349,
            39.9561858
          ],
          [
            116.349,
            39.9568553
          ],
          [
            116.3489531,
            39.9569638
          ],
          [
            116.349,
            39.9571447
          ],
          [
            116.349,
            39.9578685
          ]
        ]
      }
    },
    {
      "type": "Feature",
      "id": "V7-D-BASE-EW",
      "properties": {
        "id": "V7-D-BASE-EW",
        "layer": "ROAD_CENTERLINE",
        "source_type": "agent_generated_design",
        "confidence": "low",
        "geometry_role": "design_proposal",
        "status": "concept_proposal",
        "station": "dazhongsi",
        "evidence_level": "E1_concept_design",
        "dimension_basis": "prototype_design_assumption_pending_survey",
        "assembly_state": "reversible_prototype",
        "maintenance_owner": "scenario_operator_pending_appointment",
        "retirement_destination": "reuse_or_return_to_supplier",
        "route_role": "baseline",
        "design_width_m": 4,
        "quantity_method": "line_length × 4m",
        "name_zh": "baseline",
        "name_en": "baseline"
      },
      "geometry": {
        "type": "LineString",
        "coordinates": [
          [
            116.3478281,
            39.957
          ],
          [
            116.3487891,
            39.957
          ],
          [
            116.3489531,
            39.9570362
          ],
          [
            116.3492109,
            39.957
          ],
          [
            116.3501719,
            39.957
          ]
        ]
      }
    },
    {
      "type": "Feature",
      "id": "V7-D-TACTILE-NS",
      "properties": {
        "id": "V7-D-TACTILE-NS",
        "layer": "ROAD_CENTERLINE",
        "source_type": "agent_generated_design",
        "confidence": "low",
        "geometry_role": "design_proposal",
        "status": "concept_proposal",
        "station": "dazhongsi",
        "evidence_level": "E1_concept_design",
        "dimension_basis": "prototype_design_assumption_pending_survey",
        "assembly_state": "reversible_prototype",
        "maintenance_owner": "scenario_operator_pending_appointment",
        "retirement_destination": "reuse_or_return_to_supplier",
        "route_role": "tactile_guidance",
        "design_width_m": 0.4,
        "quantity_method": "line_length × 0.4m",
        "name_zh": "tactile_guidance",
        "name_en": "tactile guidance"
      },
      "geometry": {
        "type": "LineString",
        "coordinates": [
          [
            116.3489883,
            39.9562039
          ],
          [
            116.3489883,
            39.9568643
          ],
          [
            116.3489414,
            39.9569729
          ],
          [
            116.3489883,
            39.9571357
          ],
          [
            116.3489883,
            39.9578504
          ]
        ]
      }
    },
    {
      "type": "Feature",
      "id": "V7-D-TACTILE-EW",
      "properties": {
        "id": "V7-D-TACTILE-EW",
        "layer": "ROAD_CENTERLINE",
        "source_type": "agent_generated_design",
        "confidence": "low",
        "geometry_role": "design_proposal",
        "status": "concept_proposal",
        "station": "dazhongsi",
        "evidence_level": "E1_concept_design",
        "dimension_basis": "prototype_design_assumption_pending_survey",
        "assembly_state": "reversible_prototype",
        "maintenance_owner": "scenario_operator_pending_appointment",
        "retirement_destination": "reuse_or_return_to_supplier",
        "route_role": "tactile_guidance",
        "design_width_m": 0.4,
        "quantity_method": "line_length × 0.4m",
        "name_zh": "tactile_guidance",
        "name_en": "tactile guidance"
      },
      "geometry": {
        "type": "LineString",
        "coordinates": [
          [
            116.3478515,
            39.957009
          ],
          [
            116.3487891,
            39.957009
          ],
          [
            116.3489531,
            39.9570452
          ],
          [
            116.3492109,
            39.957009
          ],
          [
            116.3501485,
            39.957009
          ]
        ]
      }
    },
    {
      "type": "Feature",
      "id": "V7-D-CROSS-N",
      "properties": {
        "id": "V7-D-CROSS-N",
        "layer": "ROAD_CENTERLINE",
        "source_type": "agent_generated_design",
        "confidence": "low",
        "geometry_role": "design_proposal",
        "status": "concept_proposal",
        "station": "dazhongsi",
        "evidence_level": "E1_concept_design",
        "dimension_basis": "prototype_design_assumption_pending_survey",
        "assembly_state": "reversible_prototype",
        "maintenance_owner": "scenario_operator_pending_appointment",
        "retirement_destination": "reuse_or_return_to_supplier",
        "route_role": "crossing",
        "design_width_m": 4,
        "quantity_method": "line_length × 4m",
        "name_zh": "crossing",
        "name_en": "crossing"
      },
      "geometry": {
        "type": "LineString",
        "coordinates": [
          [
            116.3488476,
            39.9571447
          ],
          [
            116.3491524,
            39.9571447
          ]
        ]
      }
    },
    {
      "type": "Feature",
      "id": "V7-D-CROSS-S",
      "properties": {
        "id": "V7-D-CROSS-S",
        "layer": "ROAD_CENTERLINE",
        "source_type": "agent_generated_design",
        "confidence": "low",
        "geometry_role": "design_proposal",
        "status": "concept_proposal",
        "station": "dazhongsi",
        "evidence_level": "E1_concept_design",
        "dimension_basis": "prototype_design_assumption_pending_survey",
        "assembly_state": "reversible_prototype",
        "maintenance_owner": "scenario_operator_pending_appointment",
        "retirement_destination": "reuse_or_return_to_supplier",
        "route_role": "crossing",
        "design_width_m": 4,
        "quantity_method": "line_length × 4m",
        "name_zh": "crossing",
        "name_en": "crossing"
      },
      "geometry": {
        "type": "LineString",
        "coordinates": [
          [
            116.3488476,
            39.9568553
          ],
          [
            116.3491524,
            39.9568553
          ]
        ]
      }
    },
    {
      "type": "Feature",
      "id": "V7-D-RAMP-N",
      "properties": {
        "id": "V7-D-RAMP-N",
        "layer": "ROAD_CENTERLINE",
        "source_type": "agent_generated_design",
        "confidence": "low",
        "geometry_role": "design_proposal",
        "status": "concept_proposal",
        "station": "dazhongsi",
        "evidence_level": "E1_concept_design",
        "dimension_basis": "prototype_design_assumption_pending_survey",
        "assembly_state": "reversible_prototype",
        "maintenance_owner": "scenario_operator_pending_appointment",
        "retirement_destination": "reuse_or_return_to_supplier",
        "route_role": "curb_ramp",
        "design_width_m": 2,
        "quantity_method": "line_length × 2m",
        "name_zh": "curb_ramp",
        "name_en": "curb ramp"
      },
      "geometry": {
        "type": "LineString",
        "coordinates": [
          [
            116.349,
            39.9571176
          ],
          [
            116.349,
            39.9571719
          ]
        ]
      }
    },
    {
      "type": "Feature",
      "id": "V7-D-RAMP-S",
      "properties": {
        "id": "V7-D-RAMP-S",
        "layer": "ROAD_CENTERLINE",
        "source_type": "agent_generated_design",
        "confidence": "low",
        "geometry_role": "design_proposal",
        "status": "concept_proposal",
        "station": "dazhongsi",
        "evidence_level": "E1_concept_design",
        "dimension_basis": "prototype_design_assumption_pending_survey",
        "assembly_state": "reversible_prototype",
        "maintenance_owner": "scenario_operator_pending_appointment",
        "retirement_destination": "reuse_or_return_to_supplier",
        "route_role": "curb_ramp",
        "design_width_m": 2,
        "quantity_method": "line_length × 2m",
        "name_zh": "curb_ramp",
        "name_en": "curb ramp"
      },
      "geometry": {
        "type": "LineString",
        "coordinates": [
          [
            116.349,
            39.9568824
          ],
          [
            116.349,
            39.9568281
          ]
        ]
      }
    },
    {
      "type": "Feature",
      "id": "V7-D-TRANSIT",
      "properties": {
        "id": "V7-D-TRANSIT",
        "layer": "ROAD_CENTERLINE",
        "source_type": "agent_generated_design",
        "confidence": "low",
        "geometry_role": "design_proposal",
        "status": "concept_proposal",
        "station": "dazhongsi",
        "evidence_level": "E1_concept_design",
        "dimension_basis": "prototype_design_assumption_pending_survey",
        "assembly_state": "reversible_prototype",
        "maintenance_owner": "scenario_operator_pending_appointment",
        "retirement_destination": "reuse_or_return_to_supplier",
        "route_role": "conventional_transit",
        "design_width_m": 6,
        "quantity_method": "line_length × 6m",
        "name_zh": "conventional_transit",
        "name_en": "conventional transit"
      },
      "geometry": {
        "type": "LineString",
        "coordinates": [
          [
            116.3480156,
            39.9575247
          ],
          [
            116.3487891,
            39.9575247
          ],
          [
            116.3492109,
            39.9575247
          ],
          [
            116.3499844,
            39.9575247
          ]
        ]
      }
    },
    {
      "type": "Feature",
      "id": "V7-D-EMERGENCY",
      "properties": {
        "id": "V7-D-EMERGENCY",
        "layer": "ROAD_CENTERLINE",
        "source_type": "agent_generated_design",
        "confidence": "low",
        "geometry_role": "design_proposal",
        "status": "concept_proposal",
        "station": "dazhongsi",
        "evidence_level": "E1_concept_design",
        "dimension_basis": "prototype_design_assumption_pending_survey",
        "assembly_state": "reversible_prototype",
        "maintenance_owner": "scenario_operator_pending_appointment",
        "retirement_destination": "reuse_or_return_to_supplier",
        "route_role": "emergency",
        "design_width_m": 4,
        "quantity_method": "line_length × 4m",
        "name_zh": "emergency",
        "name_en": "emergency"
      },
      "geometry": {
        "type": "LineString",
        "coordinates": [
          [
            116.3492813,
            39.9567105
          ],
          [
            116.3498672,
            39.9567105
          ],
          [
            116.3501016,
            39.9569276
          ]
        ]
      }
    },
    {
      "type": "Feature",
      "id": "V7-D-REMOVAL",
      "properties": {
        "id": "V7-D-REMOVAL",
        "layer": "ROAD_CENTERLINE",
        "source_type": "agent_generated_design",
        "confidence": "low",
        "geometry_role": "design_proposal",
        "status": "concept_proposal",
        "station": "dazhongsi",
        "evidence_level": "E1_concept_design",
        "dimension_basis": "prototype_design_assumption_pending_survey",
        "assembly_state": "reversible_prototype",
        "maintenance_owner": "scenario_operator_pending_appointment",
        "retirement_destination": "reuse_or_return_to_supplier",
        "route_role": "removal",
        "design_width_m": 4,
        "quantity_method": "line_length × 4m",
        "name_zh": "removal",
        "name_en": "removal"
      },
      "geometry": {
        "type": "LineString",
        "coordinates": [
          [
            116.3495625,
            39.9563667
          ],
          [
            116.3501719,
            39.9563667
          ]
        ]
      }
    },
    {
      "type": "Feature",
      "id": "V7-D-FIRE",
      "properties": {
        "id": "V7-D-FIRE",
        "layer": "ROAD_CENTERLINE",
        "source_type": "agent_generated_design",
        "confidence": "low",
        "geometry_role": "design_proposal",
        "status": "concept_proposal",
        "station": "dazhongsi",
        "evidence_level": "E1_concept_design",
        "dimension_basis": "prototype_design_assumption_pending_survey",
        "assembly_state": "reversible_prototype",
        "maintenance_owner": "scenario_operator_pending_appointment",
        "retirement_destination": "reuse_or_return_to_supplier",
        "route_role": "fire_access",
        "design_width_m": 4,
        "quantity_method": "line_length × 4m",
        "name_zh": "fire_access",
        "name_en": "fire access"
      },
      "geometry": {
        "type": "LineString",
        "coordinates": [
          [
            116.3478984,
            39.9577056
          ],
          [
            116.3484844,
            39.9577056
          ],
          [
            116.3487656,
            39.9575247
          ]
        ]
      }
    },
    {
      "type": "Feature",
      "id": "V7-D-CURB-N",
      "properties": {
        "id": "V7-D-CURB-N",
        "layer": "ROAD_CENTERLINE",
        "source_type": "agent_generated_design",
        "confidence": "low",
        "geometry_role": "design_proposal",
        "status": "concept_proposal",
        "station": "dazhongsi",
        "evidence_level": "E1_concept_design",
        "dimension_basis": "prototype_design_assumption_pending_survey",
        "assembly_state": "reversible_prototype",
        "maintenance_owner": "scenario_operator_pending_appointment",
        "retirement_destination": "reuse_or_return_to_supplier",
        "route_role": "curb_edge",
        "design_width_m": 0.15,
        "quantity_method": "line_length × 0.15m",
        "name_zh": "curb_edge",
        "name_en": "curb edge"
      },
      "geometry": {
        "type": "LineString",
        "coordinates": [
          [
            116.3480156,
            39.9574523
          ],
          [
            116.3499844,
            39.9574523
          ]
        ]
      }
    },
    {
      "type": "Feature",
      "id": "V7-D-CURB-S",
      "properties": {
        "id": "V7-D-CURB-S",
        "layer": "ROAD_CENTERLINE",
        "source_type": "agent_generated_design",
        "confidence": "low",
        "geometry_role": "design_proposal",
        "status": "concept_proposal",
        "station": "dazhongsi",
        "evidence_level": "E1_concept_design",
        "dimension_basis": "prototype_design_assumption_pending_survey",
        "assembly_state": "reversible_prototype",
        "maintenance_owner": "scenario_operator_pending_appointment",
        "retirement_destination": "reuse_or_return_to_supplier",
        "route_role": "curb_edge",
        "design_width_m": 0.15,
        "quantity_method": "line_length × 0.15m",
        "name_zh": "curb_edge",
        "name_en": "curb edge"
      },
      "geometry": {
        "type": "LineString",
        "coordinates": [
          [
            116.3480156,
            39.9575971
          ],
          [
            116.3499844,
            39.9575971
          ]
        ]
      }
    },
    {
      "type": "Feature",
      "id": "V7-D-SERVICE-ROUTE",
      "properties": {
        "id": "V7-D-SERVICE-ROUTE",
        "layer": "ROAD_CENTERLINE",
        "source_type": "agent_generated_design",
        "confidence": "low",
        "geometry_role": "design_proposal",
        "status": "concept_proposal",
        "station": "dazhongsi",
        "evidence_level": "E1_concept_design",
        "dimension_basis": "prototype_design_assumption_pending_survey",
        "assembly_state": "reversible_prototype",
        "maintenance_owner": "scenario_operator_pending_appointment",
        "retirement_destination": "reuse_or_return_to_supplier",
        "route_role": "service_and_storage",
        "design_width_m": 3,
        "quantity_method": "line_length × 3m",
        "name_zh": "service_and_storage",
        "name_en": "service and storage"
      },
      "geometry": {
        "type": "LineString",
        "coordinates": [
          [
            116.3495391,
            39.9562944
          ],
          [
            116.3500313,
            39.9562944
          ],
          [
            116.3501485,
            39.9563667
          ]
        ]
      }
    },
    {
      "type": "Feature",
      "id": "V11-ALT-A-BASE-NS",
      "properties": {
        "id": "V11-ALT-A-BASE-NS",
        "layer": "ROAD_CENTERLINE",
        "source_type": "agent_generated_design",
        "confidence": "low",
        "geometry_role": "design_proposal",
        "status": "concept_proposal",
        "station": "dazhongsi",
        "evidence_level": "E1_concept_design",
        "dimension_basis": "prototype_design_assumption_pending_survey",
        "verification_scope": "geometry_based_design_audit",
        "field_status": "not_field_run",
        "alternative_id": "ALT-A",
        "component_role": "public_baseline_route"
      },
      "geometry": {
        "type": "LineString",
        "coordinates": [
          [
            116.349,
            39.9562634
          ],
          [
            116.349,
            39.9577366
          ]
        ]
      }
    },
    {
      "type": "Feature",
      "id": "V11-ALT-A-BASE-EW",
      "properties": {
        "id": "V11-ALT-A-BASE-EW",
        "layer": "ROAD_CENTERLINE",
        "source_type": "agent_generated_design",
        "confidence": "low",
        "geometry_role": "design_proposal",
        "status": "concept_proposal",
        "station": "dazhongsi",
        "evidence_level": "E1_concept_design",
        "dimension_basis": "prototype_design_assumption_pending_survey",
        "verification_scope": "geometry_based_design_audit",
        "field_status": "not_field_run",
        "alternative_id": "ALT-A",
        "component_role": "public_baseline_route"
      },
      "geometry": {
        "type": "LineString",
        "coordinates": [
          [
            116.3477812,
            39.957
          ],
          [
            116.3502188,
            39.957
          ]
        ]
      }
    },
    {
      "type": "Feature",
      "id": "V11-ALT-A-TRIAL-ROUTE-NS",
      "properties": {
        "id": "V11-ALT-A-TRIAL-ROUTE-NS",
        "layer": "ROAD_CENTERLINE",
        "source_type": "agent_generated_design",
        "confidence": "low",
        "geometry_role": "design_proposal",
        "status": "concept_proposal",
        "station": "dazhongsi",
        "evidence_level": "E1_concept_design",
        "dimension_basis": "prototype_design_assumption_pending_survey",
        "verification_scope": "geometry_based_design_audit",
        "field_status": "not_field_run",
        "alternative_id": "ALT-A",
        "component_role": "trial_state_public_route"
      },
      "geometry": {
        "type": "LineString",
        "coordinates": [
          [
            116.349,
            39.9562634
          ],
          [
            116.3494453,
            39.9566227
          ],
          [
            116.3494453,
            39.9573773
          ],
          [
            116.349,
            39.9577366
          ]
        ]
      }
    },
    {
      "type": "Feature",
      "id": "V11-ALT-A-TRIAL-ROUTE-EW",
      "properties": {
        "id": "V11-ALT-A-TRIAL-ROUTE-EW",
        "layer": "ROAD_CENTERLINE",
        "source_type": "agent_generated_design",
        "confidence": "low",
        "geometry_role": "design_proposal",
        "status": "concept_proposal",
        "station": "dazhongsi",
        "evidence_level": "E1_concept_design",
        "dimension_basis": "prototype_design_assumption_pending_survey",
        "verification_scope": "geometry_based_design_audit",
        "field_status": "not_field_run",
        "alternative_id": "ALT-A",
        "component_role": "trial_state_public_route"
      },
      "geometry": {
        "type": "LineString",
        "coordinates": [
          [
            116.3477812,
            39.957
          ],
          [
            116.3485078,
            39.9566586
          ],
          [
            116.3494922,
            39.9566586
          ],
          [
            116.3502188,
            39.957
          ]
        ]
      }
    },
    {
      "type": "Feature",
      "id": "V11-ALT-A-FIRE",
      "properties": {
        "id": "V11-ALT-A-FIRE",
        "layer": "ROAD_CENTERLINE",
        "source_type": "agent_generated_design",
        "confidence": "low",
        "geometry_role": "design_proposal",
        "status": "concept_proposal",
        "station": "dazhongsi",
        "evidence_level": "E1_concept_design",
        "dimension_basis": "prototype_design_assumption_pending_survey",
        "verification_scope": "geometry_based_design_audit",
        "field_status": "not_field_run",
        "alternative_id": "ALT-A",
        "component_role": "fire_route"
      },
      "geometry": {
        "type": "LineString",
        "coordinates": [
          [
            116.3479218,
            39.9576468
          ],
          [
            116.3485078,
            39.9576468
          ],
          [
            116.349,
            39.9572515
          ],
          [
            116.3497032,
            39.9572515
          ]
        ]
      }
    },
    {
      "type": "Feature",
      "id": "V11-ALT-A-RETIRE-1",
      "properties": {
        "id": "V11-ALT-A-RETIRE-1",
        "layer": "ROAD_CENTERLINE",
        "source_type": "agent_generated_design",
        "confidence": "low",
        "geometry_role": "design_proposal",
        "status": "concept_proposal",
        "station": "dazhongsi",
        "evidence_level": "E1_concept_design",
        "dimension_basis": "prototype_design_assumption_pending_survey",
        "verification_scope": "geometry_based_design_audit",
        "field_status": "not_field_run",
        "alternative_id": "ALT-A",
        "component_role": "retirement_route"
      },
      "geometry": {
        "type": "LineString",
        "coordinates": [
          [
            116.3493281,
            39.9567485
          ],
          [
            116.3498438,
            39.9563891
          ],
          [
            116.3502188,
            39.9563891
          ]
        ]
      }
    },
    {
      "type": "Feature",
      "id": "V11-ALT-B-BASE-NS",
      "properties": {
        "id": "V11-ALT-B-BASE-NS",
        "layer": "ROAD_CENTERLINE",
        "source_type": "agent_generated_design",
        "confidence": "low",
        "geometry_role": "design_proposal",
        "status": "concept_proposal",
        "station": "dazhongsi",
        "evidence_level": "E1_concept_design",
        "dimension_basis": "prototype_design_assumption_pending_survey",
        "verification_scope": "geometry_based_design_audit",
        "field_status": "not_field_run",
        "alternative_id": "ALT-B",
        "component_role": "public_baseline_route"
      },
      "geometry": {
        "type": "LineString",
        "coordinates": [
          [
            116.349,
            39.9562634
          ],
          [
            116.349,
            39.9577366
          ]
        ]
      }
    },
    {
      "type": "Feature",
      "id": "V11-ALT-B-BASE-EW",
      "properties": {
        "id": "V11-ALT-B-BASE-EW",
        "layer": "ROAD_CENTERLINE",
        "source_type": "agent_generated_design",
        "confidence": "low",
        "geometry_role": "design_proposal",
        "status": "concept_proposal",
        "station": "dazhongsi",
        "evidence_level": "E1_concept_design",
        "dimension_basis": "prototype_design_assumption_pending_survey",
        "verification_scope": "geometry_based_design_audit",
        "field_status": "not_field_run",
        "alternative_id": "ALT-B",
        "component_role": "public_baseline_route"
      },
      "geometry": {
        "type": "LineString",
        "coordinates": [
          [
            116.3477812,
            39.957
          ],
          [
            116.3502188,
            39.957
          ]
        ]
      }
    },
    {
      "type": "Feature",
      "id": "V11-ALT-B-TRIAL-ROUTE-NS",
      "properties": {
        "id": "V11-ALT-B-TRIAL-ROUTE-NS",
        "layer": "ROAD_CENTERLINE",
        "source_type": "agent_generated_design",
        "confidence": "low",
        "geometry_role": "design_proposal",
        "status": "concept_proposal",
        "station": "dazhongsi",
        "evidence_level": "E1_concept_design",
        "dimension_basis": "prototype_design_assumption_pending_survey",
        "verification_scope": "geometry_based_design_audit",
        "field_status": "not_field_run",
        "alternative_id": "ALT-B",
        "component_role": "trial_state_public_route"
      },
      "geometry": {
        "type": "LineString",
        "coordinates": [
          [
            116.349,
            39.9562634
          ],
          [
            116.349,
            39.9577366
          ]
        ]
      }
    },
    {
      "type": "Feature",
      "id": "V11-ALT-B-TRIAL-ROUTE-EW",
      "properties": {
        "id": "V11-ALT-B-TRIAL-ROUTE-EW",
        "layer": "ROAD_CENTERLINE",
        "source_type": "agent_generated_design",
        "confidence": "low",
        "geometry_role": "design_proposal",
        "status": "concept_proposal",
        "station": "dazhongsi",
        "evidence_level": "E1_concept_design",
        "dimension_basis": "prototype_design_assumption_pending_survey",
        "verification_scope": "geometry_based_design_audit",
        "field_status": "not_field_run",
        "alternative_id": "ALT-B",
        "component_role": "trial_state_public_route"
      },
      "geometry": {
        "type": "LineString",
        "coordinates": [
          [
            116.3477812,
            39.957
          ],
          [
            116.3502188,
            39.957
          ]
        ]
      }
    },
    {
      "type": "Feature",
      "id": "V11-ALT-B-FIRE",
      "properties": {
        "id": "V11-ALT-B-FIRE",
        "layer": "ROAD_CENTERLINE",
        "source_type": "agent_generated_design",
        "confidence": "low",
        "geometry_role": "design_proposal",
        "status": "concept_proposal",
        "station": "dazhongsi",
        "evidence_level": "E1_concept_design",
        "dimension_basis": "prototype_design_assumption_pending_survey",
        "verification_scope": "geometry_based_design_audit",
        "field_status": "not_field_run",
        "alternative_id": "ALT-B",
        "component_role": "fire_route"
      },
      "geometry": {
        "type": "LineString",
        "coordinates": [
          [
            116.3479218,
            39.9576468
          ],
          [
            116.3487656,
            39.9576468
          ],
          [
            116.3491172,
            39.9575749
          ],
          [
            116.3498438,
            39.9575749
          ]
        ]
      }
    },
    {
      "type": "Feature",
      "id": "V11-ALT-B-RETIRE-1",
      "properties": {
        "id": "V11-ALT-B-RETIRE-1",
        "layer": "ROAD_CENTERLINE",
        "source_type": "agent_generated_design",
        "confidence": "low",
        "geometry_role": "design_proposal",
        "status": "concept_proposal",
        "station": "dazhongsi",
        "evidence_level": "E1_concept_design",
        "dimension_basis": "prototype_design_assumption_pending_survey",
        "verification_scope": "geometry_based_design_audit",
        "field_status": "not_field_run",
        "alternative_id": "ALT-B",
        "component_role": "retirement_route"
      },
      "geometry": {
        "type": "LineString",
        "coordinates": [
          [
            116.3481562,
            39.9563891
          ],
          [
            116.3477812,
            39.9563891
          ]
        ]
      }
    },
    {
      "type": "Feature",
      "id": "V11-ALT-B-RETIRE-2",
      "properties": {
        "id": "V11-ALT-B-RETIRE-2",
        "layer": "ROAD_CENTERLINE",
        "source_type": "agent_generated_design",
        "confidence": "low",
        "geometry_role": "design_proposal",
        "status": "concept_proposal",
        "station": "dazhongsi",
        "evidence_level": "E1_concept_design",
        "dimension_basis": "prototype_design_assumption_pending_survey",
        "verification_scope": "geometry_based_design_audit",
        "field_status": "not_field_run",
        "alternative_id": "ALT-B",
        "component_role": "retirement_route"
      },
      "geometry": {
        "type": "LineString",
        "coordinates": [
          [
            116.3498438,
            39.9575929
          ],
          [
            116.3502188,
            39.9575929
          ]
        ]
      }
    },
    {
      "type": "Feature",
      "id": "V11-ALT-C-BASE-NS",
      "properties": {
        "id": "V11-ALT-C-BASE-NS",
        "layer": "ROAD_CENTERLINE",
        "source_type": "agent_generated_design",
        "confidence": "low",
        "geometry_role": "design_proposal",
        "status": "concept_proposal",
        "station": "dazhongsi",
        "evidence_level": "E1_concept_design",
        "dimension_basis": "prototype_design_assumption_pending_survey",
        "verification_scope": "geometry_based_design_audit",
        "field_status": "not_field_run",
        "alternative_id": "ALT-C",
        "component_role": "public_baseline_route"
      },
      "geometry": {
        "type": "LineString",
        "coordinates": [
          [
            116.349,
            39.9562634
          ],
          [
            116.349,
            39.9577366
          ]
        ]
      }
    },
    {
      "type": "Feature",
      "id": "V11-ALT-C-BASE-EW",
      "properties": {
        "id": "V11-ALT-C-BASE-EW",
        "layer": "ROAD_CENTERLINE",
        "source_type": "agent_generated_design",
        "confidence": "low",
        "geometry_role": "design_proposal",
        "status": "concept_proposal",
        "station": "dazhongsi",
        "evidence_level": "E1_concept_design",
        "dimension_basis": "prototype_design_assumption_pending_survey",
        "verification_scope": "geometry_based_design_audit",
        "field_status": "not_field_run",
        "alternative_id": "ALT-C",
        "component_role": "public_baseline_route"
      },
      "geometry": {
        "type": "LineString",
        "coordinates": [
          [
            116.3477812,
            39.957
          ],
          [
            116.3502188,
            39.957
          ]
        ]
      }
    },
    {
      "type": "Feature",
      "id": "V11-ALT-C-TRIAL-ROUTE-NS",
      "properties": {
        "id": "V11-ALT-C-TRIAL-ROUTE-NS",
        "layer": "ROAD_CENTERLINE",
        "source_type": "agent_generated_design",
        "confidence": "low",
        "geometry_role": "design_proposal",
        "status": "concept_proposal",
        "station": "dazhongsi",
        "evidence_level": "E1_concept_design",
        "dimension_basis": "prototype_design_assumption_pending_survey",
        "verification_scope": "geometry_based_design_audit",
        "field_status": "not_field_run",
        "alternative_id": "ALT-C",
        "component_role": "trial_state_public_route"
      },
      "geometry": {
        "type": "LineString",
        "coordinates": [
          [
            116.349,
            39.9562634
          ],
          [
            116.349,
            39.9577366
          ]
        ]
      }
    },
    {
      "type": "Feature",
      "id": "V11-ALT-C-TRIAL-ROUTE-EW",
      "properties": {
        "id": "V11-ALT-C-TRIAL-ROUTE-EW",
        "layer": "ROAD_CENTERLINE",
        "source_type": "agent_generated_design",
        "confidence": "low",
        "geometry_role": "design_proposal",
        "status": "concept_proposal",
        "station": "dazhongsi",
        "evidence_level": "E1_concept_design",
        "dimension_basis": "prototype_design_assumption_pending_survey",
        "verification_scope": "geometry_based_design_audit",
        "field_status": "not_field_run",
        "alternative_id": "ALT-C",
        "component_role": "trial_state_public_route"
      },
      "geometry": {
        "type": "LineString",
        "coordinates": [
          [
            116.3477812,
            39.957
          ],
          [
            116.3502188,
            39.957
          ]
        ]
      }
    },
    {
      "type": "Feature",
      "id": "V11-ALT-C-FIRE",
      "properties": {
        "id": "V11-ALT-C-FIRE",
        "layer": "ROAD_CENTERLINE",
        "source_type": "agent_generated_design",
        "confidence": "low",
        "geometry_role": "design_proposal",
        "status": "concept_proposal",
        "station": "dazhongsi",
        "evidence_level": "E1_concept_design",
        "dimension_basis": "prototype_design_assumption_pending_survey",
        "verification_scope": "geometry_based_design_audit",
        "field_status": "not_field_run",
        "alternative_id": "ALT-C",
        "component_role": "fire_route"
      },
      "geometry": {
        "type": "LineString",
        "coordinates": [
          [
            116.3479218,
            39.9576468
          ],
          [
            116.3486484,
            39.9576468
          ],
          [
            116.3488828,
            39.9575749
          ],
          [
            116.349961,
            39.9575749
          ]
        ]
      }
    },
    {
      "type": "Feature",
      "id": "V11-ALT-C-RETIRE-1",
      "properties": {
        "id": "V11-ALT-C-RETIRE-1",
        "layer": "ROAD_CENTERLINE",
        "source_type": "agent_generated_design",
        "confidence": "low",
        "geometry_role": "design_proposal",
        "status": "concept_proposal",
        "station": "dazhongsi",
        "evidence_level": "E1_concept_design",
        "dimension_basis": "prototype_design_assumption_pending_survey",
        "verification_scope": "geometry_based_design_audit",
        "field_status": "not_field_run",
        "alternative_id": "ALT-C",
        "component_role": "retirement_route"
      },
      "geometry": {
        "type": "LineString",
        "coordinates": [
          [
            116.3499844,
            39.9564071
          ],
          [
            116.3502188,
            39.9564071
          ]
        ]
      }
    }
  ]
}
