{
  "type": "FeatureCollection",
  "name": "building_footprints_participant",
  "features": [
    {
      "type": "Feature",
      "id": "BLDG-001",
      "properties": {
        "id": "BLDG-001",
        "layer": "BUILDING_FOOTPRINT",
        "source_type": "agent_generated_design",
        "confidence": "medium",
        "geometry_role": "design_proposal",
        "building_type": "ai_r_and_d",
        "name_zh": "AI研发/混合功能更新建筑基底（示意）",
        "retain_renovate": "renovate",
        "area_sqm_declared": 22534.879
      },
      "geometry": {
        "type": "Polygon",
        "coordinates": [
          [
            [
              116.34309999999999,
              39.9847
            ],
            [
              116.34309999999999,
              39.9865
            ],
            [
              116.34441999999999,
              39.9865
            ],
            [
              116.34441999999999,
              39.9847
            ],
            [
              116.34309999999999,
              39.9847
            ]
          ]
        ]
      }
    },
    {
      "type": "Feature",
      "id": "BLDG-002",
      "properties": {
        "id": "BLDG-002",
        "layer": "BUILDING_FOOTPRINT",
        "source_type": "agent_generated_design",
        "confidence": "medium",
        "geometry_role": "design_proposal",
        "building_type": "ai_r_and_d",
        "name_zh": "AI研发/混合功能更新建筑基底（示意）",
        "retain_renovate": "renovate",
        "area_sqm_declared": 22533.58
      },
      "geometry": {
        "type": "Polygon",
        "coordinates": [
          [
            [
              116.34309999999999,
              39.9887
            ],
            [
              116.34309999999999,
              39.990500000000004
            ],
            [
              116.34441999999999,
              39.990500000000004
            ],
            [
              116.34441999999999,
              39.9887
            ],
            [
              116.34309999999999,
              39.9887
            ]
          ]
        ]
      }
    },
    {
      "type": "Feature",
      "id": "BLDG-003",
      "properties": {
        "id": "BLDG-003",
        "layer": "BUILDING_FOOTPRINT",
        "source_type": "agent_generated_design",
        "confidence": "medium",
        "geometry_role": "design_proposal",
        "building_type": "ai_r_and_d",
        "name_zh": "AI研发/混合功能更新建筑基底（示意）",
        "retain_renovate": "renovate",
        "area_sqm_declared": 22534.862
      },
      "geometry": {
        "type": "Polygon",
        "coordinates": [
          [
            [
              116.34618,
              39.9847
            ],
            [
              116.34618,
              39.9865
            ],
            [
              116.3475,
              39.9865
            ],
            [
              116.3475,
              39.9847
            ],
            [
              116.34618,
              39.9847
            ]
          ]
        ]
      }
    },
    {
      "type": "Feature",
      "id": "BLDG-004",
      "properties": {
        "id": "BLDG-004",
        "layer": "BUILDING_FOOTPRINT",
        "source_type": "agent_generated_design",
        "confidence": "medium",
        "geometry_role": "design_proposal",
        "building_type": "ai_r_and_d",
        "name_zh": "AI研发/混合功能更新建筑基底（示意）",
        "retain_renovate": "renovate",
        "area_sqm_declared": 22533.564
      },
      "geometry": {
        "type": "Polygon",
        "coordinates": [
          [
            [
              116.34618,
              39.9887
            ],
            [
              116.34618,
              39.990500000000004
            ],
            [
              116.3475,
              39.990500000000004
            ],
            [
              116.3475,
              39.9887
            ],
            [
              116.34618,
              39.9887
            ]
          ]
        ]
      }
    },
    {
      "type": "Feature",
      "id": "BLDG-005",
      "properties": {
        "id": "BLDG-005",
        "layer": "BUILDING_FOOTPRINT",
        "source_type": "agent_generated_design",
        "confidence": "medium",
        "geometry_role": "design_proposal",
        "building_type": "mixed_use",
        "name_zh": "AI研发/混合功能更新建筑基底（示意）",
        "retain_renovate": "renovate",
        "area_sqm_declared": 22534.846
      },
      "geometry": {
        "type": "Polygon",
        "coordinates": [
          [
            [
              116.34926,
              39.9847
            ],
            [
              116.34926,
              39.9865
            ],
            [
              116.35058,
              39.9865
            ],
            [
              116.35058,
              39.9847
            ],
            [
              116.34926,
              39.9847
            ]
          ]
        ]
      }
    },
    {
      "type": "Feature",
      "id": "BLDG-006",
      "properties": {
        "id": "BLDG-006",
        "layer": "BUILDING_FOOTPRINT",
        "source_type": "agent_generated_design",
        "confidence": "medium",
        "geometry_role": "design_proposal",
        "building_type": "mixed_use",
        "name_zh": "AI研发/混合功能更新建筑基底（示意）",
        "retain_renovate": "renovate",
        "area_sqm_declared": 22533.547
      },
      "geometry": {
        "type": "Polygon",
        "coordinates": [
          [
            [
              116.34926,
              39.9887
            ],
            [
              116.34926,
              39.990500000000004
            ],
            [
              116.35058,
              39.990500000000004
            ],
            [
              116.35058,
              39.9887
            ],
            [
              116.34926,
              39.9887
            ]
          ]
        ]
      }
    },
    {
      "type": "Feature",
      "id": "BLDG-007",
      "properties": {
        "id": "BLDG-007",
        "layer": "BUILDING_FOOTPRINT",
        "source_type": "agent_generated_design",
        "confidence": "medium",
        "geometry_role": "design_proposal",
        "building_type": "ai_r_and_d",
        "name_zh": "AI研发/混合功能更新建筑基底（示意）",
        "retain_renovate": "renovate",
        "area_sqm_declared": 15562.207
      },
      "geometry": {
        "type": "Polygon",
        "coordinates": [
          [
            [
              116.3433,
              39.9447008
            ],
            [
              116.3433,
              39.945752
            ],
            [
              116.34486,
              39.945752
            ],
            [
              116.34486,
              39.9447008
            ],
            [
              116.3433,
              39.9447008
            ]
          ]
        ]
      }
    },
    {
      "type": "Feature",
      "id": "BLDG-008",
      "properties": {
        "id": "BLDG-008",
        "layer": "BUILDING_FOOTPRINT",
        "source_type": "agent_generated_design",
        "confidence": "medium",
        "geometry_role": "design_proposal",
        "building_type": "ai_r_and_d",
        "name_zh": "AI研发/混合功能更新建筑基底（示意）",
        "retain_renovate": "renovate",
        "area_sqm_declared": 15561.683
      },
      "geometry": {
        "type": "Polygon",
        "coordinates": [
          [
            [
              116.3433,
              39.9470368
            ],
            [
              116.3433,
              39.948088
            ],
            [
              116.34486,
              39.948088
            ],
            [
              116.34486,
              39.9470368
            ],
            [
              116.3433,
              39.9470368
            ]
          ]
        ]
      }
    },
    {
      "type": "Feature",
      "id": "BLDG-009",
      "properties": {
        "id": "BLDG-009",
        "layer": "BUILDING_FOOTPRINT",
        "source_type": "agent_generated_design",
        "confidence": "medium",
        "geometry_role": "design_proposal",
        "building_type": "ai_r_and_d",
        "name_zh": "AI研发/混合功能更新建筑基底（示意）",
        "retain_renovate": "renovate",
        "area_sqm_declared": 15562.193
      },
      "geometry": {
        "type": "Polygon",
        "coordinates": [
          [
            [
              116.34694,
              39.9447008
            ],
            [
              116.34694,
              39.945752
            ],
            [
              116.3485,
              39.945752
            ],
            [
              116.3485,
              39.9447008
            ],
            [
              116.34694,
              39.9447008
            ]
          ]
        ]
      }
    },
    {
      "type": "Feature",
      "id": "BLDG-010",
      "properties": {
        "id": "BLDG-010",
        "layer": "BUILDING_FOOTPRINT",
        "source_type": "agent_generated_design",
        "confidence": "medium",
        "geometry_role": "design_proposal",
        "building_type": "ai_r_and_d",
        "name_zh": "AI研发/混合功能更新建筑基底（示意）",
        "retain_renovate": "renovate",
        "area_sqm_declared": 15561.67
      },
      "geometry": {
        "type": "Polygon",
        "coordinates": [
          [
            [
              116.34694,
              39.9470368
            ],
            [
              116.34694,
              39.948088
            ],
            [
              116.3485,
              39.948088
            ],
            [
              116.3485,
              39.9470368
            ],
            [
              116.34694,
              39.9470368
            ]
          ]
        ]
      }
    },
    {
      "type": "Feature",
      "id": "BLDG-011",
      "properties": {
        "id": "BLDG-011",
        "layer": "BUILDING_FOOTPRINT",
        "source_type": "agent_generated_design",
        "confidence": "medium",
        "geometry_role": "design_proposal",
        "building_type": "mixed_use",
        "name_zh": "AI研发/混合功能更新建筑基底（示意）",
        "retain_renovate": "renovate",
        "area_sqm_declared": 15562.18
      },
      "geometry": {
        "type": "Polygon",
        "coordinates": [
          [
            [
              116.35058000000001,
              39.9447008
            ],
            [
              116.35058000000001,
              39.945752
            ],
            [
              116.35214,
              39.945752
            ],
            [
              116.35214,
              39.9447008
            ],
            [
              116.35058000000001,
              39.9447008
            ]
          ]
        ]
      }
    },
    {
      "type": "Feature",
      "id": "BLDG-012",
      "properties": {
        "id": "BLDG-012",
        "layer": "BUILDING_FOOTPRINT",
        "source_type": "agent_generated_design",
        "confidence": "medium",
        "geometry_role": "design_proposal",
        "building_type": "mixed_use",
        "name_zh": "AI研发/混合功能更新建筑基底（示意）",
        "retain_renovate": "renovate",
        "area_sqm_declared": 15561.657
      },
      "geometry": {
        "type": "Polygon",
        "coordinates": [
          [
            [
              116.35058000000001,
              39.9470368
            ],
            [
              116.35058000000001,
              39.948088
            ],
            [
              116.35214,
              39.948088
            ],
            [
              116.35214,
              39.9470368
            ],
            [
              116.35058000000001,
              39.9470368
            ]
          ]
        ]
      }
    },
    {
      "type": "Feature",
      "id": "BLDG-013",
      "properties": {
        "id": "BLDG-013",
        "layer": "BUILDING_FOOTPRINT",
        "source_type": "agent_generated_design",
        "confidence": "medium",
        "geometry_role": "design_proposal",
        "building_type": "ai_r_and_d",
        "name_zh": "AI研发/混合功能更新建筑基底（示意）",
        "retain_renovate": "renovate",
        "area_sqm_declared": 41674.022
      },
      "geometry": {
        "type": "Polygon",
        "coordinates": [
          [
            [
              116.3441,
              40.00972
            ],
            [
              116.3441,
              40.01305
            ],
            [
              116.34541999999999,
              40.01305
            ],
            [
              116.34541999999999,
              40.00972
            ],
            [
              116.3441,
              40.00972
            ]
          ]
        ]
      }
    },
    {
      "type": "Feature",
      "id": "BLDG-014",
      "properties": {
        "id": "BLDG-014",
        "layer": "BUILDING_FOOTPRINT",
        "source_type": "agent_generated_design",
        "confidence": "medium",
        "geometry_role": "design_proposal",
        "building_type": "ai_r_and_d",
        "name_zh": "AI研发/混合功能更新建筑基底（示意）",
        "retain_renovate": "renovate",
        "area_sqm_declared": 41669.574
      },
      "geometry": {
        "type": "Polygon",
        "coordinates": [
          [
            [
              116.3441,
              40.01712
            ],
            [
              116.3441,
              40.02045
            ],
            [
              116.34541999999999,
              40.02045
            ],
            [
              116.34541999999999,
              40.01712
            ],
            [
              116.3441,
              40.01712
            ]
          ]
        ]
      }
    },
    {
      "type": "Feature",
      "id": "BLDG-015",
      "properties": {
        "id": "BLDG-015",
        "layer": "BUILDING_FOOTPRINT",
        "source_type": "agent_generated_design",
        "confidence": "medium",
        "geometry_role": "design_proposal",
        "building_type": "ai_r_and_d",
        "name_zh": "AI研发/混合功能更新建筑基底（示意）",
        "retain_renovate": "renovate",
        "area_sqm_declared": 41673.992
      },
      "geometry": {
        "type": "Polygon",
        "coordinates": [
          [
            [
              116.34718000000001,
              40.00972
            ],
            [
              116.34718000000001,
              40.01305
            ],
            [
              116.3485,
              40.01305
            ],
            [
              116.3485,
              40.00972
            ],
            [
              116.34718000000001,
              40.00972
            ]
          ]
        ]
      }
    },
    {
      "type": "Feature",
      "id": "BLDG-016",
      "properties": {
        "id": "BLDG-016",
        "layer": "BUILDING_FOOTPRINT",
        "source_type": "agent_generated_design",
        "confidence": "medium",
        "geometry_role": "design_proposal",
        "building_type": "ai_r_and_d",
        "name_zh": "AI研发/混合功能更新建筑基底（示意）",
        "retain_renovate": "renovate",
        "area_sqm_declared": 41669.544
      },
      "geometry": {
        "type": "Polygon",
        "coordinates": [
          [
            [
              116.34718000000001,
              40.01712
            ],
            [
              116.34718000000001,
              40.02045
            ],
            [
              116.3485,
              40.02045
            ],
            [
              116.3485,
              40.01712
            ],
            [
              116.34718000000001,
              40.01712
            ]
          ]
        ]
      }
    },
    {
      "type": "Feature",
      "id": "BLDG-017",
      "properties": {
        "id": "BLDG-017",
        "layer": "BUILDING_FOOTPRINT",
        "source_type": "agent_generated_design",
        "confidence": "medium",
        "geometry_role": "design_proposal",
        "building_type": "mixed_use",
        "name_zh": "AI研发/混合功能更新建筑基底（示意）",
        "retain_renovate": "renovate",
        "area_sqm_declared": 41673.962
      },
      "geometry": {
        "type": "Polygon",
        "coordinates": [
          [
            [
              116.35026,
              40.00972
            ],
            [
              116.35026,
              40.01305
            ],
            [
              116.35158,
              40.01305
            ],
            [
              116.35158,
              40.00972
            ],
            [
              116.35026,
              40.00972
            ]
          ]
        ]
      }
    },
    {
      "type": "Feature",
      "id": "BLDG-018",
      "properties": {
        "id": "BLDG-018",
        "layer": "BUILDING_FOOTPRINT",
        "source_type": "agent_generated_design",
        "confidence": "medium",
        "geometry_role": "design_proposal",
        "building_type": "mixed_use",
        "name_zh": "AI研发/混合功能更新建筑基底（示意）",
        "retain_renovate": "renovate",
        "area_sqm_declared": 41669.514
      },
      "geometry": {
        "type": "Polygon",
        "coordinates": [
          [
            [
              116.35026,
              40.01712
            ],
            [
              116.35026,
              40.02045
            ],
            [
              116.35158,
              40.02045
            ],
            [
              116.35158,
              40.01712
            ],
            [
              116.35026,
              40.01712
            ]
          ]
        ]
      }
    }
  ]
}
