{
  "type": "FeatureCollection",
  "name": "constraints_participant",
  "features": [],
  "data_gap": {
    "status": "official_constraint_geometry_unavailable",
    "declared_by": "scripts/participant-generated-package",
    "assumption_ids": [
      "A-CONTROLS-001"
    ],
    "missing_layers": [
      "REGULATORY_CONTROL",
      "HERITAGE_PROTECTION",
      "PARCEL",
      "EXISTING_PRIMARY_ROAD",
      "EXISTING_RAIL",
      "EXISTING_WATER"
    ],
    "note_zh": "本图层刻意保持空集合。控规控制线、文物保护范围、道路红线、权属地块、轨道与蓝线等锁定图层目前无公开官方几何；缺口按假设 A-CONTROLS-001 登记，官方文件到位前不绘制推定控制线。",
    "note_en": "This layer is intentionally empty: locked control layers have no citable official geometry in the public site package. The gap is registered as assumption A-CONTROLS-001; inferred lines must not be presented as official constraints."
  }
}
