{
  "type": "FeatureCollection",
  "name": "public_space_participant",
  "features": [
    {
      "type": "Feature",
      "id": "PUBLIC-001",
      "properties": {
        "id": "PUBLIC-001",
        "layer": "PUBLIC_SPACE",
        "source_type": "agent_generated_design",
        "confidence": "medium",
        "geometry_role": "design_proposal",
        "name_zh": "AI公共活动广场与轨道接驳会客厅",
        "official_boundary": false,
        "area_sqm_declared": 186465.324
      },
      "geometry": {
        "type": "Polygon",
        "coordinates": [
          [
            [
              116.34594,
              39.96525
            ],
            [
              116.34594,
              39.97575
            ],
            [
              116.34781199999999,
              39.97575
            ],
            [
              116.34781199999999,
              39.96525
            ],
            [
              116.34594,
              39.96525
            ]
          ]
        ]
      }
    }
  ]
}
