{
  "type": "FeatureCollection",
  "name": "roads_participant",
  "features": [
    {
      "type": "Feature",
      "id": "ROAD-001",
      "properties": {
        "id": "ROAD-001",
        "layer": "ROAD_CENTERLINE",
        "source_type": "agent_generated_design",
        "confidence": "medium",
        "geometry_role": "design_proposal",
        "road_class": "greenway",
        "name_zh": "京张慢行绿轴"
      },
      "geometry": {
        "type": "LineString",
        "coordinates": [
          [
            116.3475,
            39.94075
          ],
          [
            116.3475,
            40.02475
          ]
        ]
      }
    },
    {
      "type": "Feature",
      "id": "ROAD-002",
      "properties": {
        "id": "ROAD-002",
        "layer": "ROAD_CENTERLINE",
        "source_type": "agent_generated_design",
        "confidence": "medium",
        "geometry_role": "design_proposal",
        "road_class": "secondary",
        "name_zh": "创新服务次干路（示意）"
      },
      "geometry": {
        "type": "LineString",
        "coordinates": [
          [
            116.34040833333333,
            39.9495
          ],
          [
            116.354832,
            39.9495
          ]
        ]
      }
    },
    {
      "type": "Feature",
      "id": "ROAD-003",
      "properties": {
        "id": "ROAD-003",
        "layer": "ROAD_CENTERLINE",
        "source_type": "agent_generated_design",
        "confidence": "medium",
        "geometry_role": "design_proposal",
        "road_class": "secondary",
        "name_zh": "创新服务次干路（示意）"
      },
      "geometry": {
        "type": "LineString",
        "coordinates": [
          [
            116.34016799999999,
            39.967
          ],
          [
            116.354832,
            39.967
          ]
        ]
      }
    },
    {
      "type": "Feature",
      "id": "ROAD-004",
      "properties": {
        "id": "ROAD-004",
        "layer": "ROAD_CENTERLINE",
        "source_type": "agent_generated_design",
        "confidence": "medium",
        "geometry_role": "design_proposal",
        "road_class": "secondary",
        "name_zh": "创新服务次干路（示意）"
      },
      "geometry": {
        "type": "LineString",
        "coordinates": [
          [
            116.34031290322581,
            39.9845
          ],
          [
            116.35374,
            39.9845
          ]
        ]
      }
    },
    {
      "type": "Feature",
      "id": "ROAD-005",
      "properties": {
        "id": "ROAD-005",
        "layer": "ROAD_CENTERLINE",
        "source_type": "agent_generated_design",
        "confidence": "medium",
        "geometry_role": "design_proposal",
        "road_class": "secondary",
        "name_zh": "创新服务次干路（示意）"
      },
      "geometry": {
        "type": "LineString",
        "coordinates": [
          [
            116.34144193548387,
            40.002
          ],
          [
            116.35395753424658,
            40.002
          ]
        ]
      }
    },
    {
      "type": "Feature",
      "id": "ROAD-006",
      "properties": {
        "id": "ROAD-006",
        "layer": "ROAD_CENTERLINE",
        "source_type": "agent_generated_design",
        "confidence": "medium",
        "geometry_role": "design_proposal",
        "road_class": "secondary",
        "name_zh": "创新服务次干路（示意）"
      },
      "geometry": {
        "type": "LineString",
        "coordinates": [
          [
            116.34218780487805,
            40.016
          ],
          [
            116.35472465753425,
            40.016
          ]
        ]
      }
    }
  ]
}
