{
  "type": "FeatureCollection",
  "name": "jingzhang_blue_green_design_proposals",
  "features": [
    {
      "type": "Feature",
      "id": "GREEN-001",
      "properties": {
        "id": "GREEN-001", "layer": "GREEN_SPACE", "source_type": "agent_generated_design", "confidence": "medium", "geometry_role": "design_proposal", "land_use_code": "1401",
        "name_zh": "京张公共知识与蓝绿慢行骨架", "name_en": "Jing-Zhang Public Knowledge and Blue-Green Mobility Spine", "status": "conceptual_reference_only", "area_sqm_declared": 1408600.768
      },
      "geometry": {"type": "Polygon", "coordinates": [[[116.34438, 39.953], [116.34438, 40.0125], [116.346876, 40.0125], [116.346876, 39.953], [116.34438, 39.953]]]}
    },
    {
      "type": "Feature",
      "id": "GREEN-002",
      "properties": {
        "id": "GREEN-002", "layer": "GREEN_SPACE", "source_type": "agent_generated_design", "confidence": "low", "geometry_role": "design_proposal", "land_use_code": "1401",
        "name_zh": "小月河低扰动观察与生态界面", "name_en": "Xiaoyue River Low-Disturbance Observation and Ecological Interface", "status": "pending_official_blue_line_and_ecological_review", "area_sqm_declared": 335599.319
      },
      "geometry": {"type": "Polygon", "coordinates": [[[116.3471, 40.013], [116.3530, 40.013], [116.3530, 40.019], [116.3471, 40.019], [116.3471, 40.013]]]}
    },
    {
      "type": "Feature",
      "id": "GREEN-003",
      "properties": {
        "id": "GREEN-003", "layer": "GREEN_SPACE", "source_type": "agent_generated_design", "confidence": "low", "geometry_role": "design_proposal", "land_use_code": "1403",
        "name_zh": "AI原点非消费性共创花园", "name_en": "AI Origin Non-Commercial Co-Creation Garden", "status": "conceptual_reference_only", "area_sqm_declared": 261763.160
      },
      "geometry": {"type": "Polygon", "coordinates": [[[116.3472, 39.984], [116.3518, 39.984], [116.3518, 39.990], [116.3472, 39.990], [116.3472, 39.984]]]}
    }
  ]
}
