{
  "type": "FeatureCollection",
  "name": "land_use_topology_partition",
  "features": [
    {
      "type": "Feature",
      "id": "LU-001",
      "properties": {
        "id": "LU-001",
        "layer": "LAND_USE",
        "source_type": "agent_generated_design",
        "confidence": "medium",
        "geometry_role": "design_proposal",
        "land_use_code": "0802",
        "name_zh": "科技研发与专业验证用地",
        "name_en": "Technology R&D and Professional Validation",
        "design_intent": "支撑众智园专业验证与中关村科技服务翼；仅为临时边界内的概念性功能分区，不是法定用地调整。",
        "status": "conceptual_reference_only",
        "area_sqm_declared": 2674562.492
      },
      "geometry": {
        "type": "Polygon",
        "coordinates": [
          [
            [
              116.3407,
              39.939
            ],
            [
              116.3397,
              39.975
            ],
            [
              116.3417,
              40.006
            ],
            [
              116.3427,
              40.0265
            ],
            [
              116.344068,
              40.0265
            ],
            [
              116.344068,
              39.939
            ],
            [
              116.3407,
              39.939
            ]
          ]
        ]
      }
    },
    {
      "type": "Feature",
      "id": "LU-002",
      "properties": {
        "id": "LU-002",
        "layer": "LAND_USE",
        "source_type": "agent_generated_design",
        "confidence": "medium",
        "geometry_role": "design_proposal",
        "land_use_code": "1401",
        "name_zh": "京张公共知识与蓝绿开放空间",
        "name_en": "Jing-Zhang Public Knowledge and Blue-Green Open Space",
        "design_intent": "承载京张公共知识线、日常慢行与非消费性停留，功能边界待官方绿地与蓝线数据校准。",
        "status": "conceptual_reference_only",
        "area_sqm_declared": 2589339.239
      },
      "geometry": {
        "type": "Polygon",
        "coordinates": [
          [
            [
              116.344068,
              39.939
            ],
            [
              116.344068,
              40.0265
            ],
            [
              116.347188,
              40.0265
            ],
            [
              116.347188,
              39.939
            ],
            [
              116.344068,
              39.939
            ]
          ]
        ]
      }
    },
    {
      "type": "Feature",
      "id": "LU-003",
      "properties": {
        "id": "LU-003",
        "layer": "LAND_USE",
        "source_type": "agent_generated_design",
        "confidence": "medium",
        "geometry_role": "design_proposal",
        "land_use_code": "05",
        "name_zh": "AI共创与产业服务混合用地",
        "name_en": "AI Co-Creation and Industry Services Mixed Use",
        "design_intent": "连接北京AI原点社区、大钟寺与中关村科技服务翼，优先复用既有载体，具体比例待权属和建筑调查。",
        "status": "conceptual_reference_only",
        "area_sqm_declared": 3366138.181
      },
      "geometry": {
        "type": "Polygon",
        "coordinates": [
          [
            [
              116.347188,
              39.939
            ],
            [
              116.347188,
              40.0265
            ],
            [
              116.351244,
              40.0265
            ],
            [
              116.351244,
              39.939
            ],
            [
              116.347188,
              39.939
            ]
          ]
        ]
      }
    },
    {
      "type": "Feature",
      "id": "LU-004",
      "properties": {
        "id": "LU-004",
        "layer": "LAND_USE",
        "source_type": "agent_generated_design",
        "confidence": "medium",
        "geometry_role": "design_proposal",
        "land_use_code": "0702",
        "name_zh": "社区生活与公共服务用地",
        "name_en": "Community Life and Public Services",
        "design_intent": "保障居民、访客与非参与者的基础服务和非数字路径，不以AI场景挤占日常公共服务。",
        "status": "conceptual_reference_only",
        "area_sqm_declared": 2782792.823
      },
      "geometry": {
        "type": "Polygon",
        "coordinates": [
          [
            [
              116.3553,
              40.0265
            ],
            [
              116.3533,
              39.99
            ],
            [
              116.3553,
              39.965
            ],
            [
              116.3553,
              39.939
            ],
            [
              116.351244,
              39.939
            ],
            [
              116.351244,
              40.0265
            ],
            [
              116.3553,
              40.0265
            ]
          ]
        ]
      }
    }
  ]
}
