{
  "type": "FeatureCollection",
  "name": "condition_triggered_phasing_reference_zones",
  "features": [
    {
      "type": "Feature", "id": "PHASE-001",
      "properties": {"id": "PHASE-001", "layer": "PHASE", "source_type": "agent_generated_design", "confidence": "low", "geometry_role": "design_proposal", "phase": "P1_reversible_prototypes", "name_zh": "P1 可逆样板优先区", "name_en": "P1 Reversible Prototype Priority Zone", "trigger": "问题、场地、责任、非数字替代和退出机制可说明", "area_sqm_declared": 1593341.900},
      "geometry": {"type": "Polygon", "coordinates": [[[116.3410, 39.9800], [116.3530, 39.9800], [116.3530, 39.9940], [116.3410, 39.9940], [116.3410, 39.9800]]]}
    },
    {
      "type": "Feature", "id": "PHASE-002",
      "properties": {"id": "PHASE-002", "layer": "PHASE", "source_type": "agent_generated_design", "confidence": "low", "geometry_role": "design_proposal", "phase": "P2_controlled_connections", "name_zh": "P2 受控连接优先区", "name_en": "P2 Controlled Connection Priority Zone", "trigger": "完成交通、无障碍、蓝线、生态、安全与人工接管核验", "area_sqm_declared": 2033497.724},
      "geometry": {"type": "Polygon", "coordinates": [[[116.3430, 40.0065], [116.3540, 40.0065], [116.3540, 40.0260], [116.3430, 40.0260], [116.3430, 40.0065]]]}
    },
    {
      "type": "Feature", "id": "PHASE-003",
      "properties": {"id": "PHASE-003", "layer": "PHASE", "source_type": "agent_generated_design", "confidence": "low", "geometry_role": "design_proposal", "phase": "P3_networked_operations", "name_zh": "P3 网络化运营候选区", "name_en": "P3 Networked Operations Candidate Zone", "trigger": "连续两个复盘周期证明公共价值、维护能力与投诉闭环", "area_sqm_declared": 1024859.004},
      "geometry": {"type": "Polygon", "coordinates": [[[116.3420, 39.9440], [116.3540, 39.9440], [116.3540, 39.9530], [116.3420, 39.9530], [116.3420, 39.9440]]]}
    }
  ]
}
