{
  "type": "FeatureCollection",
  "name": "jingzhang_civic_loop_walking_and_cycling_network",
  "features": [
    {
      "type": "Feature",
      "id": "ROAD-001",
      "properties": {
        "id": "ROAD-001",
        "layer": "ROAD_CENTERLINE",
        "source_type": "agent_generated_design",
        "confidence": "medium",
        "geometry_role": "design_proposal",
        "road_class": "greenway",
        "name_zh": "一线·京张公共知识与创新验证线",
        "name_en": "The Line: Jing-Zhang Public Knowledge and Innovation Validation Spine",
        "status": "conceptual_alignment_pending_field_audit"
      },
      "geometry": {"type": "LineString", "coordinates": [[116.3462, 40.0245], [116.3454, 40.015], [116.3475, 39.989], [116.3482, 39.947]]}
    },
    {
      "type": "Feature",
      "id": "ROAD-002",
      "properties": {
        "id": "ROAD-002",
        "layer": "ROAD_CENTERLINE",
        "source_type": "agent_generated_design",
        "confidence": "medium",
        "geometry_role": "design_proposal",
        "road_class": "pedestrian",
        "name_zh": "中关村科技服务翼",
        "name_en": "Zhongguancun Technology Services Wing",
        "status": "conceptual_alignment_pending_field_audit"
      },
      "geometry": {"type": "LineString", "coordinates": [[116.3408, 39.9885], [116.3475, 39.989], [116.3526, 39.9885]]}
    },
    {
      "type": "Feature",
      "id": "ROAD-003",
      "properties": {
        "id": "ROAD-003",
        "layer": "ROAD_CENTERLINE",
        "source_type": "agent_generated_design",
        "confidence": "medium",
        "geometry_role": "design_proposal",
        "road_class": "greenway",
        "name_zh": "小月河场景赋能翼",
        "name_en": "Xiaoyue River Scenario Enablement Wing",
        "status": "conceptual_alignment_pending_blue_line_review"
      },
      "geometry": {"type": "LineString", "coordinates": [[116.3425, 40.0135], [116.3470, 40.014], [116.3535, 40.0135]]}
    },
    {
      "type": "Feature",
      "id": "ROAD-004",
      "properties": {
        "id": "ROAD-004",
        "layer": "ROAD_CENTERLINE",
        "source_type": "agent_generated_design",
        "confidence": "medium",
        "geometry_role": "design_proposal",
        "road_class": "transit_connection",
        "name_zh": "众智园·问真门户联系",
        "name_en": "Zhongzhiyuan · Inquiry into Truth Gateway Link",
        "status": "conceptual_alignment_pending_field_audit"
      },
      "geometry": {"type": "LineString", "coordinates": [[116.3440, 40.017], [116.3470, 40.017], [116.3530, 40.017]]}
    },
    {
      "type": "Feature",
      "id": "ROAD-005",
      "properties": {
        "id": "ROAD-005",
        "layer": "ROAD_CENTERLINE",
        "source_type": "agent_generated_design",
        "confidence": "medium",
        "geometry_role": "design_proposal",
        "road_class": "transit_connection",
        "name_zh": "AI原点·问源门户联系",
        "name_en": "AI Origin · Inquiry into Origins Gateway Link",
        "status": "conceptual_alignment_pending_field_audit"
      },
      "geometry": {"type": "LineString", "coordinates": [[116.3410, 39.9885], [116.3475, 39.989], [116.3530, 39.9885]]}
    },
    {
      "type": "Feature",
      "id": "ROAD-006",
      "properties": {
        "id": "ROAD-006",
        "layer": "ROAD_CENTERLINE",
        "source_type": "agent_generated_design",
        "confidence": "medium",
        "geometry_role": "design_proposal",
        "road_class": "transit_connection",
        "name_zh": "大钟寺·问城站城界面",
        "name_en": "Dazhongsi · Inquiry into the City Station Interface",
        "status": "ground_level_connection_first_no_grade_separation_commitment"
      },
      "geometry": {"type": "LineString", "coordinates": [[116.3420, 39.947], [116.3482, 39.947], [116.3540, 39.947]]}
    }
  ]
}
