{
  "type": "FeatureCollection",
  "name": "reversible_interface_footprint_prototypes",
  "note": "Nine small interface prototypes only; not existing-building survey, construction commitment or total development quantum.",
  "features": [
    {
      "type": "Feature",
      "id": "BLDG-001",
      "properties": {
        "id": "BLDG-001",
        "source_type": "agent_generated_design",
        "confidence": "low",
        "geometry_role": "design_proposal",
        "layer": "BUILDING_FOOTPRINT",
        "building_type": "retail",
        "name_zh": "大钟寺结案交付台",
        "name_en": "Dazhongsi closure and delivery desk",
        "prototype_type": "reversible_interface_only",
        "existing_building": false,
        "retain_renovate_demolish": "not_assessed",
        "area_sqm_declared": 240.0
      },
      "geometry": {
        "type": "Polygon",
        "coordinates": [
          [
            [
              116.34804661015092,
              39.94771514486293
            ],
            [
              116.34807479942657,
              39.94782101582615
            ],
            [
              116.34830405664809,
              39.94778485499498
            ],
            [
              116.34827586703234,
              39.94767898408413
            ],
            [
              116.34804661015092,
              39.94771514486293
            ]
          ]
        ]
      }
    },
    {
      "type": "Feature",
      "id": "BLDG-002",
      "properties": {
        "id": "BLDG-002",
        "source_type": "agent_generated_design",
        "confidence": "low",
        "geometry_role": "design_proposal",
        "layer": "BUILDING_FOOTPRINT",
        "building_type": "cultural",
        "name_zh": "京张史实回执台",
        "name_en": "Jingzhang heritage receipt desk",
        "prototype_type": "reversible_interface_only",
        "existing_building": false,
        "retain_renovate_demolish": "not_assessed",
        "area_sqm_declared": 240.0
      },
      "geometry": {
        "type": "Polygon",
        "coordinates": [
          [
            [
              116.34749920828455,
              39.96521000676515
            ],
            [
              116.3475201640026,
              39.965316867949205
            ],
            [
              116.34775162519743,
              39.965289993098324
            ],
            [
              116.34773066912604,
              39.96518313195279
            ],
            [
              116.34749920828455,
              39.96521000676515
            ]
          ]
        ]
      }
    },
    {
      "type": "Feature",
      "id": "BLDG-003",
      "properties": {
        "id": "BLDG-003",
        "source_type": "agent_generated_design",
        "confidence": "low",
        "geometry_role": "design_proposal",
        "layer": "BUILDING_FOOTPRINT",
        "building_type": "community_service",
        "name_zh": "专业服务人工转介窗",
        "name_en": "Professional human-referral window",
        "prototype_type": "reversible_interface_only",
        "existing_building": false,
        "retain_renovate_demolish": "not_assessed",
        "area_sqm_declared": 240.0
      },
      "geometry": {
        "type": "Polygon",
        "coordinates": [
          [
            [
              116.34414362657915,
              39.980954975391946
            ],
            [
              116.34415728286179,
              39.98106253411865
            ],
            [
              116.34439030906806,
              39.981045024477766
            ],
            [
              116.34437665242277,
              39.98093746577527
            ],
            [
              116.34414362657915,
              39.980954975391946
            ]
          ]
        ]
      }
    },
    {
      "type": "Feature",
      "id": "BLDG-004",
      "properties": {
        "id": "BLDG-004",
        "source_type": "agent_generated_design",
        "confidence": "low",
        "geometry_role": "design_proposal",
        "layer": "BUILDING_FOOTPRINT",
        "building_type": "community_service",
        "name_zh": "多语人才服务桌",
        "name_en": "Multilingual talent-service table",
        "prototype_type": "reversible_interface_only",
        "existing_building": false,
        "retain_renovate_demolish": "not_assessed",
        "area_sqm_declared": 240.0
      },
      "geometry": {
        "type": "Polygon",
        "coordinates": [
          [
            [
              116.34507025228542,
              39.987950072107495
            ],
            [
              116.345076574415,
              39.98805803308799
            ],
            [
              116.34531049627779,
              39.98804992776896
            ],
            [
              116.34530417378036,
              39.987941966798125
            ],
            [
              116.34507025228542,
              39.987950072107495
            ]
          ]
        ]
      }
    },
    {
      "type": "Feature",
      "id": "BLDG-005",
      "properties": {
        "id": "BLDG-005",
        "source_type": "agent_generated_design",
        "confidence": "low",
        "geometry_role": "design_proposal",
        "layer": "BUILDING_FOOTPRINT",
        "building_type": "incubator",
        "name_zh": "原点拆题诊所",
        "name_en": "Origin problem-framing clinic",
        "prototype_type": "reversible_interface_only",
        "existing_building": false,
        "retain_renovate_demolish": "not_assessed",
        "area_sqm_declared": 240.0
      },
      "geometry": {
        "type": "Polygon",
        "coordinates": [
          [
            [
              116.34665206592835,
              39.99057030630751
            ],
            [
              116.34665103627532,
              39.99067837382849
            ],
            [
              116.34688519806771,
              39.990679693576205
            ],
            [
              116.34688622735176,
              39.990571626050205
            ],
            [
              116.34665206592835,
              39.99057030630751
            ]
          ]
        ]
      }
    },
    {
      "type": "Feature",
      "id": "BLDG-006",
      "properties": {
        "id": "BLDG-006",
        "source_type": "agent_generated_design",
        "confidence": "low",
        "geometry_role": "design_proposal",
        "layer": "BUILDING_FOOTPRINT",
        "building_type": "incubator",
        "name_zh": "开源首用诊所",
        "name_en": "Open-source first-use clinic",
        "prototype_type": "reversible_interface_only",
        "existing_building": false,
        "retain_renovate_demolish": "not_assessed",
        "area_sqm_declared": 240.0
      },
      "geometry": {
        "type": "Polygon",
        "coordinates": [
          [
            [
              116.34857713954122,
              39.993190690653904
            ],
            [
              116.34856876090146,
              39.99329856873462
            ],
            [
              116.34880252128201,
              39.993309309237475
            ],
            [
              116.34881089955576,
              39.99320143113711
            ],
            [
              116.34857713954122,
              39.993190690653904
            ]
          ]
        ]
      }
    },
    {
      "type": "Feature",
      "id": "BLDG-007",
      "properties": {
        "id": "BLDG-007",
        "source_type": "agent_generated_design",
        "confidence": "low",
        "geometry_role": "design_proposal",
        "layer": "BUILDING_FOOTPRINT",
        "building_type": "lab",
        "name_zh": "模型可复现答题棚",
        "name_en": "Model reproducibility test bay",
        "prototype_type": "reversible_interface_only",
        "existing_building": false,
        "retain_renovate_demolish": "not_assessed",
        "area_sqm_declared": 240.0
      },
      "geometry": {
        "type": "Polygon",
        "coordinates": [
          [
            [
              116.34625285909073,
              40.0141862334547
            ],
            [
              116.34623714259382,
              40.01429362564526
            ],
            [
              116.3464699222679,
              40.01431376644456
            ],
            [
              116.3464856384054,
              40.01420637421992
            ],
            [
              116.34625285909073,
              40.0141862334547
            ]
          ]
        ]
      }
    },
    {
      "type": "Feature",
      "id": "BLDG-008",
      "properties": {
        "id": "BLDG-008",
        "source_type": "agent_generated_design",
        "confidence": "low",
        "geometry_role": "design_proposal",
        "layer": "BUILDING_FOOTPRINT",
        "building_type": "lab",
        "name_zh": "具身智能接管测试仓",
        "name_en": "Embodied-AI takeover test bay",
        "prototype_type": "reversible_interface_only",
        "existing_building": false,
        "retain_renovate_demolish": "not_assessed",
        "area_sqm_declared": 240.0
      },
      "geometry": {
        "type": "Polygon",
        "coordinates": [
          [
            [
              116.34848812209135,
              40.01855695532958
            ],
            [
              116.34846511940029,
              40.01866356826224
            ],
            [
              116.34869622492496,
              40.01869304457785
            ],
            [
              116.34871922726747,
              40.01858643159705
            ],
            [
              116.34848812209135,
              40.01855695532958
            ]
          ]
        ]
      }
    },
    {
      "type": "Feature",
      "id": "BLDG-009",
      "properties": {
        "id": "BLDG-009",
        "source_type": "agent_generated_design",
        "confidence": "low",
        "geometry_role": "design_proposal",
        "layer": "BUILDING_FOOTPRINT",
        "building_type": "lab",
        "name_zh": "端侧连续性测试仓",
        "name_en": "Edge-continuity test bay",
        "prototype_type": "reversible_interface_only",
        "existing_building": false,
        "retain_renovate_demolish": "not_assessed",
        "area_sqm_declared": 240.0
      },
      "geometry": {
        "type": "Polygon",
        "coordinates": [
          [
            [
              116.35073209025198,
              40.02292786354822
            ],
            [
              116.35070186344127,
              40.023033405279655
            ],
            [
              116.35093066171133,
              40.02307213636746
            ],
            [
              116.35096088818818,
              40.02296659457437
            ],
            [
              116.35073209025198,
              40.02292786354822
            ]
          ]
        ]
      }
    }
  ]
}
