{
  "type": "FeatureCollection",
  "name": "conceptual_scene_nodes_and_data_constraints",
  "note": "Point locations communicate relationships only; they are not approved sites or facility locations.",
  "features": [
    {
      "type": "Feature",
      "id": "SC-01",
      "properties": {
        "id": "SC-01",
        "source_type": "agent_generated_design",
        "confidence": "low",
        "geometry_role": "design_proposal",
        "layer": "SCENARIO_NODE",
        "name_zh": "无障碍慢行断点接单",
        "name_en": "Accessible route-break intake",
        "place_role": "public_intake_spine",
        "run_status": "not_authorized_not_run",
        "location_precision": "conceptual_within_provisional_site"
      },
      "geometry": {
        "type": "Point",
        "coordinates": [
          116.3465598,
          39.974
        ]
      }
    },
    {
      "type": "Feature",
      "id": "SC-02",
      "properties": {
        "id": "SC-02",
        "source_type": "agent_generated_design",
        "confidence": "low",
        "geometry_role": "design_proposal",
        "layer": "SCENARIO_NODE",
        "name_zh": "公园设施维护分诊",
        "name_en": "Park-facility maintenance triage",
        "place_role": "public_intake_spine",
        "run_status": "not_authorized_not_run",
        "location_precision": "conceptual_within_provisional_site"
      },
      "geometry": {
        "type": "Point",
        "coordinates": [
          116.34810061935484,
          39.9845
        ]
      }
    },
    {
      "type": "Feature",
      "id": "SC-03",
      "properties": {
        "id": "SC-03",
        "source_type": "agent_generated_design",
        "confidence": "low",
        "geometry_role": "design_proposal",
        "layer": "SCENARIO_NODE",
        "name_zh": "多语人才服务转介",
        "name_en": "Multilingual talent-service referral",
        "place_role": "origin_problem_framing_station",
        "run_status": "not_authorized_not_run",
        "location_precision": "conceptual_within_provisional_site"
      },
      "geometry": {
        "type": "Point",
        "coordinates": [
          116.34519037419355,
          39.988
        ]
      }
    },
    {
      "type": "Feature",
      "id": "SC-04",
      "properties": {
        "id": "SC-04",
        "source_type": "agent_generated_design",
        "confidence": "low",
        "geometry_role": "design_proposal",
        "layer": "SCENARIO_NODE",
        "name_zh": "高校成果拆题诊所",
        "name_en": "Research-to-scene framing clinic",
        "place_role": "origin_problem_framing_station",
        "run_status": "not_authorized_not_run",
        "location_precision": "conceptual_within_provisional_site"
      },
      "geometry": {
        "type": "Point",
        "coordinates": [
          116.34676863190455,
          39.990625
        ]
      }
    },
    {
      "type": "Feature",
      "id": "SC-05",
      "properties": {
        "id": "SC-05",
        "source_type": "agent_generated_design",
        "confidence": "low",
        "geometry_role": "design_proposal",
        "layer": "SCENARIO_NODE",
        "name_zh": "开源项目首个城市用户日",
        "name_en": "First-city-user day for open source",
        "place_role": "origin_problem_framing_station",
        "run_status": "not_authorized_not_run",
        "location_precision": "conceptual_within_provisional_site"
      },
      "geometry": {
        "type": "Point",
        "coordinates": [
          116.34868983031375,
          39.993249999999996
        ]
      }
    },
    {
      "type": "Feature",
      "id": "SC-06",
      "properties": {
        "id": "SC-06",
        "source_type": "agent_generated_design",
        "confidence": "low",
        "geometry_role": "design_proposal",
        "layer": "SCENARIO_NODE",
        "name_zh": "居民生活服务接单桌",
        "name_en": "Neighbourhood service intake table",
        "place_role": "xiaoyuehe_problem_finding_wing",
        "run_status": "not_authorized_not_run",
        "location_precision": "conceptual_within_provisional_site"
      },
      "geometry": {
        "type": "Point",
        "coordinates": [
          116.35095379054353,
          40.002
        ]
      }
    },
    {
      "type": "Feature",
      "id": "SC-07",
      "properties": {
        "id": "SC-07",
        "source_type": "agent_generated_design",
        "confidence": "low",
        "geometry_role": "design_proposal",
        "layer": "SCENARIO_NODE",
        "name_zh": "模型服务可复现验证",
        "name_en": "Reproducible model-service validation",
        "place_role": "zhongzhiyuan_answer_station",
        "run_status": "not_authorized_not_run",
        "location_precision": "conceptual_within_provisional_site"
      },
      "geometry": {
        "type": "Point",
        "coordinates": [
          116.34636139057801,
          40.01425
        ]
      }
    },
    {
      "type": "Feature",
      "id": "SC-08",
      "properties": {
        "id": "SC-08",
        "source_type": "agent_generated_design",
        "confidence": "low",
        "geometry_role": "design_proposal",
        "layer": "SCENARIO_NODE",
        "name_zh": "具身智能接管演练",
        "name_en": "Embodied-AI takeover drill",
        "place_role": "zhongzhiyuan_answer_station",
        "run_status": "not_authorized_not_run",
        "location_precision": "conceptual_within_provisional_site"
      },
      "geometry": {
        "type": "Point",
        "coordinates": [
          116.34859217340461,
          40.018625
        ]
      }
    },
    {
      "type": "Feature",
      "id": "SC-09",
      "properties": {
        "id": "SC-09",
        "source_type": "agent_generated_design",
        "confidence": "low",
        "geometry_role": "design_proposal",
        "layer": "SCENARIO_NODE",
        "name_zh": "端侧 AI 断网连续性",
        "name_en": "Edge-AI offline-continuity test",
        "place_role": "zhongzhiyuan_answer_station",
        "run_status": "not_authorized_not_run",
        "location_precision": "conceptual_within_provisional_site"
      },
      "geometry": {
        "type": "Point",
        "coordinates": [
          116.35083137587704,
          40.022999999999996
        ]
      }
    },
    {
      "type": "Feature",
      "id": "SC-10",
      "properties": {
        "id": "SC-10",
        "source_type": "agent_generated_design",
        "confidence": "low",
        "geometry_role": "design_proposal",
        "layer": "SCENARIO_NODE",
        "name_zh": "AI 医疗、教育、法律边界说明",
        "name_en": "AI health, education and legal boundary desk",
        "place_role": "professional_referral",
        "run_status": "not_authorized_not_run",
        "location_precision": "conceptual_within_provisional_site"
      },
      "geometry": {
        "type": "Point",
        "coordinates": [
          116.34426696774193,
          39.981
        ]
      }
    },
    {
      "type": "Feature",
      "id": "SC-11",
      "properties": {
        "id": "SC-11",
        "source_type": "agent_generated_design",
        "confidence": "low",
        "geometry_role": "design_proposal",
        "layer": "SCENARIO_NODE",
        "name_zh": "京张史实可追踪导览",
        "name_en": "Traceable Jing-Zhang heritage guide",
        "place_role": "public_intake_spine",
        "run_status": "not_authorized_not_run",
        "location_precision": "conceptual_within_provisional_site"
      },
      "geometry": {
        "type": "Point",
        "coordinates": [
          116.34762541666666,
          39.96525
        ]
      }
    },
    {
      "type": "Feature",
      "id": "SC-12",
      "properties": {
        "id": "SC-12",
        "source_type": "agent_generated_design",
        "confidence": "low",
        "geometry_role": "design_proposal",
        "layer": "SCENARIO_NODE",
        "name_zh": "为什么没做：结案展",
        "name_en": "Why it did not proceed: closure exhibition",
        "place_role": "dazhongsi_delivery_station",
        "run_status": "not_authorized_not_run",
        "location_precision": "conceptual_within_provisional_site"
      },
      "geometry": {
        "type": "Point",
        "coordinates": [
          116.34817533333333,
          39.94775
        ]
      }
    }
  ]
}
