{
  "type": "FeatureCollection",
  "name": "conceptual_green_intake_spine",
  "note": "Conceptual overlap-compatible green interface; not a statutory green-space control.",
  "features": [
    {
      "type": "Feature",
      "id": "GREEN-001",
      "properties": {
        "id": "GREEN-001",
        "source_type": "agent_generated_design",
        "confidence": "low",
        "geometry_role": "design_proposal",
        "layer": "GREEN_SPACE",
        "name_zh": "低扰动公共接单绿脊",
        "name_en": "Low-disturbance public-intake green spine",
        "statutory_status": "conceptual_not_a_green_control_line",
        "area_sqm_declared": 1530280.978
      },
      "geometry": {
        "type": "Polygon",
        "coordinates": [
          [
            [
              116.34643004104306,
              39.969610582559675
            ],
            [
              116.34606621888904,
              39.98450248037185
            ],
            [
              116.34653126935827,
              39.99852530418408
            ],
            [
              116.34731540197265,
              40.012530574018776
            ],
            [
              116.34794956534444,
              40.02477937897349
            ],
            [
              116.34986917767478,
              40.02472061306957
            ],
            [
              116.3492345471614,
              40.01246941802844
            ],
            [
              116.34845061249783,
              39.99847468786341
            ],
            [
              116.34798668437531,
              39.98449751167224
            ],
            [
              116.34834926502351,
              39.96963940949919
            ],
            [
              116.34874073295254,
              39.9547614213014
            ],
            [
              116.34893503086447,
              39.94075788828762
            ],
            [
              116.34701635835273,
              39.94074210377577
            ],
            [
              116.34682176747465,
              39.95473857075966
            ],
            [
              116.34643004104306,
              39.969610582559675
            ]
          ]
        ]
      }
    }
  ]
}
