{
  "type": "FeatureCollection",
  "name": "call_relationship_land_use_partition",
  "note": "Topology-complete conceptual partition; names do not reclassify statutory land use.",
  "features": [
    {
      "type": "Feature",
      "id": "LU-001",
      "properties": {
        "id": "LU-001",
        "source_type": "agent_generated_design",
        "confidence": "low",
        "geometry_role": "design_proposal",
        "layer": "LAND_USE",
        "land_use_code": "05",
        "name_zh": "交付与企业服务关系区",
        "name_en": "Delivery and enterprise-service relationship zone",
        "functional_role": "delivery_and_market_service",
        "statutory_status": "conceptual_relationship_only",
        "area_sqm_declared": 1965542.763
      },
      "geometry": {
        "type": "Polygon",
        "coordinates": [
          [
            [
              116.3407,
              39.939
            ],
            [
              116.3403111111111,
              39.953
            ],
            [
              116.3553,
              39.953
            ],
            [
              116.3553,
              39.939
            ],
            [
              116.3407,
              39.939
            ]
          ]
        ]
      }
    },
    {
      "type": "Feature",
      "id": "LU-002",
      "properties": {
        "id": "LU-002",
        "source_type": "agent_generated_design",
        "confidence": "low",
        "geometry_role": "design_proposal",
        "layer": "LAND_USE",
        "land_use_code": "0702",
        "name_zh": "社区与人才服务关系区",
        "name_en": "Community and talent-service relationship zone",
        "functional_role": "community_and_talent_service",
        "statutory_status": "conceptual_relationship_only",
        "area_sqm_declared": 2267168.155
      },
      "geometry": {
        "type": "Polygon",
        "coordinates": [
          [
            [
              116.3553,
              39.965
            ],
            [
              116.3553,
              39.953
            ],
            [
              116.3403111111111,
              39.953
            ],
            [
              116.3398736111111,
              39.96875
            ],
            [
              116.355,
              39.96875
            ],
            [
              116.3553,
              39.965
            ]
          ]
        ]
      }
    },
    {
      "type": "Feature",
      "id": "LU-003",
      "properties": {
        "id": "LU-003",
        "source_type": "agent_generated_design",
        "confidence": "low",
        "geometry_role": "design_proposal",
        "layer": "LAND_USE",
        "land_use_code": "0804",
        "name_zh": "近校拆题与成果转化关系区",
        "name_en": "Near-campus framing and transfer relationship zone",
        "functional_role": "near_campus_framing",
        "statutory_status": "conceptual_relationship_only",
        "area_sqm_declared": 2269822.411
      },
      "geometry": {
        "type": "Polygon",
        "coordinates": [
          [
            [
              116.355,
              39.96875
            ],
            [
              116.3398736111111,
              39.96875
            ],
            [
              116.3397,
              39.975
            ],
            [
              116.3403693548387,
              39.985375
            ],
            [
              116.35367000000001,
              39.985375
            ],
            [
              116.355,
              39.96875
            ]
          ]
        ]
      }
    },
    {
      "type": "Feature",
      "id": "LU-004",
      "properties": {
        "id": "LU-004",
        "source_type": "agent_generated_design",
        "confidence": "low",
        "geometry_role": "design_proposal",
        "layer": "LAND_USE",
        "land_use_code": "0802",
        "name_zh": "研发与受控验证关系区",
        "name_en": "R&D and controlled-validation relationship zone",
        "functional_role": "research_and_validation",
        "statutory_status": "conceptual_relationship_only",
        "area_sqm_declared": 1791790.787
      },
      "geometry": {
        "type": "Polygon",
        "coordinates": [
          [
            [
              116.3533,
              39.99
            ],
            [
              116.35367000000001,
              39.985375
            ],
            [
              116.3403693548387,
              39.985375
            ],
            [
              116.34132903225806,
              40.00025
            ],
            [
              116.35386164383561,
              40.00025
            ],
            [
              116.3533,
              39.99
            ]
          ]
        ]
      }
    },
    {
      "type": "Feature",
      "id": "LU-005",
      "properties": {
        "id": "LU-005",
        "source_type": "agent_generated_design",
        "confidence": "low",
        "geometry_role": "design_proposal",
        "layer": "LAND_USE",
        "land_use_code": "1401",
        "name_zh": "公共接单与遗址开放空间关系区",
        "name_en": "Public-intake and heritage-open-space relationship zone",
        "functional_role": "public_intake_open_space",
        "statutory_status": "conceptual_relationship_only",
        "area_sqm_declared": 1659617.139
      },
      "geometry": {
        "type": "Polygon",
        "coordinates": [
          [
            [
              116.35386164383561,
              40.00025
            ],
            [
              116.34132903225806,
              40.00025
            ],
            [
              116.3417,
              40.006
            ],
            [
              116.34210243902439,
              40.01425
            ],
            [
              116.35462876712329,
              40.01425
            ],
            [
              116.35386164383561,
              40.00025
            ]
          ]
        ]
      }
    },
    {
      "type": "Feature",
      "id": "LU-006",
      "properties": {
        "id": "LU-006",
        "source_type": "agent_generated_design",
        "confidence": "low",
        "geometry_role": "design_proposal",
        "layer": "LAND_USE",
        "land_use_code": "1207",
        "name_zh": "慢行与服务接口关系区",
        "name_en": "Walking and service-interface relationship zone",
        "functional_role": "walking_service_interface",
        "statutory_status": "conceptual_relationship_only",
        "area_sqm_declared": 1458900.295
      },
      "geometry": {
        "type": "Polygon",
        "coordinates": [
          [
            [
              116.35462876712329,
              40.01425
            ],
            [
              116.34210243902439,
              40.01425
            ],
            [
              116.3427,
              40.0265
            ],
            [
              116.3553,
              40.0265
            ],
            [
              116.35462876712329,
              40.01425
            ]
          ]
        ]
      }
    }
  ]
}
