{
  "type": "FeatureCollection",
  "name": "conceptual_evidence_gated_phases",
  "note": "Spatial partition visualises sequencing only; phase timing is not an implementation commitment.",
  "features": [
    {
      "type": "Feature",
      "id": "PHASE-001",
      "properties": {
        "id": "PHASE-001",
        "source_type": "agent_generated_design",
        "confidence": "low",
        "geometry_role": "design_proposal",
        "layer": "PHASE",
        "name_zh": "0—90 天：人工接三单，不建设",
        "name_en": "0-90 days: manually complete three orders, no construction",
        "phase_type": "manual_first",
        "status": "conceptual_not_committed",
        "area_sqm_declared": 4148906.046
      },
      "geometry": {
        "type": "Polygon",
        "coordinates": [
          [
            [
              116.3407,
              39.939
            ],
            [
              116.33988981481481,
              39.96816666666667
            ],
            [
              116.35504666666667,
              39.96816666666667
            ],
            [
              116.3553,
              39.965
            ],
            [
              116.3553,
              39.939
            ],
            [
              116.3407,
              39.939
            ]
          ]
        ]
      }
    },
    {
      "type": "Feature",
      "id": "PHASE-002",
      "properties": {
        "id": "PHASE-002",
        "source_type": "agent_generated_design",
        "confidence": "low",
        "geometry_role": "design_proposal",
        "layer": "PHASE",
        "name_zh": "3—12 个月：三站各一处可逆试点",
        "name_en": "3-12 months: one reversible pilot at each station",
        "phase_type": "reversible_pilots",
        "status": "conceptual_not_committed",
        "area_sqm_declared": 3798414.209
      },
      "geometry": {
        "type": "Polygon",
        "coordinates": [
          [
            [
              116.3533,
              39.99
            ],
            [
              116.35504666666667,
              39.96816666666667
            ],
            [
              116.33988981481481,
              39.96816666666667
            ],
            [
              116.3397,
              39.975
            ],
            [
              116.34114086021505,
              39.99733333333333
            ],
            [
              116.35370182648403,
              39.99733333333333
            ],
            [
              116.3533,
              39.99
            ]
          ]
        ]
      }
    },
    {
      "type": "Feature",
      "id": "PHASE-003",
      "properties": {
        "id": "PHASE-003",
        "source_type": "agent_generated_design",
        "confidence": "low",
        "geometry_role": "design_proposal",
        "layer": "PHASE",
        "name_zh": "1—3 年：只复制被证明的接口",
        "name_en": "1-3 years: scale only proven interfaces",
        "phase_type": "evidence_gated_scaling",
        "status": "conceptual_not_committed",
        "area_sqm_declared": 3465514.007
      },
      "geometry": {
        "type": "Polygon",
        "coordinates": [
          [
            [
              116.35370182648403,
              39.99733333333333
            ],
            [
              116.34114086021505,
              39.99733333333333
            ],
            [
              116.3417,
              40.006
            ],
            [
              116.3427,
              40.0265
            ],
            [
              116.3553,
              40.0265
            ],
            [
              116.35370182648403,
              39.99733333333333
            ]
          ]
        ]
      }
    }
  ]
}
