{
  "type": "FeatureCollection",
  "name": "twelve_reversible_public_intake_interfaces",
  "note": "Public-space interfaces may overlap the conceptual green layer; implementation requires site, heritage and access review.",
  "features": [
    {
      "type": "Feature",
      "id": "PUBLIC-001",
      "properties": {
        "id": "PUBLIC-001",
        "source_type": "agent_generated_design",
        "confidence": "low",
        "geometry_role": "design_proposal",
        "layer": "PUBLIC_SPACE",
        "name_zh": "十二处可逆接单与复盘界面",
        "name_en": "Twelve reversible intake and review interfaces",
        "statutory_status": "conceptual_not_an_approved_public_space",
        "area_sqm_declared": 66394.458
      },
      "geometry": {
        "type": "MultiPolygon",
        "coordinates": [
          [
            [
              [
                116.34808093157221,
                39.96510780945986
              ],
              [
                116.34806062543298,
                39.965074138715075
              ],
              [
                116.3480361280273,
                39.9650421616142
              ],
              [
                116.34800767528236,
                39.96501218611168
              ],
              [
                116.34797554121603,
                39.964984500885244
              ],
              [
                116.34794003529791,
                39.96495937255587
              ],
              [
                116.34790149946882,
                39.9649370431202
              ],
              [
                116.34786030484784,
                39.96491772762011
              ],
              [
                116.34781684815825,
                39.9649016120718
              ],
              [
                116.34777154790699,
                39.964888851674495
              ],
              [
                116.34772484035447,
                39.9648795693159
              ],
              [
                116.34767717531336,
                39.9648738543887
              ],
              [
                116.34762901181674,
                39.96487176192984
              ],
              [
                116.3475808136978,
                39.96487331209046
              ],
              [
                116.34753304512323,
                39.96487848994185
              ],
              [
                116.34748616612309,
                39.96488724561922
              ],
              [
                116.34744062816094,
                39.96489949480187
              ],
              [
                116.34739686978624,
                39.964915119525244
              ],
              [
                116.34735531241104,
                39.9649339693169
              ],
              [
                116.34731635625182,
                39.96495586264556
              ],
              [
                116.34728037647531,
                39.96498058866923
              ],
              [
                116.34724771958543,
                39.965007909265694
              ],
              [
                116.3472187000865,
                39.965037561325566
              ],
              [
                116.34719359745415,
                39.96506925928608
              ],
              [
                116.34717265344389,
                39.96510269788122
              ],
              [
                116.3471560697627,
                39.9651375550813
              ],
              [
                116.34714400612633,
                39.96517349519437
              ],
              [
                116.34713657872076,
                39.96521017209897
              ],
              [
                116.34713385908327,
                39.965247232577376
              ],
              [
                116.34713587341305,
                39.96528431971731
              ],
              [
                116.34714260231863,
                39.96532107634919
              ],
              [
                116.34715398100431,
                39.96535714848579
              ],
              [
                116.347169899894,
                39.96539218873145
              ],
              [
                116.34719020568612,
                39.96542585962766
              ],
              [
                116.34721470282976,
                39.96545783690314
              ],
              [
                116.34724315540781,
                39.965487812596706
              ],
              [
                116.34727528940883,
                39.96551549802329
              ],
              [
                116.34731079536576,
                39.96554062655424
              ],
              [
                116.3473493313362,
                39.96556295618514
              ],
              [
                116.34739052619575,
                39.96558227186664
              ],
              [
                116.34743398321189,
                39.96559838757555
              ],
              [
                116.34747928386514,
                39.965611148106476
              ],
              [
                116.34752599187962,
                39.9656204305666
              ],
              [
                116.34757365742496,
                39.9656261455593
              ],
              [
                116.34762182144867,
                39.96562823804513
              ],
              [
                116.34767002009728,
                39.96562668787191
              ],
              [
                116.34771778918383,
                39.96562150996884
              ],
              [
                116.34776466865853,
                39.9656127542027
              ],
              [
                116.34781020703953,
                39.96560050489761
              ],
              [
                116.34785396576136,
                39.965584880022796
              ],
              [
                116.3478955233986,
                39.965566030056536
              ],
              [
                116.34793447972469,
                39.96554413653684
              ],
              [
                116.3479704595665,
                39.96551941031301
              ],
              [
                116.34800311641757,
                39.96549208951498
              ],
              [
                116.34803213577516,
                39.96546243725989
              ],
              [
                116.34805723816896,
                39.96543073911793
              ],
              [
                116.34807818185267,
                39.965397300362206
              ],
              [
                116.34809476513185,
                39.96536244302849
              ],
              [
                116.34810682830629,
                39.96532650281391
              ],
              [
                116.34811425520762,
                39.96528982584381
              ],
              [
                116.34811697431802,
                39.965252765338434
              ],
              [
                116.34811495945853,
                39.96521567821108
              ],
              [
                116.348108230041,
                39.965178921630866
              ],
              [
                116.34809685088078,
                39.96514284958306
              ],
              [
                116.34808093157221,
                39.96510780945986
              ]
            ]
          ],
          [
            [
              [
                116.34699506724516,
                39.97382414344918
              ],
              [
                116.34697056727062,
                39.97379216615006
              ],
              [
                116.3469421114184,
                39.97376219040564
              ],
              [
                116.34690997373632,
                39.97373450489593
              ],
              [
                116.34687446372871,
                39.97370937624465
              ],
              [
                116.34683592337588,
                39.973687046451566
              ],
              [
                116.34679472384039,
                39.973667730561964
              ],
              [
                116.34675126189289,
                39.973651614595816
              ],
              [
                116.34670595609099,
                39.973638853756356
              ],
              [
                116.34665924274852,
                39.973629570935536
              ],
              [
                116.34661157173386,
                39.97362385553052
              ],
              [
                116.34656340213766,
                39.97362176258285
              ],
              [
                116.34651519785193,
                39.97362331224837
              ],
              [
                116.34646742310257,
                39.97362848960313
              ],
              [
                116.34642053797923,
                39.9736372447871
              ],
              [
                116.3463749940044,
                39.97364949348437
              ],
              [
                116.34633122978545,
                39.97366511773505
              ],
              [
                116.34628966679071,
                39.97368396707126
              ],
              [
                116.34625070529077,
                39.97370585996606
              ],
              [
                116.34621472050378,
                39.97373058558172
              ],
              [
                116.34618205898197,
                39.973757905799886
              ],
              [
                116.3461530352742,
                39.97378755751481
              ],
              [
                116.34612792889666,
                39.97381925516712
              ],
              [
                116.34610698164096,
                39.97385269349369
              ],
              [
                116.34609039524528,
                39.97388755046748
              ],
              [
                116.34607832945153,
                39.97392349039868
              ],
              [
                116.34607090046653,
                39.97396016716758
              ],
              [
                116.3460681798427,
                39.97399722755782
              ],
              [
                116.34607019378875,
                39.97403431465793
              ],
              [
                116.34607692291692,
                39.97407107129868
              ],
              [
                116.3460883024294,
                39.974107143492816
              ],
              [
                116.34610422274208,
                39.974142183844094
              ],
              [
                116.34612453053968,
                39.97417585489299
              ],
              [
                116.34614903025204,
                39.97420783236674
              ],
              [
                116.34617748593732,
                39.974237808302284
              ],
              [
                116.34620962355407,
                39.97426549401221
              ],
              [
                116.34624513360042,
                39.9742906228651
              ],
              [
                116.34628367409469,
                39.9743129528535
              ],
              [
                116.34632487386881,
                39.97433226892458
              ],
              [
                116.34636833614296,
                39.97434838505139
              ],
              [
                116.34641364234702,
                39.97436114602451
              ],
              [
                116.34646035615165,
                39.974370428946905
              ],
              [
                116.34650802767075,
                39.97437614441744
              ],
              [
                116.34655619779426,
                39.9743782373921
              ],
              [
                116.34660440260996,
                39.97437668771399
              ],
              [
                116.34665217787149,
                39.97437151030757
              ],
              [
                116.34669906346959,
                39.97436275503479
              ],
              [
                116.34674460786349,
                39.97435050621503
              ],
              [
                116.34678837242973,
                39.97433488181287
              ],
              [
                116.34682993568664,
                39.97431603230203
              ],
              [
                116.34686889735353,
                39.9742941392161
              ],
              [
                116.34690488220586,
                39.97426941340025
              ],
              [
                116.3469375436889,
                39.97424209298047
              ],
              [
                116.34696656725527,
                39.974212441070215
              ],
              [
                116.34699167339416,
                39.97418074323644
              ],
              [
                116.3470126203232,
                39.97414730474922
              ],
              [
                116.34702920631673,
                39.97411244764176
              ],
              [
                116.3470412716483,
                39.97407650760899
              ],
              [
                116.34704870012888,
                39.97403983077454
              ],
              [
                116.3470514202254,
                39.97400277035732
              ],
              [
                116.34704940574939,
                39.97396568326981
              ],
              [
                116.34704267610906,
                39.97392892668072
              ],
              [
                116.34703129612183,
                39.973892854575396
              ],
              [
                116.34701537539007,
                39.97385781434661
              ],
              [
                116.34699506724516,
                39.97382414344918
              ]
            ]
          ],
          [
            [
              [
                116.34470228540764,
                39.980824152676924
              ],
              [
                116.34467778405289,
                39.980792174920104
              ],
              [
                116.34464932634816,
                39.98076219863352
              ],
              [
                116.34461718635916,
                39.980734512502416
              ],
              [
                116.34458167361241,
                39.98070938315649
              ],
              [
                116.3445431301146,
                39.980687052602185
              ],
              [
                116.34450192705859,
                39.98066773589214
              ],
              [
                116.34445846124893,
                39.98065161905419
              ],
              [
                116.34441315128042,
                39.980638857300015
              ],
              [
                116.344366433507,
                39.98062957353035
              ],
              [
                116.34431875783976,
                39.98062385715147
              ],
              [
                116.34427058341413,
                39.98062176321436
              ],
              [
                116.34422237416858,
                39.980623311884315
              ],
              [
                116.34417459437688,
                39.98062848824704
              ],
              [
                116.34412770417714,
                39.98063724245201
              ],
              [
                116.34408215514081,
                39.980649490192775
              ],
              [
                116.34403838592395,
                39.980665113518654
              ],
              [
                116.34399681804305,
                39.980683961970634
              ],
              [
                116.34395785181576,
                39.98070585403036
              ],
              [
                116.3439218625057,
                39.98073057886807
              ],
              [
                116.3438891967087,
                39.98075789837295
              ],
              [
                116.34386016901479,
                39.98078754944612
              ],
              [
                116.34383505897857,
                39.98081924653438
              ],
              [
                116.34381410842684,
                39.98085268438004
              ],
              [
                116.3437975191296,
                39.98088754096067
              ],
              [
                116.34378545085657,
                39.98092348059028
              ],
              [
                116.34377801983857,
                39.98096015715206
              ],
              [
                116.34377529764755,
                39.98099721743163
              ],
              [
                116.34377731050736,
                39.98103430451858
              ],
              [
                116.34378403904064,
                39.98107106124383
              ],
              [
                116.34379541845536,
                39.98110713361931
              ],
              [
                116.34381133916831,
                39.981142174247
              ],
              [
                116.34383164786044,
                39.98117584566476
              ],
              [
                116.34385614895288,
                39.98120782359626
              ],
              [
                116.34388460649053,
                39.98123780007399
              ],
              [
                116.34391674641415,
                39.98126548640536
              ],
              [
                116.34395225919963,
                39.981290615952965
              ],
              [
                116.34399080283886,
                39.98131294670263
              ],
              [
                116.34403200613353,
                39.9813322635942
              ],
              [
                116.34407547226995,
                39.98134838059286
              ],
              [
                116.34412078264072,
                39.98136114248077
              ],
              [
                116.34416750087645,
                39.98137042635203
              ],
              [
                116.34421517704828,
                39.981376142796485
              ],
              [
                116.3442633520014,
                39.98137823676061
              ],
              [
                116.34431156177709,
                39.98137668807809
              ],
              [
                116.34435934208115,
                39.98137151166372
              ],
              [
                116.34440623275583,
                39.98136275736994
              ],
              [
                116.34445178221142,
                39.98135050950668
              ],
              [
                116.34449555177574,
                39.9813348860293
              ],
              [
                116.34453711991894,
                39.981316037402635
              ],
              [
                116.3445760863133,
                39.98129414515178
              ],
              [
                116.34461207568876,
                39.98126942011381
              ],
              [
                116.34464474144703,
                39.98124210040724
              ],
              [
                116.3446737689995,
                39.9812124491387
              ],
              [
                116.34469887879705,
                39.98118075186892
              ],
              [
                116.34471982902204,
                39.981147313862564
              ],
              [
                116.34473641791703,
                39.98111245714819
              ],
              [
                116.34474848572773,
                39.98107651741697
              ],
              [
                116.34475591624116,
                39.98103984078961
              ],
              [
                116.34475863790466,
                39.981002780483045
              ],
              [
                116.34475662451476,
                39.980965693408656
              ],
              [
                116.34474989546908,
                39.98092893673505
              ],
              [
                116.34473851557944,
                39.98089286444839
              ],
              [
                116.3447225944472,
                39.98085782394319
              ],
              [
                116.34470228540764,
                39.980824152676924
              ]
            ]
          ],
          [
            [
              [
                116.3456460457367,
                39.987857820843686
              ],
              [
                116.34562573421549,
                39.9878241497594
              ],
              [
                116.34560122997118,
                39.98779217221265
              ],
              [
                116.34557276899683,
                39.98776219616219
              ],
              [
                116.3455406253896,
                39.98773451029104
              ],
              [
                116.34550510871092,
                39.987709381226345
              ],
              [
                116.3454665610053,
                39.98768705097186
              ],
              [
                116.34542535350613,
                39.987667734577336
              ],
              [
                116.34538188306072,
                39.98765161806758
              ],
              [
                116.34533656830855,
                39.987638856651074
              ],
              [
                116.34528984564966,
                39.98762957322532
              ],
              [
                116.3452421650421,
                39.98762385719333
              ],
              [
                116.34519398566894,
                39.98762176360263
              ],
              [
                116.34514577151629,
                39.98762331261529
              ],
              [
                116.34509798690515,
                39.98762848931366
              ],
              [
                116.34505109202004,
                39.987637243844034
              ],
              [
                116.34500553847757,
                39.987649491896754
              ],
              [
                116.34496176497716,
                39.9876651155182
              ],
              [
                116.34492019307655,
                39.987683964246465
              ],
              [
                116.34488122313208,
                39.987705856560574
              ],
              [
                116.34484523044324,
                39.9877305816283
              ],
              [
                116.34481256163836,
                39.987757901336586
              ],
              [
                116.34478353133642,
                39.987787552584656
              ],
              [
                116.34475841911716,
                39.98781924981757
              ],
              [
                116.3447374668284,
                39.98785268777626
              ],
              [
                116.34472087625683,
                39.98788754443724
              ],
              [
                116.34470880718456,
                39.9879234841137
              ],
              [
                116.34470137585,
                39.98796016068841
              ],
              [
                116.34469865382819,
                39.98799722094683
              ],
              [
                116.34470066734131,
                39.98803430797881
              ],
              [
                116.34470739700579,
                39.98807106461578
              ],
              [
                116.34471877801866,
                39.98810713687046
              ],
              [
                116.34473470078134,
                39.98814217734608
              ],
              [
                116.344755011955,
                39.98817584858191
              ],
              [
                116.34477951593692,
                39.98820782630337
              ],
              [
                116.34480797674416,
                39.98823780254503
              ],
              [
                116.34484012028598,
                39.98826548861651
              ],
              [
                116.34487563700343,
                39.988290617882924
              ],
              [
                116.34491418485057,
                39.988312948332805
              ],
              [
                116.3449553925885,
                39.9883322649089
              ],
              [
                116.34499886336079,
                39.988348381579414
              ],
              [
                116.34504417851537,
                39.988361143129666
              ],
              [
                116.34509090163674,
                39.988370426657035
              ],
              [
                116.34513858274907,
                39.98837614275461
              ],
              [
                116.34518676264993,
                39.98837823637231
              ],
              [
                116.34523497733288,
                39.98837668734707
              ],
              [
                116.34528276245658,
                39.98837151059701
              ],
              [
                116.34532965781676,
                39.98836275597783
              ],
              [
                116.34537521177863,
                39.98835050780256
              ],
              [
                116.34541898562661,
                39.98833488402957
              ],
              [
                116.34546055778961,
                39.98831603512658
              ],
              [
                116.34549952790117,
                39.98829414262128
              ],
              [
                116.34553552065542,
                39.988269417353266
              ],
              [
                116.34556818942151,
                39.98824209744321
              ],
              [
                116.34559721958196,
                39.98821244599975
              ],
              [
                116.34562233156245,
                39.98818074858527
              ],
              [
                116.34564328352435,
                39.988147310465834
              ],
              [
                116.34565987369349,
                39.98811245367111
              ],
              [
                116.34567194230328,
                39.98807651389303
              ],
              [
                116.34567937313308,
                39.988039837252735
              ],
              [
                116.3456820946272,
                39.9880027769673
              ],
              [
                116.34568008058376,
                39.987965689947885
              ],
              [
                116.34567335040673,
                39.987928933362625
              ],
              [
                116.34566196891876,
                39.98789286119676
              ],
              [
                116.3456460457367,
                39.987857820843686
              ]
            ]
          ],
          [
            [
              [
                116.34720400471717,
                39.9904491440117
              ],
              [
                116.34717949881095,
                39.99041716679962
              ],
              [
                116.34715103606752,
                39.99038719113596
              ],
              [
                116.34711889060105,
                39.99035950569999
              ],
              [
                116.34708337199092,
                39.99033437711471
              ],
              [
                116.34704482230018,
                39.99031204737924
              ],
              [
                116.34700361278144,
                39.99029273153832
              ],
              [
                116.34696014030138,
                39.990276615611414
              ],
              [
                116.34691482351909,
                39.990263854801434
              ],
              [
                116.34686809885413,
                39.99025457200001
              ],
              [
                116.34682041628393,
                39.99024885660412
              ],
              [
                116.34677223501042,
                39.990246763655236
              ],
              [
                116.34672401903802,
                39.99024831330919
              ],
              [
                116.34667623270526,
                39.99025349064217
              ],
              [
                116.34662933621327,
                39.99026224579434
              ],
              [
                116.34658378119404,
                39.9902744944501
              ],
              [
                116.34654000636128,
                39.990290118649966
              ],
              [
                116.34649843328557,
                39.990308967926524
              ],
              [
                116.34645946233456,
                39.99033086075346
              ],
              [
                116.34642346881742,
                39.990355586293624
              ],
              [
                116.34639079937043,
                39.99038290642945
              ],
              [
                116.3463617686188,
                39.99041255805599
              ],
              [
                116.34633665614658,
                39.99044425561469
              ],
              [
                116.34631570380402,
                39.99047769384335
              ],
              [
                116.3462991133784,
                39.99051255071585
              ],
              [
                116.3462870446503,
                39.99054849054339
              ],
              [
                116.34627961385488,
                39.99058516720724
              ],
              [
                116.34627689256203,
                39.990622227492025
              ],
              [
                116.34627890698688,
                39.99065931448735
              ],
              [
                116.34628563773704,
                39.99069607102497
              ],
              [
                116.3462970199991,
                39.990732143118585
              ],
              [
                116.3463129441625,
                39.99076718337297
              ],
              [
                116.3463332568749,
                39.9908008543295
              ],
              [
                116.34635776251874,
                39.99083283171635
              ],
              [
                116.34638622509507,
                39.99086280757122
              ],
              [
                116.34641837049615,
                39.99089049320752
              ],
              [
                116.34645388914508,
                39.99091562199455
              ],
              [
                116.34649243897736,
                39.99093795192545
              ],
              [
                116.34653364873496,
                39.99095726794794
              ],
              [
                116.34657712154196,
                39.990973384035605
              ],
              [
                116.34662243872674,
                39.99098614497934
              ],
              [
                116.34666916385423,
                39.99099542788237
              ],
              [
                116.3467168469293,
                39.991001143343816
              ],
              [
                116.34676502873056,
                39.9910032363197
              ],
              [
                116.34681324523332,
                39.99100168665315
              ],
              [
                116.3468610320787,
                39.99099650926846
              ],
              [
                116.34690792904584,
                39.990987754027444
              ],
              [
                116.3469534844845,
                39.99097550524912
              ],
              [
                116.34699725966483,
                39.99095988089768
              ],
              [
                116.34703883300293,
                39.99094103144638
              ],
              [
                116.34707780412103,
                39.99091913842823
              ],
              [
                116.34711379770357,
                39.99089441268772
              ],
              [
                116.34714646711173,
                39.99086709235014
              ],
              [
                116.3471754977218,
                39.99083744052819
              ],
              [
                116.34720060995521,
                39.99080574278791
              ],
              [
                116.34722156197083,
                39.99077230439851
              ],
              [
                116.34723815199399,
                39.990737447392256
              ],
              [
                116.34725022025953,
                39.9907015074631
              ],
              [
                116.34725765055008,
                39.99066483073368
              ],
              [
                116.34726037131517,
                39.99062777042189
              ],
              [
                116.34725835635994,
                39.99059068343916
              ],
              [
                116.34725162509717,
                39.99055392695327
              ],
              [
                116.34724024235996,
                39.99051785494849
              ],
              [
                116.34722431777713,
                39.99048281481668
              ],
              [
                116.34720400471717,
                39.9904491440117
              ]
            ]
          ],
          [
            [
              [
                116.34679691532921,
                40.01407414747027
              ],
              [
                116.34677240131565,
                40.014042170235676
              ],
              [
                116.34674392907972,
                40.01401219451639
              ],
              [
                116.34671177282709,
                40.01398450899225
              ],
              [
                116.34667624224097,
                40.0139593802871
              ],
              [
                116.34663767949974,
                40.01393705040118
              ],
              [
                116.34659645598167,
                40.013917734380705
              ],
              [
                116.34655296868827,
                40.01390161824688
              ],
              [
                116.34650763642132,
                40.01388885720457
              ],
              [
                116.34646089574947,
                40.01387957414766
              ],
              [
                116.3464131968043,
                40.0138738584756
              ],
              [
                116.34636499894545,
                40.01387176523249
              ],
              [
                116.34631676633704,
                40.013873314577005
              ],
              [
                116.34626896347778,
                40.01387849158833
              ],
              [
                116.34622205072797,
                40.01388724640972
              ],
              [
                116.34617647987619,
                40.01389949472875
              ],
              [
                116.34613268978859,
                40.0139151185892
              ],
              [
                116.34609110218267,
                40.0139339675269
              ],
              [
                116.346052117566,
                40.013955860018825
              ],
              [
                116.34601611137934,
                40.01398058523106
              ],
              [
                116.34598343038101,
                40.01400790504918
              ],
              [
                116.3459543893075,
                40.0140375563713
              ],
              [
                116.34592926784217,
                40.0140692536418
              ],
              [
                116.34590830792199,
                40.01410269160126
              ],
              [
                116.3458917114071,
                40.014137548226174
              ],
              [
                116.34587963813685,
                40.01417348783009
              ],
              [
                116.3458722043901,
                40.01421016429646
              ],
              [
                116.34586948176515,
                40.014247224411825
              ],
              [
                116.34587149649,
                40.01428431126738
              ],
              [
                116.3458782291694,
                40.014321067696244
              ],
              [
                116.34588961497131,
                40.01435713971319
              ],
              [
                116.34590554425112,
                40.014392179923696
              ],
              [
                116.34592586360722,
                40.01442585086957
              ],
              [
                116.34595037735808,
                40.014457828279085
              ],
              [
                116.34597884942669,
                40.01448780418973
              ],
              [
                116.34601100561382,
                40.014515489914366
              ],
              [
                116.34604653623883,
                40.01454061882145
              ],
              [
                116.34608509912177,
                40.01456294890295
              ],
              [
                116.34612632287896,
                40.014582265105155
              ],
              [
                116.34616981049966,
                40.014598381399864
              ],
              [
                116.34621514316957,
                40.014611142576044
              ],
              [
                116.34626188430451,
                40.01462042573465
              ],
              [
                116.34630958375514,
                40.014626141472334
              ],
              [
                116.34635778214238,
                40.014628234742474
              ],
              [
                116.3464060152818,
                40.01462668538533
              ],
              [
                116.34645381865428,
                40.014621508322264
              ],
              [
                116.34650073187977,
                40.014612753411946
              ],
              [
                116.34654630315148,
                40.01460050497025
              ],
              [
                116.34659009358708,
                40.01458488095811
              ],
              [
                116.3466316814557,
                40.014566031845504
              ],
              [
                116.34667066623967,
                40.014544139162204
              ],
              [
                116.34670667249179,
                40.01451941374947
              ],
              [
                116.34673935345124,
                40.01449209372942
              ],
              [
                116.34676839438309,
                40.01446244221172
              ],
              [
                116.34679351560929,
                40.014430744759494
              ],
              [
                116.34681447520215,
                40.014397306639154
              ],
              [
                116.3468310713141,
                40.01436244988038
              ],
              [
                116.34684314412124,
                40.014326510174755
              ],
              [
                116.34685057736253,
                40.014289833642756
              ],
              [
                116.34685329945911,
                40.01425277350036
              ],
              [
                116.34685128420325,
                40.014215686657415
              ],
              [
                116.34684455101065,
                40.014178930280316
              ],
              [
                116.34683316473303,
                40.01414285835231
              ],
              [
                116.34681723503327,
                40.01410781826446
              ],
              [
                116.34679691532921,
                40.01407414747027
              ]
            ]
          ],
          [
            [
              [
                116.34863073054,
                39.94760780592892
              ],
              [
                116.3486104291888,
                39.94757413521858
              ],
              [
                116.34858593765848,
                39.947542158185826
              ],
              [
                116.34855749181972,
                39.94751218278443
              ],
              [
                116.34852536562383,
                39.94748449769117
              ],
              [
                116.3484898684646,
                39.94745936952574
              ],
              [
                116.34845134219852,
                39.94743704028319
              ],
              [
                116.34841015785257,
                39.94741772500356
              ],
              [
                116.34836671205105,
                39.94740160970089
              ],
              [
                116.34832142319613,
                39.947388849572086
              ],
              [
                116.34827472743841,
                39.947379567502246
              ],
              [
                116.34822707447697,
                39.94737385288128
              ],
              [
                116.34817892322855,
                39.94737176074319
              ],
              [
                116.34813073740847,
                39.94737331123602
              ],
              [
                116.3480829810649,
                39.947378489427855
              ],
              [
                116.34803611411012,
                39.94738724545063
              ],
              [
                116.34799058789174,
                39.94739949498031
              ],
              [
                116.3479468408461,
                39.94741512004902
              ],
              [
                116.34790529427616,
                39.94743397018098
              ],
              [
                116.34786634829435,
                39.94745586384162
              ],
              [
                116.34783037796932,
                39.94748059018576
              ],
              [
                116.34779772971406,
                39.947507911088096
              ],
              [
                116.34776871794968,
                39.94753756343627
              ],
              [
                116.34774362207733,
                39.9475692616648
              ],
              [
                116.34772268378744,
                39.94760270050501
              ],
              [
                116.34770610473186,
                39.94763755792491
              ],
              [
                116.34769404458176,
                39.9476734982304
              ],
              [
                116.34768661948964,
                39.94771017529817
              ],
              [
                116.34768390097042,
                39.94774723590894
              ],
              [
                116.34768591521252,
                39.947784323149165
              ],
              [
                116.34769264282531,
                39.94782107984825
              ],
              [
                116.34770401902558,
                39.94785715201836
              ],
              [
                116.34771993426112,
                39.9478921922635
              ],
              [
                116.34774023526552,
                39.94792586312518
              ],
              [
                116.34776472653401,
                39.94795784033243
              ],
              [
                116.34779317220608,
                39.94798781592475
              ],
              [
                116.34782529833673,
                39.94801550121804
              ],
              [
                116.34786079553471,
                39.94804062958493
              ],
              [
                116.34789932194205,
                39.948062959022586
              ],
              [
                116.34794050652637,
                39.94808227448352
              ],
              [
                116.34798395265412,
                39.94809838994668
              ],
              [
                116.34802924191068,
                39.948111150209016
              ],
              [
                116.34807593812998,
                39.948120432380314
              ],
              [
                116.34812359159523,
                39.94812614706674
              ],
              [
                116.34817174337027,
                39.94812823923178
              ],
              [
                116.34821992971956,
                39.948126688726354
              ],
              [
                116.34826768657467,
                39.94812151048288
              ],
              [
                116.34831455400354,
                39.948112754371394
              ],
              [
                116.34836008064043,
                39.94810050471932
              ],
              [
                116.34840382803289,
                39.94808487949926
              ],
              [
                116.34844537486462,
                39.948066029192816
              ],
              [
                116.34848432101317,
                39.94804413534126
              ],
              [
                116.34852029140343,
                39.94801940879707
              ],
              [
                116.34855293961994,
                39.9479920876933
              ],
              [
                116.34858195124305,
                39.947962435150004
              ],
              [
                116.34860704687705,
                39.94793073674019
              ],
              [
                116.3486279848407,
                39.94789729773948
              ],
              [
                116.34864456349462,
                39.94786244018604
              ],
              [
                116.34865662318315,
                39.9478264997791
              ],
              [
                116.34866404777148,
                39.94778982264587
              ],
              [
                116.34866676576407,
                39.94775276200814
              ],
              [
                116.34866475099273,
                39.94771567478051
              ],
              [
                116.34865802286842,
                39.947678918133064
              ],
              [
                116.34864664619404,
                39.947642846051686
              ],
              [
                116.34863073054,
                39.94760780592892
              ]
            ]
          ],
          [
            [
              [
                116.34853594972321,
                39.984324138483586
              ],
              [
                116.34851144534201,
                39.98429216153204
              ],
              [
                116.34848298451766,
                39.984262186179635
              ],
              [
                116.34845084134587,
                39.98423450110265
              ],
              [
                116.34841532538388,
                39.98420937292063
              ],
              [
                116.34837677866928,
                39.98418704362881
              ],
              [
                116.34833557242595,
                39.98416772826766
              ],
              [
                116.34829210348911,
                39.98415161285203
              ],
              [
                116.34824679048369,
                39.9841388525799
              ],
              [
                116.34820006979287,
                39.98412957033772
              ],
              [
                116.34815239135584,
                39.9841238555171
              ],
              [
                116.3481042143347,
                39.984121763153944
              ],
              [
                116.34805600269293,
                39.98412331339847
              ],
              [
                116.34800822072731,
                39.98412849132114
              ],
              [
                116.347961328597,
                39.9841372470565
              ],
              [
                116.34791577789191,
                39.98414949628327
              ],
              [
                116.34787200728425,
                39.98416512103652
              ],
              [
                116.3478304383039,
                39.98418397084346
              ],
              [
                116.34779147127908,
                39.9842058641727
              ],
              [
                116.34775548148114,
                39.98423059018226
              ],
              [
                116.34772281551055,
                39.984257910750024
              ],
              [
                116.34769378795902,
                39.98428756276689
              ],
              [
                116.34766867837978,
                39.984319260670546
              ],
              [
                116.34764772859526,
                39.98435269919546
              ],
              [
                116.34763114036804,
                39.98438755631268
              ],
              [
                116.3476190734576,
                39.98442349633104
              ],
              [
                116.34761164408154,
                39.98446017312998
              ],
              [
                116.3476089237961,
                39.98449723349282
              ],
              [
                116.3476109388067,
                39.984534320508374
              ],
              [
                116.3476176697153,
                39.98457107700825
              ],
              [
                116.34762905170699,
                39.9846071490065
              ],
              [
                116.34764497517378,
                39.9846421891088
              ],
              [
                116.34766528677002,
                39.98467585985804
              ],
              [
                116.34768979088898,
                39.984707836984306
              ],
              [
                116.3477182515463,
                39.984737812527904
              ],
              [
                116.34775039465273,
                39.98476549780518
              ],
              [
                116.34778591065357,
                39.9847906261889
              ],
              [
                116.3478244575097,
                39.98481295567609
              ],
              [
                116.3478656639918,
                39.98483227121878
              ],
              [
                116.34790913325551,
                39.984848386795115
              ],
              [
                116.3479544466633,
                39.98486114720094
              ],
              [
                116.34800116781655,
                39.9848704295447
              ],
              [
                116.34804884675829,
                39.98487614443087
              ],
              [
                116.34809702430704,
                39.984878236821004
              ],
              [
                116.34814523647903,
                39.98487668656388
              ],
              [
                116.34819301895706,
                39.98487150858947
              ],
              [
                116.34823991156239,
                39.984862752765274
              ],
              [
                116.34828546268675,
                39.984850503415956
              ],
              [
                116.34832923364183,
                39.98483487851117
              ],
              [
                116.34837080288447,
                39.9848160285295
              ],
              [
                116.34840977007632,
                39.984794135009075
              ],
              [
                116.34844575993962,
                39.98476940879923
              ],
              [
                116.34847842587139,
                39.984742088029776
              ],
              [
                116.34850745328137,
                39.984712435817535
              ],
              [
                116.34853256262181,
                39.98468073773235
              ],
              [
                116.34855351207948,
                39.98464729904671
              ],
              [
                116.34857009990434,
                39.98461244179579
              ],
              [
                116.34858216635233,
                39.98457650167585
              ],
              [
                116.34858959522369,
                39.98453982481138
              ],
              [
                116.34859231498152,
                39.98450276442157
              ],
              [
                116.34859029944073,
                39.98446567741861
              ],
              [
                116.34858356801968,
                39.98442892097046
              ],
              [
                116.348572185553,
                39.98439284906104
              ],
              [
                116.34855626166693,
                39.98435780908128
              ],
              [
                116.34853594972321,
                39.984324138483586
              ]
            ]
          ],
          [
            [
              [
                116.34912521505602,
                39.99307413696816
              ],
              [
                116.3491007073267,
                39.993042160162034
              ],
              [
                116.34907224266284,
                39.99301218496826
              ],
              [
                116.34904009519714,
                39.99298450006156
              ],
              [
                116.3490045745282,
                39.99295937205988
              ],
              [
                116.3489660227389,
                39.992937042956655
              ],
              [
                116.34892481110201,
                39.99291772779058
              ],
              [
                116.34888133650472,
                39.99290161257461
              ],
              [
                116.3488360176264,
                39.99288885250481
              ],
              [
                116.34878929090688,
                39.99287957046568
              ],
              [
                116.34874160634331,
                39.992873855846874
              ],
              [
                116.34869342315686,
                39.992871763682345
              ],
              [
                116.34864520537032,
                39.992873314120395
              ],
              [
                116.34859741733975,
                39.992878492229664
              ],
              [
                116.34855051928258,
                39.99288724814282
              ],
              [
                116.34850496284591,
                39.99289949753697
              ],
              [
                116.34846118675709,
                39.99291512244548
              ],
              [
                116.3484196125988,
                39.99293397239414
              ],
              [
                116.3483806407491,
                39.99295586585013
              ],
              [
                116.3483446465258,
                39.99298059197028
              ],
              [
                116.34831197657203,
                39.993007912631434
              ],
              [
                116.34828294551788,
                39.99303756472357
              ],
              [
                116.34825783295024,
                39.99306926268366
              ],
              [
                116.34823688072039,
                39.99310270124562
              ],
              [
                116.3482202906144,
                39.99313755838014
              ],
              [
                116.34820822240988,
                39.993173498395876
              ],
              [
                116.3482007923369,
                39.99321017517233
              ],
              [
                116.34819807195838,
                39.993247235492994
              ],
              [
                116.34820008748069,
                39.99328432244714
              ],
              [
                116.34820681950085,
                39.993321078866934
              ],
              [
                116.34821820319324,
                39.993357150767196
              ],
              [
                116.34823412893348,
                39.99339219075456
              ],
              [
                116.34825444335404,
                39.993425861373005
              ],
              [
                116.34827895082097,
                39.99345783835391
              ],
              [
                116.34830741531773,
                39.99348781373894
              ],
              [
                116.3483395627181,
                39.99351549884597
              ],
              [
                116.34837508342589,
                39.99354062704944
              ],
              [
                116.3484136353568,
                39.993562956348086
              ],
              [
                116.34845484723257,
                39.99358227169575
              ],
              [
                116.34849832215691,
                39.99359838707247
              ],
              [
                116.34854364143776,
                39.99361114727602
              ],
              [
                116.34859036861994,
                39.99362042941674
              ],
              [
                116.34863805368845,
                39.99362614410111
              ],
              [
                116.34868623740272,
                39.99362823629262
              ],
              [
                116.3487344557197,
                39.993626685841946
              ],
              [
                116.34878224426295,
                39.993621507680935
              ],
              [
                116.3488291427953,
                39.993612751678896
              ],
              [
                116.34887469965142,
                39.99360050216218
              ],
              [
                116.34891847608783,
                39.99358487710206
              ],
              [
                116.34896005050851,
                39.993566026978634
              ],
              [
                116.3489990225253,
                39.99354413333139
              ],
              [
                116.34903501681393,
                39.993519407010865
              ],
              [
                116.34906768672884,
                39.99349208614795
              ],
              [
                116.3490967176414,
                39.9934624338604
              ],
              [
                116.34912182997012,
                39.99343073571872
              ],
              [
                116.34914278187298,
                39.99339729699602
              ],
              [
                116.34915937157642,
                39.99336243972774
              ],
              [
                116.34917143931828,
                39.9933264996104
              ],
              [
                116.34917886888634,
                39.9932898227684
              ],
              [
                116.34918158873701,
                39.993252762420745
              ],
              [
                116.34917957268426,
                39.993215675479235
              ],
              [
                116.34917284015143,
                39.99317891911118
              ],
              [
                116.34916145598386,
                39.993142847299794
              ],
              [
                116.34914552982417,
                39.993107807435024
              ],
              [
                116.34912521505602,
                39.99307413696816
              ]
            ]
          ],
          [
            [
              [
                116.3514095438916,
                40.00185779917393
              ],
              [
                116.35138922547101,
                40.001824129125026
              ],
              [
                116.35136471360597,
                40.00179215281237
              ],
              [
                116.35133624436297,
                40.00176217818283
              ],
              [
                116.35130409191869,
                40.00173449390573
              ],
              [
                116.35126856591977,
                40.001709366592905
              ],
              [
                116.35123000850045,
                40.0016870382312
              ],
              [
                116.35118879098765,
                40.001667723852144
              ],
              [
                116.35114531032514,
                40.00165160946112
              ],
              [
                116.35109998525074,
                40.00163885024625
              ],
              [
                116.35105325226392,
                40.001629569083775
              ],
              [
                116.3510055614222,
                40.00162385535494
              ],
              [
                116.3509573720072,
                40.00162176408513
              ],
              [
                116.35090914810174,
                40.00162331541399
              ],
              [
                116.35086135412072,
                40.00162849440159
              ],
              [
                116.35081445033893,
                40.001637251172184
              ],
              [
                116.35076888845859,
                40.001649501394574
              ],
              [
                116.35072510725948,
                40.001665127094185
              ],
              [
                116.35068352837342,
                40.00168397778916
              ],
              [
                116.35064455222413,
                40.00170587193953
              ],
              [
                116.35060855417073,
                40.00173059869541
              ],
              [
                116.35057588089327,
                40.001757919927506
              ],
              [
                116.3505468470538,
                40.00178757252033
              ],
              [
                116.35052173226615,
                40.001819270906026
              ],
              [
                116.35050077840285,
                40.00185270981439
              ],
              [
                116.3504841872658,
                40.00188756721282
              ],
              [
                116.3504721186425,
                40.00192350740742
              ],
              [
                116.35046468876708,
                40.001960184275916
              ],
              [
                116.35046196920054,
                40.00199724460097
              ],
              [
                116.35046398614139,
                40.0020343314718
              ],
              [
                116.35047072017309,
                40.002071087721355
              ],
              [
                116.35048210645058,
                40.002107159366126
              ],
              [
                116.35049803532462,
                40.002142199015175
              ],
              [
                116.35051835339749,
                40.00217586921576
              ],
              [
                116.35054286500008,
                40.00220784570326
              ],
              [
                116.35057133407598,
                40.0022378205241
              ],
              [
                116.3506034864549,
                40.00226550500162
              ],
              [
                116.35063901249273,
                40.00229063251628
              ],
              [
                116.35067757005382,
                40.002312961073464
              ],
              [
                116.35071878780563,
                40.002332275634146
              ],
              [
                116.35076226879536,
                40.00234839018596
              ],
              [
                116.35080759427252,
                40.00236114953459
              ],
              [
                116.3508543277222,
                40.00237043079867
              ],
              [
                116.35090201906907,
                40.002376144593065
              ],
              [
                116.35095020901214,
                40.00237823588985
              ],
              [
                116.35099843344827,
                40.00237668454833
              ],
              [
                116.35104622794216,
                40.00237150550894
              ],
              [
                116.35109313219934,
                40.00236274864942
              ],
              [
                116.35113869449928,
                40.00235049830438
              ],
              [
                116.35118247604612,
                40.00233487245312
              ],
              [
                116.3512240551946,
                40.00231602158329
              ],
              [
                116.35126303151102,
                40.00229412724162
              ],
              [
                116.35129902962977,
                40.002269400285314
              ],
              [
                116.3513317028683,
                40.00224207885139
              ],
              [
                116.35136073656605,
                40.00221242606307
              ],
              [
                116.35138585111467,
                40.00218072749576
              ],
              [
                116.35140680465076,
                40.0021472884266
              ],
              [
                116.35142339538505,
                40.0021124308944
              ],
              [
                116.35143546354549,
                40.0020764905982
              ],
              [
                116.35144289291576,
                40.00203981366416
              ],
              [
                116.35144561195422,
                40.00200275331213
              ],
              [
                116.35144359448266,
                40.001965666453955
              ],
              [
                116.35143685993812,
                40.00192891025618
              ],
              [
                116.35142547318524,
                40.00189283870034
              ],
              [
                116.3514095438916,
                40.00185779917393
              ]
            ]
          ],
          [
            [
              [
                116.34902772050941,
                40.01844913939523
              ],
              [
                116.34900320391029,
                40.01841716263573
              ],
              [
                116.34897472889848,
                40.018387187464754
              ],
              [
                116.34894256970628,
                40.01835950255682
              ],
              [
                116.34890703604525,
                40.01833437452985
              ],
              [
                116.34886847012342,
                40.01831204537758
              ],
              [
                116.34882724334965,
                40.0182927301391
              ],
              [
                116.34878375275687,
                40.01827661482811
              ],
              [
                116.34873841717854,
                40.01826385464157
              ],
              [
                116.34869167321527,
                40.01825457246511
              ],
              [
                116.34864397103028,
                40.0182488576897
              ],
              [
                116.34859577001443,
                40.0182467653508
              ],
              [
                116.34854753436227,
                40.0182483155984
              ],
              [
                116.34849972860178,
                40.01825349350295
              ],
              [
                116.34845281312124,
                40.01826224919912
              ],
              [
                116.34840723973551,
                40.01827449836608
              ],
              [
                116.34836344733512,
                40.018290123039435
              ],
              [
                116.34832185765987,
                40.01830897274718
              ],
              [
                116.34828287123725,
                40.018330865958866
              ],
              [
                116.34824686352543,
                40.01835559183365
              ],
              [
                116.3482141812974,
                40.018382912250736
              ],
              [
                116.34818513930144,
                40.018412564102476
              ],
              [
                116.34816001722992,
                40.01844426182815
              ],
              [
                116.34813905702552,
                40.018477700163935
              ],
              [
                116.34812246055124,
                40.01851255708271
              ],
              [
                116.34811038764593,
                40.018548496895214
              ],
              [
                116.348102954585,
                40.01858517348287
              ],
              [
                116.34810023296015,
                40.018622233631035
              ],
              [
                116.34810224898972,
                40.0186593204306
              ],
              [
                116.3481089832659,
                40.01869607671526
              ],
              [
                116.34812037094129,
                40.01873214850112
              ],
              [
                116.34813630235324,
                40.018767188395906
              ],
              [
                116.34815662407958,
                40.01880085894449
              ],
              [
                116.34818114041599,
                40.01883283587892
              ],
              [
                116.34820961526053,
                40.01886281124132
              ],
              [
                116.34824177438726,
                40.018890496349776
              ],
              [
                116.3482773080872,
                40.018915624578696
              ],
              [
                116.34831587415081,
                40.018937953926596
              ],
              [
                116.34835710116381,
                40.01895726934681
              ],
              [
                116.34840059208402,
                40.01897338481869
              ],
              [
                116.34844592806542,
                40.0189861451391
              ],
              [
                116.34849267249193,
                40.01899542741725
              ],
              [
                116.34854037518247,
                40.01900114225828
              ],
              [
                116.34858857672683,
                40.019003234624165
              ],
              [
                116.34863681291013,
                40.01900168436394
              ],
              [
                116.3486846191839,
                40.018996506407596
              ],
              [
                116.34873153514025,
                40.018987750622465
              ],
              [
                116.34877710894597,
                40.0189755013328
              ],
              [
                116.34882090169438,
                40.018959876507715
              ],
              [
                116.34886249163235,
                40.01894102662504
              ],
              [
                116.34890147822227,
                40.018919133221935
              ],
              [
                116.34893748599953,
                40.01889440714661
              ],
              [
                116.34897016818863,
                40.01886708652757
              ],
              [
                116.34899921004282,
                40.018837434480226
              ],
              [
                116.34902433187513,
                40.01880573657281
              ],
              [
                116.34904529175208,
                40.01877229807613
              ],
              [
                116.34906188782331,
                40.01873744102348
              ],
              [
                116.34907396026537,
                40.0187015011093
              ],
              [
                116.34908139282074,
                40.01866482445603
              ],
              [
                116.34908411391709,
                40.01862776428086
              ],
              [
                116.34908209735642,
                40.01859067749392
              ],
              [
                116.34907536256692,
                40.018553921261066
              ],
              [
                116.34906397441573,
                40.018517849564155
              ],
              [
                116.3490480425838,
                40.018482809792076
              ],
              [
                116.34902772050941,
                40.01844913939523
              ]
            ]
          ],
          [
            [
              [
                116.35126694531793,
                40.022824131287095
              ],
              [
                116.35124242612866,
                40.02279215500459
              ],
              [
                116.35121394833655,
                40.02276218038409
              ],
              [
                116.35118178620068,
                40.022734496094834
              ],
              [
                116.35114624946094,
                40.02270936874878
              ],
              [
                116.35110768035501,
                40.02268704033306
              ],
              [
                116.35106645032245,
                40.02266772587976
              ],
              [
                116.35102295642751,
                40.02265161139492
              ],
              [
                116.35097761753552,
                40.02263885206762
              ],
              [
                116.35093087027892,
                40.02262957077517
              ],
              [
                116.35088316485272,
                40.02262385690004
              ],
              [
                116.35083496067897,
                40.02262176546904
              ],
              [
                116.3507867219826,
                40.02262331662338
              ],
              [
                116.35073891332094,
                40.0226284954248
              ],
              [
                116.3506919951102,
                40.02263725199934
              ],
              [
                116.3506464191915,
                40.02264950201769
              ],
              [
                116.35060262447985,
                40.02266512750726
              ],
              [
                116.35056103273722,
                40.022683977988194
              ],
              [
                116.35052204451101,
                40.022705871922604
              ],
              [
                116.35048603527683,
                40.02273059846268
              ],
              [
                116.35045335182227,
                40.02275791948121
              ],
              [
                116.35042430890746,
                40.022787571864775
              ],
              [
                116.3503991862336,
                40.0228192700475
              ],
              [
                116.35037822574918,
                40.022852708761185
              ],
              [
                116.35036162931988,
                40.02288756597507
              ],
              [
                116.35034955678415,
                40.02292350599704
              ],
              [
                116.35034212441383,
                40.02296018270653
              ],
              [
                116.35033940379394,
                40.022997242887676
              ],
              [
                116.3503414211332,
                40.023034329631095
              ],
              [
                116.35034815701113,
                40.023071085770994
              ],
              [
                116.35035954656497,
                40.023107157324894
              ],
              [
                116.35037548011391,
                40.02314219690273
              ],
              [
                116.35039580421525,
                40.02317586705246
              ],
              [
                116.35042032314178,
                40.02320784350992
              ],
              [
                116.35044880076663,
                40.023237818321874
              ],
              [
                116.35048096283708,
                40.02326550281169
              ],
              [
                116.3505164996158,
                40.02329063035974
              ],
              [
                116.35055506886356,
                40.023312958971076
              ],
              [
                116.35059629913545,
                40.02333227360615
              ],
              [
                116.35063979335791,
                40.02334838825188
              ],
              [
                116.3506851326531,
                40.023361147713054
              ],
              [
                116.35073188037303,
                40.02337042910719
              ],
              [
                116.35077958630494,
                40.02337614304791
              ],
              [
                116.3508277910073,
                40.0233782345059
              ],
              [
                116.35087603023493,
                40.02337668333889
              ],
              [
                116.35092383940999,
                40.02337150448565
              ],
              [
                116.35097075809662,
                40.02336274782212
              ],
              [
                116.35101633443534,
                40.02335049768102
              ],
              [
                116.35106012949507,
                40.02333487203968
              ],
              [
                116.35110172150046,
                40.02331602138377
              ],
              [
                116.35114070989393,
                40.02329412725791
              ],
              [
                116.35117671919352,
                40.023269400517265
              ],
              [
                116.3512094026091,
                40.02324207929674
              ],
              [
                116.35123844538205,
                40.02321242671756
              ],
              [
                116.35126356781663,
                40.023180728353076
              ],
              [
                116.3512845279735,
                40.02314728947848
              ],
              [
                116.35130112399962,
                40.023112432130716
              ],
              [
                116.351313196072,
                40.023076492007064
              ],
              [
                116.35132062793663,
                40.023039815232
              ],
              [
                116.35132334802788,
                40.02300275502385
              ],
              [
                116.3513213301574,
                40.0229656682931
              ],
              [
                116.35131459376606,
                40.02292891220501
              ],
              [
                116.35130320373634,
                40.02289284074012
              ],
              [
                116.35128726976734,
                40.02285780128503
              ],
              [
                116.35126694531793,
                40.022824131287095
              ]
            ]
          ]
        ]
      }
    }
  ]
}
