{
  "type": "FeatureCollection",
  "name": "integrity_yard_concept_buildings",
  "features": [
    {
      "type": "Feature",
      "id": "BLDG-RELEASE-YARD",
      "properties": {
        "id": "BLDG-RELEASE-YARD",
        "layer": "BUILDING_FOOTPRINT",
        "source_type": "agent_generated_design",
        "confidence": "medium",
        "geometry_role": "design_proposal",
        "source_id": "AGENT-TASKBOOK",
        "derived_from_source_ids": [
          "AGENT-TASKBOOK",
          "SITE-PACKAGE"
        ],
        "design_status": "concept_only_non_statutory",
        "building_type": "lab",
        "name_zh": "众智园可信发布场",
        "name_en": "Zhongzhiyuan Integrity Release Yard",
        "project_id": "P-01-RELEASE-YARD",
        "phase_id": "PHASE-02-INTEGRITY-NETWORK",
        "facility_role": "integrity_station",
        "operating_role_zh": "接收制品、复现测试、核验清单与签名后放行",
        "operating_role_en": "Artifact intake, reproducibility tests, bill-of-materials checks, and signed release",
        "retain_renovate_demolish_status": "concept_new_build_subject_to_survey",
        "area_sqm_declared": 18000.0
      },
      "geometry": {
        "type": "Polygon",
        "coordinates": [
          [
            [
              116.34698166673559,
              40.0162908695054
            ],
            [
              116.34487342353103,
              40.016278970210074
            ],
            [
              116.34486481172972,
              40.01717952849556
            ],
            [
              116.34697308264288,
              40.017191428168225
            ],
            [
              116.34698166673559,
              40.0162908695054
            ]
          ]
        ]
      }
    },
    {
      "type": "Feature",
      "id": "BLDG-PUBLIC-TRACE-HALL",
      "properties": {
        "id": "BLDG-PUBLIC-TRACE-HALL",
        "layer": "BUILDING_FOOTPRINT",
        "source_type": "agent_generated_design",
        "confidence": "medium",
        "geometry_role": "design_proposal",
        "source_id": "AGENT-TASKBOOK",
        "derived_from_source_ids": [
          "AGENT-TASKBOOK",
          "SITE-PACKAGE"
        ],
        "design_status": "concept_only_non_statutory",
        "building_type": "cultural",
        "name_zh": "北京AI原点社区公共追溯厅",
        "name_en": "Beijing AI Origin Community Public Trace Hall",
        "project_id": "P-02-PUBLIC-TRACE-HALL",
        "phase_id": "PHASE-01-PUBLIC-PILOT",
        "facility_role": "integrity_station",
        "operating_role_zh": "提供公众查询、解释、申诉转介和脱敏事故学习",
        "operating_role_en": "Public inquiry, explanation, appeal routing, and sanitized incident learning",
        "retain_renovate_demolish_status": "concept_new_build_subject_to_survey",
        "area_sqm_declared": 14400.0
      },
      "geometry": {
        "type": "Polygon",
        "coordinates": [
          [
            [
              116.35089907560736,
              39.98811382603031
            ],
            [
              116.34902585029147,
              39.988103320232845
            ],
            [
              116.3490181564867,
              39.98891382731955
            ],
            [
              116.35089140393828,
              39.98892433341689
            ],
            [
              116.35089907560736,
              39.98811382603031
            ]
          ]
        ]
      }
    },
    {
      "type": "Feature",
      "id": "BLDG-RECALL-EXCHANGE",
      "properties": {
        "id": "BLDG-RECALL-EXCHANGE",
        "layer": "BUILDING_FOOTPRINT",
        "source_type": "agent_generated_design",
        "confidence": "medium",
        "geometry_role": "design_proposal",
        "source_id": "AGENT-TASKBOOK",
        "derived_from_source_ids": [
          "AGENT-TASKBOOK",
          "SITE-PACKAGE"
        ],
        "design_status": "concept_only_non_statutory",
        "building_type": "mobility_hub",
        "name_zh": "大钟寺召回与服务交换站",
        "name_en": "Dazhongsi Recall and Service Exchange",
        "project_id": "P-03-RECALL-EXCHANGE",
        "phase_id": "PHASE-03-LONG-TERM-OPERATIONS",
        "facility_role": "integrity_station",
        "operating_role_zh": "编排下游影响确认、隔离、替换和线下服务接续",
        "operating_role_en": "Downstream impact confirmation, quarantine, replacement, and offline continuity",
        "retain_renovate_demolish_status": "concept_new_build_subject_to_survey",
        "area_sqm_declared": 16150.0
      },
      "geometry": {
        "type": "Polygon",
        "coordinates": [
          [
            [
              116.34727549622961,
              39.946485464986075
            ],
            [
              116.34528640263578,
              39.94647424900654
            ],
            [
              116.34527824676478,
              39.947329789786146
            ],
            [
              116.3472673651328,
              39.94734100610372
            ],
            [
              116.34727549622961,
              39.946485464986075
            ]
          ]
        ]
      }
    },
    {
      "type": "Feature",
      "id": "BLDG-SERVICE-WING",
      "properties": {
        "id": "BLDG-SERVICE-WING",
        "layer": "BUILDING_FOOTPRINT",
        "source_type": "agent_generated_design",
        "confidence": "medium",
        "geometry_role": "design_proposal",
        "source_id": "AGENT-TASKBOOK",
        "derived_from_source_ids": [
          "AGENT-TASKBOOK",
          "SITE-PACKAGE"
        ],
        "design_status": "concept_only_non_statutory",
        "building_type": "mixed_use",
        "name_zh": "中关村服务翼协作楼",
        "name_en": "Zhongguancun Service Wing Collaboration Hall",
        "project_id": "P-04-SERVICE-WING",
        "phase_id": "PHASE-01-PUBLIC-PILOT",
        "facility_role": "support_facility",
        "operating_role_zh": "组织许可、采购、保险、披露与中小团队支持",
        "operating_role_en": "Licensing, procurement, insurance, disclosure, and small-team support",
        "retain_renovate_demolish_status": "concept_new_build_subject_to_survey",
        "area_sqm_declared": 16200.0
      },
      "geometry": {
        "type": "Polygon",
        "coordinates": [
          [
            [
              116.3435682798706,
              39.9816352495378
            ],
            [
              116.34146110358732,
              39.98162329670416
            ],
            [
              116.3414533221641,
              39.98243380347394
            ],
            [
              116.34356052334185,
              39.982445756648794
            ],
            [
              116.3435682798706,
              39.9816352495378
            ]
          ]
        ]
      }
    },
    {
      "type": "Feature",
      "id": "BLDG-LIFE-WING",
      "properties": {
        "id": "BLDG-LIFE-WING",
        "layer": "BUILDING_FOOTPRINT",
        "source_type": "agent_generated_design",
        "confidence": "medium",
        "geometry_role": "design_proposal",
        "source_id": "AGENT-TASKBOOK",
        "derived_from_source_ids": [
          "AGENT-TASKBOOK",
          "SITE-PACKAGE"
        ],
        "design_status": "concept_only_non_statutory",
        "building_type": "community_service",
        "name_zh": "小月河生活翼公共服务屋",
        "name_en": "Xiaoyue River Life Wing Public Service House",
        "project_id": "P-05-LIFE-WING",
        "phase_id": "PHASE-03-LONG-TERM-OPERATIONS",
        "facility_role": "support_facility",
        "operating_role_zh": "承接社区协商、无障碍求助和断网线下办理",
        "operating_role_en": "Community deliberation, accessible support, and offline service during outages",
        "retain_renovate_demolish_status": "concept_new_build_subject_to_survey",
        "area_sqm_declared": 14400.0
      },
      "geometry": {
        "type": "Polygon",
        "coordinates": [
          [
            [
              116.35425604289169,
              39.95526569156287
            ],
            [
              116.3523837128019,
              39.95525524711138
            ],
            [
              116.3523760675753,
              39.956065759344504
            ],
            [
              116.35424841976456,
              39.956076204094195
            ],
            [
              116.35425604289169,
              39.95526569156287
            ]
          ]
        ]
      }
    },
    {
      "type": "Feature",
      "id": "BLDG-CONTINUITY-DEPOT",
      "properties": {
        "id": "BLDG-CONTINUITY-DEPOT",
        "layer": "BUILDING_FOOTPRINT",
        "source_type": "agent_generated_design",
        "confidence": "medium",
        "geometry_role": "design_proposal",
        "source_id": "AGENT-TASKBOOK",
        "derived_from_source_ids": [
          "AGENT-TASKBOOK",
          "SITE-PACKAGE"
        ],
        "design_status": "concept_only_non_statutory",
        "building_type": "community_service",
        "name_zh": "人工兜底与连续运营站",
        "name_en": "Human Fallback and Continuity Depot",
        "project_id": "P-06-CONTINUITY-DEPOT",
        "phase_id": "PHASE-02-INTEGRITY-NETWORK",
        "facility_role": "support_facility",
        "operating_role_zh": "维护离线清单、人工值守和替代服务资源",
        "operating_role_en": "Offline rosters, human staffing, and substitute-service resources",
        "retain_renovate_demolish_status": "concept_new_build_subject_to_survey",
        "area_sqm_declared": 12000.0
      },
      "geometry": {
        "type": "Polygon",
        "coordinates": [
          [
            [
              116.35369935357222,
              40.01083972089327
            ],
            [
              116.35194262156693,
              40.01082991041998
            ],
            [
              116.3519358078084,
              40.011550358752494
            ],
            [
              116.35369255828104,
              40.011560169474656
            ],
            [
              116.35369935357222,
              40.01083972089327
            ]
          ]
        ]
      }
    }
  ]
}
