{
  "type": "FeatureCollection",
  "name": "integrity_yard_blue_green_system",
  "features": [
    {
      "type": "Feature",
      "id": "GREEN-LIFECYCLE-CORRIDOR",
      "properties": {
        "id": "GREEN-LIFECYCLE-CORRIDOR",
        "layer": "GREEN_SPACE",
        "source_type": "agent_generated_design",
        "confidence": "medium",
        "geometry_role": "design_proposal",
        "source_id": "AGENT-TASKBOOK",
        "derived_from_source_ids": [
          "AGENT-TASKBOOK",
          "SITE-PACKAGE"
        ],
        "design_status": "concept_only_non_statutory",
        "name_zh": "生命周期蓝绿公共廊道",
        "name_en": "Lifecycle blue-green public corridor",
        "project_id": "P-00-LIFECYCLE-CORRIDOR",
        "phase_id": "PHASE-02-INTEGRITY-NETWORK",
        "operating_role_zh": "承载慢行、雨洪调蓄、状态提示与公共学习",
        "operating_role_en": "Walking, stormwater retention, status cues, and public learning",
        "area_sqm_declared": 1748902.407
      },
      "geometry": {
        "type": "Polygon",
        "coordinates": [
          [
            [
              116.34754149171758,
              39.93900022892041
            ],
            [
              116.34670864142466,
              40.02650014860888
            ],
            [
              116.34881731263809,
              40.02650017112024
            ],
            [
              116.34964747476867,
              39.93900021812148
            ],
            [
              116.34754149171758,
              39.93900022892041
            ]
          ]
        ]
      }
    },
    {
      "type": "Feature",
      "id": "GREEN-RELEASE-GARDEN",
      "properties": {
        "id": "GREEN-RELEASE-GARDEN",
        "layer": "GREEN_SPACE",
        "source_type": "agent_generated_design",
        "confidence": "medium",
        "geometry_role": "design_proposal",
        "source_id": "AGENT-TASKBOOK",
        "derived_from_source_ids": [
          "AGENT-TASKBOOK",
          "SITE-PACKAGE"
        ],
        "design_status": "concept_only_non_statutory",
        "name_zh": "可信发布雨洪花园",
        "name_en": "Integrity Release rain garden",
        "project_id": "P-01-RELEASE-YARD",
        "phase_id": "PHASE-02-INTEGRITY-NETWORK",
        "operating_role_zh": "通过可见雨洪设施和安全演练标记把技术生命周期转译为公共体验",
        "operating_role_en": "Visible stormwater and exercise markers translate technical lifecycles into public experience",
        "area_sqm_declared": 81507.35
      },
      "geometry": {
        "type": "Polygon",
        "coordinates": [
          [
            [
              116.34477250428499,
              40.01542694273049
            ],
            [
              116.34466437606014,
              40.01543865114291
            ],
            [
              116.34455826100483,
              40.015458452190025
            ],
            [
              116.34445518103001,
              40.015486155183495
            ],
            [
              116.3443561288212,
              40.01552149333737
            ],
            [
              116.34426205827972,
              40.015564126337125
            ],
            [
              116.34417387533692,
              40.015613643616504
            ],
            [
              116.34409242923044,
              40.01566956831116
            ],
            [
              116.34401850432597,
              40.01573136185046
            ],
            [
              116.34395281256363,
              40.01579842914376
            ],
            [
              116.3438959866014,
              40.01587012431072
            ],
            [
              116.34384857372198,
              40.01594575690112
            ],
            [
              116.34381103056147,
              40.016024598543616
            ],
            [
              116.3437837187107,
              40.01610588995993
            ],
            [
              116.34376690123179,
              40.01618884827681
            ],
            [
              116.34376074012357,
              40.01627267456515
            ],
            [
              116.34375211369833,
              40.017173232651004
            ],
            [
              116.34375666836877,
              40.01725711960754
            ],
            [
              116.34377189509965,
              40.017340259368304
            ],
            [
              116.34379764728702,
              40.0174218512481
            ],
            [
              116.34383367695827,
              40.017501109466
            ],
            [
              116.34387963715898,
              40.017577270713
            ],
            [
              116.34393508529286,
              40.01764960150348
            ],
            [
              116.3439994873835,
              40.0177174052395
            ],
            [
              116.34407222321582,
              40.01778002891991
            ],
            [
              116.34415259230887,
              40.017836869429686
            ],
            [
              116.34423982066149,
              40.01788737934875
            ],
            [
              116.34433306820651,
              40.01793107222455
            ],
            [
              116.34443143690147,
              40.017967527257426
            ],
            [
              116.34453397937797,
              40.017996393353634
            ],
            [
              116.34463970806621,
              40.01801739250702
            ],
            [
              116.34474760470701,
              40.01803032247675
            ],
            [
              116.34485663015946,
              40.01803505873533
            ],
            [
              116.3469649273969,
              40.01804695876644
            ],
            [
              116.34707403158548,
              40.018043453713375
            ],
            [
              116.34718216354648,
              40.01803174308744
            ],
            [
              116.34728828187214,
              40.01801193967219
            ],
            [
              116.34739136454994,
              40.017984234191914
            ],
            [
              116.34749041880642,
              40.017948893474546
            ],
            [
              116.34758449066926,
              40.017906257881684
            ],
            [
              116.34767267415569,
              40.01785673803031
            ],
            [
              116.34775411999817,
              40.01780081083773
            ],
            [
              116.3478280438239,
              40.017739014928196
            ],
            [
              116.34789373370889,
              40.01767194544494
            ],
            [
              116.3479505570341,
              40.01760024831818
            ],
            [
              116.34799796657745,
              40.01752461404382
            ],
            [
              116.34803550578323,
              40.01744577103311
            ],
            [
              116.3480628131581,
              40.01736447859725
            ],
            [
              116.34807962575118,
              40.01728151963428
            ],
            [
              116.3480857816853,
              40.01719769308922
            ],
            [
              116.34809435115403,
              40.01629713422775
            ],
            [
              116.34808979121762,
              40.01621324738577
            ],
            [
              116.34807455947077,
              40.01613010813628
            ],
            [
              116.34804880264137,
              40.01604851715186
            ],
            [
              116.3480127688168,
              40.01596926019176
            ],
            [
              116.34796680505346,
              40.01589310053477
            ],
            [
              116.34791135403312,
              40.01582077162886
            ],
            [
              116.34784694979876,
              40.015752970028046
            ],
            [
              116.34777421261073,
              40.01569034868472
            ],
            [
              116.34769384297269,
              40.01563351066184
            ],
            [
              116.34760661488535,
              40.0155830033258
            ],
            [
              116.34751336839246,
              40.015539313075436
            ],
            [
              116.34741500149104,
              40.01550286065836
            ],
            [
              116.34731246148402,
              40.01547399711941
            ],
            [
              116.34720673585808,
              40.01545300042038
            ],
            [
              116.34709884277461,
              40.015440072763475
            ],
            [
              116.34698982126582,
              40.015435338644274
            ],
            [
              116.34488160438325,
              40.01542343970739
            ],
            [
              116.34477250428499,
              40.01542694273049
            ]
          ],
          [
            [
              116.34486481172972,
              40.01717952849556
            ],
            [
              116.34487342353103,
              40.016278970210074
            ],
            [
              116.34698166673559,
              40.0162908695054
            ],
            [
              116.34697308264288,
              40.017191428168225
            ],
            [
              116.34486481172972,
              40.01717952849556
            ]
          ]
        ]
      }
    },
    {
      "type": "Feature",
      "id": "GREEN-TRACE-GARDEN",
      "properties": {
        "id": "GREEN-TRACE-GARDEN",
        "layer": "GREEN_SPACE",
        "source_type": "agent_generated_design",
        "confidence": "medium",
        "geometry_role": "design_proposal",
        "source_id": "AGENT-TASKBOOK",
        "derived_from_source_ids": [
          "AGENT-TASKBOOK",
          "SITE-PACKAGE"
        ],
        "design_status": "concept_only_non_statutory",
        "name_zh": "公共追溯学习花园",
        "name_en": "Public Trace learning garden",
        "project_id": "P-02-PUBLIC-TRACE-HALL",
        "phase_id": "PHASE-01-PUBLIC-PILOT",
        "operating_role_zh": "通过可见雨洪设施和安全演练标记把技术生命周期转译为公共体验",
        "operating_role_en": "Visible stormwater and exercise markers translate technical lifecycles into public experience",
        "area_sqm_declared": 75807.35
      },
      "geometry": {
        "type": "Polygon",
        "coordinates": [
          [
            [
              116.34892491610978,
              39.987251292160224
            ],
            [
              116.34881683304502,
              39.98726300486558
            ],
            [
              116.34871076285879,
              39.98728281017015
            ],
            [
              116.34860772702997,
              39.987310517344504
            ],
            [
              116.34850871781902,
              39.98734585956249
            ],
            [
              116.34841468871313,
              39.987388496470366
            ],
            [
              116.34832654524475,
              39.987438017464285
            ],
            [
              116.34824513627125,
              39.987493945644076
            ],
            [
              116.34817124580081,
              39.98755574240556
            ],
            [
              116.3481055854419,
              39.98762281262702
            ],
            [
              116.3480487875501,
              39.987694510399926
            ],
            [
              116.34800139913773,
              39.98777014524892
            ],
            [
              116.34796387660519,
              39.98784898878088
            ],
            [
              116.34793658134465,
              39.9879302816994
            ],
            [
              116.34791977625846,
              39.98801324111665
            ],
            [
              116.34791362322598,
              39.98809706809297
            ],
            [
              116.34790591627814,
              39.98890757500122
            ],
            [
              116.34791047462627,
              39.988991462227936
            ],
            [
              116.3479257005903,
              39.98907460183702
            ],
            [
              116.34795144757364,
              39.98915619314478
            ],
            [
              116.34798746765377,
              39.989235450375816
            ],
            [
              116.34803341396848,
              39.989311610230565
            ],
            [
              116.34808884405531,
              39.989383939236866
            ],
            [
              116.34815322411151,
              39.989451740813976
            ],
            [
              116.34822593413425,
              39.989514361981534
            ],
            [
              116.34830627389111,
              39.98957119964874
            ],
            [
              116.34839346966342,
              39.98962170642289
            ],
            [
              116.34848668169784,
              39.98966539588177
            ],
            [
              116.34858501229388,
              39.98970184725863
            ],
            [
              116.34868751445008,
              39.98973070949492
            ],
            [
              116.34879320098497,
              39.989751704621696
            ],
            [
              116.3489010540454,
              39.9897646304369
            ],
            [
              116.34901003491025,
              39.989769362453075
            ],
            [
              116.35088330572825,
              39.98977986886696
            ],
            [
              116.35099236475801,
              39.98977635974685
            ],
            [
              116.35110045144583,
              39.989764645046435
            ],
            [
              116.35120652482001,
              39.98974483758848
            ],
            [
              116.35130956330099,
              39.9897171281362
            ],
            [
              116.35140857454098,
              39.98968178355579
            ],
            [
              116.351502604982,
              39.989639144246055
            ],
            [
              116.35159074904021,
              39.98958962085973
            ],
            [
              116.3516721578278,
              39.98953369034818
            ],
            [
              116.35174604732886,
              39.98947189136758
            ],
            [
              116.35181170594996,
              39.989404819090744
            ],
            [
              116.35186850137315,
              39.98933311947478
            ],
            [
              116.35191588664502,
              39.989257483039516
            ],
            [
              116.35195340544358,
              39.98917863821703
            ],
            [
              116.351980696472,
              39.989097344335946
            ],
            [
              116.35199749693678,
              39.98901438430823
            ],
            [
              116.35200364507747,
              39.98893055708911
            ],
            [
              116.35201130360349,
              39.988120049524895
            ],
            [
              116.35200674028022,
              39.98803616240729
            ],
            [
              116.35199150957476,
              39.98795302328182
            ],
            [
              116.35196575820483,
              39.98787143281988
            ],
            [
              116.3519297342052,
              39.98779217677568
            ],
            [
              116.35188378453763,
              39.98771601841922
            ],
            [
              116.35182835174807,
              39.987643691185944
            ],
            [
              116.35176396970394,
              39.987575891613744
            ],
            [
              116.35169125845181,
              39.98751327263551
            ],
            [
              116.3516109182456,
              39.98745643729145
            ],
            [
              116.35152372280253,
              39.987405932922165
            ],
            [
              116.35143051185196,
              39.987362245897906
            ],
            [
              116.3513321830487,
              39.98732579693527
            ],
            [
              116.35122968332881,
              39.98729693704582
            ],
            [
              116.35112399979093,
              39.987275944156224
            ],
            [
              116.35101615019127,
              39.98726302043202
            ],
            [
              116.35090717314323,
              39.98725829033089
            ],
            [
              116.34903397119182,
              39.98724778484996
            ],
            [
              116.34892491610978,
              39.987251292160224
            ]
          ],
          [
            [
              116.3490181564867,
              39.98891382731955
            ],
            [
              116.34902585029147,
              39.988103320232845
            ],
            [
              116.35089907560736,
              39.98811382603031
            ],
            [
              116.35089140393828,
              39.98892433341689
            ],
            [
              116.3490181564867,
              39.98891382731955
            ]
          ]
        ]
      }
    },
    {
      "type": "Feature",
      "id": "GREEN-RECALL-GARDEN",
      "properties": {
        "id": "GREEN-RECALL-GARDEN",
        "layer": "GREEN_SPACE",
        "source_type": "agent_generated_design",
        "confidence": "medium",
        "geometry_role": "design_proposal",
        "source_id": "AGENT-TASKBOOK",
        "derived_from_source_ids": [
          "AGENT-TASKBOOK",
          "SITE-PACKAGE"
        ],
        "design_status": "concept_only_non_statutory",
        "name_zh": "召回修复花园",
        "name_en": "Recall and repair garden",
        "project_id": "P-03-RECALL-EXCHANGE",
        "phase_id": "PHASE-03-LONG-TERM-OPERATIONS",
        "operating_role_zh": "通过可见雨洪设施和安全演练标记把技术生命周期转译为公共体验",
        "operating_role_en": "Visible stormwater and exercise markers translate technical lifecycles into public experience",
        "area_sqm_declared": 78657.35
      },
      "geometry": {
        "type": "Polygon",
        "coordinates": [
          [
            [
              116.34518556909254,
              39.94562221244799
            ],
            [
              116.34507755107508,
              39.94563392227407
            ],
            [
              116.3449715443407,
              39.945653724808935
            ],
            [
              116.34486856975718,
              39.945681429349854
            ],
            [
              116.34476961899534,
              39.945716769095995
            ],
            [
              116.34467564497949,
              39.9457594037174
            ],
            [
              116.34458755271152,
              39.945808922632246
            ],
            [
              116.3445061905558,
              39.94586484896034
            ],
            [
              116.34443234206958,
              39.94592664411531
            ],
            [
              116.344366718457,
              39.94599371299091
            ],
            [
              116.34430995171972,
              39.94606540969153
            ],
            [
              116.34426258857002,
              39.94614104375213
            ],
            [
              116.34422508516491,
              39.9462198867872
            ],
            [
              116.3441978027123,
              39.94630117950501
            ],
            [
              116.3441810039911,
              39.94638413901976
            ],
            [
              116.34417485081933,
              39.94646796639079
            ],
            [
              116.34416668110396,
              39.947323506981064
            ],
            [
              116.3441712328112,
              39.94740739489532
            ],
            [
              116.34418644570195,
              39.94749053547885
            ],
            [
              116.34421217330542,
              39.947572128038615
            ],
            [
              116.34424816788565,
              39.9476513867871
            ],
            [
              116.344294082826,
              39.94772754841024
            ],
            [
              116.34434947596603,
              39.94779987941878
            ],
            [
              116.34441381385884,
              39.94786768321276
            ],
            [
              116.34448647690763,
              39.94793030679051
            ],
            [
              116.34456676533235,
              39.94798714703798
            ],
            [
              116.34465390590869,
              39.948037656537686
            ],
            [
              116.34474705941489,
              39.948081348841164
            ],
            [
              116.34484532871419,
              39.94811780315428
            ],
            [
              116.3449477673955,
              39.948146668390265
            ],
            [
              116.34505338888873,
              39.94816766655124
            ],
            [
              116.34516117596715,
              39.94818059540599
            ],
            [
              116.34527009054518,
              39.94818533043775
            ],
            [
              116.34725923368842,
              39.948196547093346
            ],
            [
              116.34736822676206,
              39.94819304082835
            ],
            [
              116.34747624844908,
              39.94818132890235
            ],
            [
              116.34758225840393,
              39.94816152411139
            ],
            [
              116.34768523565785,
              39.94813381719298
            ],
            [
              116.34778418845274,
              39.94809847498889
            ],
            [
              116.34787816379352,
              39.948055837875025
            ],
            [
              116.34796625662706,
              39.94800631648295
            ],
            [
              116.34804761855888,
              39.947950387744825
            ],
            [
              116.34812146602432,
              39.947888590299684
            ],
            [
              116.34818708783477,
              39.94782151930556
            ],
            [
              116.34824385202674,
              39.94774982070717
            ],
            [
              116.34829121194758,
              39.947674185014556
            ],
            [
              116.34832871151941,
              39.947595340652605
            ],
            [
              116.34835598963043,
              39.947514046945486
            ],
            [
              116.34837278361151,
              39.94743108680349
            ],
            [
              116.34837893176457,
              39.94734725918297
            ],
            [
              116.348387049017,
              39.94649171787687
            ],
            [
              116.34838249220341,
              39.94640783007398
            ],
            [
              116.34836727444744,
              39.94632468998661
            ],
            [
              116.34834154234207,
              39.946243098295504
            ],
            [
              116.34830554373649,
              39.946163840766665
            ],
            [
              116.34825962534774,
              39.94608768068444
            ],
            [
              116.3482042294206,
              39.94601535150091
            ],
            [
              116.34813988946736,
              39.945947549772754
            ],
            [
              116.34806722512926,
              39.945884928453665
            ],
            [
              116.34798693620843,
              39.945828090606405
            ],
            [
              116.34789979592814,
              39.94577758359568
            ],
            [
              116.34780664348656,
              39.94573389381725
            ],
            [
              116.34770837597509,
              39.94569744201423
            ],
            [
              116.3476059397395,
              39.945668579225554
            ],
            [
              116.34750032126719,
              39.94564758340582
            ],
            [
              116.34739253768777,
              39.94563465674879
            ],
            [
              116.3472836269789,
              39.94562992374041
            ],
            [
              116.34529455815819,
              39.945618708098884
            ],
            [
              116.34518556909254,
              39.94562221244799
            ]
          ],
          [
            [
              116.34527824676478,
              39.947329789786146
            ],
            [
              116.34528640263578,
              39.94647424900654
            ],
            [
              116.34727549622961,
              39.946485464986075
            ],
            [
              116.3472673651328,
              39.94734100610372
            ],
            [
              116.34527824676478,
              39.947329789786146
            ]
          ]
        ]
      }
    }
  ]
}
