{
  "type": "FeatureCollection",
  "name": "integrity_yard_land_use_partition",
  "features": [
    {
      "type": "Feature",
      "id": "LU-CORRIDOR",
      "properties": {
        "id": "LU-CORRIDOR",
        "layer": "LAND_USE",
        "source_type": "agent_generated_design",
        "confidence": "medium",
        "geometry_role": "design_proposal",
        "source_id": "AGENT-TASKBOOK",
        "derived_from_source_ids": [
          "AGENT-TASKBOOK",
          "SITE-PACKAGE"
        ],
        "design_status": "concept_only_non_statutory",
        "land_use_code": "1401",
        "name_zh": "生命周期蓝绿公共廊道",
        "name_en": "Lifecycle blue-green public corridor",
        "project_id": "P-00-LIFECYCLE-CORRIDOR",
        "phase_id": "PHASE-02-INTEGRITY-NETWORK",
        "operating_role_zh": "公共空间与慢行廊道联合运营",
        "operating_role_en": "Joint public-space and greenway stewardship",
        "area_sqm_declared": 1748902.407
      },
      "geometry": {
        "type": "Polygon",
        "coordinates": [
          [
            [
              116.34754149171758,
              39.93900022892041
            ],
            [
              116.34670864142466,
              40.02650014860888
            ],
            [
              116.34881731263809,
              40.02650017112024
            ],
            [
              116.34964747476867,
              39.93900021812148
            ],
            [
              116.34754149171758,
              39.93900022892041
            ]
          ]
        ]
      }
    },
    {
      "type": "Feature",
      "id": "LU-WEST-NORTH",
      "properties": {
        "id": "LU-WEST-NORTH",
        "layer": "LAND_USE",
        "source_type": "agent_generated_design",
        "confidence": "medium",
        "geometry_role": "design_proposal",
        "source_id": "AGENT-TASKBOOK",
        "derived_from_source_ids": [
          "AGENT-TASKBOOK",
          "SITE-PACKAGE"
        ],
        "design_status": "concept_only_non_statutory",
        "land_use_code": "0802",
        "name_zh": "可信发布研发片",
        "name_en": "Integrity release research precinct",
        "project_id": "P-01-RELEASE-YARD",
        "phase_id": "PHASE-02-INTEGRITY-NETWORK",
        "operating_role_zh": "开源制品验证、复现测试与维护者支持",
        "operating_role_en": "Open artifact verification, reproducibility testing, and maintainer support",
        "area_sqm_declared": 1350154.637
      },
      "geometry": {
        "type": "Polygon",
        "coordinates": [
          [
            [
              116.34169999999999,
              40.00600000000001
            ],
            [
              116.34270000000001,
              40.0265
            ],
            [
              116.34670864142466,
              40.02650014860888
            ],
            [
              116.34698665843091,
              39.99733412774312
            ],
            [
              116.34113861172393,
              39.99730103000567
            ],
            [
              116.34169999999999,
              40.00600000000001
            ]
          ]
        ]
      }
    },
    {
      "type": "Feature",
      "id": "LU-WEST-CENTRAL",
      "properties": {
        "id": "LU-WEST-CENTRAL",
        "layer": "LAND_USE",
        "source_type": "agent_generated_design",
        "confidence": "medium",
        "geometry_role": "design_proposal",
        "source_id": "AGENT-TASKBOOK",
        "derived_from_source_ids": [
          "AGENT-TASKBOOK",
          "SITE-PACKAGE"
        ],
        "design_status": "concept_only_non_statutory",
        "land_use_code": "09",
        "name_zh": "中关村合规与服务翼",
        "name_en": "Zhongguancun compliance and service wing",
        "project_id": "P-04-SERVICE-WING",
        "phase_id": "PHASE-01-PUBLIC-PILOT",
        "operating_role_zh": "许可、采购、保险、法律和披露协调服务",
        "operating_role_en": "Licensing, procurement, insurance, legal, and disclosure coordination",
        "area_sqm_declared": 1897544.65
      },
      "geometry": {
        "type": "Polygon",
        "coordinates": [
          [
            [
              116.3397,
              39.975
            ],
            [
              116.34113861172393,
              39.99730103000567
            ],
            [
              116.34698665843091,
              39.99733412774312
            ],
            [
              116.3472644847013,
              39.968145438445966
            ],
            [
              116.33989166606412,
              39.968103687635235
            ],
            [
              116.3397,
              39.975
            ]
          ]
        ]
      }
    },
    {
      "type": "Feature",
      "id": "LU-WEST-SOUTH",
      "properties": {
        "id": "LU-WEST-SOUTH",
        "layer": "LAND_USE",
        "source_type": "agent_generated_design",
        "confidence": "medium",
        "geometry_role": "design_proposal",
        "source_id": "AGENT-TASKBOOK",
        "derived_from_source_ids": [
          "AGENT-TASKBOOK",
          "SITE-PACKAGE"
        ],
        "design_status": "concept_only_non_statutory",
        "land_use_code": "09",
        "name_zh": "召回修复与再部署服务片",
        "name_en": "Recall, repair, and redeployment service precinct",
        "project_id": "P-03-RECALL-EXCHANGE",
        "phase_id": "PHASE-03-LONG-TERM-OPERATIONS",
        "operating_role_zh": "召回编排、修复验证与下游服务恢复",
        "operating_role_en": "Recall orchestration, repair verification, and downstream service restoration",
        "area_sqm_declared": 1964188.802
      },
      "geometry": {
        "type": "Polygon",
        "coordinates": [
          [
            [
              116.33989166606412,
              39.968103687635235
            ],
            [
              116.3472644847013,
              39.968145438445966
            ],
            [
              116.34754149171758,
              39.93900022892041
            ],
            [
              116.34070000000001,
              39.93899999999999
            ],
            [
              116.33989166606412,
              39.968103687635235
            ]
          ]
        ]
      }
    },
    {
      "type": "Feature",
      "id": "LU-EAST-NORTH",
      "properties": {
        "id": "LU-EAST-NORTH",
        "layer": "LAND_USE",
        "source_type": "agent_generated_design",
        "confidence": "medium",
        "geometry_role": "design_proposal",
        "source_id": "AGENT-TASKBOOK",
        "derived_from_source_ids": [
          "AGENT-TASKBOOK",
          "SITE-PACKAGE"
        ],
        "design_status": "concept_only_non_statutory",
        "land_use_code": "0702",
        "name_zh": "维护者与人才社区服务片",
        "name_en": "Maintainer and talent community-service precinct",
        "project_id": "P-06-CONTINUITY-DEPOT",
        "phase_id": "PHASE-02-INTEGRITY-NETWORK",
        "operating_role_zh": "维护者轮值、培训和人工兜底协作",
        "operating_role_en": "Maintainer rotations, training, and human-fallback coordination",
        "area_sqm_declared": 1532139.568
      },
      "geometry": {
        "type": "Polygon",
        "coordinates": [
          [
            [
              116.35370378140554,
              39.99737177997888
            ],
            [
              116.34909431983775,
              39.99734598396723
            ],
            [
              116.34881731263809,
              40.02650017112024
            ],
            [
              116.3553,
              40.0265
            ],
            [
              116.35370378140554,
              39.99737177997888
            ]
          ]
        ]
      }
    },
    {
      "type": "Feature",
      "id": "LU-EAST-CENTRAL",
      "properties": {
        "id": "LU-EAST-CENTRAL",
        "layer": "LAND_USE",
        "source_type": "agent_generated_design",
        "confidence": "medium",
        "geometry_role": "design_proposal",
        "source_id": "AGENT-TASKBOOK",
        "derived_from_source_ids": [
          "AGENT-TASKBOOK",
          "SITE-PACKAGE"
        ],
        "design_status": "concept_only_non_statutory",
        "land_use_code": "0803",
        "name_zh": "公共追溯与事故学习文化片",
        "name_en": "Public traceability and incident-learning cultural precinct",
        "project_id": "P-02-PUBLIC-TRACE-HALL",
        "phase_id": "PHASE-01-PUBLIC-PILOT",
        "operating_role_zh": "向公众解释来源、状态、兜底和脱敏复盘",
        "operating_role_en": "Public explanation of provenance, status, fallback, and sanitized lessons",
        "area_sqm_declared": 1320767.918
      },
      "geometry": {
        "type": "Polygon",
        "coordinates": [
          [
            [
              116.3533,
              39.989999999999995
            ],
            [
              116.3550449694261,
              39.968188989207874
            ],
            [
              116.34937124955242,
              39.96815728248848
            ],
            [
              116.34909431983775,
              39.99734598396723
            ],
            [
              116.35370378140554,
              39.99737177997888
            ],
            [
              116.3533,
              39.989999999999995
            ]
          ]
        ]
      }
    },
    {
      "type": "Feature",
      "id": "LU-EAST-SOUTH",
      "properties": {
        "id": "LU-EAST-SOUTH",
        "layer": "LAND_USE",
        "source_type": "agent_generated_design",
        "confidence": "medium",
        "geometry_role": "design_proposal",
        "source_id": "AGENT-TASKBOOK",
        "derived_from_source_ids": [
          "AGENT-TASKBOOK",
          "SITE-PACKAGE"
        ],
        "design_status": "concept_only_non_statutory",
        "land_use_code": "0702",
        "name_zh": "小月河生活与连续服务翼",
        "name_en": "Xiaoyue River life and service-continuity wing",
        "project_id": "P-05-LIFE-WING",
        "phase_id": "PHASE-03-LONG-TERM-OPERATIONS",
        "operating_role_zh": "社区协商、线下办理与连续服务保障",
        "operating_role_en": "Community deliberation, offline service, and continuity support",
        "area_sqm_declared": 1599127.404
      },
      "geometry": {
        "type": "Polygon",
        "coordinates": [
          [
            [
              116.3553,
              39.965
            ],
            [
              116.3553,
              39.939
            ],
            [
              116.34964747476867,
              39.93900021812148
            ],
            [
              116.34937124955242,
              39.96815728248848
            ],
            [
              116.3550449694261,
              39.968188989207874
            ],
            [
              116.3553,
              39.965
            ]
          ]
        ]
      }
    }
  ]
}
