{
  "type": "FeatureCollection",
  "name": "integrity_yard_public_interfaces",
  "features": [
    {
      "type": "Feature",
      "id": "PUBLIC-RELEASE-YARD",
      "properties": {
        "id": "PUBLIC-RELEASE-YARD",
        "layer": "PUBLIC_SPACE",
        "source_type": "agent_generated_design",
        "confidence": "medium",
        "geometry_role": "design_proposal",
        "source_id": "AGENT-TASKBOOK",
        "derived_from_source_ids": [
          "AGENT-TASKBOOK",
          "SITE-PACKAGE"
        ],
        "design_status": "concept_only_non_statutory",
        "name_zh": "可信发布见证场",
        "name_en": "Integrity Release witness yard",
        "project_id": "P-01-RELEASE-YARD",
        "phase_id": "PHASE-02-INTEGRITY-NETWORK",
        "operating_role_zh": "发布前公开演示、维护者问答与制品状态展示",
        "operating_role_en": "Pre-release demonstrations, maintainer Q&A, and artifact-status display",
        "area_sqm_declared": 54569.088
      },
      "geometry": {
        "type": "Polygon",
        "coordinates": [
          [
            [
              116.34479906175183,
              40.01565116050694
            ],
            [
              116.34471938806841,
              40.015659787783854
            ],
            [
              116.34464119779167,
              40.01567437807321
            ],
            [
              116.34456524391769,
              40.015694790866085
            ],
            [
              116.34449225790698,
              40.015720829581035
            ],
            [
              116.3444229426408,
              40.01575224345706
            ],
            [
              116.34435796565258,
              40.015788729968385
            ],
            [
              116.34429795269949,
              40.015829937737585
            ],
            [
              116.3442434817365,
              40.015875469919344
            ],
            [
              116.3441950773503,
              40.01592488802196
            ],
            [
              116.34415320570729,
              40.01597771612987
            ],
            [
              116.34411827006376,
              40.01603344548682
            ],
            [
              116.3440906068822,
              40.01609153939508
            ],
            [
              116.3440704825903,
              40.016151438383886
            ],
            [
              116.34405809101447,
              40.0162125655973
            ],
            [
              116.34405355151262,
              40.01627433234949
            ],
            [
              116.3440449289358,
              40.01717489048792
            ],
            [
              116.34404828527218,
              40.017236701923345
            ],
            [
              116.34405950522323,
              40.017297962774016
            ],
            [
              116.3440784807552,
              40.017358083062405
            ],
            [
              116.3441050291424,
              40.017416483793696
            ],
            [
              116.34413889472607,
              40.01747260253203
            ],
            [
              116.34417975137615,
              40.0175258988172
            ],
            [
              116.3442272056312,
              40.01757585936986
            ],
            [
              116.34428080048754,
              40.01762200303492
            ],
            [
              116.3443400198,
              40.01766388541562
            ],
            [
              116.3444042932527,
              40.017701103153684
            ],
            [
              116.34447300185145,
              40.01773329781412
            ],
            [
              116.34454548388538,
              40.01776015933748
            ],
            [
              116.34462104129975,
              40.01778142902615
            ],
            [
              116.34469894641923,
              40.017796902036075
            ],
            [
              116.34477844895642,
              40.01780642934963
            ],
            [
              116.3448587832382,
              40.01780991921096
            ],
            [
              116.34696707354807,
              40.01782181914774
            ],
            [
              116.34704746584464,
              40.01781923648332
            ],
            [
              116.34712714177181,
              40.017810607626735
            ],
            [
              116.34720533398628,
              40.01779601568068
            ],
            [
              116.34728128943529,
              40.01777560117712
            ],
            [
              116.34735427660952,
              40.01774956072378
            ],
            [
              116.34742359258865,
              40.01771814511055
            ],
            [
              116.34748856981146,
              40.01768165689396
            ],
            [
              116.34754858250504,
              40.01764044748312
            ],
            [
              116.34760305271172,
              40.0175949137552
            ],
            [
              116.34765145585517,
              40.01754549423298
            ],
            [
              116.34769332579239,
              40.0174926648613
            ],
            [
              116.34772825930251,
              40.017436934423166
            ],
            [
              116.34775591996986,
              40.017378839639576
            ],
            [
              116.34777604142322,
              40.017318940000436
            ],
            [
              116.34778842990046,
              40.01725781237606
            ],
            [
              116.34779296611406,
              40.01719604546151
            ],
            [
              116.3478015394312,
              40.01629548665229
            ],
            [
              116.34779817974147,
              40.016233675288774
            ],
            [
              116.34778695660364,
              40.016172414763474
            ],
            [
              116.34776797812322,
              40.01611229504663
            ],
            [
              116.34774142709237,
              40.016053895120415
            ],
            [
              116.34770755922885,
              40.01599777740317
            ],
            [
              116.34766670071258,
              40.01594448233311
            ],
            [
              116.34761924504394,
              40.015894523163894
            ],
            [
              116.34756564925362,
              40.015848381021975
            ],
            [
              116.34750642950107,
              40.01580650027338
            ],
            [
              116.34744215610323,
              40.01576928424454
            ],
            [
              116.34737344804246,
              40.01573709133834
            ],
            [
              116.34730096700537,
              40.015710231582794
            ],
            [
              116.34722541101083,
              40.01568896364559
            ],
            [
              116.34714750768829,
              40.015673492343225
            ],
            [
              116.34706800727079,
              40.01566396666875
            ],
            [
              116.34698767537061,
              40.015660478356985
            ],
            [
              116.34487945156131,
              40.01564857932578
            ],
            [
              116.34479906175183,
              40.01565116050694
            ]
          ],
          [
            [
              116.34486481172972,
              40.01717952849556
            ],
            [
              116.34487342353103,
              40.016278970210074
            ],
            [
              116.34698166673559,
              40.0162908695054
            ],
            [
              116.34697308264288,
              40.017191428168225
            ],
            [
              116.34486481172972,
              40.01717952849556
            ]
          ]
        ]
      }
    },
    {
      "type": "Feature",
      "id": "PUBLIC-TRACE-FORECOURT",
      "properties": {
        "id": "PUBLIC-TRACE-FORECOURT",
        "layer": "PUBLIC_SPACE",
        "source_type": "agent_generated_design",
        "confidence": "medium",
        "geometry_role": "design_proposal",
        "source_id": "AGENT-TASKBOOK",
        "derived_from_source_ids": [
          "AGENT-TASKBOOK",
          "SITE-PACKAGE"
        ],
        "design_status": "concept_only_non_statutory",
        "name_zh": "公共追溯厅前场",
        "name_en": "Public Trace Hall forecourt",
        "project_id": "P-02-PUBLIC-TRACE-HALL",
        "phase_id": "PHASE-01-PUBLIC-PILOT",
        "operating_role_zh": "公众查询、申诉转介、AI素养课程和脱敏复盘",
        "operating_role_en": "Public inquiry, appeal routing, AI literacy, and sanitized review",
        "area_sqm_declared": 55143.085
      },
      "geometry": {
        "type": "Polygon",
        "coordinates": [
          [
            [
              116.3489461652146,
              39.9874306665073
            ],
            [
              116.34886083626134,
              39.987439913401964
            ],
            [
              116.34877709643865,
              39.987455549206494
            ],
            [
              116.348695752185,
              39.98747742334363
            ],
            [
              116.3486175868707,
              39.98750532515911
            ],
            [
              116.34854335325454,
              39.98753898595015
            ],
            [
              116.34847376623476,
              39.987578081552954
            ],
            [
              116.34840949596476,
              39.98762223546427
            ],
            [
              116.34835116139936,
              39.98767102246701
            ],
            [
              116.34829932433409,
              39.98772397272491
            ],
            [
              116.34825448399474,
              39.987780576307024
            ],
            [
              116.34821707222922,
              39.98784028809825
            ],
            [
              116.34818744934833,
              39.98790253304877
            ],
            [
              116.34816590065509,
              39.98796671171184
            ],
            [
              116.3481526336964,
              39.98803220601649
            ],
            [
              116.34814777626352,
              39.98809838521979
            ],
            [
              116.34814007208266,
              39.988908892165625
            ],
            [
              116.34814367100401,
              39.98897511891821
            ],
            [
              116.34815569171985,
              39.989040755429706
            ],
            [
              116.34817601848765,
              39.98910516958228
            ],
            [
              116.34820445557132,
              39.98916774102832
            ],
            [
              116.34824072912545,
              39.989227867165006
            ],
            [
              116.34828448983183,
              39.9892849689378
            ],
            [
              116.348335316263,
              39.98933849641737
            ],
            [
              116.34839271894036,
              39.989387934096065
            ],
            [
              116.34845614504766,
              39.989432805852815
            ],
            [
              116.34852498375508,
              39.9894726795388
            ],
            [
              116.34859857210175,
              39.98950717113967
            ],
            [
              116.34867620138066,
              39.98953594847411
            ],
            [
              116.34875712396445,
              39.98955873439328
            ],
            [
              116.34884056050585,
              39.98957530945017
            ],
            [
              116.34892570744418,
              39.989585514013264
            ],
            [
              116.34901174474469,
              39.989589249804034
            ],
            [
              116.35088501064334,
              39.98959975615127
            ],
            [
              116.3509711096519,
              39.98959698579867
            ],
            [
              116.3510564410296,
              39.989587737372965
            ],
            [
              116.35114018296511,
              39.98957209994396
            ],
            [
              116.35122152895602,
              39.98955022411271
            ],
            [
              116.35129969557669,
              39.98952232056104
            ],
            [
              116.35137393002388,
              39.98948865802241
            ],
            [
              116.35144351736724,
              39.98944956069346
            ],
            [
              116.35150778743495,
              39.98940540511162
            ],
            [
              116.35156612126814,
              39.98935661652849
            ],
            [
              116.35161795708186,
              39.98930366481408
            ],
            [
              116.35166279567542,
              39.98924705993127
            ],
            [
              116.35170020523958,
              39.9891873470244
            ],
            [
              116.35172982551488,
              39.989125101168774
            ],
            [
              116.35175137126029,
              39.98906092183213
            ],
            [
              116.35176463499977,
              39.98899542710126
            ],
            [
              116.35176948901943,
              39.98892924772921
            ],
            [
              116.3517771503124,
              39.98811874020235
            ],
            [
              116.35177354791426,
              39.98805251352519
            ],
            [
              116.35176152389097,
              39.98798687735149
            ],
            [
              116.35174119406406,
              39.987922463791115
            ],
            [
              116.35171275424266,
              39.987859893177784
            ],
            [
              116.35167647833703,
              39.98779976809507
            ],
            [
              116.35163271571992,
              39.98774266757343
            ],
            [
              116.35158188786134,
              39.987689141514096
            ],
            [
              116.351524484269,
              39.98763970539347
            ],
            [
              116.35146105777385,
              39.98759483529925
            ],
            [
              116.35139221920596,
              39.987554963345666
            ],
            [
              116.35131863151184,
              39.98752047351252
            ],
            [
              116.35124100337025,
              39.98749169794736
            ],
            [
              116.35116008236763,
              39.98746891376726
            ],
            [
              116.35107664779899,
              39.9874523403902
            ],
            [
              116.35099150316356,
              39.98744213742218
            ],
            [
              116.3509054684276,
              39.98743840312036
            ],
            [
              116.34903226155744,
              39.98742789757279
            ],
            [
              116.3489461652146,
              39.9874306665073
            ]
          ],
          [
            [
              116.3490181564867,
              39.98891382731955
            ],
            [
              116.34902585029147,
              39.988103320232845
            ],
            [
              116.35089907560736,
              39.98811382603031
            ],
            [
              116.35089140393828,
              39.98892433341689
            ],
            [
              116.3490181564867,
              39.98891382731955
            ]
          ]
        ]
      }
    },
    {
      "type": "Feature",
      "id": "PUBLIC-RECALL-PLAZA",
      "properties": {
        "id": "PUBLIC-RECALL-PLAZA",
        "layer": "PUBLIC_SPACE",
        "source_type": "agent_generated_design",
        "confidence": "medium",
        "geometry_role": "design_proposal",
        "source_id": "AGENT-TASKBOOK",
        "derived_from_source_ids": [
          "AGENT-TASKBOOK",
          "SITE-PACKAGE"
        ],
        "design_status": "concept_only_non_statutory",
        "name_zh": "召回与服务交换广场",
        "name_en": "Recall and Service Exchange plaza",
        "project_id": "P-03-RECALL-EXCHANGE",
        "phase_id": "PHASE-03-LONG-TERM-OPERATIONS",
        "operating_role_zh": "召回公告、替代服务登记与修复结果复核",
        "operating_role_en": "Recall notices, substitute-service registration, and repair-result review",
        "area_sqm_declared": 57393.085
      },
      "geometry": {
        "type": "Polygon",
        "coordinates": [
          [
            [
              116.34520679701089,
              39.945801588581546
            ],
            [
              116.34512151941121,
              39.94581083320303
            ],
            [
              116.34503782968248,
              39.945826466820904
            ],
            [
              116.34495653378076,
              39.9458483388789
            ],
            [
              116.34487841461076,
              39.94587623874282
            ],
            [
              116.34480422448694,
              39.94590989772863
            ],
            [
              116.34473467788867,
              39.94594899168993
            ],
            [
              116.34467044458007,
              39.94599314413926
            ],
            [
              116.34461214316003,
              39.94604192987357
            ],
            [
              116.34456033510487,
              39.94609487906884
            ],
            [
              116.34451551936095,
              39.94615148180431
            ],
            [
              116.34447812753932,
              39.94621119297303
            ],
            [
              116.34444851975866,
              39.94627343753116
            ],
            [
              116.3444269811765,
              39.94633761603577
            ],
            [
              116.34441371924235,
              39.946403110417364
            ],
            [
              116.34440886169904,
              39.94646928993229
            ],
            [
              116.34440069489831,
              39.94732483056245
            ],
            [
              116.34440428857641,
              39.94739105785783
            ],
            [
              116.34441629897078,
              39.947456695138676
            ],
            [
              116.34443661043827,
              39.947521110279745
            ],
            [
              116.34446502739009,
              39.9475836829239
            ],
            [
              116.34450127617468,
              39.94764381045677
            ],
            [
              116.34454500771236,
              39.94770091381041
            ],
            [
              116.34459580085657,
              39.94775444304026
            ],
            [
              116.34465316644915,
              39.94780388262186
            ],
            [
              116.34471655203116,
              39.94784875641579
            ],
            [
              116.34478534716297,
              39.94788863225365
            ],
            [
              116.34485888930341,
              39.94792312610035
            ],
            [
              116.34493647019048,
              39.947951905752994
            ],
            [
              116.34501734266287,
              39.9479746940404
            ],
            [
              116.34510072785602,
              39.947991271492754
            ],
            [
              116.34518582270375,
              39.94800147845552
            ],
            [
              116.34527180767303,
              39.948005216626996
            ],
            [
              116.34726094560033,
              39.94801643321144
            ],
            [
              116.3473469925387,
              39.948013665112846
            ],
            [
              116.34743227260047,
              39.948004418877424
            ],
            [
              116.34751596446849,
              39.94798878355386
            ],
            [
              116.34759726212256,
              39.94796690972293
            ],
            [
              116.34767538260265,
              39.9479390080472
            ],
            [
              116.34774957354988,
              39.947905347242035
            ],
            [
              116.34781912045281,
              39.947866251487355
            ],
            [
              116.34788335352916,
              39.94782209730546
            ],
            [
              116.34794165417625,
              39.947773309934426
            ],
            [
              116.34799346092878,
              39.947720359232555
            ],
            [
              116.34803827486587,
              39.947663755153
            ],
            [
              116.34807566441577,
              39.94760404283234
            ],
            [
              116.34810526951166,
              39.947541797340214
            ],
            [
              116.3481268050587,
              39.94747761814087
            ],
            [
              116.34814006367901,
              39.947412123319765
            ],
            [
              116.34814491770797,
              39.94734594363081
            ],
            [
              116.348153037875,
              39.94649040236436
            ],
            [
              116.3481494406156,
              39.946424175146184
            ],
            [
              116.3481374268152,
              39.946358538213175
            ],
            [
              116.34811711219673,
              39.94629412368244
            ],
            [
              116.34808869242288,
              39.946231551897135
            ],
            [
              116.3480524412108,
              39.94617142545209
            ],
            [
              116.34800870769537,
              39.94611432339091
            ],
            [
              116.34795791306637,
              39.94606079562962
            ],
            [
              116.34790054651138,
              39.94601135766107
            ],
            [
              116.34783716050474,
              39.94596648559075
            ],
            [
              116.34776836548659,
              39.94592661155197
            ],
            [
              116.34769482398401,
              39.945892119544574
            ],
            [
              116.34761724423099,
              39.945863341737095
            ],
            [
              116.34753637334795,
              39.9458405552682
            ],
            [
              116.34745299014727,
              39.94582397957792
            ],
            [
              116.34736789763356,
              39.94581377429453
            ],
            [
              116.3472819152711,
              39.94581003769752
            ],
            [
              116.34529284123506,
              39.94579882198482
            ],
            [
              116.34520679701089,
              39.945801588581546
            ]
          ],
          [
            [
              116.34527824676478,
              39.947329789786146
            ],
            [
              116.34528640263578,
              39.94647424900654
            ],
            [
              116.34727549622961,
              39.946485464986075
            ],
            [
              116.3472673651328,
              39.94734100610372
            ],
            [
              116.34527824676478,
              39.947329789786146
            ]
          ]
        ]
      }
    },
    {
      "type": "Feature",
      "id": "PUBLIC-SERVICE-COMMONS",
      "properties": {
        "id": "PUBLIC-SERVICE-COMMONS",
        "layer": "PUBLIC_SPACE",
        "source_type": "agent_generated_design",
        "confidence": "medium",
        "geometry_role": "design_proposal",
        "source_id": "AGENT-TASKBOOK",
        "derived_from_source_ids": [
          "AGENT-TASKBOOK",
          "SITE-PACKAGE"
        ],
        "design_status": "concept_only_non_statutory",
        "name_zh": "中关村服务共益庭",
        "name_en": "Zhongguancun Service Commons",
        "project_id": "P-04-SERVICE-WING",
        "phase_id": "PHASE-01-PUBLIC-PILOT",
        "operating_role_zh": "许可门诊、披露协调和中小维护者互助",
        "operating_role_en": "License clinics, disclosure coordination, and small-maintainer mutual aid",
        "area_sqm_declared": 48351.917
      },
      "geometry": {
        "type": "Polygon",
        "coordinates": [
          [
            [
              116.34139211323449,
              39.981040325565374
            ],
            [
              116.3413181675598,
              39.98104833478198
            ],
            [
              116.3412455984036,
              39.98106188115072
            ],
            [
              116.34117510463015,
              39.9810808342157
            ],
            [
              116.34110736511859,
              39.98110501145282
            ],
            [
              116.34104303222543,
              39.98113418002725
            ],
            [
              116.34098272550254,
              39.981168059035674
            ],
            [
              116.34092702573093,
              39.981206322211364
            ],
            [
              116.34087646932753,
              39.98124860106591
            ],
            [
              116.3408315431795,
              39.981294488437776
            ],
            [
              116.34079267995506,
              39.981343542413235
            ],
            [
              116.34076025393655,
              39.98139529058196
            ],
            [
              116.34073457741555,
              39.98144923458631
            ],
            [
              116.3407158976848,
              39.981504854920665
            ],
            [
              116.3407043946563,
              39.9815616159343
            ],
            [
              116.34070017912794,
              39.981618970989906
            ],
            [
              116.34069238871508,
              39.98242947763622
            ],
            [
              116.34069550132378,
              39.982486874366636
            ],
            [
              116.34070591217736,
              39.98254376001826
            ],
            [
              116.34072352103126,
              39.9825995867494
            ],
            [
              116.34074815831903,
              39.98265381691506
            ],
            [
              116.34077958678452,
              39.98270592824489
            ],
            [
              116.34081750376642,
              39.98275541887304
            ],
            [
              116.34086154411256,
              39.982801812171694
            ],
            [
              116.34091128369604,
              39.98284466134144
            ],
            [
              116.34096624349979,
              39.98288355371443
            ],
            [
              116.34102589422949,
              39.98291811472892
            ],
            [
              116.34108966141115,
              39.982948011536664
            ],
            [
              116.3411569309237,
              39.98297295620886
            ],
            [
              116.3412270549137,
              39.98299270850908
            ],
            [
              116.34129935803493,
              39.98300707820729
            ],
            [
              116.34137314395285,
              39.983015926911925
            ],
            [
              116.34144770205135,
              39.98301916940286
            ],
            [
              116.343554921209,
              39.983031122824144
            ],
            [
              116.3436295333926,
              39.983028726516494
            ],
            [
              116.34370348095574,
              39.983020715843075
            ],
            [
              116.34377605172531,
              39.98300716795282
            ],
            [
              116.34384654678875,
              39.98298821332239
            ],
            [
              116.34391428722562,
              39.98296403449944
            ],
            [
              116.34397862064644,
              39.982934864344514
            ],
            [
              116.3440389274762,
              39.982900983788156
            ],
            [
              116.34409462692139,
              39.98286271912524
            ],
            [
              116.34414518256365,
              39.98282043887228
            ],
            [
              116.34419010752582,
              39.982774550218195
            ],
            [
              116.34422896916088,
              39.98272549510255
            ],
            [
              116.34426139321823,
              39.98267374595916
            ],
            [
              116.34428706744778,
              39.98261980116616
            ],
            [
              116.34430574460649,
              39.982564180245966
            ],
            [
              116.3443172448391,
              39.98250741886197
            ],
            [
              116.34432145740949,
              39.982450063659556
            ],
            [
              116.3443292049486,
              39.98163955642563
            ],
            [
              116.34432608932664,
              39.98158215976017
            ],
            [
              116.34431567560132,
              39.981525274401235
            ],
            [
              116.34429806408009,
              39.981469448184114
            ],
            [
              116.34427342438802,
              39.981415218742754
            ],
            [
              116.34424199383318,
              39.98136310833208
            ],
            [
              116.34420407512101,
              39.981313618798616
            ],
            [
              116.3441600334385,
              39.98126722674761
            ],
            [
              116.34411029293688,
              39.98122437895326
            ],
            [
              116.3440553326466,
              39.98118548805636
            ],
            [
              116.34399568186402,
              39.98115092859055
            ],
            [
              116.34393191505384,
              39.98112103337562
            ],
            [
              116.34386464631712,
              39.98109609031258
            ],
            [
              116.34379452347727,
              39.98107633961125
            ],
            [
              116.3437222218417,
              39.981061971477025
            ],
            [
              116.34364843769876,
              39.98105312427941
            ],
            [
              116.34357388161268,
              39.9810498832195
            ],
            [
              116.34146672330807,
              39.98103793063225
            ],
            [
              116.34139211323449,
              39.981040325565374
            ]
          ],
          [
            [
              116.3414533221641,
              39.98243380347394
            ],
            [
              116.34146110358732,
              39.98162329670416
            ],
            [
              116.3435682798706,
              39.9816352495378
            ],
            [
              116.34356052334185,
              39.982445756648794
            ],
            [
              116.3414533221641,
              39.98243380347394
            ]
          ]
        ]
      }
    },
    {
      "type": "Feature",
      "id": "PUBLIC-LIFE-COMMONS",
      "properties": {
        "id": "PUBLIC-LIFE-COMMONS",
        "layer": "PUBLIC_SPACE",
        "source_type": "agent_generated_design",
        "confidence": "medium",
        "geometry_role": "design_proposal",
        "source_id": "AGENT-TASKBOOK",
        "derived_from_source_ids": [
          "AGENT-TASKBOOK",
          "SITE-PACKAGE"
        ],
        "design_status": "concept_only_non_statutory",
        "name_zh": "小月河生活共益庭",
        "name_en": "Xiaoyue River Life Commons",
        "project_id": "P-05-LIFE-WING",
        "phase_id": "PHASE-03-LONG-TERM-OPERATIONS",
        "operating_role_zh": "社区协商、无障碍帮助和断网服务入口",
        "operating_role_en": "Community deliberation, accessible help, and offline service entry",
        "area_sqm_declared": 45751.917
      },
      "geometry": {
        "type": "Polygon",
        "coordinates": [
          [
            [
              116.35231465304886,
              39.95467227930069
            ],
            [
              116.35224073700313,
              39.95468029575906
            ],
            [
              116.35216819785892,
              39.954693849267834
            ],
            [
              116.35209773419145,
              39.95471280930237
            ],
            [
              116.35203002459,
              39.95473699327137
            ],
            [
              116.351965721123,
              39.95476616827523
            ],
            [
              116.35190544305902,
              39.954800053348734
            ],
            [
              116.35184977090299,
              39.954838322166665
            ],
            [
              116.35179924080599,
              39.95488060618633
            ],
            [
              116.35175433940175,
              39.95492649819643
            ],
            [
              116.35171549912027,
              39.95497555623854
            ],
            [
              116.35168309402292,
              39.955027307863176
            ],
            [
              116.35165743619974,
              39.95508125467941
            ],
            [
              116.35163877276347,
              39.955136877154544
            ],
            [
              116.35162728346911,
              39.95519363961722
            ],
            [
              116.35162307898223,
              39.955250995416144
            ],
            [
              116.35161542477778,
              39.956061507527885
            ],
            [
              116.35161854562932,
              39.95611890428876
            ],
            [
              116.35162896184728,
              39.95617578925764
            ],
            [
              116.35164657313538,
              39.95623161459947
            ],
            [
              116.35167120990364,
              39.95628584268256
            ],
            [
              116.35170263490097,
              39.95633795125665
            ],
            [
              116.35174054549945,
              39.95638743848243
            ],
            [
              116.3517845766083,
              39.956433827764855
            ],
            [
              116.35183430418961,
              39.95647667234319
            ],
            [
              116.35188924934185,
              39.95651555959383
            ],
            [
              116.35194888291186,
              39.95655011500431
            ],
            [
              116.35201263059082,
              39.95658000578047
            ],
            [
              116.35207987844555,
              39.956604944051485
            ],
            [
              116.3521499788312,
              39.956624689642666
            ],
            [
              116.35222225662885,
              39.95663905238855
            ],
            [
              116.35229601574788,
              39.95664789396455
            ],
            [
              116.35237054583025,
              39.9566511292192
            ],
            [
              116.35424291398078,
              39.95666157418426
            ],
            [
              116.35431749720496,
              39.95665917075427
            ],
            [
              116.35439141515968,
              39.95665115298947
            ],
            [
              116.35446395595699,
              39.95663759810706
            ],
            [
              116.35453442097298,
              39.95661863665104
            ],
            [
              116.35460213157661,
              39.956594451234814
            ],
            [
              116.3546664356658,
              39.95656527478242
            ],
            [
              116.35472671394797,
              39.95653138828502
            ],
            [
              116.35478238590456,
              39.95649311809472
            ],
            [
              116.35483291538195,
              39.95645083278127
            ],
            [
              116.35487781575502,
              39.95640493958231
            ],
            [
              116.35491665461346,
              39.95635588048116
            ],
            [
              116.3549490579261,
              39.95630412795001
            ],
            [
              116.35497471364259,
              39.956250180399614
            ],
            [
              116.35499337469821,
              39.956194557378936
            ],
            [
              116.35500486139271,
              39.956137794571596
            ],
            [
              116.35500906312032,
              39.95608043863669
            ],
            [
              116.35501667726953,
              39.95526992598446
            ],
            [
              116.35501355360489,
              39.955212529284395
            ],
            [
              116.35500313471394,
              39.95515564458902
            ],
            [
              116.35498552095392,
              39.95509981972728
            ],
            [
              116.35496088197137,
              39.95504559232005
            ],
            [
              116.35492945506752,
              39.95499348460265
            ],
            [
              116.35489154291264,
              39.95494399839573
            ],
            [
              116.35484751063055,
              39.95489761027242
            ],
            [
              116.3547977822819,
              39.95485476696916
            ],
            [
              116.35474283678016,
              39.954815881083476
            ],
            [
              116.35468320327915,
              39.95478132710075
            ],
            [
              116.35461945607727,
              39.95475143778798
            ],
            [
              116.35455220908666,
              39.95472650098936
            ],
            [
              116.35448210992138,
              39.95470675685433
            ],
            [
              116.35440983366078,
              39.95469239552513
            ],
            [
              116.35433607634887,
              39.95468355530571
            ],
            [
              116.35426154829155,
              39.954680321329924
            ],
            [
              116.35238923416188,
              39.95466987709377
            ],
            [
              116.35231465304886,
              39.95467227930069
            ]
          ],
          [
            [
              116.3523760675753,
              39.956065759344504
            ],
            [
              116.3523837128019,
              39.95525524711138
            ],
            [
              116.35425604289169,
              39.95526569156287
            ],
            [
              116.35424841976456,
              39.956076204094195
            ],
            [
              116.3523760675753,
              39.956065759344504
            ]
          ]
        ]
      }
    }
  ]
}
