{
  "type": "FeatureCollection",
  "name": "integrity_yard_mobility_network",
  "features": [
    {
      "type": "Feature",
      "id": "ROAD-LIFECYCLE-GREENWAY",
      "properties": {
        "id": "ROAD-LIFECYCLE-GREENWAY",
        "layer": "ROAD_CENTERLINE",
        "source_type": "agent_generated_design",
        "confidence": "medium",
        "geometry_role": "design_proposal",
        "source_id": "AGENT-TASKBOOK",
        "derived_from_source_ids": [
          "AGENT-TASKBOOK",
          "SITE-PACKAGE"
        ],
        "design_status": "concept_only_non_statutory",
        "road_class": "greenway",
        "name_zh": "南北生命周期慢行主廊",
        "name_en": "North-south lifecycle greenway",
        "project_id": "P-00-LIFECYCLE-CORRIDOR",
        "phase_id": "PHASE-02-INTEGRITY-NETWORK",
        "operating_role_zh": "串联来源登记、发布、运行、召回、修复和公共学习界面",
        "operating_role_en": "Links intake, release, operation, recall, repair, and public learning",
        "capacity_status": "unknown_not_a_statutory_road"
      },
      "geometry": {
        "type": "LineString",
        "coordinates": [
          [
            116.34859448317829,
            39.9390002283029
          ],
          [
            116.3477629769662,
            40.02650016466126
          ]
        ]
      }
    },
    {
      "type": "Feature",
      "id": "ROAD-SERVICE-SPINE",
      "properties": {
        "id": "ROAD-SERVICE-SPINE",
        "layer": "ROAD_CENTERLINE",
        "source_type": "agent_generated_design",
        "confidence": "medium",
        "geometry_role": "design_proposal",
        "source_id": "AGENT-TASKBOOK",
        "derived_from_source_ids": [
          "AGENT-TASKBOOK",
          "SITE-PACKAGE"
        ],
        "design_status": "concept_only_non_statutory",
        "road_class": "local_access",
        "name_zh": "中关村服务翼低速服务脊",
        "name_en": "Zhongguancun Service Wing low-speed spine",
        "project_id": "P-04-SERVICE-WING",
        "phase_id": "PHASE-02-INTEGRITY-NETWORK",
        "operating_role_zh": "维护者、合规顾问和召回物流的低速概念接驳",
        "operating_role_en": "Concept low-speed access for maintainers, advisers, and recall logistics",
        "capacity_status": "unknown_not_a_statutory_road"
      },
      "geometry": {
        "type": "LineString",
        "coordinates": [
          [
            116.34566950722036,
            39.93900020640365
          ],
          [
            116.34483426745203,
            40.02650009638383
          ]
        ]
      }
    },
    {
      "type": "Feature",
      "id": "ROAD-LIFE-SPINE",
      "properties": {
        "id": "ROAD-LIFE-SPINE",
        "layer": "ROAD_CENTERLINE",
        "source_type": "agent_generated_design",
        "confidence": "medium",
        "geometry_role": "design_proposal",
        "source_id": "AGENT-TASKBOOK",
        "derived_from_source_ids": [
          "AGENT-TASKBOOK",
          "SITE-PACKAGE"
        ],
        "design_status": "concept_only_non_statutory",
        "road_class": "pedestrian",
        "name_zh": "小月河生活翼连续服务脊",
        "name_en": "Xiaoyue River Life Wing continuity spine",
        "project_id": "P-05-LIFE-WING",
        "phase_id": "PHASE-03-LONG-TERM-OPERATIONS",
        "operating_role_zh": "连接公共查询、社区求助和人工兜底服务",
        "operating_role_en": "Connects public inquiry, community assistance, and human fallback",
        "capacity_status": "unknown_not_a_statutory_road"
      },
      "geometry": {
        "type": "LineString",
        "coordinates": [
          [
            116.35151946013688,
            39.93900017640659
          ],
          [
            116.35069168748623,
            40.026500158915404
          ]
        ]
      }
    },
    {
      "type": "Feature",
      "id": "ROAD-RELEASE-CONNECTOR",
      "properties": {
        "id": "ROAD-RELEASE-CONNECTOR",
        "layer": "ROAD_CENTERLINE",
        "source_type": "agent_generated_design",
        "confidence": "medium",
        "geometry_role": "design_proposal",
        "source_id": "AGENT-TASKBOOK",
        "derived_from_source_ids": [
          "AGENT-TASKBOOK",
          "SITE-PACKAGE"
        ],
        "design_status": "concept_only_non_statutory",
        "road_class": "pedestrian",
        "name_zh": "可信发布场慢行接驳",
        "name_en": "Release Yard walking connector",
        "project_id": "P-00-LIFECYCLE-CORRIDOR",
        "phase_id": "PHASE-02-INTEGRITY-NETWORK",
        "operating_role_zh": "从重点节点接入生命周期廊道的无障碍步行界面",
        "operating_role_en": "Accessible walking interface from the station to the lifecycle corridor",
        "capacity_status": "unknown_not_a_statutory_road"
      },
      "geometry": {
        "type": "LineString",
        "coordinates": [
          [
            116.34592324605146,
            40.01673520390636
          ],
          [
            116.34785585004533,
            40.01674609584827
          ]
        ]
      }
    },
    {
      "type": "Feature",
      "id": "ROAD-TRACE-CONNECTOR",
      "properties": {
        "id": "ROAD-TRACE-CONNECTOR",
        "layer": "ROAD_CENTERLINE",
        "source_type": "agent_generated_design",
        "confidence": "medium",
        "geometry_role": "design_proposal",
        "source_id": "AGENT-TASKBOOK",
        "derived_from_source_ids": [
          "AGENT-TASKBOOK",
          "SITE-PACKAGE"
        ],
        "design_status": "concept_only_non_statutory",
        "road_class": "pedestrian",
        "name_zh": "公共追溯厅慢行接驳",
        "name_en": "Public Trace Hall walking connector",
        "project_id": "P-00-LIFECYCLE-CORRIDOR",
        "phase_id": "PHASE-01-PUBLIC-PILOT",
        "operating_role_zh": "从重点节点接入生命周期廊道的无障碍步行界面",
        "operating_role_en": "Accessible walking interface from the station to the lifecycle corridor",
        "capacity_status": "unknown_not_a_statutory_road"
      },
      "geometry": {
        "type": "LineString",
        "coordinates": [
          [
            116.34995862149692,
            39.98851383054821
          ],
          [
            116.34812450472785,
            39.988503529488234
          ]
        ]
      }
    },
    {
      "type": "Feature",
      "id": "ROAD-RECALL-CONNECTOR",
      "properties": {
        "id": "ROAD-RECALL-CONNECTOR",
        "layer": "ROAD_CENTERLINE",
        "source_type": "agent_generated_design",
        "confidence": "medium",
        "geometry_role": "design_proposal",
        "source_id": "AGENT-TASKBOOK",
        "derived_from_source_ids": [
          "AGENT-TASKBOOK",
          "SITE-PACKAGE"
        ],
        "design_status": "concept_only_non_statutory",
        "road_class": "pedestrian",
        "name_zh": "召回交换站慢行接驳",
        "name_en": "Recall Exchange walking connector",
        "project_id": "P-00-LIFECYCLE-CORRIDOR",
        "phase_id": "PHASE-03-LONG-TERM-OPERATIONS",
        "operating_role_zh": "从重点节点接入生命周期廊道的无障碍步行界面",
        "operating_role_en": "Accessible walking interface from the station to the lifecycle corridor",
        "capacity_status": "unknown_not_a_statutory_road"
      },
      "geometry": {
        "type": "LineString",
        "coordinates": [
          [
            116.34627687759493,
            39.94690763175208
          ],
          [
            116.34851936974769,
            39.946920255002134
          ]
        ]
      }
    },
    {
      "type": "Feature",
      "id": "ROAD-AREA-SERVICE-SURFACES",
      "properties": {
        "id": "ROAD-AREA-SERVICE-SURFACES",
        "layer": "ROAD_AREA",
        "source_type": "agent_generated_design",
        "confidence": "medium",
        "geometry_role": "design_proposal",
        "source_id": "AGENT-TASKBOOK",
        "derived_from_source_ids": [
          "AGENT-TASKBOOK",
          "SITE-PACKAGE"
        ],
        "design_status": "concept_only_non_statutory",
        "road_class": "local_access",
        "name_zh": "低速服务与接驳面",
        "name_en": "Low-speed service and connector surfaces",
        "project_id": "P-00-LIFECYCLE-CORRIDOR",
        "phase_id": "PHASE-02-INTEGRITY-NETWORK",
        "operating_role_zh": "仅用于概念面积复算，宽度不代表道路红线或容量",
        "operating_role_en": "Concept area calculation only; widths are neither redlines nor capacity claims",
        "capacity_status": "unknown_not_a_statutory_road",
        "area_sqm_declared": 316284.398
      },
      "geometry": {
        "type": "MultiPolygon",
        "coordinates": [
          [
            [
              [
                116.35161305444825,
                39.939000699869304
              ],
              [
                116.35161302583484,
                39.93900017352844
              ],
              [
                116.35142586085882,
                39.939000179210225
              ],
              [
                116.35059797372644,
                40.026499633761325
              ],
              [
                116.35059800236772,
                40.026500160245284
              ],
              [
                116.35078540623937,
                40.026500157509275
              ],
              [
                116.35161305444825,
                39.939000699869304
              ]
            ]
          ],
          [
            [
              [
                116.3481024984276,
                39.988461802893895
              ],
              [
                116.3480972873177,
                39.98846366298886
              ],
              [
                116.34809233832591,
                39.98846590701982
              ],
              [
                116.34808769911363,
                39.98846851337556
              ],
              [
                116.348083414359,
                39.98847145695549
              ],
              [
                116.34807952532654,
                39.98847470941136
              ],
              [
                116.34807606946974,
                39.98847823942029
              ],
              [
                116.34807308007046,
                39.98848201298639
              ],
              [
                116.34807058591826,
                39.98848599376821
              ],
              [
                116.34806861103327,
                39.98849014342868
              ],
              [
                116.3480671744348,
                39.9884944220043
              ],
              [
                116.34806628995817,
                39.9884987882901
              ],
              [
                116.34806596612147,
                39.988503200236366
              ],
              [
                116.34806620604354,
                39.98850761535364
              ],
              [
                116.34806700741387,
                39.988511991121925
              ],
              [
                116.348068362515,
                39.98851628540019
              ],
              [
                116.34807025829663,
                39.98852045683214
              ],
              [
                116.34807267650142,
                39.988524465244616
              ],
              [
                116.34807559384079,
                39.988528272034365
              ],
              [
                116.34807898221928,
                39.988531840539856
              ],
              [
                116.34808280900494,
                39.98853513639446
              ],
              [
                116.34808703734375,
                39.9885381278572
              ],
              [
                116.34809162651449,
                39.98854078611861
              ],
              [
                116.34809653232094,
                39.98854308557818
              ],
              [
                116.3481017075174,
                39.98854500409078
              ],
              [
                116.34810710226388,
                39.988546523180084
              ],
              [
                116.3481126646059,
                39.98854762821638
              ],
              [
                116.34811834097503,
                39.98854830855756
              ],
              [
                116.34812407670455,
                39.988548557651534
              ],
              [
                116.34995819467774,
                39.98855885872786
              ],
              [
                116.34996393452653,
                39.98855867408487
              ],
              [
                116.34996962320785,
                39.98855805757382
              ],
              [
                116.3499752059365,
                39.988557015132066
              ],
              [
                116.34998062894762,
                39.98855555679892
              ],
              [
                116.3499858400146,
                39.98855369661896
              ],
              [
                116.34999078895191,
                39.98855145250673
              ],
              [
                116.34999542809851,
                39.98854884607432
              ],
              [
                116.34999971277692,
                39.98854590242313
              ],
              [
                116.35000360172326,
                39.98854264990216
              ],
              [
                116.3500070574849,
                39.98853911983504
              ],
              [
                116.35001004678098,
                39.98853534621825
              ],
              [
                116.35001254082297,
                39.98853136539384
              ],
              [
                116.35001451559201,
                39.98852721569936
              ],
              [
                116.35001595207001,
                39.98852293709864
              ],
              [
                116.35001683642307,
                39.98851857079699
              ],
              [
                116.3500171601344,
                39.988514158844296
              ],
              [
                116.35001692008666,
                39.98850974373005
              ],
              [
                116.35001611859171,
                39.98850536797424
              ],
              [
                116.3500147633685,
                39.98850107371777
              ],
              [
                116.35001286746872,
                39.98849690231666
              ],
              [
                116.35001044915091,
                39.98849289394376
              ],
              [
                116.35000753170495,
                39.98848908720184
              ],
              [
                116.35000414322744,
                39.98848551875191
              ],
              [
                116.35000031635128,
                39.98848222296001
              ],
              [
                116.3499960879315,
                39.9884792315664
              ],
              [
                116.34999149868999,
                39.988476573379806
              ],
              [
                116.34998659282365,
                39.98847427399997
              ],
              [
                116.3499814175786,
                39.98847235557112
              ],
              [
                116.34997602279523,
                39.988470836568766
              ],
              [
                116.34997046042818,
                39.98846973162168
              ],
              [
                116.34996478404597,
                39.988469051371105
              ],
              [
                116.34995904831517,
                39.98846880236822
              ],
              [
                116.34812493275015,
                39.988458501324565
              ],
              [
                116.34811919290601,
                39.988458685876516
              ],
              [
                116.34811350421754,
                39.98845930229668
              ],
              [
                116.3481079214698,
                39.9884603446486
              ],
              [
                116.3481024984276,
                39.988461802893895
              ]
            ]
          ],
          [
            [
              [
                116.34853594358495,
                39.946963440012794
              ],
              [
                116.34854136332791,
                39.94696198171041
              ],
              [
                116.3485465712603,
                39.946960121556806
              ],
              [
                116.34855151722682,
                39.946957877466296
              ],
              [
                116.34855615359503,
                39.94695527105072
              ],
              [
                116.3485604357141,
                39.94695232741133
              ],
              [
                116.34856432234496,
                39.94694907489703
              ],
              [
                116.34856777605717,
                39.946945544831344
              ],
              [
                116.34857076358963,
                39.94694177121079
              ],
              [
                116.34857325617085,
                39.94693779037742
              ],
              [
                116.34857522979597,
                39.946933640668874
              ],
              [
                116.34857666545794,
                39.94692936204913
              ],
              [
                116.34857754933071,
                39.946924995723684
              ],
              [
                116.34857787290213,
                39.94692058374261
              ],
              [
                116.34857763305621,
                39.94691616859573
              ],
              [
                116.34857683210285,
                39.94691179280331
              ],
              [
                116.3485754777558,
                39.946907498506626
              ],
              [
                116.34857358305827,
                39.946903327062074
              ],
              [
                116.3485711662573,
                39.946899318642906
              ],
              [
                116.34856825062806,
                39.94689551185238
              ],
              [
                116.34856486424974,
                39.94689194335193
              ],
              [
                116.34856103973505,
                39.94688864750812
              ],
              [
                116.34855681391613,
                39.9468856560617
              ],
              [
                116.34855222748995,
                39.94688299782188
              ],
              [
                116.34854732462625,
                39.946880698388924
              ],
              [
                116.34854215254228,
                39.9468787799076
              ],
              [
                116.34853676104794,
                39.946877260853896
              ],
              [
                116.3485312020662,
                39.94687615585709
              ],
              [
                116.34852552913296,
                39.9468754755589
              ],
              [
                116.3485197968816,
                39.946875226510954
              ],
              [
                116.34627730619887,
                39.94686260328093
              ],
              [
                116.34627156983052,
                39.94686278777067
              ],
              [
                116.34626588457877,
                39.9468634041322
              ],
              [
                116.34626030519559,
                39.94686444642962
              ],
              [
                116.34625488541336,
                39.94686590462505
              ],
              [
                116.34624967742748,
                39.946867764675304
              ],
              [
                116.34624473139361,
                39.946870008667084
              ],
              [
                116.34624009494476,
                39.94687261498961
              ],
              [
                116.34623581273239,
                39.94687555854256
              ],
              [
                116.34623192599653,
                39.94687881097798
              ],
              [
                116.34622847216859,
                39.94688234097317
              ],
              [
                116.34622548451087,
                39.94688611453238
              ],
              [
                116.34622299179617,
                39.94689009531423
              ],
              [
                116.34622101803077,
                39.94689424498162
              ],
              [
                116.34621958222318,
                39.94689852357103
              ],
              [
                116.34621869820114,
                39.946902889877336
              ],
              [
                116.34621837447833,
                39.9469073018506
              ],
              [
                116.34621861417249,
                39.94691171700115
              ],
              [
                116.34621941497537,
                39.946916092808635
              ],
              [
                116.34622076917489,
                39.94692038713166
              ],
              [
                116.34622266372943,
                39.94692455861351
              ],
              [
                116.34622508039354,
                39.94692856708052
              ],
              [
                116.34622799589346,
                39.946932373928924
              ],
              [
                116.3462313821514,
                39.94693594249663
              ],
              [
                116.34623520655585,
                39.946939238416405
              ],
              [
                116.34623943227575,
                39.946942229946636
              ],
              [
                116.3462440186151,
                39.946944888277244
              ],
              [
                116.34624892140488,
                39.946947187806984
              ],
              [
                116.34625409342853,
                39.94694910639012
              ],
              [
                116.34625948487655,
                39.94695062554962
              ],
              [
                116.34626504382629,
                39.946951730655094
              ],
              [
                116.34627071674191,
                39.946952411063755
              ],
              [
                116.34627644899003,
                39.9469526602229
              ],
              [
                116.34851894261278,
                39.946965283492965
              ],
              [
                116.34852467898514,
                39.946965098892036
              ],
              [
                116.34853036422656,
                39.94696448241965
              ],
              [
                116.34853594358495,
                39.946963440012794
              ]
            ]
          ],
          [
            [
              [
                116.3478778650443,
                40.01678782235813
              ],
              [
                116.34788307832436,
                40.016785962299416
              ],
              [
                116.34788802938073,
                40.01678371830478
              ],
              [
                116.34789267053202,
                40.01678111198516
              ],
              [
                116.34789695708133,
                40.01677816844088
              ],
              [
                116.34790084774689,
                40.01677491601991
              ],
              [
                116.34790430505942,
                40.01677138604491
              ],
              [
                116.34790729572315,
                40.01676761251148
              ],
              [
                116.34790979093641,
                40.01676363176087
              ],
              [
                116.34791176666901,
                40.016759482129906
              ],
              [
                116.34791320389367,
                40.01675520358182
              ],
              [
                116.34791408876914,
                40.01675083732141
              ],
              [
                116.34791441277378,
                40.01674642539815
              ],
              [
                116.34791417278728,
                40.016742010301286
              ],
              [
                116.34791337112102,
                40.01673763455061
              ],
              [
                116.34791201549554,
                40.016733340286976
              ],
              [
                116.34791011896638,
                40.01672916886648
              ],
              [
                116.34790769979821,
                40.016725160462165
              ],
              [
                116.34790478128906,
                40.0167213536771
              ],
              [
                116.34790139154576,
                40.016717785172695
              ],
              [
                116.34789756321345,
                40.016714489315525
              ],
              [
                116.3478933331611,
                40.01671149784649
              ],
              [
                116.34788874212641,
                40.01670883957504
              ],
              [
                116.3478838343235,
                40.0167065401017
              ],
              [
                116.34787865701718,
                40.01670462157165
              ],
              [
                116.34787326006762,
                40.016703102461314
              ],
              [
                116.34786769545038,
                40.016701997400595
              ],
              [
                116.34786201675563,
                40.016701317031746
              ],
              [
                116.3478562786722,
                40.016701067907114
              ],
              [
                116.34592367594833,
                40.01669017598246
              ],
              [
                116.34591793373401,
                40.01669036040543
              ],
              [
                116.34591224268011,
                40.01669097669555
              ],
              [
                116.34590665759453,
                40.016692018917595
              ],
              [
                116.34590123226452,
                40.01669347703446
              ],
              [
                116.34589601893896,
                40.01669533700368
              ],
              [
                116.34589106782492,
                40.01669758091277
              ],
              [
                116.34588642660427,
                40.0167001871517
              ],
              [
                116.34588213997449,
                40.01670313062099
              ],
              [
                116.34587824921816,
                40.01670638297348
              ],
              [
                116.34587479180539,
                40.016709912887265
              ],
              [
                116.34587180103294,
                40.016713686367396
              ],
              [
                116.34586930570372,
                40.01671766707322
              ],
              [
                116.3458673298491,
                40.01672181666841
              ],
              [
                116.34586589249777,
                40.016726095190116
              ],
              [
                116.34586500749229,
                40.016730461433866
              ],
              [
                116.34586468335586,
                40.01673487335034
              ],
              [
                116.34586492321016,
                40.01673928845038
              ],
              [
                116.34586572474541,
                40.01674366421419
              ],
              [
                116.3458670802425,
                40.01674795850073
              ],
              [
                116.34586897664731,
                40.01675212995364
              ],
              [
                116.34587139569655,
                40.01675613839956
              ],
              [
                116.34587431409348,
                40.01675994523491
              ],
              [
                116.34587770373243,
                40.01676351379777
              ],
              [
                116.34588153196935,
                40.01676680972088
              ],
              [
                116.34588576193623,
                40.01676980126264
              ],
              [
                116.3458903528962,
                40.01677245961285
              ],
              [
                116.34589526063573,
                40.016774759170076
              ],
              [
                116.34590043789059,
                40.01677667778831
              ],
              [
                116.3459058348009,
                40.01677819699019
              ],
              [
                116.34591139939141,
                40.01677930214492
              ],
              [
                116.34591707807193,
                40.016779982609236
              ],
              [
                116.3459228161536,
                40.0167802318299
              ],
              [
                116.34785542141749,
                40.01679112378907
              ],
              [
                116.34786116363634,
                40.01679093927013
              ],
              [
                116.34786685468232,
                40.01679032288423
              ],
              [
                116.3478724397474,
                40.016789280567544
              ],
              [
                116.3478778650443,
                40.01678782235813
              ]
            ]
          ],
          [
            [
              [
                116.34576310142288,
                39.93900073458865
              ],
              [
                116.3457630728543,
                39.93900020824671
              ],
              [
                116.34557590800635,
                39.93900020448435
              ],
              [
                116.34474055380167,
                40.02649956649288
              ],
              [
                116.34474058239789,
                40.02650009297792
              ],
              [
                116.34492798614077,
                40.02650009971518
              ],
              [
                116.34576310142288,
                39.93900073458865
              ]
            ]
          ]
        ]
      }
    }
  ]
}
