{
  "type": "FeatureCollection",
  "features": [
    {
      "type": "Feature",
      "id": "CON-001",
      "properties": {
        "id": "CON-001",
        "layer": "HERITAGE_PROTECTION",
        "source_type": "agent_inferred_from_public_data",
        "confidence": "medium",
        "geometry_role": "design_proposal",
        "label_zh": "京张铁路遗址保护约束带",
        "label_en": "Jingzhang Railway Heritage Protection Constraint",
        "constraint_type": "heritage_protection",
        "official_boundary": false,
        "boundary_precision": "provisional_rough",
        "area_sqm_declared": 1657950.8
      },
      "geometry": {
        "type": "Polygon",
        "coordinates": [
          [
            [
              116.3475,
              39.939
            ],
            [
              116.3495,
              39.939
            ],
            [
              116.3495,
              40.0265
            ],
            [
              116.3475,
              40.0265
            ],
            [
              116.3475,
              39.939
            ]
          ]
        ]
      }
    }
  ],
  "name": "constraints"
}
