{
  "type": "FeatureCollection",
  "features": [
    {
      "type": "Feature",
      "id": "KA-ZHON",
      "properties": {
        "id": "KA-ZHON",
        "layer": "KEY_AREA",
        "source_type": "agent_inferred_from_public_data",
        "confidence": "medium",
        "geometry_role": "provisional_constraint",
        "area_id": "zhongzhiyuan_ai_acceleration_area",
        "name_zh": "众智园AI自主创新加速区",
        "name_en": "Zhongzhiyuan AI Acceleration Area",
        "official_boundary": false,
        "boundary_precision": "provisional_rough",
        "area_sqm_declared": 1927000.2,
        "usage_note": "Provisional key area; not official polygon."
      },
      "geometry": {
        "type": "Polygon",
        "coordinates": [
          [
            [
              116.343,
              40.0075
            ],
            [
              116.354,
              40.0075
            ],
            [
              116.354,
              40.026
            ],
            [
              116.343,
              40.026
            ],
            [
              116.343,
              40.0075
            ]
          ]
        ]
      }
    },
    {
      "type": "Feature",
      "id": "KA-BEIJ",
      "properties": {
        "id": "KA-BEIJ",
        "layer": "KEY_AREA",
        "source_type": "agent_inferred_from_public_data",
        "confidence": "medium",
        "geometry_role": "provisional_constraint",
        "area_id": "beijing_ai_origin_community",
        "name_zh": "北京AI原点社区",
        "name_en": "Beijing AI Origin Community",
        "official_boundary": false,
        "boundary_precision": "provisional_rough",
        "area_sqm_declared": 1042052.8,
        "usage_note": "Provisional key area; not official polygon."
      },
      "geometry": {
        "type": "Polygon",
        "coordinates": [
          [
            [
              116.342,
              39.9835
            ],
            [
              116.353,
              39.9835
            ],
            [
              116.353,
              39.9935
            ],
            [
              116.342,
              39.9935
            ],
            [
              116.342,
              39.9835
            ]
          ]
        ]
      }
    },
    {
      "type": "Feature",
      "id": "KA-DAZH",
      "properties": {
        "id": "KA-DAZH",
        "layer": "KEY_AREA",
        "source_type": "agent_inferred_from_public_data",
        "confidence": "medium",
        "geometry_role": "provisional_constraint",
        "area_id": "dazhongsi_ai_industry_cluster",
        "name_zh": "大钟寺AI产业集聚区",
        "name_en": "Dazhongsi AI Industry Cluster",
        "official_boundary": false,
        "boundary_precision": "provisional_rough",
        "area_sqm_declared": 719643.5,
        "usage_note": "Provisional key area; not official polygon."
      },
      "geometry": {
        "type": "Polygon",
        "coordinates": [
          [
            [
              116.342,
              39.944
            ],
            [
              116.355,
              39.944
            ],
            [
              116.355,
              39.94984
            ],
            [
              116.342,
              39.94984
            ],
            [
              116.342,
              39.944
            ]
          ]
        ]
      }
    }
  ],
  "name": "key_areas"
}
