{
  "type": "FeatureCollection",
  "features": [
    {
      "type": "Feature",
      "id": "LU-001",
      "properties": {
        "id": "LU-001",
        "layer": "LAND_USE",
        "land_use_code": "0701",
        "land_use_name_zh": "城镇住宅用地",
        "name_zh": "用地分区1",
        "source_type": "agent_inferred_from_public_data",
        "confidence": "medium",
        "geometry_role": "provisional_constraint",
        "official_boundary": false
      },
      "geometry": {
        "type": "Polygon",
        "coordinates": [
          [
            [
              116.3397,
              39.939
            ],
            [
              116.3553,
              39.939
            ],
            [
              116.3553,
              39.953583333333334
            ],
            [
              116.3397,
              39.953583333333334
            ],
            [
              116.3397,
              39.939
            ]
          ]
        ]
      }
    },
    {
      "type": "Feature",
      "id": "LU-002",
      "properties": {
        "id": "LU-002",
        "layer": "LAND_USE",
        "land_use_code": "0802",
        "land_use_name_zh": "科研用地",
        "name_zh": "用地分区2",
        "source_type": "agent_inferred_from_public_data",
        "confidence": "medium",
        "geometry_role": "provisional_constraint",
        "official_boundary": false
      },
      "geometry": {
        "type": "Polygon",
        "coordinates": [
          [
            [
              116.3397,
              39.953583333333334
            ],
            [
              116.3553,
              39.953583333333334
            ],
            [
              116.3553,
              39.96816666666667
            ],
            [
              116.3397,
              39.96816666666667
            ],
            [
              116.3397,
              39.953583333333334
            ]
          ]
        ]
      }
    },
    {
      "type": "Feature",
      "id": "LU-003",
      "properties": {
        "id": "LU-003",
        "layer": "LAND_USE",
        "land_use_code": "0901",
        "land_use_name_zh": "商业用地",
        "name_zh": "用地分区3",
        "source_type": "agent_inferred_from_public_data",
        "confidence": "medium",
        "geometry_role": "provisional_constraint",
        "official_boundary": false
      },
      "geometry": {
        "type": "Polygon",
        "coordinates": [
          [
            [
              116.3397,
              39.96816666666667
            ],
            [
              116.3553,
              39.96816666666667
            ],
            [
              116.3553,
              39.982749999999996
            ],
            [
              116.3397,
              39.982749999999996
            ],
            [
              116.3397,
              39.96816666666667
            ]
          ]
        ]
      }
    },
    {
      "type": "Feature",
      "id": "LU-004",
      "properties": {
        "id": "LU-004",
        "layer": "LAND_USE",
        "land_use_code": "1401",
        "land_use_name_zh": "公园绿地",
        "name_zh": "用地分区4",
        "source_type": "agent_inferred_from_public_data",
        "confidence": "medium",
        "geometry_role": "provisional_constraint",
        "official_boundary": false
      },
      "geometry": {
        "type": "Polygon",
        "coordinates": [
          [
            [
              116.3397,
              39.982749999999996
            ],
            [
              116.3553,
              39.982749999999996
            ],
            [
              116.3553,
              39.99733333333333
            ],
            [
              116.3397,
              39.99733333333333
            ],
            [
              116.3397,
              39.982749999999996
            ]
          ]
        ]
      }
    },
    {
      "type": "Feature",
      "id": "LU-005",
      "properties": {
        "id": "LU-005",
        "layer": "LAND_USE",
        "land_use_code": "0902",
        "land_use_name_zh": "商务金融用地",
        "name_zh": "用地分区5",
        "source_type": "agent_inferred_from_public_data",
        "confidence": "medium",
        "geometry_role": "provisional_constraint",
        "official_boundary": false
      },
      "geometry": {
        "type": "Polygon",
        "coordinates": [
          [
            [
              116.3397,
              39.99733333333333
            ],
            [
              116.3553,
              39.99733333333333
            ],
            [
              116.3553,
              40.011916666666664
            ],
            [
              116.3397,
              40.011916666666664
            ],
            [
              116.3397,
              39.99733333333333
            ]
          ]
        ]
      }
    },
    {
      "type": "Feature",
      "id": "LU-006",
      "properties": {
        "id": "LU-006",
        "layer": "LAND_USE",
        "land_use_code": "16",
        "land_use_name_zh": "留白用地",
        "name_zh": "用地分区6",
        "source_type": "agent_inferred_from_public_data",
        "confidence": "medium",
        "geometry_role": "provisional_constraint",
        "official_boundary": false
      },
      "geometry": {
        "type": "Polygon",
        "coordinates": [
          [
            [
              116.3397,
              40.011916666666664
            ],
            [
              116.3553,
              40.011916666666664
            ],
            [
              116.3553,
              40.0265
            ],
            [
              116.3397,
              40.0265
            ],
            [
              116.3397,
              40.011916666666664
            ]
          ]
        ]
      }
    }
  ],
  "name": "land_use"
}
