{
  "type": "FeatureCollection",
  "features": [
    {
      "type": "Feature",
      "id": "PH-001",
      "properties": {
        "id": "PH-001",
        "layer": "PHASE",
        "source_type": "agent_inferred_from_public_data",
        "confidence": "medium",
        "geometry_role": "design_proposal",
        "phase": "phase_1_near_term",
        "label_zh": "一期(近期): AI原点社区与大钟寺启动区",
        "label_en": "Phase 1 (Near-term): AI Origin & Dazhongsi Launch",
        "area_sqm_declared": 6097771.0
      },
      "geometry": {
        "type": "Polygon",
        "coordinates": [
          [
            [
              116.342,
              39.944
            ],
            [
              116.355,
              39.944
            ],
            [
              116.355,
              39.9935
            ],
            [
              116.342,
              39.9935
            ],
            [
              116.342,
              39.944
            ]
          ]
        ]
      }
    },
    {
      "type": "Feature",
      "id": "PH-002",
      "properties": {
        "id": "PH-002",
        "layer": "PHASE",
        "source_type": "agent_inferred_from_public_data",
        "confidence": "medium",
        "geometry_role": "design_proposal",
        "phase": "phase_2_mid_term",
        "label_zh": "二期(中期): 众智园加速区与南北贯通",
        "label_en": "Phase 2 (Mid-term): Zhongzhiyuan & Corridor Connection",
        "area_sqm_declared": 4135459.0
      },
      "geometry": {
        "type": "Polygon",
        "coordinates": [
          [
            [
              116.342,
              39.9935
            ],
            [
              116.3553,
              39.9935
            ],
            [
              116.3553,
              40.0265
            ],
            [
              116.3427,
              40.0265
            ],
            [
              116.3417,
              40.006
            ],
            [
              116.342,
              39.9935
            ]
          ]
        ]
      }
    },
    {
      "type": "Feature",
      "id": "PH-003",
      "properties": {
        "id": "PH-003",
        "layer": "PHASE",
        "source_type": "agent_inferred_from_public_data",
        "confidence": "medium",
        "geometry_role": "design_proposal",
        "phase": "phase_3_long_term",
        "label_zh": "三期(长期): 全带品质提升与运营成熟",
        "label_en": "Phase 3 (Long-term): Quality Upgrade & Operational Maturity",
        "area_sqm_declared": 1532658.4
      },
      "geometry": {
        "type": "Polygon",
        "coordinates": [
          [
            [
              116.3407,
              39.939
            ],
            [
              116.355,
              39.939
            ],
            [
              116.355,
              39.944
            ],
            [
              116.342,
              39.944
            ],
            [
              116.342,
              39.9935
            ],
            [
              116.3417,
              40.006
            ],
            [
              116.3397,
              39.975
            ],
            [
              116.3407,
              39.952
            ],
            [
              116.3407,
              39.939
            ]
          ]
        ]
      }
    }
  ],
  "name": "phasing"
}
