{
  "type": "FeatureCollection",
  "features": [
    {
      "type": "Feature",
      "id": "PS-001",
      "properties": {
        "id": "PS-001",
        "layer": "PUBLIC_SPACE",
        "source_type": "agent_inferred_from_public_data",
        "confidence": "medium",
        "geometry_role": "design_proposal",
        "label_zh": "京张遗址公园活力带",
        "label_en": "Jingzhang Heritage Park Activity Belt",
        "area_sqm_declared": 2486926.2
      },
      "geometry": {
        "type": "Polygon",
        "coordinates": [
          [
            [
              116.349,
              39.939
            ],
            [
              116.352,
              39.939
            ],
            [
              116.352,
              40.0265
            ],
            [
              116.349,
              40.0265
            ],
            [
              116.349,
              39.939
            ]
          ]
        ]
      }
    },
    {
      "type": "Feature",
      "id": "PS-002",
      "properties": {
        "id": "PS-002",
        "layer": "PUBLIC_SPACE",
        "source_type": "agent_inferred_from_public_data",
        "confidence": "medium",
        "geometry_role": "design_proposal",
        "label_zh": "AI原点社区广场",
        "label_en": "AI Origin Community Plaza",
        "area_sqm_declared": 75786.2
      },
      "geometry": {
        "type": "Polygon",
        "coordinates": [
          [
            [
              116.347,
              39.986
            ],
            [
              116.349,
              39.986
            ],
            [
              116.349,
              39.99
            ],
            [
              116.347,
              39.99
            ],
            [
              116.347,
              39.986
            ]
          ]
        ]
      }
    },
    {
      "type": "Feature",
      "id": "PS-003",
      "properties": {
        "id": "PS-003",
        "layer": "PUBLIC_SPACE",
        "source_type": "agent_inferred_from_public_data",
        "confidence": "medium",
        "geometry_role": "design_proposal",
        "label_zh": "众智园创新广场",
        "label_en": "Zhongzhiyuan Innovation Plaza",
        "area_sqm_declared": 142037.8
      },
      "geometry": {
        "type": "Polygon",
        "coordinates": [
          [
            [
              116.349,
              40.015
            ],
            [
              116.352,
              40.015
            ],
            [
              116.352,
              40.02
            ],
            [
              116.349,
              40.02
            ],
            [
              116.349,
              40.015
            ]
          ]
        ]
      }
    },
    {
      "type": "Feature",
      "id": "PS-004",
      "properties": {
        "id": "PS-004",
        "layer": "PUBLIC_SPACE",
        "source_type": "agent_inferred_from_public_data",
        "confidence": "medium",
        "geometry_role": "design_proposal",
        "label_zh": "大钟寺青年活力广场",
        "label_en": "Dazhongsi Youth Vitality Plaza",
        "area_sqm_declared": 85311.3
      },
      "geometry": {
        "type": "Polygon",
        "coordinates": [
          [
            [
              116.349,
              39.945
            ],
            [
              116.352,
              39.945
            ],
            [
              116.352,
              39.948
            ],
            [
              116.349,
              39.948
            ],
            [
              116.349,
              39.945
            ]
          ]
        ]
      }
    },
    {
      "type": "Feature",
      "id": "PS-005",
      "properties": {
        "id": "PS-005",
        "layer": "PUBLIC_SPACE",
        "source_type": "agent_inferred_from_public_data",
        "confidence": "medium",
        "geometry_role": "design_proposal",
        "label_zh": "开发者散步道",
        "label_en": "Developer's Walk",
        "area_sqm_declared": 1421001.9
      },
      "geometry": {
        "type": "Polygon",
        "coordinates": [
          [
            [
              116.346,
              39.95
            ],
            [
              116.348,
              39.95
            ],
            [
              116.348,
              40.025
            ],
            [
              116.346,
              40.025
            ],
            [
              116.346,
              39.95
            ]
          ]
        ]
      }
    }
  ],
  "name": "public_space"
}