{
  "type": "FeatureCollection",
  "features": [
    {
      "type": "Feature",
      "id": "RD-001",
      "properties": {
        "id": "RD-001",
        "layer": "ROAD_CENTERLINE",
        "source_type": "agent_inferred_from_public_data",
        "confidence": "medium",
        "geometry_role": "design_proposal",
        "label_zh": "学院路(北段)",
        "label_en": "Xueyuan Road (North)",
        "area_sqm_declared": 1077668.0
      },
      "geometry": {
        "type": "Polygon",
        "coordinates": [
          [
            [
              116.3407,
              39.939
            ],
            [
              116.342,
              39.939
            ],
            [
              116.342,
              40.0265
            ],
            [
              116.3407,
              40.0265
            ],
            [
              116.3407,
              39.939
            ]
          ]
        ]
      }
    },
    {
      "type": "Feature",
      "id": "RD-002",
      "properties": {
        "id": "RD-002",
        "layer": "ROAD_CENTERLINE",
        "source_type": "agent_inferred_from_public_data",
        "confidence": "medium",
        "geometry_role": "design_proposal",
        "label_zh": "中关村东路",
        "label_en": "Zhongguancun East Road",
        "area_sqm_declared": 1906643.4
      },
      "geometry": {
        "type": "Polygon",
        "coordinates": [
          [
            [
              116.353,
              39.939
            ],
            [
              116.3553,
              39.939
            ],
            [
              116.3553,
              40.0265
            ],
            [
              116.353,
              40.0265
            ],
            [
              116.353,
              39.939
            ]
          ]
        ]
      }
    },
    {
      "type": "Feature",
      "id": "RD-003",
      "properties": {
        "id": "RD-003",
        "layer": "ROAD_CENTERLINE",
        "source_type": "agent_inferred_from_public_data",
        "confidence": "medium",
        "geometry_role": "design_proposal",
        "label_zh": "京张慢行绿道",
        "label_en": "Jingzhang Slow Mobility Path",
        "area_sqm_declared": 828975.4
      },
      "geometry": {
        "type": "Polygon",
        "coordinates": [
          [
            [
              116.345,
              39.939
            ],
            [
              116.346,
              39.939
            ],
            [
              116.346,
              40.0265
            ],
            [
              116.345,
              40.0265
            ],
            [
              116.345,
              39.939
            ]
          ]
        ]
      }
    }
  ],
  "name": "roads"
}
