{
  "type": "FeatureCollection",
  "name": "concept_building_prototypes",
  "features": [
    {
      "type": "Feature",
      "id": "BLDG-001",
      "properties": {
        "id": "BLDG-001",
        "layer": "BUILDING_FOOTPRINT",
        "source_type": "agent_generated_design",
        "confidence": "medium",
        "geometry_role": "design_proposal",
        "name_zh": "开放算力与公共服务原型",
        "area_sqm_declared": 24008.126,
        "building_type": "mixed_use",
        "intervention": "prototype_envelope_pending_existing_building_survey",
        "statutory_status": "concept_only"
      },
      "geometry": {
        "type": "Polygon",
        "coordinates": [
          [
            [
              116.34264999999999,
              39.947849999999995
            ],
            [
              116.34264999999999,
              39.95015
            ],
            [
              116.34375,
              39.95015
            ],
            [
              116.34375,
              39.947849999999995
            ],
            [
              116.34264999999999,
              39.947849999999995
            ]
          ]
        ]
      }
    },
    {
      "type": "Feature",
      "id": "BLDG-002",
      "properties": {
        "id": "BLDG-002",
        "layer": "BUILDING_FOOTPRINT",
        "source_type": "agent_generated_design",
        "confidence": "medium",
        "geometry_role": "design_proposal",
        "name_zh": "人才共享客厅原型",
        "area_sqm_declared": 24007.051,
        "building_type": "talent_apartment",
        "intervention": "prototype_envelope_pending_existing_building_survey",
        "statutory_status": "concept_only"
      },
      "geometry": {
        "type": "Polygon",
        "coordinates": [
          [
            [
              116.34944999999999,
              39.950849999999996
            ],
            [
              116.34944999999999,
              39.95315
            ],
            [
              116.35055,
              39.95315
            ],
            [
              116.35055,
              39.950849999999996
            ],
            [
              116.34944999999999,
              39.950849999999996
            ]
          ]
        ]
      }
    },
    {
      "type": "Feature",
      "id": "BLDG-003",
      "properties": {
        "id": "BLDG-003",
        "layer": "BUILDING_FOOTPRINT",
        "source_type": "agent_generated_design",
        "confidence": "medium",
        "geometry_role": "design_proposal",
        "name_zh": "智能体产品中试原型",
        "area_sqm_declared": 24001.216,
        "building_type": "lab",
        "intervention": "prototype_envelope_pending_existing_building_survey",
        "statutory_status": "concept_only"
      },
      "geometry": {
        "type": "Polygon",
        "coordinates": [
          [
            [
              116.34245,
              39.96785
            ],
            [
              116.34245,
              39.970150000000004
            ],
            [
              116.34355000000001,
              39.970150000000004
            ],
            [
              116.34355000000001,
              39.96785
            ],
            [
              116.34245,
              39.96785
            ]
          ]
        ]
      }
    },
    {
      "type": "Feature",
      "id": "BLDG-004",
      "properties": {
        "id": "BLDG-004",
        "layer": "BUILDING_FOOTPRINT",
        "source_type": "agent_generated_design",
        "confidence": "medium",
        "geometry_role": "design_proposal",
        "name_zh": "智能原生商业原型",
        "area_sqm_declared": 24000.311,
        "building_type": "retail",
        "intervention": "prototype_envelope_pending_existing_building_survey",
        "statutory_status": "concept_only"
      },
      "geometry": {
        "type": "Polygon",
        "coordinates": [
          [
            [
              116.34965,
              39.970349999999996
            ],
            [
              116.34965,
              39.97265
            ],
            [
              116.35075,
              39.97265
            ],
            [
              116.35075,
              39.970349999999996
            ],
            [
              116.34965,
              39.970349999999996
            ]
          ]
        ]
      }
    },
    {
      "type": "Feature",
      "id": "BLDG-005",
      "properties": {
        "id": "BLDG-005",
        "layer": "BUILDING_FOOTPRINT",
        "source_type": "agent_generated_design",
        "confidence": "medium",
        "geometry_role": "design_proposal",
        "name_zh": "近校孵化器原型",
        "area_sqm_declared": 23994.647,
        "building_type": "incubator",
        "intervention": "prototype_envelope_pending_existing_building_survey",
        "statutory_status": "concept_only"
      },
      "geometry": {
        "type": "Polygon",
        "coordinates": [
          [
            [
              116.34245,
              39.98685
            ],
            [
              116.34245,
              39.98915
            ],
            [
              116.34355000000001,
              39.98915
            ],
            [
              116.34355000000001,
              39.98685
            ],
            [
              116.34245,
              39.98685
            ]
          ]
        ]
      }
    },
    {
      "type": "Feature",
      "id": "BLDG-006",
      "properties": {
        "id": "BLDG-006",
        "layer": "BUILDING_FOOTPRINT",
        "source_type": "agent_generated_design",
        "confidence": "medium",
        "geometry_role": "design_proposal",
        "name_zh": "开源成果转化原型",
        "area_sqm_declared": 23993.916,
        "building_type": "ai_r_and_d",
        "intervention": "prototype_envelope_pending_existing_building_survey",
        "statutory_status": "concept_only"
      },
      "geometry": {
        "type": "Polygon",
        "coordinates": [
          [
            [
              116.34955,
              39.98885
            ],
            [
              116.34955,
              39.991150000000005
            ],
            [
              116.35065,
              39.991150000000005
            ],
            [
              116.35065,
              39.98885
            ],
            [
              116.34955,
              39.98885
            ]
          ]
        ]
      }
    },
    {
      "type": "Feature",
      "id": "BLDG-007",
      "properties": {
        "id": "BLDG-007",
        "layer": "BUILDING_FOOTPRINT",
        "source_type": "agent_generated_design",
        "confidence": "medium",
        "geometry_role": "design_proposal",
        "name_zh": "安全评测共性平台原型",
        "area_sqm_declared": 23987.556,
        "building_type": "lab",
        "intervention": "prototype_envelope_pending_existing_building_survey",
        "statutory_status": "concept_only"
      },
      "geometry": {
        "type": "Polygon",
        "coordinates": [
          [
            [
              116.34275,
              40.007349999999995
            ],
            [
              116.34275,
              40.00965
            ],
            [
              116.34385,
              40.00965
            ],
            [
              116.34385,
              40.007349999999995
            ],
            [
              116.34275,
              40.007349999999995
            ]
          ]
        ]
      }
    },
    {
      "type": "Feature",
      "id": "BLDG-008",
      "properties": {
        "id": "BLDG-008",
        "layer": "BUILDING_FOOTPRINT",
        "source_type": "agent_generated_design",
        "confidence": "medium",
        "geometry_role": "design_proposal",
        "name_zh": "国际创新服务原型",
        "area_sqm_declared": 23986.826,
        "building_type": "office",
        "intervention": "prototype_envelope_pending_existing_building_survey",
        "statutory_status": "concept_only"
      },
      "geometry": {
        "type": "Polygon",
        "coordinates": [
          [
            [
              116.34944999999999,
              40.00935
            ],
            [
              116.34944999999999,
              40.01165
            ],
            [
              116.35055,
              40.01165
            ],
            [
              116.35055,
              40.00935
            ],
            [
              116.34944999999999,
              40.00935
            ]
          ]
        ]
      }
    },
    {
      "type": "Feature",
      "id": "BLDG-009",
      "properties": {
        "id": "BLDG-009",
        "layer": "BUILDING_FOOTPRINT",
        "source_type": "agent_generated_design",
        "confidence": "medium",
        "geometry_role": "design_proposal",
        "name_zh": "全栈协同研发原型",
        "area_sqm_declared": 23983.922,
        "building_type": "ai_r_and_d",
        "intervention": "prototype_envelope_pending_existing_building_survey",
        "statutory_status": "concept_only"
      },
      "geometry": {
        "type": "Polygon",
        "coordinates": [
          [
            [
              116.34285,
              40.017849999999996
            ],
            [
              116.34285,
              40.02015
            ],
            [
              116.34395,
              40.02015
            ],
            [
              116.34395,
              40.017849999999996
            ],
            [
              116.34285,
              40.017849999999996
            ]
          ]
        ]
      }
    },
    {
      "type": "Feature",
      "id": "BLDG-010",
      "properties": {
        "id": "BLDG-010",
        "layer": "BUILDING_FOOTPRINT",
        "source_type": "agent_generated_design",
        "confidence": "medium",
        "geometry_role": "design_proposal",
        "name_zh": "治理对话与展示原型",
        "area_sqm_declared": 23983.366,
        "building_type": "cultural",
        "intervention": "prototype_envelope_pending_existing_building_survey",
        "statutory_status": "concept_only"
      },
      "geometry": {
        "type": "Polygon",
        "coordinates": [
          [
            [
              116.34944999999999,
              40.019349999999996
            ],
            [
              116.34944999999999,
              40.02165
            ],
            [
              116.35055,
              40.02165
            ],
            [
              116.35055,
              40.019349999999996
            ],
            [
              116.34944999999999,
              40.019349999999996
            ]
          ]
        ]
      }
    },
    {
      "type": "Feature",
      "id": "BLDG-011",
      "properties": {
        "id": "BLDG-011",
        "layer": "BUILDING_FOOTPRINT",
        "source_type": "agent_generated_design",
        "confidence": "medium",
        "geometry_role": "design_proposal",
        "name_zh": "青年学习工坊原型",
        "area_sqm_declared": 23998.276,
        "building_type": "education",
        "intervention": "prototype_envelope_pending_existing_building_survey",
        "statutory_status": "concept_only"
      },
      "geometry": {
        "type": "Polygon",
        "coordinates": [
          [
            [
              116.34275,
              39.97635
            ],
            [
              116.34275,
              39.97865
            ],
            [
              116.34385,
              39.97865
            ],
            [
              116.34385,
              39.97635
            ],
            [
              116.34275,
              39.97635
            ]
          ]
        ]
      }
    },
    {
      "type": "Feature",
      "id": "BLDG-012",
      "properties": {
        "id": "BLDG-012",
        "layer": "BUILDING_FOOTPRINT",
        "source_type": "agent_generated_design",
        "confidence": "medium",
        "geometry_role": "design_proposal",
        "name_zh": "社区AI服务原型",
        "area_sqm_declared": 23990.63,
        "building_type": "community_service",
        "intervention": "prototype_envelope_pending_existing_building_survey",
        "statutory_status": "concept_only"
      },
      "geometry": {
        "type": "Polygon",
        "coordinates": [
          [
            [
              116.34955,
              39.998349999999995
            ],
            [
              116.34955,
              40.00065
            ],
            [
              116.35065,
              40.00065
            ],
            [
              116.35065,
              39.998349999999995
            ],
            [
              116.34955,
              39.998349999999995
            ]
          ]
        ]
      }
    }
  ]
}
