{
  "type": "FeatureCollection",
  "name": "open_spine_green_network",
  "features": [
    {
      "type": "Feature",
      "id": "GREEN-OPEN-SPINE",
      "properties": {
        "id": "GREEN-OPEN-SPINE",
        "layer": "GREEN_SPACE",
        "source_type": "agent_generated_design",
        "confidence": "medium",
        "geometry_role": "design_proposal",
        "name_zh": "连续开源公地绿脉",
        "area_sqm_declared": 2240773.725,
        "land_use_code": "1401",
        "design_intent": "continuous low-carbon walking, rest and civic-learning landscape"
      },
      "geometry": {
        "type": "Polygon",
        "coordinates": [
          [
            [
              116.34545,
              39.939
            ],
            [
              116.34545,
              40.0265
            ],
            [
              116.34815,
              40.0265
            ],
            [
              116.34815,
              39.939
            ],
            [
              116.34545,
              39.939
            ]
          ]
        ]
      }
    },
    {
      "type": "Feature",
      "id": "GREEN-GROVE-01",
      "properties": {
        "id": "GREEN-GROVE-01",
        "layer": "GREEN_SPACE",
        "source_type": "agent_generated_design",
        "confidence": "medium",
        "geometry_role": "design_proposal",
        "name_zh": "创新会客林 1",
        "area_sqm_declared": 164702.26,
        "land_use_code": "1401"
      },
      "geometry": {
        "type": "Polygon",
        "coordinates": [
          [
            [
              116.3438,
              39.961600000000004
            ],
            [
              116.3438,
              39.9644
            ],
            [
              116.35,
              39.9644
            ],
            [
              116.35,
              39.961600000000004
            ],
            [
              116.3438,
              39.961600000000004
            ]
          ]
        ]
      }
    },
    {
      "type": "Feature",
      "id": "GREEN-GROVE-02",
      "properties": {
        "id": "GREEN-GROVE-02",
        "layer": "GREEN_SPACE",
        "source_type": "agent_generated_design",
        "confidence": "medium",
        "geometry_role": "design_proposal",
        "name_zh": "创新会客林 2",
        "area_sqm_declared": 164647.707,
        "land_use_code": "1401"
      },
      "geometry": {
        "type": "Polygon",
        "coordinates": [
          [
            [
              116.3438,
              39.9846
            ],
            [
              116.3438,
              39.987399999999994
            ],
            [
              116.35,
              39.987399999999994
            ],
            [
              116.35,
              39.9846
            ],
            [
              116.3438,
              39.9846
            ]
          ]
        ]
      }
    },
    {
      "type": "Feature",
      "id": "GREEN-GROVE-03",
      "properties": {
        "id": "GREEN-GROVE-03",
        "layer": "GREEN_SPACE",
        "source_type": "agent_generated_design",
        "confidence": "medium",
        "geometry_role": "design_proposal",
        "name_zh": "创新会客林 3",
        "area_sqm_declared": 164595.501,
        "land_use_code": "1401"
      },
      "geometry": {
        "type": "Polygon",
        "coordinates": [
          [
            [
              116.3438,
              40.006600000000006
            ],
            [
              116.3438,
              40.0094
            ],
            [
              116.35,
              40.0094
            ],
            [
              116.35,
              40.006600000000006
            ],
            [
              116.3438,
              40.006600000000006
            ]
          ]
        ]
      }
    }
  ]
}
