{
  "type": "FeatureCollection",
  "name": "concept_phasing",
  "features": [
    {
      "type": "Feature",
      "id": "PHASE-001",
      "properties": {
        "id": "PHASE-001",
        "layer": "PHASE",
        "source_type": "agent_generated_design",
        "confidence": "medium",
        "geometry_role": "design_proposal",
        "name_zh": "一期：轻量公共空间与开放治理试点",
        "area_sqm_declared": 4696433.999,
        "phase": "phase_1",
        "timing": "sequence_only_no_committed_calendar",
        "prerequisite": "official boundary, controls, ownership and professional review as applicable"
      },
      "geometry": {
        "type": "Polygon",
        "coordinates": [
          [
            [
              116.3553,
              39.965
            ],
            [
              116.3553,
              39.939
            ],
            [
              116.3407,
              39.939
            ],
            [
              116.33978333333333,
              39.972
            ],
            [
              116.35474,
              39.972
            ],
            [
              116.3553,
              39.965
            ]
          ]
        ]
      }
    },
    {
      "type": "Feature",
      "id": "PHASE-002",
      "properties": {
        "id": "PHASE-002",
        "layer": "PHASE",
        "source_type": "agent_generated_design",
        "confidence": "medium",
        "geometry_role": "design_proposal",
        "name_zh": "二期：重点区协同更新深化",
        "area_sqm_declared": 4161324.324,
        "phase": "phase_2",
        "timing": "sequence_only_no_committed_calendar",
        "prerequisite": "official boundary, controls, ownership and professional review as applicable"
      },
      "geometry": {
        "type": "Polygon",
        "coordinates": [
          [
            [
              116.3533,
              39.99
            ],
            [
              116.35474,
              39.972
            ],
            [
              116.33978333333333,
              39.972
            ],
            [
              116.3397,
              39.975
            ],
            [
              116.34163548387097,
              40.005
            ],
            [
              116.35412191780823,
              40.005
            ],
            [
              116.3533,
              39.99
            ]
          ]
        ]
      }
    },
    {
      "type": "Feature",
      "id": "PHASE-003",
      "properties": {
        "id": "PHASE-003",
        "layer": "PHASE",
        "source_type": "agent_generated_design",
        "confidence": "medium",
        "geometry_role": "design_proposal",
        "name_zh": "三期：全带网络化运营完善",
        "area_sqm_declared": 2555092.323,
        "phase": "phase_3",
        "timing": "sequence_only_no_committed_calendar",
        "prerequisite": "official boundary, controls, ownership and professional review as applicable"
      },
      "geometry": {
        "type": "Polygon",
        "coordinates": [
          [
            [
              116.3417,
              40.006
            ],
            [
              116.3427,
              40.0265
            ],
            [
              116.3553,
              40.0265
            ],
            [
              116.35412191780823,
              40.005
            ],
            [
              116.34163548387097,
              40.005
            ],
            [
              116.3417,
              40.006
            ]
          ]
        ]
      }
    }
  ]
}
