{
  "type": "FeatureCollection",
  "name": "open_spine_mobility_framework",
  "features": [
    {
      "type": "Feature",
      "id": "ROAD-OPEN-SPINE",
      "properties": {
        "id": "ROAD-OPEN-SPINE",
        "layer": "ROAD_CENTERLINE",
        "source_type": "agent_generated_design",
        "confidence": "medium",
        "geometry_role": "design_proposal",
        "name_zh": "京张开源慢行主脉",
        "road_class": "greenway",
        "engineering_status": "concept_alignment_pending_official_redlines"
      },
      "geometry": {
        "type": "LineString",
        "coordinates": [
          [
            116.3468,
            39.941
          ],
          [
            116.3468,
            40.024499999999996
          ]
        ]
      }
    },
    {
      "type": "Feature",
      "id": "ROAD-SEAM-01",
      "properties": {
        "id": "ROAD-SEAM-01",
        "layer": "ROAD_CENTERLINE",
        "source_type": "agent_generated_design",
        "confidence": "medium",
        "geometry_role": "design_proposal",
        "name_zh": "东西缝合慢行支线 1",
        "road_class": "pedestrian",
        "engineering_status": "concept_alignment_pending_official_redlines"
      },
      "geometry": {
        "type": "LineString",
        "coordinates": [
          [
            116.34028333333333,
            39.954
          ],
          [
            116.3553,
            39.954
          ]
        ]
      }
    },
    {
      "type": "Feature",
      "id": "ROAD-SEAM-02",
      "properties": {
        "id": "ROAD-SEAM-02",
        "layer": "ROAD_CENTERLINE",
        "source_type": "agent_generated_design",
        "confidence": "medium",
        "geometry_role": "design_proposal",
        "name_zh": "东西缝合慢行支线 2",
        "road_class": "pedestrian",
        "engineering_status": "concept_alignment_pending_official_redlines"
      },
      "geometry": {
        "type": "LineString",
        "coordinates": [
          [
            116.3397,
            39.975
          ],
          [
            116.3545,
            39.975
          ]
        ]
      }
    },
    {
      "type": "Feature",
      "id": "ROAD-SEAM-03",
      "properties": {
        "id": "ROAD-SEAM-03",
        "layer": "ROAD_CENTERLINE",
        "source_type": "agent_generated_design",
        "confidence": "medium",
        "geometry_role": "design_proposal",
        "name_zh": "东西缝合慢行支线 3",
        "road_class": "pedestrian",
        "engineering_status": "concept_alignment_pending_official_redlines"
      },
      "geometry": {
        "type": "LineString",
        "coordinates": [
          [
            116.34099032258065,
            39.995
          ],
          [
            116.35357397260275,
            39.995
          ]
        ]
      }
    },
    {
      "type": "Feature",
      "id": "ROAD-SEAM-04",
      "properties": {
        "id": "ROAD-SEAM-04",
        "layer": "ROAD_CENTERLINE",
        "source_type": "agent_generated_design",
        "confidence": "medium",
        "geometry_role": "design_proposal",
        "name_zh": "东西缝合慢行支线 4",
        "road_class": "pedestrian",
        "engineering_status": "concept_alignment_pending_official_redlines"
      },
      "geometry": {
        "type": "LineString",
        "coordinates": [
          [
            116.34213902439025,
            40.015
          ],
          [
            116.3546698630137,
            40.015
          ]
        ]
      }
    }
  ]
}
