{
  "type": "FeatureCollection",
  "name": "conceptual_building_interventions",
  "features": [
    {
      "type": "Feature",
      "id": "BLDG-001",
      "properties": {
        "id": "BLDG-001",
        "layer": "BUILDING_FOOTPRINT",
        "source_type": "agent_generated_design",
        "confidence": "low",
        "geometry_role": "design_proposal",
        "label_zh": "智能原生街区原型",
        "label_en": "AI-native street prototype",
        "design_status": "conceptual_reference",
        "assumption_ids": [
          "A-BOUNDARY-001",
          "A-PROVISIONAL-METRICS-001"
        ],
        "building_type": "retail",
        "intervention_type": "conceptual_new_or_adaptive_reuse_reference",
        "key_area_role": "dazhongsi",
        "official_scale_claim": false,
        "area_sqm_declared": 190416.156
      },
      "geometry": {
        "type": "Polygon",
        "coordinates": [
          [
            [
              116.340948,
              39.943375
            ],
            [
              116.340948,
              39.9495
            ],
            [
              116.344224,
              39.9495
            ],
            [
              116.344224,
              39.943375
            ],
            [
              116.340948,
              39.943375
            ]
          ]
        ]
      }
    },
    {
      "type": "Feature",
      "id": "BLDG-002",
      "properties": {
        "id": "BLDG-002",
        "layer": "BUILDING_FOOTPRINT",
        "source_type": "agent_generated_design",
        "confidence": "low",
        "geometry_role": "design_proposal",
        "label_zh": "大钟寺AI商务共享厅",
        "label_en": "Dazhongsi AI business commons",
        "design_status": "conceptual_reference",
        "assumption_ids": [
          "A-BOUNDARY-001",
          "A-PROVISIONAL-METRICS-001"
        ],
        "building_type": "office",
        "intervention_type": "conceptual_new_or_adaptive_reuse_reference",
        "key_area_role": "dazhongsi",
        "official_scale_claim": false,
        "area_sqm_declared": 199480.632
      },
      "geometry": {
        "type": "Polygon",
        "coordinates": [
          [
            [
              116.350464,
              39.94425
            ],
            [
              116.350464,
              39.950375
            ],
            [
              116.353896,
              39.950375
            ],
            [
              116.353896,
              39.94425
            ],
            [
              116.350464,
              39.94425
            ]
          ]
        ]
      }
    },
    {
      "type": "Feature",
      "id": "BLDG-003",
      "properties": {
        "id": "BLDG-003",
        "layer": "BUILDING_FOOTPRINT",
        "source_type": "agent_generated_design",
        "confidence": "low",
        "geometry_role": "design_proposal",
        "label_zh": "京张文化共创工坊",
        "label_en": "Jing-Zhang cultural co-creation workshop",
        "design_status": "conceptual_reference",
        "assumption_ids": [
          "A-BOUNDARY-001",
          "A-PROVISIONAL-METRICS-001"
        ],
        "building_type": "cultural",
        "intervention_type": "conceptual_new_or_adaptive_reuse_reference",
        "key_area_role": "living_spine",
        "official_scale_claim": false,
        "area_sqm_declared": 170933.178
      },
      "geometry": {
        "type": "Polygon",
        "coordinates": [
          [
            [
              116.340948,
              39.96525
            ],
            [
              116.340948,
              39.9705
            ],
            [
              116.34438,
              39.9705
            ],
            [
              116.34438,
              39.96525
            ],
            [
              116.340948,
              39.96525
            ]
          ]
        ]
      }
    },
    {
      "type": "Feature",
      "id": "BLDG-004",
      "properties": {
        "id": "BLDG-004",
        "layer": "BUILDING_FOOTPRINT",
        "source_type": "agent_generated_design",
        "confidence": "low",
        "geometry_role": "design_proposal",
        "label_zh": "AI原点公共服务站",
        "label_en": "AI Origin public service station",
        "design_status": "conceptual_reference",
        "assumption_ids": [
          "A-BOUNDARY-001",
          "A-PROVISIONAL-METRICS-001"
        ],
        "building_type": "community_service",
        "intervention_type": "conceptual_new_or_adaptive_reuse_reference",
        "key_area_role": "ai_origin",
        "official_scale_claim": false,
        "area_sqm_declared": 216587.739
      },
      "geometry": {
        "type": "Polygon",
        "coordinates": [
          [
            [
              116.353896,
              39.98255
            ],
            [
              116.353896,
              39.981
            ],
            [
              116.350464,
              39.981
            ],
            [
              116.350464,
              39.988
            ],
            [
              116.35346,
              39.988
            ],
            [
              116.353896,
              39.98255
            ]
          ]
        ]
      }
    },
    {
      "type": "Feature",
      "id": "BLDG-005",
      "properties": {
        "id": "BLDG-005",
        "layer": "BUILDING_FOOTPRINT",
        "source_type": "agent_generated_design",
        "confidence": "low",
        "geometry_role": "design_proposal",
        "label_zh": "AI原点开源孵化厅",
        "label_en": "AI Origin open-source incubator",
        "design_status": "conceptual_reference",
        "assumption_ids": [
          "A-BOUNDARY-001",
          "A-PROVISIONAL-METRICS-001"
        ],
        "building_type": "incubator",
        "intervention_type": "conceptual_new_or_adaptive_reuse_reference",
        "key_area_role": "ai_origin",
        "official_scale_claim": false,
        "area_sqm_declared": 227844.842
      },
      "geometry": {
        "type": "Polygon",
        "coordinates": [
          [
            [
              116.340948,
              39.9845
            ],
            [
              116.340948,
              39.9915
            ],
            [
              116.34438,
              39.9915
            ],
            [
              116.34438,
              39.9845
            ],
            [
              116.340948,
              39.9845
            ]
          ]
        ]
      }
    },
    {
      "type": "Feature",
      "id": "BLDG-006",
      "properties": {
        "id": "BLDG-006",
        "layer": "BUILDING_FOOTPRINT",
        "source_type": "agent_generated_design",
        "confidence": "low",
        "geometry_role": "design_proposal",
        "label_zh": "全栈验证协作楼",
        "label_en": "Full-stack validation collaboration lab",
        "design_status": "conceptual_reference",
        "assumption_ids": [
          "A-BOUNDARY-001",
          "A-PROVISIONAL-METRICS-001"
        ],
        "building_type": "ai_r_and_d",
        "intervention_type": "conceptual_new_or_adaptive_reuse_reference",
        "key_area_role": "zhongzhiyuan",
        "official_scale_claim": false,
        "area_sqm_declared": 226330.468
      },
      "geometry": {
        "type": "Polygon",
        "coordinates": [
          [
            [
              116.35376575,
              39.9985
            ],
            [
              116.350464,
              39.9985
            ],
            [
              116.350464,
              40.0055
            ],
            [
              116.353896,
              40.0055
            ],
            [
              116.353896,
              40.000877
            ],
            [
              116.35376575,
              39.9985
            ]
          ]
        ]
      }
    },
    {
      "type": "Feature",
      "id": "BLDG-007",
      "properties": {
        "id": "BLDG-007",
        "layer": "BUILDING_FOOTPRINT",
        "source_type": "agent_generated_design",
        "confidence": "low",
        "geometry_role": "design_proposal",
        "label_zh": "AI治理开放实验室",
        "label_en": "Open AI governance laboratory",
        "design_status": "conceptual_reference",
        "assumption_ids": [
          "A-BOUNDARY-001",
          "A-PROVISIONAL-METRICS-001"
        ],
        "building_type": "lab",
        "intervention_type": "conceptual_new_or_adaptive_reuse_reference",
        "key_area_role": "zhongzhiyuan",
        "official_scale_claim": false,
        "area_sqm_declared": 177388.378
      },
      "geometry": {
        "type": "Polygon",
        "coordinates": [
          [
            [
              116.3417,
              40.006
            ],
            [
              116.34188902,
              40.009875
            ],
            [
              116.34438,
              40.009875
            ],
            [
              116.34438,
              40.002875
            ],
            [
              116.34149839,
              40.002875
            ],
            [
              116.3417,
              40.006
            ]
          ]
        ]
      }
    },
    {
      "type": "Feature",
      "id": "BLDG-008",
      "properties": {
        "id": "BLDG-008",
        "layer": "BUILDING_FOOTPRINT",
        "source_type": "agent_generated_design",
        "confidence": "low",
        "geometry_role": "design_proposal",
        "label_zh": "开源教育与国际交流站",
        "label_en": "Open-source education and exchange hub",
        "design_status": "conceptual_reference",
        "assumption_ids": [
          "A-BOUNDARY-001",
          "A-PROVISIONAL-METRICS-001"
        ],
        "building_type": "education",
        "intervention_type": "conceptual_new_or_adaptive_reuse_reference",
        "key_area_role": "zhongzhiyuan",
        "official_scale_claim": false,
        "area_sqm_declared": 199274.523
      },
      "geometry": {
        "type": "Polygon",
        "coordinates": [
          [
            [
              116.350464,
              40.016
            ],
            [
              116.350464,
              40.022125
            ],
            [
              116.353896,
              40.022125
            ],
            [
              116.353896,
              40.016
            ],
            [
              116.350464,
              40.016
            ]
          ]
        ]
      }
    }
  ]
}
