{
  "type": "FeatureCollection",
  "name": "official_constraints_data_gap",
  "features": [],
  "data_gap": {
    "status": "official_constraint_geometry_unavailable",
    "assumption_ids": [
      "A-BOUNDARY-001",
      "A-OWNERSHIP-001",
      "A-UTILITY-CAPACITY-001"
    ],
    "missing_layers": [
      "REGULATORY_CONTROL",
      "HERITAGE_PROTECTION",
      "PARCEL",
      "EXISTING_PRIMARY_ROAD",
      "EXISTING_RAIL",
      "EXISTING_WATER"
    ],
    "note_zh": "公开场地包未提供可引用的正式控规、文保、权属、道路、轨道或水系几何；本层保持空集合，禁止用推断线替代正式约束。",
    "note_en": "No citable official regulatory, heritage, ownership, road, rail, or water geometry is available; this layer remains empty rather than inferring official constraints."
  }
}
