{
  "type": "FeatureCollection",
  "name": "open_living_spine_green_network",
  "features": [
    {
      "type": "Feature",
      "id": "GREEN-001",
      "properties": {
        "id": "GREEN-001",
        "layer": "GREEN_SPACE",
        "source_type": "agent_generated_design",
        "confidence": "low",
        "geometry_role": "design_proposal",
        "label_zh": "京张开放生活脊与三处横向缝合绿廊",
        "label_en": "Jing-Zhang Open Living Spine and three cross-stitch greenways",
        "design_status": "conceptual_reference",
        "assumption_ids": [
          "A-BOUNDARY-001",
          "A-PROVISIONAL-METRICS-001"
        ],
        "land_use_code": "1401",
        "network_role": "north_south_spine_with_east_west_stitches",
        "area_sqm_declared": 2379076.917
      },
      "geometry": {
        "type": "Polygon",
        "coordinates": [
          [
            [
              116.346408,
              39.947925
            ],
            [
              116.346408,
              39.9817
            ],
            [
              116.341572,
              39.9817
            ],
            [
              116.341572,
              39.9838
            ],
            [
              116.346408,
              39.9838
            ],
            [
              116.346408,
              40.014075
            ],
            [
              116.3420939,
              40.014075
            ],
            [
              116.34219634,
              40.016175
            ],
            [
              116.346408,
              40.016175
            ],
            [
              116.346408,
              40.0265
            ],
            [
              116.348592,
              40.0265
            ],
            [
              116.348592,
              40.016175
            ],
            [
              116.353428,
              40.016175
            ],
            [
              116.353428,
              40.014075
            ],
            [
              116.348592,
              40.014075
            ],
            [
              116.348592,
              39.9838
            ],
            [
              116.353428,
              39.9838
            ],
            [
              116.353428,
              39.9817
            ],
            [
              116.348592,
              39.9817
            ],
            [
              116.348592,
              39.947925
            ],
            [
              116.353428,
              39.947925
            ],
            [
              116.353428,
              39.945825
            ],
            [
              116.348592,
              39.945825
            ],
            [
              116.348592,
              39.939
            ],
            [
              116.346408,
              39.939
            ],
            [
              116.346408,
              39.945825
            ],
            [
              116.341572,
              39.945825
            ],
            [
              116.341572,
              39.947925
            ],
            [
              116.346408,
              39.947925
            ]
          ]
        ]
      }
    }
  ]
}
