{
  "type": "FeatureCollection",
  "name": "open_loop_land_use_partition",
  "features": [
    {
      "type": "Feature",
      "id": "LU-001",
      "properties": {
        "id": "LU-001",
        "layer": "LAND_USE",
        "source_type": "agent_generated_design",
        "confidence": "low",
        "geometry_role": "design_proposal",
        "label_zh": "智能原生商业界面",
        "label_en": "AI-native retail interface",
        "design_status": "conceptual_reference",
        "assumption_ids": [
          "A-BOUNDARY-001",
          "A-PROVISIONAL-METRICS-001"
        ],
        "land_use_code": "0901",
        "structure_role": "innovation_loop_interface",
        "planning_claim": "conceptual_land_use_reference",
        "area_sqm_declared": 862505.894
      },
      "geometry": {
        "type": "Polygon",
        "coordinates": [
          [
            [
              116.3407,
              39.939
            ],
            [
              116.3402625,
              39.95475
            ],
            [
              116.346252,
              39.95475
            ],
            [
              116.346252,
              39.939
            ],
            [
              116.3407,
              39.939
            ]
          ]
        ]
      }
    },
    {
      "type": "Feature",
      "id": "LU-002",
      "properties": {
        "id": "LU-002",
        "layer": "LAND_USE",
        "source_type": "agent_generated_design",
        "confidence": "low",
        "geometry_role": "design_proposal",
        "label_zh": "开放生活脊南段",
        "label_en": "Open Living Spine South",
        "design_status": "conceptual_reference",
        "assumption_ids": [
          "A-BOUNDARY-001",
          "A-PROVISIONAL-METRICS-001"
        ],
        "land_use_code": "1401",
        "structure_role": "living_spine",
        "planning_claim": "conceptual_land_use_reference",
        "area_sqm_declared": 373057.441
      },
      "geometry": {
        "type": "Polygon",
        "coordinates": [
          [
            [
              116.346252,
              39.939
            ],
            [
              116.346252,
              39.95475
            ],
            [
              116.348748,
              39.95475
            ],
            [
              116.348748,
              39.939
            ],
            [
              116.346252,
              39.939
            ]
          ]
        ]
      }
    },
    {
      "type": "Feature",
      "id": "LU-003",
      "properties": {
        "id": "LU-003",
        "layer": "LAND_USE",
        "source_type": "agent_generated_design",
        "confidence": "low",
        "geometry_role": "design_proposal",
        "label_zh": "AI商务服务门户",
        "label_en": "AI business services gateway",
        "design_status": "conceptual_reference",
        "assumption_ids": [
          "A-BOUNDARY-001",
          "A-PROVISIONAL-METRICS-001"
        ],
        "land_use_code": "0902",
        "structure_role": "innovation_loop_interface",
        "planning_claim": "conceptual_land_use_reference",
        "area_sqm_declared": 979274.749
      },
      "geometry": {
        "type": "Polygon",
        "coordinates": [
          [
            [
              116.348748,
              39.939
            ],
            [
              116.348748,
              39.95475
            ],
            [
              116.3553,
              39.95475
            ],
            [
              116.3553,
              39.939
            ],
            [
              116.348748,
              39.939
            ]
          ]
        ]
      }
    },
    {
      "type": "Feature",
      "id": "LU-004",
      "properties": {
        "id": "LU-004",
        "layer": "LAND_USE",
        "source_type": "agent_generated_design",
        "confidence": "low",
        "geometry_role": "design_proposal",
        "label_zh": "京张文化展示与学习",
        "label_en": "Jing-Zhang culture and learning",
        "design_status": "conceptual_reference",
        "assumption_ids": [
          "A-BOUNDARY-001",
          "A-PROVISIONAL-METRICS-001"
        ],
        "land_use_code": "0803",
        "structure_role": "innovation_loop_interface",
        "planning_claim": "conceptual_land_use_reference",
        "area_sqm_declared": 1034783.038
      },
      "geometry": {
        "type": "Polygon",
        "coordinates": [
          [
            [
              116.33977639,
              39.97225
            ],
            [
              116.346252,
              39.97225
            ],
            [
              116.346252,
              39.95475
            ],
            [
              116.3402625,
              39.95475
            ],
            [
              116.33977639,
              39.97225
            ]
          ]
        ]
      }
    },
    {
      "type": "Feature",
      "id": "LU-005",
      "properties": {
        "id": "LU-005",
        "layer": "LAND_USE",
        "source_type": "agent_generated_design",
        "confidence": "low",
        "geometry_role": "design_proposal",
        "label_zh": "开放生活脊文化段",
        "label_en": "Open Living Spine Culture Reach",
        "design_status": "conceptual_reference",
        "assumption_ids": [
          "A-BOUNDARY-001",
          "A-PROVISIONAL-METRICS-001"
        ],
        "land_use_code": "1401",
        "structure_role": "living_spine",
        "planning_claim": "conceptual_land_use_reference",
        "area_sqm_declared": 414409.092
      },
      "geometry": {
        "type": "Polygon",
        "coordinates": [
          [
            [
              116.346252,
              39.95475
            ],
            [
              116.346252,
              39.97225
            ],
            [
              116.348748,
              39.97225
            ],
            [
              116.348748,
              39.95475
            ],
            [
              116.346252,
              39.95475
            ]
          ]
        ]
      }
    },
    {
      "type": "Feature",
      "id": "LU-006",
      "properties": {
        "id": "LU-006",
        "layer": "LAND_USE",
        "source_type": "agent_generated_design",
        "confidence": "low",
        "geometry_role": "design_proposal",
        "label_zh": "城市公共服务界面",
        "label_en": "Urban public services interface",
        "design_status": "conceptual_reference",
        "assumption_ids": [
          "A-BOUNDARY-001",
          "A-PROVISIONAL-METRICS-001"
        ],
        "land_use_code": "0702",
        "structure_role": "innovation_loop_interface",
        "planning_claim": "conceptual_land_use_reference",
        "area_sqm_declared": 1067876.977
      },
      "geometry": {
        "type": "Polygon",
        "coordinates": [
          [
            [
              116.3553,
              39.95475
            ],
            [
              116.348748,
              39.95475
            ],
            [
              116.348748,
              39.97225
            ],
            [
              116.35472,
              39.97225
            ],
            [
              116.3553,
              39.965
            ],
            [
              116.3553,
              39.95475
            ]
          ]
        ]
      }
    },
    {
      "type": "Feature",
      "id": "LU-007",
      "properties": {
        "id": "LU-007",
        "layer": "LAND_USE",
        "source_type": "agent_generated_design",
        "confidence": "low",
        "geometry_role": "design_proposal",
        "label_zh": "AI原点协同研发",
        "label_en": "AI Origin collaborative research",
        "design_status": "conceptual_reference",
        "assumption_ids": [
          "A-BOUNDARY-001",
          "A-PROVISIONAL-METRICS-001"
        ],
        "land_use_code": "0802",
        "structure_role": "innovation_loop_interface",
        "planning_claim": "conceptual_land_use_reference",
        "area_sqm_declared": 1202143.108
      },
      "geometry": {
        "type": "Polygon",
        "coordinates": [
          [
            [
              116.34087742,
              39.99325
            ],
            [
              116.346252,
              39.99325
            ],
            [
              116.346252,
              39.97225
            ],
            [
              116.33977639,
              39.97225
            ],
            [
              116.3397,
              39.975
            ],
            [
              116.34087742,
              39.99325
            ]
          ]
        ]
      }
    },
    {
      "type": "Feature",
      "id": "LU-008",
      "properties": {
        "id": "LU-008",
        "layer": "LAND_USE",
        "source_type": "agent_generated_design",
        "confidence": "low",
        "geometry_role": "design_proposal",
        "label_zh": "AI原点公共客厅",
        "label_en": "AI Origin public commons",
        "design_status": "conceptual_reference",
        "assumption_ids": [
          "A-BOUNDARY-001",
          "A-PROVISIONAL-METRICS-001"
        ],
        "land_use_code": "1401",
        "structure_role": "living_spine",
        "planning_claim": "conceptual_land_use_reference",
        "area_sqm_declared": 497153.053
      },
      "geometry": {
        "type": "Polygon",
        "coordinates": [
          [
            [
              116.346252,
              39.97225
            ],
            [
              116.346252,
              39.99325
            ],
            [
              116.348748,
              39.99325
            ],
            [
              116.348748,
              39.97225
            ],
            [
              116.346252,
              39.97225
            ]
          ]
        ]
      }
    },
    {
      "type": "Feature",
      "id": "LU-009",
      "properties": {
        "id": "LU-009",
        "layer": "LAND_USE",
        "source_type": "agent_generated_design",
        "confidence": "low",
        "geometry_role": "design_proposal",
        "label_zh": "人才社区服务",
        "label_en": "Talent community services",
        "design_status": "conceptual_reference",
        "assumption_ids": [
          "A-BOUNDARY-001",
          "A-PROVISIONAL-METRICS-001"
        ],
        "land_use_code": "0702",
        "structure_role": "innovation_loop_interface",
        "planning_claim": "conceptual_land_use_reference",
        "area_sqm_declared": 1028958.988
      },
      "geometry": {
        "type": "Polygon",
        "coordinates": [
          [
            [
              116.3533,
              39.99
            ],
            [
              116.35472,
              39.97225
            ],
            [
              116.348748,
              39.97225
            ],
            [
              116.348748,
              39.99325
            ],
            [
              116.35347808,
              39.99325
            ],
            [
              116.3533,
              39.99
            ]
          ]
        ]
      }
    },
    {
      "type": "Feature",
      "id": "LU-010",
      "properties": {
        "id": "LU-010",
        "layer": "LAND_USE",
        "source_type": "agent_generated_design",
        "confidence": "low",
        "geometry_role": "design_proposal",
        "label_zh": "全栈自主创新研发",
        "label_en": "Full-stack independent AI research",
        "design_status": "conceptual_reference",
        "assumption_ids": [
          "A-BOUNDARY-001",
          "A-PROVISIONAL-METRICS-001"
        ],
        "land_use_code": "0802",
        "structure_role": "innovation_loop_interface",
        "planning_claim": "conceptual_land_use_reference",
        "area_sqm_declared": 799859.623
      },
      "geometry": {
        "type": "Polygon",
        "coordinates": [
          [
            [
              116.3417,
              40.006
            ],
            [
              116.34193171,
              40.01075
            ],
            [
              116.346252,
              40.01075
            ],
            [
              116.346252,
              39.99325
            ],
            [
              116.34087742,
              39.99325
            ],
            [
              116.3417,
              40.006
            ]
          ]
        ]
      }
    },
    {
      "type": "Feature",
      "id": "LU-011",
      "properties": {
        "id": "LU-011",
        "layer": "LAND_USE",
        "source_type": "agent_generated_design",
        "confidence": "low",
        "geometry_role": "design_proposal",
        "label_zh": "开放生活脊实验段",
        "label_en": "Open Living Spine Test Reach",
        "design_status": "conceptual_reference",
        "assumption_ids": [
          "A-BOUNDARY-001",
          "A-PROVISIONAL-METRICS-001"
        ],
        "land_use_code": "1401",
        "structure_role": "living_spine",
        "planning_claim": "conceptual_land_use_reference",
        "area_sqm_declared": 414179.286
      },
      "geometry": {
        "type": "Polygon",
        "coordinates": [
          [
            [
              116.346252,
              39.99325
            ],
            [
              116.346252,
              40.01075
            ],
            [
              116.348748,
              40.01075
            ],
            [
              116.348748,
              39.99325
            ],
            [
              116.346252,
              39.99325
            ]
          ]
        ]
      }
    },
    {
      "type": "Feature",
      "id": "LU-012",
      "properties": {
        "id": "LU-012",
        "layer": "LAND_USE",
        "source_type": "agent_generated_design",
        "confidence": "low",
        "geometry_role": "design_proposal",
        "label_zh": "全球AI专业服务",
        "label_en": "Global AI professional services",
        "design_status": "conceptual_reference",
        "assumption_ids": [
          "A-BOUNDARY-001",
          "A-PROVISIONAL-METRICS-001"
        ],
        "land_use_code": "0902",
        "structure_role": "innovation_loop_interface",
        "planning_claim": "conceptual_land_use_reference",
        "area_sqm_declared": 864445.192
      },
      "geometry": {
        "type": "Polygon",
        "coordinates": [
          [
            [
              116.35347808,
              39.99325
            ],
            [
              116.348748,
              39.99325
            ],
            [
              116.348748,
              40.01075
            ],
            [
              116.35443699,
              40.01075
            ],
            [
              116.35347808,
              39.99325
            ]
          ]
        ]
      }
    },
    {
      "type": "Feature",
      "id": "LU-013",
      "properties": {
        "id": "LU-013",
        "layer": "LAND_USE",
        "source_type": "agent_generated_design",
        "confidence": "low",
        "geometry_role": "design_proposal",
        "label_zh": "AI治理与验证实验",
        "label_en": "AI governance and validation labs",
        "design_status": "conceptual_reference",
        "assumption_ids": [
          "A-BOUNDARY-001",
          "A-PROVISIONAL-METRICS-001"
        ],
        "land_use_code": "0802",
        "structure_role": "innovation_loop_interface",
        "planning_claim": "conceptual_land_use_reference",
        "area_sqm_declared": 587703.714
      },
      "geometry": {
        "type": "Polygon",
        "coordinates": [
          [
            [
              116.346252,
              40.0265
            ],
            [
              116.346252,
              40.01075
            ],
            [
              116.34193171,
              40.01075
            ],
            [
              116.3427,
              40.0265
            ],
            [
              116.346252,
              40.0265
            ]
          ]
        ]
      }
    },
    {
      "type": "Feature",
      "id": "LU-014",
      "properties": {
        "id": "LU-014",
        "layer": "LAND_USE",
        "source_type": "agent_generated_design",
        "confidence": "low",
        "geometry_role": "design_proposal",
        "label_zh": "开放生活脊北门户",
        "label_en": "Open Living Spine North Gateway",
        "design_status": "conceptual_reference",
        "assumption_ids": [
          "A-BOUNDARY-001",
          "A-PROVISIONAL-METRICS-001"
        ],
        "land_use_code": "1401",
        "structure_role": "living_spine",
        "planning_claim": "conceptual_land_use_reference",
        "area_sqm_declared": 372671.994
      },
      "geometry": {
        "type": "Polygon",
        "coordinates": [
          [
            [
              116.348748,
              40.0265
            ],
            [
              116.348748,
              40.01075
            ],
            [
              116.346252,
              40.01075
            ],
            [
              116.346252,
              40.0265
            ],
            [
              116.348748,
              40.0265
            ]
          ]
        ]
      }
    },
    {
      "type": "Feature",
      "id": "LU-015",
      "properties": {
        "id": "LU-015",
        "layer": "LAND_USE",
        "source_type": "agent_generated_design",
        "confidence": "low",
        "geometry_role": "design_proposal",
        "label_zh": "开源教育与交流",
        "label_en": "Open-source education and exchange",
        "design_status": "conceptual_reference",
        "assumption_ids": [
          "A-BOUNDARY-001",
          "A-PROVISIONAL-METRICS-001"
        ],
        "land_use_code": "0804",
        "structure_role": "innovation_loop_interface",
        "planning_claim": "conceptual_land_use_reference",
        "area_sqm_declared": 913829.027
      },
      "geometry": {
        "type": "Polygon",
        "coordinates": [
          [
            [
              116.35443699,
              40.01075
            ],
            [
              116.348748,
              40.01075
            ],
            [
              116.348748,
              40.0265
            ],
            [
              116.3553,
              40.0265
            ],
            [
              116.35443699,
              40.01075
            ]
          ]
        ]
      }
    }
  ]
}
