{
  "type": "FeatureCollection",
  "name": "three_stage_conceptual_phasing",
  "features": [
    {
      "type": "Feature",
      "id": "PHASE-001",
      "properties": {
        "id": "PHASE-001",
        "layer": "PHASE",
        "source_type": "agent_generated_design",
        "confidence": "low",
        "geometry_role": "design_proposal",
        "label_zh": "近期：AI原点公共生活试点",
        "label_en": "Near term: AI Origin public-life pilots",
        "design_status": "conceptual_reference",
        "assumption_ids": [
          "A-BOUNDARY-001",
          "A-PROVISIONAL-METRICS-001"
        ],
        "phase": "phase_1",
        "implementation_status": "conceptual_sequence",
        "dependency_note": "Subject to official planning, ownership, engineering, and public-review prerequisites.",
        "area_sqm_declared": 3853523.42
      },
      "geometry": {
        "type": "Polygon",
        "coordinates": [
          [
            [
              116.3533,
              39.99
            ],
            [
              116.355,
              39.96875
            ],
            [
              116.33987361,
              39.96875
            ],
            [
              116.3397,
              39.975
            ],
            [
              116.34121613,
              39.9985
            ],
            [
              116.35376575,
              39.9985
            ],
            [
              116.3533,
              39.99
            ]
          ]
        ]
      }
    },
    {
      "type": "Feature",
      "id": "PHASE-002",
      "properties": {
        "id": "PHASE-002",
        "layer": "PHASE",
        "source_type": "agent_generated_design",
        "confidence": "low",
        "geometry_role": "design_proposal",
        "label_zh": "中期：众智园验证与治理网络",
        "label_en": "Mid term: Zhongzhiyuan validation and governance network",
        "design_status": "conceptual_reference",
        "assumption_ids": [
          "A-BOUNDARY-001",
          "A-PROVISIONAL-METRICS-001"
        ],
        "phase": "phase_2",
        "implementation_status": "conceptual_sequence",
        "dependency_note": "Subject to official planning, ownership, engineering, and public-review prerequisites.",
        "area_sqm_declared": 3326616.036
      },
      "geometry": {
        "type": "Polygon",
        "coordinates": [
          [
            [
              116.35376575,
              39.9985
            ],
            [
              116.34121613,
              39.9985
            ],
            [
              116.3417,
              40.006
            ],
            [
              116.3427,
              40.0265
            ],
            [
              116.3553,
              40.0265
            ],
            [
              116.35376575,
              39.9985
            ]
          ]
        ]
      }
    },
    {
      "type": "Feature",
      "id": "PHASE-003",
      "properties": {
        "id": "PHASE-003",
        "layer": "PHASE",
        "source_type": "agent_generated_design",
        "confidence": "low",
        "geometry_role": "design_proposal",
        "label_zh": "远期：大钟寺智能原生街区",
        "label_en": "Long term: Dazhongsi AI-native urban district",
        "design_status": "conceptual_reference",
        "assumption_ids": [
          "A-BOUNDARY-001",
          "A-PROVISIONAL-METRICS-001"
        ],
        "phase": "phase_3",
        "implementation_status": "conceptual_sequence",
        "dependency_note": "Subject to official planning, ownership, engineering, and public-review prerequisites.",
        "area_sqm_declared": 4232697.16
      },
      "geometry": {
        "type": "Polygon",
        "coordinates": [
          [
            [
              116.3407,
              39.939
            ],
            [
              116.33987361,
              39.96875
            ],
            [
              116.355,
              39.96875
            ],
            [
              116.3553,
              39.965
            ],
            [
              116.3553,
              39.939
            ],
            [
              116.3407,
              39.939
            ]
          ]
        ]
      }
    }
  ]
}
