{
  "type": "FeatureCollection",
  "name": "open_loop_public_realm",
  "features": [
    {
      "type": "Feature",
      "id": "PUBLIC-001",
      "properties": {
        "id": "PUBLIC-001",
        "layer": "PUBLIC_SPACE",
        "source_type": "agent_generated_design",
        "confidence": "low",
        "geometry_role": "design_proposal",
        "label_zh": "开放生活脊公共空间与三处AI城市客厅",
        "label_en": "Open Living Spine public realm and three AI city commons",
        "design_status": "conceptual_reference",
        "assumption_ids": [
          "A-BOUNDARY-001",
          "A-PROVISIONAL-METRICS-001"
        ],
        "network_role": "continuous_public_promeneade_and_three_commons",
        "landmark_ids": [
          "LANDMARK-GATE",
          "LANDMARK-ORIGIN",
          "LANDMARK-FUTURES"
        ],
        "area_sqm_declared": 3031747.509
      },
      "geometry": {
        "type": "Polygon",
        "coordinates": [
          [
            [
              116.34711,
              39.950375
            ],
            [
              116.34711,
              39.980125
            ],
            [
              116.341728,
              39.980125
            ],
            [
              116.341728,
              39.988875
            ],
            [
              116.34711,
              39.988875
            ],
            [
              116.34711,
              40.011625
            ],
            [
              116.34197439,
              40.011625
            ],
            [
              116.34235854,
              40.0195
            ],
            [
              116.34711,
              40.0195
            ],
            [
              116.34711,
              40.02475
            ],
            [
              116.34789,
              40.02475
            ],
            [
              116.34789,
              40.0195
            ],
            [
              116.353116,
              40.0195
            ],
            [
              116.353116,
              40.011625
            ],
            [
              116.34789,
              40.011625
            ],
            [
              116.34789,
              39.988875
            ],
            [
              116.353272,
              39.988875
            ],
            [
              116.353272,
              39.980125
            ],
            [
              116.34789,
              39.980125
            ],
            [
              116.34789,
              39.950375
            ],
            [
              116.35296,
              39.950375
            ],
            [
              116.35296,
              39.9425
            ],
            [
              116.34789,
              39.9425
            ],
            [
              116.34789,
              39.94075
            ],
            [
              116.34711,
              39.94075
            ],
            [
              116.34711,
              39.9425
            ],
            [
              116.34204,
              39.9425
            ],
            [
              116.34204,
              39.950375
            ],
            [
              116.34711,
              39.950375
            ]
          ]
        ]
      }
    }
  ]
}
