{
  "type": "FeatureCollection",
  "name": "open_loop_slow_mobility_network",
  "features": [
    {
      "type": "Feature",
      "id": "ROAD-001",
      "properties": {
        "id": "ROAD-001",
        "layer": "ROAD_CENTERLINE",
        "source_type": "agent_generated_design",
        "confidence": "low",
        "geometry_role": "design_proposal",
        "label_zh": "开放生活脊慢行主线",
        "label_en": "Open Living Spine main slow-mobility route",
        "design_status": "conceptual_reference",
        "assumption_ids": [
          "A-BOUNDARY-001",
          "A-PROVISIONAL-METRICS-001"
        ],
        "road_class": "greenway",
        "engineering_status": "conceptual_alignment_only",
        "official_redline": false
      },
      "geometry": {
        "type": "LineString",
        "coordinates": [
          [
            116.3475,
            39.94075
          ],
          [
            116.3475,
            40.02475
          ]
        ]
      }
    },
    {
      "type": "Feature",
      "id": "ROAD-002",
      "properties": {
        "id": "ROAD-002",
        "layer": "ROAD_CENTERLINE",
        "source_type": "agent_generated_design",
        "confidence": "low",
        "geometry_role": "design_proposal",
        "label_zh": "西翼创新骑行回路",
        "label_en": "West-wing innovation cycle loop",
        "design_status": "conceptual_reference",
        "assumption_ids": [
          "A-BOUNDARY-001",
          "A-PROVISIONAL-METRICS-001"
        ],
        "road_class": "cycleway",
        "engineering_status": "conceptual_alignment_only",
        "official_redline": false
      },
      "geometry": {
        "type": "LineString",
        "coordinates": [
          [
            116.343288,
            39.946
          ],
          [
            116.343288,
            40.0195
          ]
        ]
      }
    },
    {
      "type": "Feature",
      "id": "ROAD-003",
      "properties": {
        "id": "ROAD-003",
        "layer": "ROAD_CENTERLINE",
        "source_type": "agent_generated_design",
        "confidence": "low",
        "geometry_role": "design_proposal",
        "label_zh": "东翼场景骑行回路",
        "label_en": "East-wing scenario cycle loop",
        "design_status": "conceptual_reference",
        "assumption_ids": [
          "A-BOUNDARY-001",
          "A-PROVISIONAL-METRICS-001"
        ],
        "road_class": "cycleway",
        "engineering_status": "conceptual_alignment_only",
        "official_redline": false
      },
      "geometry": {
        "type": "LineString",
        "coordinates": [
          [
            116.351712,
            39.946
          ],
          [
            116.351712,
            40.0195
          ]
        ]
      }
    },
    {
      "type": "Feature",
      "id": "ROAD-004",
      "properties": {
        "id": "ROAD-004",
        "layer": "ROAD_CENTERLINE",
        "source_type": "agent_generated_design",
        "confidence": "low",
        "geometry_role": "design_proposal",
        "label_zh": "大钟寺横向接驳概念线",
        "label_en": "Dazhongsi cross-connection concept",
        "design_status": "conceptual_reference",
        "assumption_ids": [
          "A-BOUNDARY-001",
          "A-PROVISIONAL-METRICS-001"
        ],
        "road_class": "transit_connection",
        "engineering_status": "conceptual_alignment_only",
        "official_redline": false
      },
      "geometry": {
        "type": "LineString",
        "coordinates": [
          [
            116.340948,
            39.946875
          ],
          [
            116.354052,
            39.946875
          ]
        ]
      }
    },
    {
      "type": "Feature",
      "id": "ROAD-005",
      "properties": {
        "id": "ROAD-005",
        "layer": "ROAD_CENTERLINE",
        "source_type": "agent_generated_design",
        "confidence": "low",
        "geometry_role": "design_proposal",
        "label_zh": "AI原点东西缝合步行线",
        "label_en": "AI Origin east-west pedestrian stitch",
        "design_status": "conceptual_reference",
        "assumption_ids": [
          "A-BOUNDARY-001",
          "A-PROVISIONAL-METRICS-001"
        ],
        "road_class": "pedestrian",
        "engineering_status": "conceptual_alignment_only",
        "official_redline": false
      },
      "geometry": {
        "type": "LineString",
        "coordinates": [
          [
            116.340948,
            39.9845
          ],
          [
            116.35374,
            39.9845
          ]
        ]
      }
    },
    {
      "type": "Feature",
      "id": "ROAD-006",
      "properties": {
        "id": "ROAD-006",
        "layer": "ROAD_CENTERLINE",
        "source_type": "agent_generated_design",
        "confidence": "low",
        "geometry_role": "design_proposal",
        "label_zh": "众智园横向接驳概念线",
        "label_en": "Zhongzhiyuan cross-connection concept",
        "design_status": "conceptual_reference",
        "assumption_ids": [
          "A-BOUNDARY-001",
          "A-PROVISIONAL-METRICS-001"
        ],
        "road_class": "transit_connection",
        "engineering_status": "conceptual_alignment_only",
        "official_redline": false
      },
      "geometry": {
        "type": "LineString",
        "coordinates": [
          [
            116.34214512,
            40.015125
          ],
          [
            116.354052,
            40.015125
          ]
        ]
      }
    }
  ]
}
