{
  "type": "FeatureCollection",
  "features": [
    {
      "type": "Feature",
      "id": "BLDG-001",
      "properties": {
        "id": "BLDG-001",
        "layer": "BUILDING_FOOTPRINT",
        "source_type": "agent_generated_design",
        "confidence": "low",
        "geometry_role": "design_proposal",
        "building_type": "community_service",
        "name_zh": "一米服务原型 1",
        "name_en": "Civic Metre service prototype 1",
        "area_sqm_declared": 4704.0,
        "retain_renovate_demolish": "pending_site_survey",
        "usage_note": "Concept footprint only. It does not classify any existing building for retention, renovation or demolition."
      },
      "geometry": {
        "type": "Polygon",
        "coordinates": [
          [
            [
              116.34448678294773,
              39.94569290240854
            ],
            [
              116.34448196958029,
              39.94619722118688
            ],
            [
              116.34546481156517,
              39.94620277425276
            ],
            [
              116.34546961771699,
              39.94569845537576
            ],
            [
              116.34448678294773,
              39.94569290240854
            ]
          ]
        ]
      }
    },
    {
      "type": "Feature",
      "id": "BLDG-002",
      "properties": {
        "id": "BLDG-002",
        "layer": "BUILDING_FOOTPRINT",
        "source_type": "agent_generated_design",
        "confidence": "low",
        "geometry_role": "design_proposal",
        "building_type": "community_service",
        "name_zh": "一米服务原型 2",
        "name_en": "Civic Metre service prototype 2",
        "area_sqm_declared": 4704.0,
        "retain_renovate_demolish": "pending_site_survey",
        "usage_note": "Concept footprint only. It does not classify any existing building for retention, renovation or demolition."
      },
      "geometry": {
        "type": "Polygon",
        "coordinates": [
          [
            [
              116.35013712723315,
              39.9544818388283
            ],
            [
              116.35013235386903,
              39.95498615740769
            ],
            [
              116.35111532275414,
              39.95499166357315
            ],
            [
              116.35112008889946,
              39.95448734489595
            ],
            [
              116.35013712723315,
              39.9544818388283
            ]
          ]
        ]
      }
    },
    {
      "type": "Feature",
      "id": "BLDG-003",
      "properties": {
        "id": "BLDG-003",
        "layer": "BUILDING_FOOTPRINT",
        "source_type": "agent_generated_design",
        "confidence": "low",
        "geometry_role": "design_proposal",
        "building_type": "community_service",
        "name_zh": "一米服务原型 3",
        "name_en": "Civic Metre service prototype 3",
        "area_sqm_declared": 4704.0,
        "retain_renovate_demolish": "pending_site_survey",
        "usage_note": "Concept footprint only. It does not classify any existing building for retention, renovation or demolition."
      },
      "geometry": {
        "type": "Polygon",
        "coordinates": [
          [
            [
              116.34422752443946,
              39.97283847870248
            ],
            [
              116.34422270453939,
              39.97334279508599
            ],
            [
              116.34520593518202,
              39.97334835346399
            ],
            [
              116.3452107478567,
              39.97284403698175
            ],
            [
              116.34422752443946,
              39.97283847870248
            ]
          ]
        ]
      }
    },
    {
      "type": "Feature",
      "id": "BLDG-004",
      "properties": {
        "id": "BLDG-004",
        "layer": "BUILDING_FOOTPRINT",
        "source_type": "agent_generated_design",
        "confidence": "low",
        "geometry_role": "design_proposal",
        "building_type": "community_service",
        "name_zh": "一米服务原型 4",
        "name_en": "Civic Metre service prototype 4",
        "area_sqm_declared": 4704.0,
        "retain_renovate_demolish": "pending_site_survey",
        "usage_note": "Concept footprint only. It does not classify any existing building for retention, renovation or demolition."
      },
      "geometry": {
        "type": "Polygon",
        "coordinates": [
          [
            [
              116.34983022105291,
              39.98688136997055
            ],
            [
              116.34982543995504,
              39.98738568569189
            ],
            [
              116.35080887298875,
              39.98739119814421
            ],
            [
              116.35081364685614,
              39.986886882324946
            ],
            [
              116.34983022105291,
              39.98688136997055
            ]
          ]
        ]
      }
    },
    {
      "type": "Feature",
      "id": "BLDG-005",
      "properties": {
        "id": "BLDG-005",
        "layer": "BUILDING_FOOTPRINT",
        "source_type": "agent_generated_design",
        "confidence": "low",
        "geometry_role": "design_proposal",
        "building_type": "community_service",
        "name_zh": "一米服务原型 5",
        "name_en": "Civic Metre service prototype 5",
        "area_sqm_declared": 4704.0,
        "retain_renovate_demolish": "pending_site_survey",
        "usage_note": "Concept footprint only. It does not classify any existing building for retention, renovation or demolition."
      },
      "geometry": {
        "type": "Polygon",
        "coordinates": [
          [
            [
              116.34394277176106,
              40.002610898015625
            ],
            [
              116.3439379446848,
              40.00311521177204
            ],
            [
              116.34492160220374,
              40.00312077598102
            ],
            [
              116.34492642204386,
              40.002616462125786
            ],
            [
              116.34394277176106,
              40.002610898015625
            ]
          ]
        ]
      }
    },
    {
      "type": "Feature",
      "id": "BLDG-006",
      "properties": {
        "id": "BLDG-006",
        "layer": "BUILDING_FOOTPRINT",
        "source_type": "agent_generated_design",
        "confidence": "low",
        "geometry_role": "design_proposal",
        "building_type": "community_service",
        "name_zh": "一米服务原型 6",
        "name_en": "Civic Metre service prototype 6",
        "area_sqm_declared": 4704.0,
        "retain_renovate_demolish": "pending_site_survey",
        "usage_note": "Concept footprint only. It does not classify any existing building for retention, renovation or demolition."
      },
      "geometry": {
        "type": "Polygon",
        "coordinates": [
          [
            [
              116.3495394467136,
              40.017529406094596
            ],
            [
              116.34953465828714,
              40.018033719111834
            ],
            [
              116.35051853107244,
              40.018039237516575
            ],
            [
              116.35052331225731,
              40.01753492440134
            ],
            [
              116.3495394467136,
              40.017529406094596
            ]
          ]
        ]
      }
    }
  ]
}
