{
  "type": "FeatureCollection",
  "features": [
    {
      "type": "Feature",
      "id": "CONSTRAINTS",
      "properties": {
        "id": "CONSTRAINTS",
        "layer": "REGULATORY_CONTROL",
        "source_type": "unknown",
        "confidence": "unknown",
        "geometry_role": "analysis_helper",
        "name_zh": "官方控制条件缺口提示面",
        "name_en": "Missing official controls warning mask",
        "official_control": false,
        "usage_note": "Analysis helper only. It is not a control line, protected zone, approval conclusion or official boundary."
      },
      "geometry": {
        "type": "Polygon",
        "coordinates": [
          [
            [
              116.3407,
              39.939
            ],
            [
              116.3553,
              39.939
            ],
            [
              116.3553,
              39.965
            ],
            [
              116.3533,
              39.99
            ],
            [
              116.3553,
              40.0265
            ],
            [
              116.3427,
              40.0265
            ],
            [
              116.3417,
              40.006
            ],
            [
              116.3397,
              39.975
            ],
            [
              116.3407,
              39.939
            ]
          ]
        ]
      }
    }
  ]
}
