{
  "type": "FeatureCollection",
  "features": [
    {
      "type": "Feature",
      "id": "GREEN-001",
      "properties": {
        "id": "GREEN-001",
        "layer": "GREEN_SPACE",
        "source_type": "agent_generated_design",
        "confidence": "medium",
        "geometry_role": "design_proposal",
        "land_use_code": "1401",
        "name_zh": "京张遗址公园舒适慢行带",
        "name_en": "Jingzhang Park climate-comfort walking belt",
        "area_sqm_declared": 2234612.021,
        "usage_note": "Conceptual blue-green/public-space overlay; not a statutory green-line."
      },
      "geometry": {
        "type": "Polygon",
        "coordinates": [
          [
            [
              116.34673853039276,
              39.93900022296417
            ],
            [
              116.34590472745133,
              40.026492561714704
            ],
            [
              116.3472518615884,
              40.02650015807753
            ],
            [
              116.34859906822328,
              40.02650017057063
            ],
            [
              116.34942943692369,
              39.93900778717558
            ],
            [
              116.34808401937715,
              39.93900022979663
            ],
            [
              116.34673853039276,
              39.93900022296417
            ]
          ]
        ]
      }
    }
  ]
}
