{
  "type": "FeatureCollection",
  "features": [
    {
      "type": "Feature",
      "id": "LU-001",
      "properties": {
        "id": "LU-001",
        "layer": "LAND_USE",
        "source_type": "agent_generated_design",
        "confidence": "medium",
        "geometry_role": "design_proposal",
        "land_use_code": "0802",
        "name_zh": "AI研发与转化混合用地",
        "name_en": "AI R&D and transfer",
        "area_sqm_declared": 2750394.605,
        "usage_note": "Conceptual allocation for open-call discussion; replace or recalibrate after official regulatory controls are released."
      },
      "geometry": {
        "type": "MultiPolygon",
        "coordinates": [
          [
            [
              [
                116.34009439985525,
                39.96080725742202
              ],
              [
                116.34705733913776,
                39.96084668554905
              ],
              [
                116.3472650260572,
                39.93900022749739
              ],
              [
                116.34070000000001,
                39.93899999999999
              ],
              [
                116.34009439985525,
                39.96080725742202
              ]
            ]
          ],
          [
            [
              [
                116.3553,
                39.939
              ],
              [
                116.34808401937715,
                39.93900022979663
              ],
              [
                116.3489029691278,
                39.9390048317995
              ],
              [
                116.34869575961554,
                39.96085590243049
              ],
              [
                116.35530000879518,
                39.96089281961003
              ],
              [
                116.3553,
                39.939
              ]
            ]
          ]
        ]
      }
    },
    {
      "type": "Feature",
      "id": "LU-002",
      "properties": {
        "id": "LU-002",
        "layer": "LAND_USE",
        "source_type": "agent_generated_design",
        "confidence": "medium",
        "geometry_role": "design_proposal",
        "land_use_code": "0804",
        "name_zh": "科研与开源协作用地",
        "name_en": "Research and open-source collaboration",
        "area_sqm_declared": 2734854.574,
        "usage_note": "Conceptual allocation for open-call discussion; replace or recalibrate after official regulatory controls are released."
      },
      "geometry": {
        "type": "MultiPolygon",
        "coordinates": [
          [
            [
              [
                116.3397,
                39.975
              ],
              [
                116.34019665870896,
                39.98270056586796
              ],
              [
                116.346848995154,
                39.98273824323969
              ],
              [
                116.34705733913776,
                39.96084668554905
              ],
              [
                116.34009439985525,
                39.96080725742202
              ],
              [
                116.3397,
                39.975
              ]
            ]
          ],
          [
            [
              [
                116.3553,
                39.965
              ],
              [
                116.35530000879518,
                39.96089281961003
              ],
              [
                116.34869575961554,
                39.96085590243049
              ],
              [
                116.34848793833639,
                39.98274746723036
              ],
              [
                116.35387795243325,
                39.9827776388478
              ],
              [
                116.3553,
                39.965
              ]
            ]
          ]
        ]
      }
    },
    {
      "type": "Feature",
      "id": "LU-003",
      "properties": {
        "id": "LU-003",
        "layer": "LAND_USE",
        "source_type": "agent_generated_design",
        "confidence": "medium",
        "geometry_role": "design_proposal",
        "land_use_code": "0702",
        "name_zh": "人才生活与社区服务用地",
        "name_en": "Talent living and community services",
        "area_sqm_declared": 2309138.217,
        "usage_note": "Conceptual allocation for open-call discussion; replace or recalibrate after official regulatory controls are released."
      },
      "geometry": {
        "type": "MultiPolygon",
        "coordinates": [
          [
            [
              [
                116.34160972275413,
                40.00460124667962
              ],
              [
                116.34664042313604,
                40.00462971708945
              ],
              [
                116.346848995154,
                39.98273824323969
              ],
              [
                116.34019665870896,
                39.98270056586796
              ],
              [
                116.34160972275413,
                40.00460124667962
              ]
            ]
          ],
          [
            [
              [
                116.3533,
                39.99
              ],
              [
                116.35387795243325,
                39.9827776388478
              ],
              [
                116.34848793833639,
                39.98274746723036
              ],
              [
                116.34827988959502,
                40.00463894819387
              ],
              [
                116.35410369428702,
                40.0046715519075
              ],
              [
                116.3533,
                39.99
              ]
            ]
          ]
        ]
      }
    },
    {
      "type": "Feature",
      "id": "LU-004",
      "properties": {
        "id": "LU-004",
        "layer": "LAND_USE",
        "source_type": "agent_generated_design",
        "confidence": "medium",
        "geometry_role": "design_proposal",
        "land_use_code": "05",
        "name_zh": "商业与公共服务复合用地",
        "name_en": "Commercial and civic services",
        "area_sqm_declared": 2258216.352,
        "usage_note": "Conceptual allocation for open-call discussion; replace or recalibrate after official regulatory controls are released."
      },
      "geometry": {
        "type": "MultiPolygon",
        "coordinates": [
          [
            [
              [
                116.34169999999999,
                40.00600000000001
              ],
              [
                116.34270000000001,
                40.026500000000006
              ],
              [
                116.3472518615884,
                40.02650015807753
              ],
              [
                116.34643186683557,
                40.026495536069405
              ],
              [
                116.34664042313604,
                40.00462971708945
              ],
              [
                116.34160972275413,
                40.00460124667962
              ],
              [
                116.34169999999999,
                40.00600000000001
              ]
            ]
          ],
          [
            [
              [
                116.35410369428702,
                40.0046715519075
              ],
              [
                116.34827988959502,
                40.00463894819387
              ],
              [
                116.34807190038451,
                40.02650016754741
              ],
              [
                116.3553,
                40.02649999999999
              ],
              [
                116.35410369428702,
                40.0046715519075
              ]
            ]
          ]
        ]
      }
    },
    {
      "type": "Feature",
      "id": "LU-005",
      "properties": {
        "id": "LU-005",
        "layer": "LAND_USE",
        "source_type": "agent_generated_design",
        "confidence": "medium",
        "geometry_role": "design_proposal",
        "land_use_code": "1401",
        "name_zh": "京张一米连续公共空间骨架",
        "name_en": "Civic Metre continuous public-space spine",
        "area_sqm_declared": 1360221.637,
        "usage_note": "Conceptual public-space structure, not an official green-line or road redline."
      },
      "geometry": {
        "type": "Polygon",
        "coordinates": [
          [
            [
              116.3472650260572,
              39.93900022749739
            ],
            [
              116.34643186683557,
              40.026495536069405
            ],
            [
              116.3472518615884,
              40.02650015807753
            ],
            [
              116.34807190038451,
              40.02650016754741
            ],
            [
              116.3489029691278,
              39.9390048317995
            ],
            [
              116.34808401937715,
              39.93900022979663
            ],
            [
              116.3472650260572,
              39.93900022749739
            ]
          ]
        ]
      }
    }
  ]
}
