{
  "type": "FeatureCollection",
  "features": [
    {
      "type": "Feature",
      "id": "ROAD-001",
      "properties": {
        "id": "ROAD-001",
        "layer": "ROAD_CENTERLINE",
        "source_type": "agent_generated_design",
        "confidence": "medium",
        "geometry_role": "design_proposal",
        "road_class": "greenway",
        "name_zh": "连续无障碍与服务主脊",
        "name_en": "Continuous accessible service spine",
        "length_m_declared": 9716.125,
        "usage_note": "Network concept only; alignment must be reconciled with official redlines, stations, levels and accessibility audit."
      },
      "geometry": {
        "type": "LineString",
        "coordinates": [
          [
            116.34808401937774,
            39.93900022979663
          ],
          [
            116.34725186158894,
            40.02650015807753
          ]
        ]
      }
    },
    {
      "type": "Feature",
      "id": "ROAD-002",
      "properties": {
        "id": "ROAD-002",
        "layer": "ROAD_CENTERLINE",
        "source_type": "agent_generated_design",
        "confidence": "medium",
        "geometry_role": "design_proposal",
        "road_class": "pedestrian",
        "name_zh": "东西向最后一米连接 1",
        "name_en": "East-west last-metre link 1",
        "length_m_declared": 1270.426,
        "usage_note": "Network concept only; alignment must be reconciled with official redlines, stations, levels and accessibility audit."
      },
      "geometry": {
        "type": "LineString",
        "coordinates": [
          [
            116.34043487163905,
            39.94854923247659
          ],
          [
            116.35530001541966,
            39.948632850780335
          ]
        ]
      }
    },
    {
      "type": "Feature",
      "id": "ROAD-003",
      "properties": {
        "id": "ROAD-003",
        "layer": "ROAD_CENTERLINE",
        "source_type": "agent_generated_design",
        "confidence": "medium",
        "geometry_role": "design_proposal",
        "road_class": "pedestrian",
        "name_zh": "东西向最后一米连接 2",
        "name_en": "East-west last-metre link 2",
        "length_m_declared": 1307.538,
        "usage_note": "Network concept only; alignment must be reconciled with official redlines, stations, levels and accessibility audit."
      },
      "geometry": {
        "type": "LineString",
        "coordinates": [
          [
            116.3399970943449,
            39.96430954515443
          ],
          [
            116.35530000150125,
            39.96439566310049
          ]
        ]
      }
    },
    {
      "type": "Feature",
      "id": "ROAD-004",
      "properties": {
        "id": "ROAD-004",
        "layer": "ROAD_CENTERLINE",
        "source_type": "agent_generated_design",
        "confidence": "medium",
        "geometry_role": "design_proposal",
        "road_class": "pedestrian",
        "name_zh": "东西向最后一米连接 3",
        "name_en": "East-west last-metre link 3",
        "length_m_declared": 1190.317,
        "usage_note": "Network concept only; alignment must be reconciled with official redlines, stations, levels and accessibility audit."
      },
      "geometry": {
        "type": "LineString",
        "coordinates": [
          [
            116.34008364843837,
            39.98094850741321
          ],
          [
            116.35401802287396,
            39.98102700365223
          ]
        ]
      }
    },
    {
      "type": "Feature",
      "id": "ROAD-005",
      "properties": {
        "id": "ROAD-005",
        "layer": "ROAD_CENTERLINE",
        "source_type": "agent_generated_design",
        "confidence": "medium",
        "geometry_role": "design_proposal",
        "road_class": "pedestrian",
        "name_zh": "东西向最后一米连接 4",
        "name_en": "East-west last-metre link 4",
        "length_m_declared": 1072.852,
        "usage_note": "Network concept only; alignment must be reconciled with official redlines, stations, levels and accessibility audit."
      },
      "geometry": {
        "type": "LineString",
        "coordinates": [
          [
            116.34115745444255,
            39.997593038869724
          ],
          [
            116.35371977648572,
            39.99766377104547
          ]
        ]
      }
    },
    {
      "type": "Feature",
      "id": "ROAD-006",
      "properties": {
        "id": "ROAD-006",
        "layer": "ROAD_CENTERLINE",
        "source_type": "agent_generated_design",
        "confidence": "medium",
        "geometry_role": "design_proposal",
        "road_class": "pedestrian",
        "name_zh": "东西向最后一米连接 5",
        "name_en": "East-west last-metre link 5",
        "length_m_declared": 1069.828,
        "usage_note": "Network concept only; alignment must be reconciled with official redlines, stations, levels and accessibility audit."
      },
      "geometry": {
        "type": "LineString",
        "coordinates": [
          [
            116.34210173179991,
            40.01423677904547
          ],
          [
            116.35463169379051,
            40.01430723574354
          ]
        ]
      }
    }
  ]
}
