{
 "type": "FeatureCollection",
 "name": "green_space",
 "features": [
  {
   "type": "Feature",
   "id": "GS-000",
   "properties": {
    "id": "GS-000",
    "layer": "GREEN_SPACE",
    "land_use_code": "1401",
    "label_zh": "概念绿地",
    "official_boundary": false,
    "geometry_role": "design_proposal",
    "confidence": "low",
    "source_type": "agent_generated_design"
   },
   "geometry": {
    "type": "Polygon",
    "coordinates": [
     [
      [
       116.34989008476327,
       39.98852928889766
      ],
      [
       116.35091769484576,
       39.94694955004211
      ],
      [
       116.34740804683013,
       39.94689815293932
      ],
      [
       116.34637840399186,
       39.98847410254926
      ],
      [
       116.34547469125602,
       40.01670934333103
      ],
      [
       116.34898748569803,
       40.016775791585665
      ],
      [
       116.34988987274322,
       39.988536771223345
      ],
      [
       116.34989008476327,
       39.98852928889766
      ]
     ]
    ]
   }
  },
  {
   "type": "Feature",
   "id": "GS-001",
   "properties": {
    "id": "GS-001",
    "layer": "GREEN_SPACE",
    "land_use_code": "1401",
    "label_zh": "概念绿地",
    "official_boundary": false,
    "geometry_role": "design_proposal",
    "confidence": "low",
    "source_type": "agent_generated_design"
   },
   "geometry": {
    "type": "Polygon",
    "coordinates": [
     [
      [
       116.34134818316683,
       39.955490185647314
      ],
      [
       116.34133003969906,
       39.95738137644013
      ],
      [
       116.34484076042138,
       39.957401270578686
      ],
      [
       116.3448588072011,
       39.95551007846066
      ],
      [
       116.34134818316683,
       39.955490185647314
      ]
     ]
    ]
   }
  },
  {
   "type": "Feature",
   "id": "GS-002",
   "properties": {
    "id": "GS-002",
    "layer": "GREEN_SPACE",
    "land_use_code": "1401",
    "label_zh": "概念绿地",
    "official_boundary": false,
    "geometry_role": "design_proposal",
    "confidence": "low",
    "source_type": "agent_generated_design"
   },
   "geometry": {
    "type": "Polygon",
    "coordinates": [
     [
      [
       116.3439529994523,
       39.98297426154192
      ],
      [
       116.34392767394516,
       39.98562191726958
      ],
      [
       116.34884470961379,
       39.98564964528902
      ],
      [
       116.34886984534782,
       39.983001986976
      ],
      [
       116.3439529994523,
       39.98297426154192
      ]
     ]
    ]
   }
  },
  {
   "type": "Feature",
   "id": "GS-003",
   "properties": {
    "id": "GS-003",
    "layer": "GREEN_SPACE",
    "land_use_code": "1401",
    "label_zh": "概念绿地",
    "official_boundary": false,
    "geometry_role": "design_proposal",
    "confidence": "low",
    "source_type": "agent_generated_design"
   },
   "geometry": {
    "type": "Polygon",
    "coordinates": [
     [
      [
       116.34706010921862,
       39.957918541607185
      ],
      [
       116.34702773017473,
       39.96132268704718
      ],
      [
       116.3533473999468,
       39.96135811225271
      ],
      [
       116.35337946566966,
       39.957953962565306
      ],
      [
       116.34706010921862,
       39.957918541607185
      ]
     ]
    ]
   }
  },
  {
   "type": "Feature",
   "id": "GS-004",
   "properties": {
    "id": "GS-004",
    "layer": "GREEN_SPACE",
    "land_use_code": "1401",
    "label_zh": "概念绿地",
    "official_boundary": false,
    "geometry_role": "design_proposal",
    "confidence": "low",
    "source_type": "agent_generated_design"
   },
   "geometry": {
    "type": "Polygon",
    "coordinates": [
     [
      [
       116.34211225311695,
       39.9864946309429
      ],
      [
       116.34209411079767,
       39.98838581188022
      ],
      [
       116.34560641869152,
       39.98840569558088
      ],
      [
       116.34562446417279,
       39.986514513319314
      ],
      [
       116.34211225311695,
       39.9864946309429
      ]
     ]
    ]
   }
  },
  {
   "type": "Feature",
   "id": "GS-005",
   "properties": {
    "id": "GS-005",
    "layer": "GREEN_SPACE",
    "land_use_code": "1401",
    "label_zh": "概念绿地",
    "official_boundary": false,
    "geometry_role": "design_proposal",
    "confidence": "low",
    "source_type": "agent_generated_design"
   },
   "geometry": {
    "type": "Polygon",
    "coordinates": [
     [
      [
       116.34522021120671,
       39.96143898222582
      ],
      [
       116.34519495387475,
       39.96408664849118
      ],
      [
       116.35011044775247,
       39.964114310482834
      ],
      [
       116.3501355155152,
       39.961466641637905
      ],
      [
       116.34522021120671,
       39.96143898222582
      ]
     ]
    ]
   }
  }
 ]
}