{
 "type": "FeatureCollection",
 "name": "public_space",
 "features": [
  {
   "type": "Feature",
   "id": "PS-LM00",
   "properties": {
    "id": "PS-LM00",
    "layer": "PUBLIC_SPACE",
    "scenario_type": "ai_landmark",
    "label_zh": "智核集散广场",
    "landmark_id": "SMART-CORE-PLAZA",
    "official_boundary": false,
    "geometry_role": "design_proposal",
    "confidence": "low",
    "source_type": "agent_generated_design",
    "note": "节点已统一置于知春路站500米站域（N1-N3体验链），坐标平移保持多边形面积不变；相对位置为概念示意，非官方几何。"
   },
   "geometry": {
    "type": "Polygon",
    "coordinates": [
     [
      [
       116.34711517503773,
       39.99092618087484
      ],
      [
       116.34711344421633,
       39.991108121246334
      ],
      [
       116.34757723805922,
       39.99111072869611
      ],
      [
       116.34757896764911,
       39.9909287883079
      ],
      [
       116.34711517503773,
       39.99092618087484
      ]
     ]
    ]
   }
  },
  {
   "type": "Feature",
   "id": "PS-LM01",
   "properties": {
    "id": "PS-LM01",
    "layer": "PUBLIC_SPACE",
    "scenario_type": "ai_landmark",
    "label_zh": "AI出行服务大厅",
    "landmark_id": "AI-MOBILITY-HALL",
    "official_boundary": false,
    "geometry_role": "design_proposal",
    "confidence": "low",
    "source_type": "agent_generated_design",
    "note": "节点已统一置于知春路站500米站域（N1-N3体验链），坐标平移保持多边形面积不变；相对位置为概念示意，非官方几何。"
   },
   "geometry": {
    "type": "Polygon",
    "coordinates": [
     [
      [
       116.34961525188496,
       39.990126179541136
      ],
      [
       116.34961352014024,
       39.990308120765945
      ],
      [
       116.35007712278744,
       39.99031073069667
      ],
      [
       116.3500788533024,
       39.990128789455134
      ],
      [
       116.34961525188496,
       39.990126179541136
      ]
     ]
    ]
   }
  },
  {
   "type": "Feature",
   "id": "PS-LM02",
   "properties": {
    "id": "PS-LM02",
    "layer": "PUBLIC_SPACE",
    "scenario_type": "ai_landmark",
    "label_zh": "智慧换乘走廊",
    "landmark_id": "SMART-TRANSIT-LINK",
    "official_boundary": false,
    "geometry_role": "design_proposal",
    "confidence": "low",
    "source_type": "agent_generated_design",
    "note": "节点已统一置于知春路站500米站域（N1-N3体验链），坐标平移保持多边形面积不变；相对位置为概念示意，非官方几何。"
   },
   "geometry": {
    "type": "Polygon",
    "coordinates": [
     [
      [
       116.34741536208394,
       39.988326181497584
      ],
      [
       116.34741363553535,
       39.98850812406762
      ],
      [
       116.34787695748771,
       39.988510727762
      ],
      [
       116.34787868280905,
       39.98832878517526
      ],
      [
       116.34741536208394,
       39.988326181497584
      ]
     ]
    ]
   }
  },
  {
   "type": "Feature",
   "id": "PS-SN00",
   "properties": {
    "id": "PS-SN00",
    "layer": "PUBLIC_SPACE",
    "scenario_type": "scenario_node",
    "label_zh": "AI场景节点",
    "official_boundary": false,
    "geometry_role": "design_proposal",
    "confidence": "low",
    "source_type": "agent_generated_design",
    "note": "节点已统一置于知春路站500米站域（N1-N3体验链），坐标平移保持多边形面积不变；相对位置为概念示意，非官方几何。"
   },
   "geometry": {
    "type": "Polygon",
    "coordinates": [
     [
      [
       116.34662099044402,
       39.98978228305593
      ],
      [
       116.34661584262373,
       39.990322619008104
      ],
      [
       116.34731851710374,
       39.990326575453736
      ],
      [
       116.3473236593845,
       39.989786239426294
      ],
      [
       116.34662099044402,
       39.98978228305593
      ]
     ]
    ]
   }
  },
  {
   "type": "Feature",
   "id": "PS-SN01",
   "properties": {
    "id": "PS-SN01",
    "layer": "PUBLIC_SPACE",
    "scenario_type": "scenario_node",
    "label_zh": "AI场景节点",
    "official_boundary": false,
    "geometry_role": "design_proposal",
    "confidence": "low",
    "source_type": "agent_generated_design",
    "note": "节点已统一置于知春路站500米站域（N1-N3体验链），坐标平移保持多边形面积不变；相对位置为概念示意，非官方几何。"
   },
   "geometry": {
    "type": "Polygon",
    "coordinates": [
     [
      [
       116.34930478024893,
       39.98889156845614
      ],
      [
       116.34929749064165,
       39.989657045431706
      ],
      [
       116.35029283518324,
       39.989662647391306
      ],
      [
       116.3503001136773,
       39.98889717026475
      ],
      [
       116.34930478024893,
       39.98889156845614
      ]
     ]
    ]
   }
  },
  {
   "type": "Feature",
   "id": "PS-SN02",
   "properties": {
    "id": "PS-SN02",
    "layer": "PUBLIC_SPACE",
    "scenario_type": "scenario_node",
    "label_zh": "AI场景节点",
    "official_boundary": false,
    "geometry_role": "design_proposal",
    "confidence": "low",
    "source_type": "agent_generated_design",
    "note": "节点已统一置于知春路站500米站域（N1-N3体验链），坐标平移保持多边形面积不变；相对位置为概念示意，非官方几何。"
   },
   "geometry": {
    "type": "Polygon",
    "coordinates": [
     [
      [
       116.34758859578882,
       39.990800854322565
      ],
      [
       116.34757916623857,
       39.99179147293515
      ],
      [
       116.34886711561907,
       39.99179871864252
      ],
      [
       116.34887652656477,
       39.99080809977719
      ],
      [
       116.34758859578882,
       39.990800854322565
      ]
     ]
    ]
   }
  },
  {
   "type": "Feature",
   "id": "PS-SN03",
   "properties": {
    "id": "PS-SN03",
    "layer": "PUBLIC_SPACE",
    "scenario_type": "scenario_node",
    "label_zh": "AI场景节点",
    "official_boundary": false,
    "geometry_role": "design_proposal",
    "confidence": "low",
    "source_type": "agent_generated_design",
    "note": "节点已统一置于知春路站500米站域（N1-N3体验链），坐标平移保持多边形面积不变；相对位置为概念示意，非官方几何。"
   },
   "geometry": {
    "type": "Polygon",
    "coordinates": [
     [
      [
       116.34962108181534,
       39.99058228466885
      ],
      [
       116.34961594393735,
       39.99112262287514
      ],
      [
       116.35031838004356,
       39.99112657303431
      ],
      [
       116.35032351238843,
       39.99058623475283
      ],
      [
       116.34962108181534,
       39.99058228466885
      ]
     ]
    ]
   }
  },
  {
   "type": "Feature",
   "id": "PS-SN04",
   "properties": {
    "id": "PS-SN04",
    "layer": "PUBLIC_SPACE",
    "scenario_type": "scenario_node",
    "label_zh": "AI场景节点",
    "official_boundary": false,
    "geometry_role": "design_proposal",
    "confidence": "low",
    "source_type": "agent_generated_design",
    "note": "节点已统一置于知春路站500米站域（N1-N3体验链），坐标平移保持多边形面积不变；相对位置为概念示意，非官方几何。"
   },
   "geometry": {
    "type": "Polygon",
    "coordinates": [
     [
      [
       116.34680490990085,
       39.988891570551395
      ],
      [
       116.34679763374923,
       39.98965705071172
      ],
      [
       116.34779264069884,
       39.98966264424831
      ],
      [
       116.34779990575014,
       39.988897163937196
      ],
      [
       116.34680490990085,
       39.988891570551395
      ]
     ]
    ]
   }
  },
  {
   "type": "Feature",
   "id": "PS-SN05",
   "properties": {
    "id": "PS-SN05",
    "layer": "PUBLIC_SPACE",
    "scenario_type": "scenario_node",
    "label_zh": "AI场景节点",
    "official_boundary": false,
    "geometry_role": "design_proposal",
    "confidence": "low",
    "source_type": "agent_generated_design",
    "note": "节点已统一置于知春路站500米站域（N1-N3体验链），坐标平移保持多边形面积不变；相对位置为概念示意，非官方几何。"
   },
   "geometry": {
    "type": "Polygon",
    "coordinates": [
     [
      [
       116.34778876384425,
       39.98780085678871
      ],
      [
       116.3477793508935,
       39.98879147951165
      ],
      [
       116.34906686352511,
       39.988798714943165
      ],
      [
       116.34907625789289,
       39.98780809196778
      ],
      [
       116.34778876384425,
       39.98780085678871
      ]
     ]
    ]
   }
  },
  {
   "type": "Feature",
   "id": "PS-SN06",
   "properties": {
    "id": "PS-SN06",
    "layer": "PUBLIC_SPACE",
    "scenario_type": "scenario_node",
    "label_zh": "AI场景节点",
    "official_boundary": false,
    "geometry_role": "design_proposal",
    "confidence": "low",
    "source_type": "agent_generated_design",
    "note": "节点已统一置于知春路站500米站域（N1-N3体验链），坐标平移保持多边形面积不变；相对位置为概念示意，非官方几何。"
   },
   "geometry": {
    "type": "Polygon",
    "coordinates": [
     [
      [
       116.34882117356523,
       39.9906822859281
      ],
      [
       116.34881604445219,
       39.99122262637246
      ],
      [
       116.34951824241551,
       39.9912265711454
      ],
      [
       116.34952336600186,
       39.99068623062596
      ],
      [
       116.34882117356523,
       39.9906822859281
      ]
     ]
    ]
   }
  },
  {
   "type": "Feature",
   "id": "PS-SN07",
   "properties": {
    "id": "PS-SN07",
    "layer": "PUBLIC_SPACE",
    "scenario_type": "scenario_node",
    "label_zh": "AI场景节点",
    "official_boundary": false,
    "geometry_role": "design_proposal",
    "confidence": "low",
    "source_type": "agent_generated_design",
    "note": "节点已统一置于知春路站500米站域（N1-N3体验链），坐标平移保持多边形面积不变；相对位置为概念示意，非官方几何。"
   },
   "geometry": {
    "type": "Polygon",
    "coordinates": [
     [
      [
       116.34830503982954,
       39.98889157233433
      ],
      [
       116.3482977760901,
       39.98965705566506
      ],
      [
       116.34929244579942,
       39.98966264157383
      ],
      [
       116.34929969845142,
       39.988897158092485
      ],
      [
       116.34830503982954,
       39.98889157233433
      ]
     ]
    ]
   }
  }
 ]
}