{
 "type": "FeatureCollection",
 "features": [
  {
   "type": "Feature",
   "id": "GRN-002",
   "properties": {
    "id": "GRN-002",
    "layer": "GREEN_SPACE",
    "source_type": "agent_generated_design",
    "confidence": "medium",
    "geometry_role": "design_proposal",
    "green_type": "park",
    "name_zh": "京张遗址公园活力带（让行主脊）",
    "area_sqm_declared": 109139.61
   },
   "geometry": {
    "type": "Polygon",
    "coordinates": [
     [
      [
       116.3448,
       39.939
      ],
      [
       116.3425,
       39.939
      ],
      [
       116.3425,
       39.944
      ],
      [
       116.3448,
       39.944
      ],
      [
       116.3448,
       39.939
      ]
     ]
    ]
   }
  },
  {
   "type": "Feature",
   "id": "GRN-003",
   "properties": {
    "id": "GRN-003",
    "layer": "GREEN_SPACE",
    "source_type": "agent_generated_design",
    "confidence": "medium",
    "geometry_role": "design_proposal",
    "green_type": "park",
    "name_zh": "京张遗址公园活力带（让行主脊）",
    "area_sqm_declared": 128120.33
   },
   "geometry": {
    "type": "Polygon",
    "coordinates": [
     [
      [
       116.3475,
       39.939
      ],
      [
       116.3448,
       39.939
      ],
      [
       116.3448,
       39.944
      ],
      [
       116.3475,
       39.944
      ],
      [
       116.3475,
       39.939
      ]
     ]
    ]
   }
  },
  {
   "type": "Feature",
   "id": "GRN-023",
   "properties": {
    "id": "GRN-023",
    "layer": "GREEN_SPACE",
    "source_type": "agent_generated_design",
    "confidence": "medium",
    "geometry_role": "design_proposal",
    "green_type": "park",
    "name_zh": "京张遗址公园活力带（让行主脊）",
    "area_sqm_declared": 191955.67
   },
   "geometry": {
    "type": "Polygon",
    "coordinates": [
     [
      [
       116.3448,
       40.0265
      ],
      [
       116.3475,
       40.0265
      ],
      [
       116.3475,
       40.019
      ],
      [
       116.3448,
       40.019
      ],
      [
       116.3448,
       40.0265
      ]
     ]
    ]
   }
  },
  {
   "type": "Feature",
   "id": "GRN-024",
   "properties": {
    "id": "GRN-024",
    "layer": "GREEN_SPACE",
    "source_type": "agent_generated_design",
    "confidence": "medium",
    "geometry_role": "design_proposal",
    "green_type": "park",
    "name_zh": "京张遗址公园活力带（让行主脊）",
    "area_sqm_declared": 162304.46
   },
   "geometry": {
    "type": "Polygon",
    "coordinates": [
     [
      [
       116.3427,
       40.0265
      ],
      [
       116.3448,
       40.0265
      ],
      [
       116.3448,
       40.019
      ],
      [
       116.3425,
       40.019
      ],
      [
       116.34233414634146,
       40.019
      ],
      [
       116.3425,
       40.02240000000012
      ],
      [
       116.3427,
       40.0265
      ]
     ]
    ]
   }
  },
  {
   "type": "Feature",
   "id": "GRN-025",
   "properties": {
    "id": "GRN-025",
    "layer": "GREEN_SPACE",
    "source_type": "agent_generated_design",
    "confidence": "medium",
    "geometry_role": "design_proposal",
    "green_type": "buffer",
    "name_zh": "防护绿地",
    "area_sqm_declared": 17758.44
   },
   "geometry": {
    "type": "Polygon",
    "coordinates": [
     [
      [
       116.34204146341463,
       40.013
      ],
      [
       116.34233414634146,
       40.019
      ],
      [
       116.3425,
       40.019
      ],
      [
       116.3425,
       40.013
      ],
      [
       116.34204146341463,
       40.013
      ]
     ]
    ]
   }
  },
  {
   "type": "Feature",
   "id": "GRN-026",
   "properties": {
    "id": "GRN-026",
    "layer": "GREEN_SPACE",
    "source_type": "agent_generated_design",
    "confidence": "medium",
    "geometry_role": "design_proposal",
    "green_type": "buffer",
    "name_zh": "防护绿地",
    "area_sqm_declared": 30906.06
   },
   "geometry": {
    "type": "Polygon",
    "coordinates": [
     [
      [
       116.34177317073171,
       40.0075
      ],
      [
       116.34204146341463,
       40.013
      ],
      [
       116.3425,
       40.013
      ],
      [
       116.3425,
       40.0075
      ],
      [
       116.34177317073171,
       40.0075
      ]
     ]
    ]
   }
  },
  {
   "type": "Feature",
   "id": "GRN-040",
   "properties": {
    "id": "GRN-040",
    "layer": "GREEN_SPACE",
    "source_type": "agent_generated_design",
    "confidence": "medium",
    "geometry_role": "design_proposal",
    "green_type": "park",
    "name_zh": "京张遗址公园活力带（让行主脊）",
    "area_sqm_declared": 127465.12
   },
   "geometry": {
    "type": "Polygon",
    "coordinates": [
     [
      [
       116.3448,
       39.944
      ],
      [
       116.3425,
       39.944
      ],
      [
       116.3425,
       39.94984
      ],
      [
       116.3448,
       39.94984
      ],
      [
       116.3448,
       39.944
      ]
     ]
    ]
   }
  },
  {
   "type": "Feature",
   "id": "GRN-041",
   "properties": {
    "id": "GRN-041",
    "layer": "GREEN_SPACE",
    "source_type": "agent_generated_design",
    "confidence": "medium",
    "geometry_role": "design_proposal",
    "green_type": "park",
    "name_zh": "京张遗址公园活力带（让行主脊）",
    "area_sqm_declared": 149632.88
   },
   "geometry": {
    "type": "Polygon",
    "coordinates": [
     [
      [
       116.3475,
       39.944
      ],
      [
       116.3448,
       39.944
      ],
      [
       116.3448,
       39.94984
      ],
      [
       116.3475,
       39.94984
      ],
      [
       116.3475,
       39.944
      ]
     ]
    ]
   }
  },
  {
   "type": "Feature",
   "id": "GRN-043",
   "properties": {
    "id": "GRN-043",
    "layer": "GREEN_SPACE",
    "source_type": "agent_generated_design",
    "confidence": "medium",
    "geometry_role": "design_proposal",
    "green_type": "park",
    "name_zh": "京张遗址公园活力带（让行主脊）",
    "area_sqm_declared": 112614.38
   },
   "geometry": {
    "type": "Polygon",
    "coordinates": [
     [
      [
       116.3448,
       39.94984
      ],
      [
       116.3425,
       39.94984
      ],
      [
       116.3425,
       39.955
      ],
      [
       116.3448,
       39.955
      ],
      [
       116.3448,
       39.94984
      ]
     ]
    ]
   }
  },
  {
   "type": "Feature",
   "id": "GRN-044",
   "properties": {
    "id": "GRN-044",
    "layer": "GREEN_SPACE",
    "source_type": "agent_generated_design",
    "confidence": "medium",
    "geometry_role": "design_proposal",
    "green_type": "park",
    "name_zh": "京张遗址公园活力带（让行主脊）",
    "area_sqm_declared": 132199.41
   },
   "geometry": {
    "type": "Polygon",
    "coordinates": [
     [
      [
       116.3475,
       39.94984
      ],
      [
       116.3448,
       39.94984
      ],
      [
       116.3448,
       39.955
      ],
      [
       116.3475,
       39.955
      ],
      [
       116.3475,
       39.94984
      ]
     ]
    ]
   }
  },
  {
   "type": "Feature",
   "id": "GRN-046",
   "properties": {
    "id": "GRN-046",
    "layer": "GREEN_SPACE",
    "source_type": "agent_generated_design",
    "confidence": "medium",
    "geometry_role": "design_proposal",
    "green_type": "park",
    "name_zh": "京张遗址公园活力带（让行主脊）",
    "area_sqm_declared": 109114.48
   },
   "geometry": {
    "type": "Polygon",
    "coordinates": [
     [
      [
       116.3448,
       39.955
      ],
      [
       116.3425,
       39.955
      ],
      [
       116.3425,
       39.96
      ],
      [
       116.3448,
       39.96
      ],
      [
       116.3448,
       39.955
      ]
     ]
    ]
   }
  },
  {
   "type": "Feature",
   "id": "GRN-047",
   "properties": {
    "id": "GRN-047",
    "layer": "GREEN_SPACE",
    "source_type": "agent_generated_design",
    "confidence": "medium",
    "geometry_role": "design_proposal",
    "green_type": "park",
    "name_zh": "京张遗址公园活力带（让行主脊）",
    "area_sqm_declared": 128090.84
   },
   "geometry": {
    "type": "Polygon",
    "coordinates": [
     [
      [
       116.3475,
       39.955
      ],
      [
       116.3448,
       39.955
      ],
      [
       116.3448,
       39.96
      ],
      [
       116.3475,
       39.96
      ],
      [
       116.3475,
       39.955
      ]
     ]
    ]
   }
  },
  {
   "type": "Feature",
   "id": "GRN-049",
   "properties": {
    "id": "GRN-049",
    "layer": "GREEN_SPACE",
    "source_type": "agent_generated_design",
    "confidence": "medium",
    "geometry_role": "design_proposal",
    "green_type": "park",
    "name_zh": "京张遗址公园活力带（让行主脊）",
    "area_sqm_declared": 109106.63
   },
   "geometry": {
    "type": "Polygon",
    "coordinates": [
     [
      [
       116.3448,
       39.96
      ],
      [
       116.3425,
       39.96
      ],
      [
       116.3425,
       39.965
      ],
      [
       116.3448,
       39.965
      ],
      [
       116.3448,
       39.96
      ]
     ]
    ]
   }
  },
  {
   "type": "Feature",
   "id": "GRN-050",
   "properties": {
    "id": "GRN-050",
    "layer": "GREEN_SPACE",
    "source_type": "agent_generated_design",
    "confidence": "medium",
    "geometry_role": "design_proposal",
    "green_type": "park",
    "name_zh": "京张遗址公园活力带（让行主脊）",
    "area_sqm_declared": 128081.62
   },
   "geometry": {
    "type": "Polygon",
    "coordinates": [
     [
      [
       116.3475,
       39.96
      ],
      [
       116.3448,
       39.96
      ],
      [
       116.3448,
       39.965
      ],
      [
       116.3475,
       39.965
      ],
      [
       116.3475,
       39.96
      ]
     ]
    ]
   }
  },
  {
   "type": "Feature",
   "id": "GRN-052",
   "properties": {
    "id": "GRN-052",
    "layer": "GREEN_SPACE",
    "source_type": "agent_generated_design",
    "confidence": "medium",
    "geometry_role": "design_proposal",
    "green_type": "park",
    "name_zh": "京张遗址公园活力带（让行主脊）",
    "area_sqm_declared": 109098.77
   },
   "geometry": {
    "type": "Polygon",
    "coordinates": [
     [
      [
       116.3448,
       39.965
      ],
      [
       116.3425,
       39.965
      ],
      [
       116.3425,
       39.97
      ],
      [
       116.3448,
       39.97
      ],
      [
       116.3448,
       39.965
      ]
     ]
    ]
   }
  },
  {
   "type": "Feature",
   "id": "GRN-053",
   "properties": {
    "id": "GRN-053",
    "layer": "GREEN_SPACE",
    "source_type": "agent_generated_design",
    "confidence": "medium",
    "geometry_role": "design_proposal",
    "green_type": "park",
    "name_zh": "京张遗址公园活力带（让行主脊）",
    "area_sqm_declared": 128072.4
   },
   "geometry": {
    "type": "Polygon",
    "coordinates": [
     [
      [
       116.3475,
       39.965
      ],
      [
       116.3448,
       39.965
      ],
      [
       116.3448,
       39.97
      ],
      [
       116.3475,
       39.97
      ],
      [
       116.3475,
       39.965
      ]
     ]
    ]
   }
  },
  {
   "type": "Feature",
   "id": "GRN-055",
   "properties": {
    "id": "GRN-055",
    "layer": "GREEN_SPACE",
    "source_type": "agent_generated_design",
    "confidence": "medium",
    "geometry_role": "design_proposal",
    "green_type": "park",
    "name_zh": "京张遗址公园活力带（让行主脊）",
    "area_sqm_declared": 109090.92
   },
   "geometry": {
    "type": "Polygon",
    "coordinates": [
     [
      [
       116.3448,
       39.97
      ],
      [
       116.3425,
       39.97
      ],
      [
       116.3425,
       39.975
      ],
      [
       116.3448,
       39.975
      ],
      [
       116.3448,
       39.97
      ]
     ]
    ]
   }
  },
  {
   "type": "Feature",
   "id": "GRN-056",
   "properties": {
    "id": "GRN-056",
    "layer": "GREEN_SPACE",
    "source_type": "agent_generated_design",
    "confidence": "medium",
    "geometry_role": "design_proposal",
    "green_type": "park",
    "name_zh": "京张遗址公园活力带（让行主脊）",
    "area_sqm_declared": 128063.18
   },
   "geometry": {
    "type": "Polygon",
    "coordinates": [
     [
      [
       116.3475,
       39.97
      ],
      [
       116.3448,
       39.97
      ],
      [
       116.3448,
       39.975
      ],
      [
       116.3475,
       39.975
      ],
      [
       116.3475,
       39.97
      ]
     ]
    ]
   }
  },
  {
   "type": "Feature",
   "id": "GRN-058",
   "properties": {
    "id": "GRN-058",
    "layer": "GREEN_SPACE",
    "source_type": "agent_generated_design",
    "confidence": "medium",
    "geometry_role": "design_proposal",
    "green_type": "park",
    "name_zh": "京张遗址公园活力带（让行主脊）",
    "area_sqm_declared": 109083.06
   },
   "geometry": {
    "type": "Polygon",
    "coordinates": [
     [
      [
       116.3448,
       39.975
      ],
      [
       116.3425,
       39.975
      ],
      [
       116.3425,
       39.98
      ],
      [
       116.3448,
       39.98
      ],
      [
       116.3448,
       39.975
      ]
     ]
    ]
   }
  },
  {
   "type": "Feature",
   "id": "GRN-059",
   "properties": {
    "id": "GRN-059",
    "layer": "GREEN_SPACE",
    "source_type": "agent_generated_design",
    "confidence": "medium",
    "geometry_role": "design_proposal",
    "green_type": "park",
    "name_zh": "京张遗址公园活力带（让行主脊）",
    "area_sqm_declared": 128053.95
   },
   "geometry": {
    "type": "Polygon",
    "coordinates": [
     [
      [
       116.3475,
       39.975
      ],
      [
       116.3448,
       39.975
      ],
      [
       116.3448,
       39.98
      ],
      [
       116.3475,
       39.98
      ],
      [
       116.3475,
       39.975
      ]
     ]
    ]
   }
  },
  {
   "type": "Feature",
   "id": "GRN-061",
   "properties": {
    "id": "GRN-061",
    "layer": "GREEN_SPACE",
    "source_type": "agent_generated_design",
    "confidence": "medium",
    "geometry_role": "design_proposal",
    "green_type": "park",
    "name_zh": "京张遗址公园活力带（让行主脊）",
    "area_sqm_declared": 76353.47
   },
   "geometry": {
    "type": "Polygon",
    "coordinates": [
     [
      [
       116.3448,
       39.98
      ],
      [
       116.3425,
       39.98
      ],
      [
       116.3425,
       39.9835
      ],
      [
       116.3448,
       39.9835
      ],
      [
       116.3448,
       39.98
      ]
     ]
    ]
   }
  },
  {
   "type": "Feature",
   "id": "GRN-062",
   "properties": {
    "id": "GRN-062",
    "layer": "GREEN_SPACE",
    "source_type": "agent_generated_design",
    "confidence": "medium",
    "geometry_role": "design_proposal",
    "green_type": "park",
    "name_zh": "京张遗址公园活力带（让行主脊）",
    "area_sqm_declared": 89632.28
   },
   "geometry": {
    "type": "Polygon",
    "coordinates": [
     [
      [
       116.3475,
       39.98
      ],
      [
       116.3448,
       39.98
      ],
      [
       116.3448,
       39.9835
      ],
      [
       116.3475,
       39.9835
      ],
      [
       116.3475,
       39.98
      ]
     ]
    ]
   }
  },
  {
   "type": "Feature",
   "id": "GRN-064",
   "properties": {
    "id": "GRN-064",
    "layer": "GREEN_SPACE",
    "source_type": "agent_generated_design",
    "confidence": "medium",
    "geometry_role": "design_proposal",
    "green_type": "park",
    "name_zh": "京张遗址公园活力带（让行主脊）",
    "area_sqm_declared": 98163.09
   },
   "geometry": {
    "type": "Polygon",
    "coordinates": [
     [
      [
       116.3448,
       39.9835
      ],
      [
       116.3425,
       39.9835
      ],
      [
       116.3425,
       39.988
      ],
      [
       116.3448,
       39.988
      ],
      [
       116.3448,
       39.9835
      ]
     ]
    ]
   }
  },
  {
   "type": "Feature",
   "id": "GRN-065",
   "properties": {
    "id": "GRN-065",
    "layer": "GREEN_SPACE",
    "source_type": "agent_generated_design",
    "confidence": "medium",
    "geometry_role": "design_proposal",
    "green_type": "park",
    "name_zh": "京张遗址公园活力带（让行主脊）",
    "area_sqm_declared": 115234.86
   },
   "geometry": {
    "type": "Polygon",
    "coordinates": [
     [
      [
       116.3475,
       39.9835
      ],
      [
       116.3448,
       39.9835
      ],
      [
       116.3448,
       39.988
      ],
      [
       116.3475,
       39.988
      ],
      [
       116.3475,
       39.9835
      ]
     ]
    ]
   }
  },
  {
   "type": "Feature",
   "id": "GRN-067",
   "properties": {
    "id": "GRN-067",
    "layer": "GREEN_SPACE",
    "source_type": "agent_generated_design",
    "confidence": "medium",
    "geometry_role": "design_proposal",
    "green_type": "park",
    "name_zh": "京张遗址公园活力带（让行主脊）",
    "area_sqm_declared": 119968.46
   },
   "geometry": {
    "type": "Polygon",
    "coordinates": [
     [
      [
       116.3448,
       39.988
      ],
      [
       116.3425,
       39.988
      ],
      [
       116.3425,
       39.9935
      ],
      [
       116.3448,
       39.9935
      ],
      [
       116.3448,
       39.988
      ]
     ]
    ]
   }
  },
  {
   "type": "Feature",
   "id": "GRN-068",
   "properties": {
    "id": "GRN-068",
    "layer": "GREEN_SPACE",
    "source_type": "agent_generated_design",
    "confidence": "medium",
    "geometry_role": "design_proposal",
    "green_type": "park",
    "name_zh": "京张遗址公园活力带（让行主脊）",
    "area_sqm_declared": 140832.46
   },
   "geometry": {
    "type": "Polygon",
    "coordinates": [
     [
      [
       116.3475,
       39.988
      ],
      [
       116.3448,
       39.988
      ],
      [
       116.3448,
       39.9935
      ],
      [
       116.3475,
       39.9935
      ],
      [
       116.3475,
       39.988
      ]
     ]
    ]
   }
  },
  {
   "type": "Feature",
   "id": "GRN-070",
   "properties": {
    "id": "GRN-070",
    "layer": "GREEN_SPACE",
    "source_type": "agent_generated_design",
    "confidence": "medium",
    "geometry_role": "design_proposal",
    "green_type": "park",
    "name_zh": "京张遗址公园活力带（让行主脊）",
    "area_sqm_declared": 98148.94
   },
   "geometry": {
    "type": "Polygon",
    "coordinates": [
     [
      [
       116.3448,
       39.9935
      ],
      [
       116.3425,
       39.9935
      ],
      [
       116.3425,
       39.998
      ],
      [
       116.3448,
       39.998
      ],
      [
       116.3448,
       39.9935
      ]
     ]
    ]
   }
  },
  {
   "type": "Feature",
   "id": "GRN-071",
   "properties": {
    "id": "GRN-071",
    "layer": "GREEN_SPACE",
    "source_type": "agent_generated_design",
    "confidence": "medium",
    "geometry_role": "design_proposal",
    "green_type": "park",
    "name_zh": "京张遗址公园活力带（让行主脊）",
    "area_sqm_declared": 115218.26
   },
   "geometry": {
    "type": "Polygon",
    "coordinates": [
     [
      [
       116.3475,
       39.9935
      ],
      [
       116.3448,
       39.9935
      ],
      [
       116.3448,
       39.998
      ],
      [
       116.3475,
       39.998
      ],
      [
       116.3475,
       39.9935
      ]
     ]
    ]
   }
  },
  {
   "type": "Feature",
   "id": "GRN-073",
   "properties": {
    "id": "GRN-073",
    "layer": "GREEN_SPACE",
    "source_type": "agent_generated_design",
    "confidence": "medium",
    "geometry_role": "design_proposal",
    "green_type": "park",
    "name_zh": "京张遗址公园活力带（让行主脊）",
    "area_sqm_declared": 109046.91
   },
   "geometry": {
    "type": "Polygon",
    "coordinates": [
     [
      [
       116.3448,
       39.998
      ],
      [
       116.3425,
       39.998
      ],
      [
       116.3425,
       40.003
      ],
      [
       116.3448,
       40.003
      ],
      [
       116.3448,
       39.998
      ]
     ]
    ]
   }
  },
  {
   "type": "Feature",
   "id": "GRN-074",
   "properties": {
    "id": "GRN-074",
    "layer": "GREEN_SPACE",
    "source_type": "agent_generated_design",
    "confidence": "medium",
    "geometry_role": "design_proposal",
    "green_type": "park",
    "name_zh": "京张遗址公园活力带（让行主脊）",
    "area_sqm_declared": 128011.52
   },
   "geometry": {
    "type": "Polygon",
    "coordinates": [
     [
      [
       116.3475,
       39.998
      ],
      [
       116.3448,
       39.998
      ],
      [
       116.3448,
       40.003
      ],
      [
       116.3475,
       40.003
      ],
      [
       116.3475,
       39.998
      ]
     ]
    ]
   }
  },
  {
   "type": "Feature",
   "id": "GRN-076",
   "properties": {
    "id": "GRN-076",
    "layer": "GREEN_SPACE",
    "source_type": "agent_generated_design",
    "confidence": "medium",
    "geometry_role": "design_proposal",
    "green_type": "park",
    "name_zh": "京张遗址公园活力带（让行主脊）",
    "area_sqm_declared": 98135.5
   },
   "geometry": {
    "type": "Polygon",
    "coordinates": [
     [
      [
       116.3448,
       40.003
      ],
      [
       116.3425,
       40.003
      ],
      [
       116.3425,
       40.0075
      ],
      [
       116.3448,
       40.0075
      ],
      [
       116.3448,
       40.003
      ]
     ]
    ]
   }
  },
  {
   "type": "Feature",
   "id": "GRN-077",
   "properties": {
    "id": "GRN-077",
    "layer": "GREEN_SPACE",
    "source_type": "agent_generated_design",
    "confidence": "medium",
    "geometry_role": "design_proposal",
    "green_type": "park",
    "name_zh": "京张遗址公园活力带（让行主脊）",
    "area_sqm_declared": 115202.48
   },
   "geometry": {
    "type": "Polygon",
    "coordinates": [
     [
      [
       116.3475,
       40.003
      ],
      [
       116.3448,
       40.003
      ],
      [
       116.3448,
       40.0075
      ],
      [
       116.3475,
       40.0075
      ],
      [
       116.3475,
       40.003
      ]
     ]
    ]
   }
  },
  {
   "type": "Feature",
   "id": "GRN-079",
   "properties": {
    "id": "GRN-079",
    "layer": "GREEN_SPACE",
    "source_type": "agent_generated_design",
    "confidence": "medium",
    "geometry_role": "design_proposal",
    "green_type": "park",
    "name_zh": "京张遗址公园活力带（让行主脊）",
    "area_sqm_declared": 119934.74
   },
   "geometry": {
    "type": "Polygon",
    "coordinates": [
     [
      [
       116.3448,
       40.0075
      ],
      [
       116.3425,
       40.0075
      ],
      [
       116.3425,
       40.013
      ],
      [
       116.3448,
       40.013
      ],
      [
       116.3448,
       40.0075
      ]
     ]
    ]
   }
  },
  {
   "type": "Feature",
   "id": "GRN-080",
   "properties": {
    "id": "GRN-080",
    "layer": "GREEN_SPACE",
    "source_type": "agent_generated_design",
    "confidence": "medium",
    "geometry_role": "design_proposal",
    "green_type": "park",
    "name_zh": "京张遗址公园活力带（让行主脊）",
    "area_sqm_declared": 140792.87
   },
   "geometry": {
    "type": "Polygon",
    "coordinates": [
     [
      [
       116.3475,
       40.0075
      ],
      [
       116.3448,
       40.0075
      ],
      [
       116.3448,
       40.013
      ],
      [
       116.3475,
       40.013
      ],
      [
       116.3475,
       40.0075
      ]
     ]
    ]
   }
  },
  {
   "type": "Feature",
   "id": "GRN-082",
   "properties": {
    "id": "GRN-082",
    "layer": "GREEN_SPACE",
    "source_type": "agent_generated_design",
    "confidence": "medium",
    "geometry_role": "design_proposal",
    "green_type": "park",
    "name_zh": "京张遗址公园活力带（让行主脊）",
    "area_sqm_declared": 130827.05
   },
   "geometry": {
    "type": "Polygon",
    "coordinates": [
     [
      [
       116.3448,
       40.013
      ],
      [
       116.3425,
       40.013
      ],
      [
       116.3425,
       40.019
      ],
      [
       116.3448,
       40.019
      ],
      [
       116.3448,
       40.013
      ]
     ]
    ]
   }
  },
  {
   "type": "Feature",
   "id": "GRN-083",
   "properties": {
    "id": "GRN-083",
    "layer": "GREEN_SPACE",
    "source_type": "agent_generated_design",
    "confidence": "medium",
    "geometry_role": "design_proposal",
    "green_type": "park",
    "name_zh": "京张遗址公园活力带（让行主脊）",
    "area_sqm_declared": 153579.49
   },
   "geometry": {
    "type": "Polygon",
    "coordinates": [
     [
      [
       116.3475,
       40.013
      ],
      [
       116.3448,
       40.013
      ],
      [
       116.3448,
       40.019
      ],
      [
       116.3475,
       40.019
      ],
      [
       116.3475,
       40.013
      ]
     ]
    ]
   }
  }
 ]
}