{
 "type": "FeatureCollection",
 "features": [
  {
   "type": "Feature",
   "id": "LU-001",
   "properties": {
    "id": "LU-001",
    "layer": "LAND_USE",
    "source_type": "agent_generated_design",
    "confidence": "medium",
    "geometry_role": "design_proposal",
    "land_use_code": "05",
    "land_use_label_zh": "商业服务业用地",
    "zone_role": "south_west_commercial",
    "passing_loop_band": "让行轨道分区",
    "area_sqm_declared": 88708.82
   },
   "geometry": {
    "type": "Polygon",
    "coordinates": [
     [
      [
       116.3425,
       39.939
      ],
      [
       116.3407,
       39.939
      ],
      [
       116.34056111111111,
       39.944
      ],
      [
       116.3425,
       39.944
      ],
      [
       116.3425,
       39.939
      ]
     ]
    ]
   }
  },
  {
   "type": "Feature",
   "id": "LU-002",
   "properties": {
    "id": "LU-002",
    "layer": "LAND_USE",
    "source_type": "agent_generated_design",
    "confidence": "medium",
    "geometry_role": "design_proposal",
    "land_use_code": "1401",
    "land_use_label_zh": "公园绿地",
    "zone_role": "park_spine",
    "passing_loop_band": "让行轨道分区",
    "area_sqm_declared": 109139.61
   },
   "geometry": {
    "type": "Polygon",
    "coordinates": [
     [
      [
       116.3448,
       39.939
      ],
      [
       116.3425,
       39.939
      ],
      [
       116.3425,
       39.944
      ],
      [
       116.3448,
       39.944
      ],
      [
       116.3448,
       39.939
      ]
     ]
    ]
   }
  },
  {
   "type": "Feature",
   "id": "LU-003",
   "properties": {
    "id": "LU-003",
    "layer": "LAND_USE",
    "source_type": "agent_generated_design",
    "confidence": "medium",
    "geometry_role": "design_proposal",
    "land_use_code": "1401",
    "land_use_label_zh": "公园绿地",
    "zone_role": "park_spine",
    "passing_loop_band": "让行轨道分区",
    "area_sqm_declared": 128120.33
   },
   "geometry": {
    "type": "Polygon",
    "coordinates": [
     [
      [
       116.3475,
       39.939
      ],
      [
       116.3448,
       39.939
      ],
      [
       116.3448,
       39.944
      ],
      [
       116.3475,
       39.944
      ],
      [
       116.3475,
       39.939
      ]
     ]
    ]
   }
  },
  {
   "type": "Feature",
   "id": "LU-004",
   "properties": {
    "id": "LU-004",
    "layer": "LAND_USE",
    "source_type": "agent_generated_design",
    "confidence": "medium",
    "geometry_role": "design_proposal",
    "land_use_code": "0802",
    "land_use_label_zh": "科研用地",
    "zone_role": "dazhongsi_research",
    "passing_loop_band": "让行轨道分区",
    "area_sqm_declared": 142355.83
   },
   "geometry": {
    "type": "Polygon",
    "coordinates": [
     [
      [
       116.3505,
       39.939
      ],
      [
       116.3475,
       39.939
      ],
      [
       116.3475,
       39.944
      ],
      [
       116.3505,
       39.944
      ],
      [
       116.3505,
       39.939
      ]
     ]
    ]
   }
  },
  {
   "type": "Feature",
   "id": "LU-005",
   "properties": {
    "id": "LU-005",
    "layer": "LAND_USE",
    "source_type": "agent_generated_design",
    "confidence": "medium",
    "geometry_role": "design_proposal",
    "land_use_code": "0802",
    "land_use_label_zh": "科研用地",
    "zone_role": "dazhongsi_research",
    "passing_loop_band": "让行轨道分区",
    "area_sqm_declared": 227769.12
   },
   "geometry": {
    "type": "Polygon",
    "coordinates": [
     [
      [
       116.3553,
       39.944
      ],
      [
       116.3553,
       39.939
      ],
      [
       116.3505,
       39.939
      ],
      [
       116.3505,
       39.944
      ],
      [
       116.3553,
       39.944
      ]
     ]
    ]
   }
  },
  {
   "type": "Feature",
   "id": "LU-006",
   "properties": {
    "id": "LU-006",
    "layer": "LAND_USE",
    "source_type": "agent_generated_design",
    "confidence": "medium",
    "geometry_role": "design_proposal",
    "land_use_code": "0802",
    "land_use_label_zh": "科研用地",
    "zone_role": "dazhongsi_research",
    "passing_loop_band": "让行轨道分区",
    "area_sqm_declared": 266013.59
   },
   "geometry": {
    "type": "Polygon",
    "coordinates": [
     [
      [
       116.3553,
       39.94984
      ],
      [
       116.3553,
       39.944
      ],
      [
       116.3505,
       39.944
      ],
      [
       116.3505,
       39.94984
      ],
      [
       116.3553,
       39.94984
      ]
     ]
    ]
   }
  },
  {
   "type": "Feature",
   "id": "LU-007",
   "properties": {
    "id": "LU-007",
    "layer": "LAND_USE",
    "source_type": "agent_generated_design",
    "confidence": "medium",
    "geometry_role": "design_proposal",
    "land_use_code": "0701",
    "land_use_label_zh": "城镇住宅用地",
    "zone_role": "transition_residential",
    "passing_loop_band": "让行轨道分区",
    "area_sqm_declared": 235020.8
   },
   "geometry": {
    "type": "Polygon",
    "coordinates": [
     [
      [
       116.3553,
       39.955
      ],
      [
       116.3553,
       39.94984
      ],
      [
       116.3505,
       39.94984
      ],
      [
       116.3505,
       39.955
      ],
      [
       116.3553,
       39.955
      ]
     ]
    ]
   }
  },
  {
   "type": "Feature",
   "id": "LU-008",
   "properties": {
    "id": "LU-008",
    "layer": "LAND_USE",
    "source_type": "agent_generated_design",
    "confidence": "medium",
    "geometry_role": "design_proposal",
    "land_use_code": "0701",
    "land_use_label_zh": "城镇住宅用地",
    "zone_role": "transition_residential",
    "passing_loop_band": "让行轨道分区",
    "area_sqm_declared": 227716.69
   },
   "geometry": {
    "type": "Polygon",
    "coordinates": [
     [
      [
       116.3553,
       39.96
      ],
      [
       116.3553,
       39.955
      ],
      [
       116.3505,
       39.955
      ],
      [
       116.3505,
       39.96
      ],
      [
       116.3553,
       39.96
      ]
     ]
    ]
   }
  },
  {
   "type": "Feature",
   "id": "LU-009",
   "properties": {
    "id": "LU-009",
    "layer": "LAND_USE",
    "source_type": "agent_generated_design",
    "confidence": "medium",
    "geometry_role": "design_proposal",
    "land_use_code": "0804",
    "land_use_label_zh": "教育用地",
    "zone_role": "university_education",
    "passing_loop_band": "让行轨道分区",
    "area_sqm_declared": 227700.3
   },
   "geometry": {
    "type": "Polygon",
    "coordinates": [
     [
      [
       116.3553,
       39.965
      ],
      [
       116.3553,
       39.96
      ],
      [
       116.3505,
       39.96
      ],
      [
       116.3505,
       39.965
      ],
      [
       116.3553,
       39.965
      ]
     ]
    ]
   }
  },
  {
   "type": "Feature",
   "id": "LU-010",
   "properties": {
    "id": "LU-010",
    "layer": "LAND_USE",
    "source_type": "agent_generated_design",
    "confidence": "medium",
    "geometry_role": "design_proposal",
    "land_use_code": "0804",
    "land_use_label_zh": "教育用地",
    "zone_role": "university_education",
    "passing_loop_band": "让行轨道分区",
    "area_sqm_declared": 218197.25
   },
   "geometry": {
    "type": "Polygon",
    "coordinates": [
     [
      [
       116.3549,
       39.97
      ],
      [
       116.3553,
       39.965
      ],
      [
       116.3505,
       39.965
      ],
      [
       116.3505,
       39.97
      ],
      [
       116.3549,
       39.97
      ]
     ]
    ]
   }
  },
  {
   "type": "Feature",
   "id": "LU-011",
   "properties": {
    "id": "LU-011",
    "layer": "LAND_USE",
    "source_type": "agent_generated_design",
    "confidence": "medium",
    "geometry_role": "design_proposal",
    "land_use_code": "0804",
    "land_use_label_zh": "教育用地",
    "zone_role": "university_education",
    "passing_loop_band": "让行轨道分区",
    "area_sqm_declared": 199209.29
   },
   "geometry": {
    "type": "Polygon",
    "coordinates": [
     [
      [
       116.3545,
       39.975
      ],
      [
       116.3549,
       39.97
      ],
      [
       116.3505,
       39.97
      ],
      [
       116.3505,
       39.975
      ],
      [
       116.3545,
       39.975
      ]
     ]
    ]
   }
  },
  {
   "type": "Feature",
   "id": "LU-012",
   "properties": {
    "id": "LU-012",
    "layer": "LAND_USE",
    "source_type": "agent_generated_design",
    "confidence": "medium",
    "geometry_role": "design_proposal",
    "land_use_code": "0802",
    "land_use_label_zh": "科研用地",
    "zone_role": "mid_research",
    "passing_loop_band": "让行轨道分区",
    "area_sqm_declared": 180224.05
   },
   "geometry": {
    "type": "Polygon",
    "coordinates": [
     [
      [
       116.3541,
       39.98
      ],
      [
       116.3545,
       39.975
      ],
      [
       116.3505,
       39.975
      ],
      [
       116.3505,
       39.98
      ],
      [
       116.3541,
       39.98
      ]
     ]
    ]
   }
  },
  {
   "type": "Feature",
   "id": "LU-013",
   "properties": {
    "id": "LU-013",
    "layer": "LAND_USE",
    "source_type": "agent_generated_design",
    "confidence": "medium",
    "geometry_role": "design_proposal",
    "land_use_code": "0802",
    "land_use_label_zh": "科研用地",
    "zone_role": "mid_research",
    "passing_loop_band": "让行轨道分区",
    "area_sqm_declared": 114861.99
   },
   "geometry": {
    "type": "Polygon",
    "coordinates": [
     [
      [
       116.35382,
       39.9835
      ],
      [
       116.3541,
       39.98
      ],
      [
       116.3505,
       39.98
      ],
      [
       116.3505,
       39.9835
      ],
      [
       116.35382,
       39.9835
      ]
     ]
    ]
   }
  },
  {
   "type": "Feature",
   "id": "LU-014",
   "properties": {
    "id": "LU-014",
    "layer": "LAND_USE",
    "source_type": "agent_generated_design",
    "confidence": "medium",
    "geometry_role": "design_proposal",
    "land_use_code": "0701",
    "land_use_label_zh": "城镇住宅用地",
    "zone_role": "origin_residential",
    "passing_loop_band": "让行轨道分区",
    "area_sqm_declared": 134013.87
   },
   "geometry": {
    "type": "Polygon",
    "coordinates": [
     [
      [
       116.35346,
       39.988
      ],
      [
       116.35382,
       39.9835
      ],
      [
       116.3505,
       39.9835
      ],
      [
       116.3505,
       39.988
      ],
      [
       116.35346,
       39.988
      ]
     ]
    ]
   }
  },
  {
   "type": "Feature",
   "id": "LU-015",
   "properties": {
    "id": "LU-015",
    "layer": "LAND_USE",
    "source_type": "agent_generated_design",
    "confidence": "medium",
    "geometry_role": "design_proposal",
    "land_use_code": "0701",
    "land_use_label_zh": "城镇住宅用地",
    "zone_role": "origin_residential",
    "passing_loop_band": "让行轨道分区",
    "area_sqm_declared": 150748.46
   },
   "geometry": {
    "type": "Polygon",
    "coordinates": [
     [
      [
       116.35349178082193,
       39.9935
      ],
      [
       116.3533,
       39.99
      ],
      [
       116.35346,
       39.988
      ],
      [
       116.3505,
       39.988
      ],
      [
       116.3505,
       39.9935
      ],
      [
       116.35349178082193,
       39.9935
      ]
     ]
    ]
   }
  },
  {
   "type": "Feature",
   "id": "LU-016",
   "properties": {
    "id": "LU-016",
    "layer": "LAND_USE",
    "source_type": "agent_generated_design",
    "confidence": "medium",
    "geometry_role": "design_proposal",
    "land_use_code": "0802",
    "land_use_label_zh": "科研用地",
    "zone_role": "upper_research",
    "passing_loop_band": "让行轨道分区",
    "area_sqm_declared": 132930.34
   },
   "geometry": {
    "type": "Polygon",
    "coordinates": [
     [
      [
       116.35373835616438,
       39.998
      ],
      [
       116.35349178082193,
       39.9935
      ],
      [
       116.3505,
       39.9935
      ],
      [
       116.3505,
       39.998
      ],
      [
       116.35373835616438,
       39.998
      ]
     ]
    ]
   }
  },
  {
   "type": "Feature",
   "id": "LU-017",
   "properties": {
    "id": "LU-017",
    "layer": "LAND_USE",
    "source_type": "agent_generated_design",
    "confidence": "medium",
    "geometry_role": "design_proposal",
    "land_use_code": "0802",
    "land_use_label_zh": "科研用地",
    "zone_role": "upper_research",
    "passing_loop_band": "让行轨道分区",
    "area_sqm_declared": 160030.24
   },
   "geometry": {
    "type": "Polygon",
    "coordinates": [
     [
      [
       116.35401232876713,
       40.003
      ],
      [
       116.35373835616438,
       39.998
      ],
      [
       116.3505,
       39.998
      ],
      [
       116.3505,
       40.003
      ],
      [
       116.35401232876713,
       40.003
      ]
     ]
    ]
   }
  },
  {
   "type": "Feature",
   "id": "LU-018",
   "properties": {
    "id": "LU-018",
    "layer": "LAND_USE",
    "source_type": "agent_generated_design",
    "confidence": "medium",
    "geometry_role": "design_proposal",
    "land_use_code": "0802",
    "land_use_label_zh": "科研用地",
    "zone_role": "upper_research",
    "passing_loop_band": "让行轨道分区",
    "area_sqm_declared": 155122.64
   },
   "geometry": {
    "type": "Polygon",
    "coordinates": [
     [
      [
       116.35425890410959,
       40.0075
      ],
      [
       116.35401232876713,
       40.003
      ],
      [
       116.3505,
       40.003
      ],
      [
       116.3505,
       40.0075
      ],
      [
       116.35425890410959,
       40.0075
      ]
     ]
    ]
   }
  },
  {
   "type": "Feature",
   "id": "LU-019",
   "properties": {
    "id": "LU-019",
    "layer": "LAND_USE",
    "source_type": "agent_generated_design",
    "confidence": "medium",
    "geometry_role": "design_proposal",
    "land_use_code": "0802",
    "land_use_label_zh": "科研用地",
    "zone_role": "zhongzhiyuan_research",
    "passing_loop_band": "让行轨道分区",
    "area_sqm_declared": 203866.99
   },
   "geometry": {
    "type": "Polygon",
    "coordinates": [
     [
      [
       116.35456027397261,
       40.013
      ],
      [
       116.35425890410959,
       40.0075
      ],
      [
       116.3505,
       40.0075
      ],
      [
       116.3505,
       40.013
      ],
      [
       116.35456027397261,
       40.013
      ]
     ]
    ]
   }
  },
  {
   "type": "Feature",
   "id": "LU-020",
   "properties": {
    "id": "LU-020",
    "layer": "LAND_USE",
    "source_type": "agent_generated_design",
    "confidence": "medium",
    "geometry_role": "design_proposal",
    "land_use_code": "0802",
    "land_use_label_zh": "科研用地",
    "zone_role": "zhongzhiyuan_research",
    "passing_loop_band": "让行轨道分区",
    "area_sqm_declared": 240303.33
   },
   "geometry": {
    "type": "Polygon",
    "coordinates": [
     [
      [
       116.35488904109589,
       40.019
      ],
      [
       116.35456027397261,
       40.013
      ],
      [
       116.3505,
       40.013
      ],
      [
       116.3505,
       40.019
      ],
      [
       116.35488904109589,
       40.019
      ]
     ]
    ]
   }
  },
  {
   "type": "Feature",
   "id": "LU-021",
   "properties": {
    "id": "LU-021",
    "layer": "LAND_USE",
    "source_type": "agent_generated_design",
    "confidence": "medium",
    "geometry_role": "design_proposal",
    "land_use_code": "0802",
    "land_use_label_zh": "科研用地",
    "zone_role": "zhongzhiyuan_research",
    "passing_loop_band": "让行轨道分区",
    "area_sqm_declared": 326644.89
   },
   "geometry": {
    "type": "Polygon",
    "coordinates": [
     [
      [
       116.3505,
       40.0265
      ],
      [
       116.3553,
       40.0265
      ],
      [
       116.35488904109589,
       40.019
      ],
      [
       116.3505,
       40.019
      ],
      [
       116.3505,
       40.0265
      ]
     ]
    ]
   }
  },
  {
   "type": "Feature",
   "id": "LU-022",
   "properties": {
    "id": "LU-022",
    "layer": "LAND_USE",
    "source_type": "agent_generated_design",
    "confidence": "medium",
    "geometry_role": "design_proposal",
    "land_use_code": "0802",
    "land_use_label_zh": "科研用地",
    "zone_role": "zhongzhiyuan_research",
    "passing_loop_band": "让行轨道分区",
    "area_sqm_declared": 213283.93
   },
   "geometry": {
    "type": "Polygon",
    "coordinates": [
     [
      [
       116.3475,
       40.0265
      ],
      [
       116.3505,
       40.0265
      ],
      [
       116.3505,
       40.019
      ],
      [
       116.3475,
       40.019
      ],
      [
       116.3475,
       40.0265
      ]
     ]
    ]
   }
  },
  {
   "type": "Feature",
   "id": "LU-023",
   "properties": {
    "id": "LU-023",
    "layer": "LAND_USE",
    "source_type": "agent_generated_design",
    "confidence": "medium",
    "geometry_role": "design_proposal",
    "land_use_code": "1401",
    "land_use_label_zh": "公园绿地",
    "zone_role": "park_spine",
    "passing_loop_band": "让行轨道分区",
    "area_sqm_declared": 191955.67
   },
   "geometry": {
    "type": "Polygon",
    "coordinates": [
     [
      [
       116.3448,
       40.0265
      ],
      [
       116.3475,
       40.0265
      ],
      [
       116.3475,
       40.019
      ],
      [
       116.3448,
       40.019
      ],
      [
       116.3448,
       40.0265
      ]
     ]
    ]
   }
  },
  {
   "type": "Feature",
   "id": "LU-024",
   "properties": {
    "id": "LU-024",
    "layer": "LAND_USE",
    "source_type": "agent_generated_design",
    "confidence": "medium",
    "geometry_role": "design_proposal",
    "land_use_code": "1401",
    "land_use_label_zh": "公园绿地",
    "zone_role": "park_spine",
    "passing_loop_band": "让行轨道分区",
    "area_sqm_declared": 162304.46
   },
   "geometry": {
    "type": "Polygon",
    "coordinates": [
     [
      [
       116.3427,
       40.0265
      ],
      [
       116.3448,
       40.0265
      ],
      [
       116.3448,
       40.019
      ],
      [
       116.3425,
       40.019
      ],
      [
       116.34233414634146,
       40.019
      ],
      [
       116.3425,
       40.02240000000012
      ],
      [
       116.3427,
       40.0265
      ]
     ]
    ]
   }
  },
  {
   "type": "Feature",
   "id": "LU-025",
   "properties": {
    "id": "LU-025",
    "layer": "LAND_USE",
    "source_type": "agent_generated_design",
    "confidence": "medium",
    "geometry_role": "design_proposal",
    "land_use_code": "1402",
    "land_use_label_zh": "防护绿地",
    "zone_role": "north_west_buffer",
    "passing_loop_band": "让行轨道分区",
    "area_sqm_declared": 17758.44
   },
   "geometry": {
    "type": "Polygon",
    "coordinates": [
     [
      [
       116.34204146341463,
       40.013
      ],
      [
       116.34233414634146,
       40.019
      ],
      [
       116.3425,
       40.019
      ],
      [
       116.3425,
       40.013
      ],
      [
       116.34204146341463,
       40.013
      ]
     ]
    ]
   }
  },
  {
   "type": "Feature",
   "id": "LU-026",
   "properties": {
    "id": "LU-026",
    "layer": "LAND_USE",
    "source_type": "agent_generated_design",
    "confidence": "medium",
    "geometry_role": "design_proposal",
    "land_use_code": "1402",
    "land_use_label_zh": "防护绿地",
    "zone_role": "north_west_buffer",
    "passing_loop_band": "让行轨道分区",
    "area_sqm_declared": 30906.06
   },
   "geometry": {
    "type": "Polygon",
    "coordinates": [
     [
      [
       116.34177317073171,
       40.0075
      ],
      [
       116.34204146341463,
       40.013
      ],
      [
       116.3425,
       40.013
      ],
      [
       116.3425,
       40.0075
      ],
      [
       116.34177317073171,
       40.0075
      ]
     ]
    ]
   }
  },
  {
   "type": "Feature",
   "id": "LU-027",
   "properties": {
    "id": "LU-027",
    "layer": "LAND_USE",
    "source_type": "agent_generated_design",
    "confidence": "medium",
    "geometry_role": "design_proposal",
    "land_use_code": "0702",
    "land_use_label_zh": "城镇社区服务设施用地",
    "zone_role": "mid_community",
    "passing_loop_band": "让行轨道分区",
    "area_sqm_declared": 36366.63
   },
   "geometry": {
    "type": "Polygon",
    "coordinates": [
     [
      [
       116.3415064516129,
       40.003
      ],
      [
       116.3417,
       40.006
      ],
      [
       116.34177317073171,
       40.0075
      ],
      [
       116.3425,
       40.0075
      ],
      [
       116.3425,
       40.003
      ],
      [
       116.3415064516129,
       40.003
      ]
     ]
    ]
   }
  },
  {
   "type": "Feature",
   "id": "LU-028",
   "properties": {
    "id": "LU-028",
    "layer": "LAND_USE",
    "source_type": "agent_generated_design",
    "confidence": "medium",
    "geometry_role": "design_proposal",
    "land_use_code": "0702",
    "land_use_label_zh": "城镇社区服务设施用地",
    "zone_role": "mid_community",
    "passing_loop_band": "让行轨道分区",
    "area_sqm_declared": 54753.16
   },
   "geometry": {
    "type": "Polygon",
    "coordinates": [
     [
      [
       116.34118387096774,
       39.998
      ],
      [
       116.3415064516129,
       40.003
      ],
      [
       116.3425,
       40.003
      ],
      [
       116.3425,
       39.998
      ],
      [
       116.34118387096774,
       39.998
      ]
     ]
    ]
   }
  },
  {
   "type": "Feature",
   "id": "LU-029",
   "properties": {
    "id": "LU-029",
    "layer": "LAND_USE",
    "source_type": "agent_generated_design",
    "confidence": "medium",
    "geometry_role": "design_proposal",
    "land_use_code": "0702",
    "land_use_label_zh": "城镇社区服务设施用地",
    "zone_role": "mid_community",
    "passing_loop_band": "让行轨道分区",
    "area_sqm_declared": 62358.52
   },
   "geometry": {
    "type": "Polygon",
    "coordinates": [
     [
      [
       116.3408935483871,
       39.9935
      ],
      [
       116.34118387096774,
       39.998
      ],
      [
       116.3425,
       39.998
      ],
      [
       116.3425,
       39.9935
      ],
      [
       116.3408935483871,
       39.9935
      ]
     ]
    ]
   }
  },
  {
   "type": "Feature",
   "id": "LU-030",
   "properties": {
    "id": "LU-030",
    "layer": "LAND_USE",
    "source_type": "agent_generated_design",
    "confidence": "medium",
    "geometry_role": "design_proposal",
    "land_use_code": "0804",
    "land_use_label_zh": "教育用地",
    "zone_role": "origin_education",
    "passing_loop_band": "让行轨道分区",
    "area_sqm_declared": 93047.46
   },
   "geometry": {
    "type": "Polygon",
    "coordinates": [
     [
      [
       116.34053870967742,
       39.988
      ],
      [
       116.3408935483871,
       39.9935
      ],
      [
       116.3425,
       39.9935
      ],
      [
       116.3425,
       39.988
      ],
      [
       116.34053870967742,
       39.988
      ]
     ]
    ]
   }
  },
  {
   "type": "Feature",
   "id": "LU-031",
   "properties": {
    "id": "LU-031",
    "layer": "LAND_USE",
    "source_type": "agent_generated_design",
    "confidence": "medium",
    "geometry_role": "design_proposal",
    "land_use_code": "0804",
    "land_use_label_zh": "教育用地",
    "zone_role": "origin_education",
    "passing_loop_band": "让行轨道分区",
    "area_sqm_declared": 89902.74
   },
   "geometry": {
    "type": "Polygon",
    "coordinates": [
     [
      [
       116.34024838709676,
       39.9835
      ],
      [
       116.34053870967742,
       39.988
      ],
      [
       116.3425,
       39.988
      ],
      [
       116.3425,
       39.9835
      ],
      [
       116.34024838709676,
       39.9835
      ]
     ]
    ]
   }
  },
  {
   "type": "Feature",
   "id": "LU-032",
   "properties": {
    "id": "LU-032",
    "layer": "LAND_USE",
    "source_type": "agent_generated_design",
    "confidence": "medium",
    "geometry_role": "design_proposal",
    "land_use_code": "0802",
    "land_use_label_zh": "科研用地",
    "zone_role": "mid_research",
    "passing_loop_band": "让行轨道分区",
    "area_sqm_declared": 78495.33
   },
   "geometry": {
    "type": "Polygon",
    "coordinates": [
     [
      [
       116.34002258064515,
       39.98
      ],
      [
       116.34024838709676,
       39.9835
      ],
      [
       116.3425,
       39.9835
      ],
      [
       116.3425,
       39.98
      ],
      [
       116.34002258064515,
       39.98
      ]
     ]
    ]
   }
  },
  {
   "type": "Feature",
   "id": "LU-033",
   "properties": {
    "id": "LU-033",
    "layer": "LAND_USE",
    "source_type": "agent_generated_design",
    "confidence": "medium",
    "geometry_role": "design_proposal",
    "land_use_code": "0802",
    "land_use_label_zh": "科研用地",
    "zone_role": "mid_research",
    "passing_loop_band": "让行轨道分区",
    "area_sqm_declared": 125147.49
   },
   "geometry": {
    "type": "Polygon",
    "coordinates": [
     [
      [
       116.3397,
       39.975
      ],
      [
       116.34002258064515,
       39.98
      ],
      [
       116.3425,
       39.98
      ],
      [
       116.3425,
       39.975
      ],
      [
       116.3397,
       39.975
      ]
     ]
    ]
   }
  },
  {
   "type": "Feature",
   "id": "LU-034",
   "properties": {
    "id": "LU-034",
    "layer": "LAND_USE",
    "source_type": "agent_generated_design",
    "confidence": "medium",
    "geometry_role": "design_proposal",
    "land_use_code": "0804",
    "land_use_label_zh": "教育用地",
    "zone_role": "university_education",
    "passing_loop_band": "让行轨道分区",
    "area_sqm_declared": 129512.51
   },
   "geometry": {
    "type": "Polygon",
    "coordinates": [
     [
      [
       116.33983888888888,
       39.97
      ],
      [
       116.3397,
       39.975
      ],
      [
       116.3425,
       39.975
      ],
      [
       116.3425,
       39.97
      ],
      [
       116.33983888888888,
       39.97
      ]
     ]
    ]
   }
  },
  {
   "type": "Feature",
   "id": "LU-035",
   "properties": {
    "id": "LU-035",
    "layer": "LAND_USE",
    "source_type": "agent_generated_design",
    "confidence": "medium",
    "geometry_role": "design_proposal",
    "land_use_code": "0804",
    "land_use_label_zh": "教育用地",
    "zone_role": "university_education",
    "passing_loop_band": "让行轨道分区",
    "area_sqm_declared": 122933.73
   },
   "geometry": {
    "type": "Polygon",
    "coordinates": [
     [
      [
       116.33997777777778,
       39.965
      ],
      [
       116.33983888888888,
       39.97
      ],
      [
       116.3425,
       39.97
      ],
      [
       116.3425,
       39.965
      ],
      [
       116.33997777777778,
       39.965
      ]
     ]
    ]
   }
  },
  {
   "type": "Feature",
   "id": "LU-036",
   "properties": {
    "id": "LU-036",
    "layer": "LAND_USE",
    "source_type": "agent_generated_design",
    "confidence": "medium",
    "geometry_role": "design_proposal",
    "land_use_code": "0804",
    "land_use_label_zh": "教育用地",
    "zone_role": "university_education",
    "passing_loop_band": "让行轨道分区",
    "area_sqm_declared": 116354.01
   },
   "geometry": {
    "type": "Polygon",
    "coordinates": [
     [
      [
       116.34011666666666,
       39.96
      ],
      [
       116.33997777777778,
       39.965
      ],
      [
       116.3425,
       39.965
      ],
      [
       116.3425,
       39.96
      ],
      [
       116.34011666666666,
       39.96
      ]
     ]
    ]
   }
  },
  {
   "type": "Feature",
   "id": "LU-037",
   "properties": {
    "id": "LU-037",
    "layer": "LAND_USE",
    "source_type": "agent_generated_design",
    "confidence": "medium",
    "geometry_role": "design_proposal",
    "land_use_code": "0701",
    "land_use_label_zh": "城镇住宅用地",
    "zone_role": "transition_residential",
    "passing_loop_band": "让行轨道分区",
    "area_sqm_declared": 109773.34
   },
   "geometry": {
    "type": "Polygon",
    "coordinates": [
     [
      [
       116.34025555555556,
       39.955
      ],
      [
       116.34011666666666,
       39.96
      ],
      [
       116.3425,
       39.96
      ],
      [
       116.3425,
       39.955
      ],
      [
       116.34025555555556,
       39.955
      ]
     ]
    ]
   }
  },
  {
   "type": "Feature",
   "id": "LU-038",
   "properties": {
    "id": "LU-038",
    "layer": "LAND_USE",
    "source_type": "agent_generated_design",
    "confidence": "medium",
    "geometry_role": "design_proposal",
    "land_use_code": "0701",
    "land_use_label_zh": "城镇住宅用地",
    "zone_role": "transition_residential",
    "passing_loop_band": "让行轨道分区",
    "area_sqm_declared": 106385.16
   },
   "geometry": {
    "type": "Polygon",
    "coordinates": [
     [
      [
       116.34039888888888,
       39.94984
      ],
      [
       116.34025555555556,
       39.955
      ],
      [
       116.3425,
       39.955
      ],
      [
       116.3425,
       39.94984
      ],
      [
       116.34039888888888,
       39.94984
      ]
     ]
    ]
   }
  },
  {
   "type": "Feature",
   "id": "LU-039",
   "properties": {
    "id": "LU-039",
    "layer": "LAND_USE",
    "source_type": "agent_generated_design",
    "confidence": "medium",
    "geometry_role": "design_proposal",
    "land_use_code": "05",
    "land_use_label_zh": "商业服务业用地",
    "zone_role": "south_west_commercial",
    "passing_loop_band": "让行轨道分区",
    "area_sqm_declared": 111947.51
   },
   "geometry": {
    "type": "Polygon",
    "coordinates": [
     [
      [
       116.34056111111111,
       39.944
      ],
      [
       116.34039888888888,
       39.94984
      ],
      [
       116.3425,
       39.94984
      ],
      [
       116.3425,
       39.944
      ],
      [
       116.34056111111111,
       39.944
      ]
     ]
    ]
   }
  },
  {
   "type": "Feature",
   "id": "LU-040",
   "properties": {
    "id": "LU-040",
    "layer": "LAND_USE",
    "source_type": "agent_generated_design",
    "confidence": "medium",
    "geometry_role": "design_proposal",
    "land_use_code": "1401",
    "land_use_label_zh": "公园绿地",
    "zone_role": "park_spine",
    "passing_loop_band": "让行轨道分区",
    "area_sqm_declared": 127465.12
   },
   "geometry": {
    "type": "Polygon",
    "coordinates": [
     [
      [
       116.3448,
       39.944
      ],
      [
       116.3425,
       39.944
      ],
      [
       116.3425,
       39.94984
      ],
      [
       116.3448,
       39.94984
      ],
      [
       116.3448,
       39.944
      ]
     ]
    ]
   }
  },
  {
   "type": "Feature",
   "id": "LU-041",
   "properties": {
    "id": "LU-041",
    "layer": "LAND_USE",
    "source_type": "agent_generated_design",
    "confidence": "medium",
    "geometry_role": "design_proposal",
    "land_use_code": "1401",
    "land_use_label_zh": "公园绿地",
    "zone_role": "park_spine",
    "passing_loop_band": "让行轨道分区",
    "area_sqm_declared": 149632.88
   },
   "geometry": {
    "type": "Polygon",
    "coordinates": [
     [
      [
       116.3475,
       39.944
      ],
      [
       116.3448,
       39.944
      ],
      [
       116.3448,
       39.94984
      ],
      [
       116.3475,
       39.94984
      ],
      [
       116.3475,
       39.944
      ]
     ]
    ]
   }
  },
  {
   "type": "Feature",
   "id": "LU-042",
   "properties": {
    "id": "LU-042",
    "layer": "LAND_USE",
    "source_type": "agent_generated_design",
    "confidence": "medium",
    "geometry_role": "design_proposal",
    "land_use_code": "0802",
    "land_use_label_zh": "科研用地",
    "zone_role": "dazhongsi_research",
    "passing_loop_band": "让行轨道分区",
    "area_sqm_declared": 166258.65
   },
   "geometry": {
    "type": "Polygon",
    "coordinates": [
     [
      [
       116.3505,
       39.944
      ],
      [
       116.3475,
       39.944
      ],
      [
       116.3475,
       39.94984
      ],
      [
       116.3505,
       39.94984
      ],
      [
       116.3505,
       39.944
      ]
     ]
    ]
   }
  },
  {
   "type": "Feature",
   "id": "LU-043",
   "properties": {
    "id": "LU-043",
    "layer": "LAND_USE",
    "source_type": "agent_generated_design",
    "confidence": "medium",
    "geometry_role": "design_proposal",
    "land_use_code": "1401",
    "land_use_label_zh": "公园绿地",
    "zone_role": "park_spine",
    "passing_loop_band": "让行轨道分区",
    "area_sqm_declared": 112614.38
   },
   "geometry": {
    "type": "Polygon",
    "coordinates": [
     [
      [
       116.3448,
       39.94984
      ],
      [
       116.3425,
       39.94984
      ],
      [
       116.3425,
       39.955
      ],
      [
       116.3448,
       39.955
      ],
      [
       116.3448,
       39.94984
      ]
     ]
    ]
   }
  },
  {
   "type": "Feature",
   "id": "LU-044",
   "properties": {
    "id": "LU-044",
    "layer": "LAND_USE",
    "source_type": "agent_generated_design",
    "confidence": "medium",
    "geometry_role": "design_proposal",
    "land_use_code": "1401",
    "land_use_label_zh": "公园绿地",
    "zone_role": "park_spine",
    "passing_loop_band": "让行轨道分区",
    "area_sqm_declared": 132199.41
   },
   "geometry": {
    "type": "Polygon",
    "coordinates": [
     [
      [
       116.3475,
       39.94984
      ],
      [
       116.3448,
       39.94984
      ],
      [
       116.3448,
       39.955
      ],
      [
       116.3475,
       39.955
      ],
      [
       116.3475,
       39.94984
      ]
     ]
    ]
   }
  },
  {
   "type": "Feature",
   "id": "LU-045",
   "properties": {
    "id": "LU-045",
    "layer": "LAND_USE",
    "source_type": "agent_generated_design",
    "confidence": "medium",
    "geometry_role": "design_proposal",
    "land_use_code": "0701",
    "land_use_label_zh": "城镇住宅用地",
    "zone_role": "transition_residential",
    "passing_loop_band": "让行轨道分区",
    "area_sqm_declared": 146888.14
   },
   "geometry": {
    "type": "Polygon",
    "coordinates": [
     [
      [
       116.3505,
       39.94984
      ],
      [
       116.3475,
       39.94984
      ],
      [
       116.3475,
       39.955
      ],
      [
       116.3505,
       39.955
      ],
      [
       116.3505,
       39.94984
      ]
     ]
    ]
   }
  },
  {
   "type": "Feature",
   "id": "LU-046",
   "properties": {
    "id": "LU-046",
    "layer": "LAND_USE",
    "source_type": "agent_generated_design",
    "confidence": "medium",
    "geometry_role": "design_proposal",
    "land_use_code": "1401",
    "land_use_label_zh": "公园绿地",
    "zone_role": "park_spine",
    "passing_loop_band": "让行轨道分区",
    "area_sqm_declared": 109114.48
   },
   "geometry": {
    "type": "Polygon",
    "coordinates": [
     [
      [
       116.3448,
       39.955
      ],
      [
       116.3425,
       39.955
      ],
      [
       116.3425,
       39.96
      ],
      [
       116.3448,
       39.96
      ],
      [
       116.3448,
       39.955
      ]
     ]
    ]
   }
  },
  {
   "type": "Feature",
   "id": "LU-047",
   "properties": {
    "id": "LU-047",
    "layer": "LAND_USE",
    "source_type": "agent_generated_design",
    "confidence": "medium",
    "geometry_role": "design_proposal",
    "land_use_code": "1401",
    "land_use_label_zh": "公园绿地",
    "zone_role": "park_spine",
    "passing_loop_band": "让行轨道分区",
    "area_sqm_declared": 128090.84
   },
   "geometry": {
    "type": "Polygon",
    "coordinates": [
     [
      [
       116.3475,
       39.955
      ],
      [
       116.3448,
       39.955
      ],
      [
       116.3448,
       39.96
      ],
      [
       116.3475,
       39.96
      ],
      [
       116.3475,
       39.955
      ]
     ]
    ]
   }
  },
  {
   "type": "Feature",
   "id": "LU-048",
   "properties": {
    "id": "LU-048",
    "layer": "LAND_USE",
    "source_type": "agent_generated_design",
    "confidence": "medium",
    "geometry_role": "design_proposal",
    "land_use_code": "0701",
    "land_use_label_zh": "城镇住宅用地",
    "zone_role": "transition_residential",
    "passing_loop_band": "让行轨道分区",
    "area_sqm_declared": 142323.06
   },
   "geometry": {
    "type": "Polygon",
    "coordinates": [
     [
      [
       116.3505,
       39.955
      ],
      [
       116.3475,
       39.955
      ],
      [
       116.3475,
       39.96
      ],
      [
       116.3505,
       39.96
      ],
      [
       116.3505,
       39.955
      ]
     ]
    ]
   }
  },
  {
   "type": "Feature",
   "id": "LU-049",
   "properties": {
    "id": "LU-049",
    "layer": "LAND_USE",
    "source_type": "agent_generated_design",
    "confidence": "medium",
    "geometry_role": "design_proposal",
    "land_use_code": "1401",
    "land_use_label_zh": "公园绿地",
    "zone_role": "park_spine",
    "passing_loop_band": "让行轨道分区",
    "area_sqm_declared": 109106.63
   },
   "geometry": {
    "type": "Polygon",
    "coordinates": [
     [
      [
       116.3448,
       39.96
      ],
      [
       116.3425,
       39.96
      ],
      [
       116.3425,
       39.965
      ],
      [
       116.3448,
       39.965
      ],
      [
       116.3448,
       39.96
      ]
     ]
    ]
   }
  },
  {
   "type": "Feature",
   "id": "LU-050",
   "properties": {
    "id": "LU-050",
    "layer": "LAND_USE",
    "source_type": "agent_generated_design",
    "confidence": "medium",
    "geometry_role": "design_proposal",
    "land_use_code": "1401",
    "land_use_label_zh": "公园绿地",
    "zone_role": "park_spine",
    "passing_loop_band": "让行轨道分区",
    "area_sqm_declared": 128081.62
   },
   "geometry": {
    "type": "Polygon",
    "coordinates": [
     [
      [
       116.3475,
       39.96
      ],
      [
       116.3448,
       39.96
      ],
      [
       116.3448,
       39.965
      ],
      [
       116.3475,
       39.965
      ],
      [
       116.3475,
       39.96
      ]
     ]
    ]
   }
  },
  {
   "type": "Feature",
   "id": "LU-051",
   "properties": {
    "id": "LU-051",
    "layer": "LAND_USE",
    "source_type": "agent_generated_design",
    "confidence": "medium",
    "geometry_role": "design_proposal",
    "land_use_code": "0804",
    "land_use_label_zh": "教育用地",
    "zone_role": "university_education",
    "passing_loop_band": "让行轨道分区",
    "area_sqm_declared": 142312.81
   },
   "geometry": {
    "type": "Polygon",
    "coordinates": [
     [
      [
       116.3505,
       39.96
      ],
      [
       116.3475,
       39.96
      ],
      [
       116.3475,
       39.965
      ],
      [
       116.3505,
       39.965
      ],
      [
       116.3505,
       39.96
      ]
     ]
    ]
   }
  },
  {
   "type": "Feature",
   "id": "LU-052",
   "properties": {
    "id": "LU-052",
    "layer": "LAND_USE",
    "source_type": "agent_generated_design",
    "confidence": "medium",
    "geometry_role": "design_proposal",
    "land_use_code": "1401",
    "land_use_label_zh": "公园绿地",
    "zone_role": "park_spine",
    "passing_loop_band": "让行轨道分区",
    "area_sqm_declared": 109098.77
   },
   "geometry": {
    "type": "Polygon",
    "coordinates": [
     [
      [
       116.3448,
       39.965
      ],
      [
       116.3425,
       39.965
      ],
      [
       116.3425,
       39.97
      ],
      [
       116.3448,
       39.97
      ],
      [
       116.3448,
       39.965
      ]
     ]
    ]
   }
  },
  {
   "type": "Feature",
   "id": "LU-053",
   "properties": {
    "id": "LU-053",
    "layer": "LAND_USE",
    "source_type": "agent_generated_design",
    "confidence": "medium",
    "geometry_role": "design_proposal",
    "land_use_code": "1401",
    "land_use_label_zh": "公园绿地",
    "zone_role": "park_spine",
    "passing_loop_band": "让行轨道分区",
    "area_sqm_declared": 128072.4
   },
   "geometry": {
    "type": "Polygon",
    "coordinates": [
     [
      [
       116.3475,
       39.965
      ],
      [
       116.3448,
       39.965
      ],
      [
       116.3448,
       39.97
      ],
      [
       116.3475,
       39.97
      ],
      [
       116.3475,
       39.965
      ]
     ]
    ]
   }
  },
  {
   "type": "Feature",
   "id": "LU-054",
   "properties": {
    "id": "LU-054",
    "layer": "LAND_USE",
    "source_type": "agent_generated_design",
    "confidence": "medium",
    "geometry_role": "design_proposal",
    "land_use_code": "0804",
    "land_use_label_zh": "教育用地",
    "zone_role": "university_education",
    "passing_loop_band": "让行轨道分区",
    "area_sqm_declared": 142302.57
   },
   "geometry": {
    "type": "Polygon",
    "coordinates": [
     [
      [
       116.3505,
       39.965
      ],
      [
       116.3475,
       39.965
      ],
      [
       116.3475,
       39.97
      ],
      [
       116.3505,
       39.97
      ],
      [
       116.3505,
       39.965
      ]
     ]
    ]
   }
  },
  {
   "type": "Feature",
   "id": "LU-055",
   "properties": {
    "id": "LU-055",
    "layer": "LAND_USE",
    "source_type": "agent_generated_design",
    "confidence": "medium",
    "geometry_role": "design_proposal",
    "land_use_code": "1401",
    "land_use_label_zh": "公园绿地",
    "zone_role": "park_spine",
    "passing_loop_band": "让行轨道分区",
    "area_sqm_declared": 109090.92
   },
   "geometry": {
    "type": "Polygon",
    "coordinates": [
     [
      [
       116.3448,
       39.97
      ],
      [
       116.3425,
       39.97
      ],
      [
       116.3425,
       39.975
      ],
      [
       116.3448,
       39.975
      ],
      [
       116.3448,
       39.97
      ]
     ]
    ]
   }
  },
  {
   "type": "Feature",
   "id": "LU-056",
   "properties": {
    "id": "LU-056",
    "layer": "LAND_USE",
    "source_type": "agent_generated_design",
    "confidence": "medium",
    "geometry_role": "design_proposal",
    "land_use_code": "1401",
    "land_use_label_zh": "公园绿地",
    "zone_role": "park_spine",
    "passing_loop_band": "让行轨道分区",
    "area_sqm_declared": 128063.18
   },
   "geometry": {
    "type": "Polygon",
    "coordinates": [
     [
      [
       116.3475,
       39.97
      ],
      [
       116.3448,
       39.97
      ],
      [
       116.3448,
       39.975
      ],
      [
       116.3475,
       39.975
      ],
      [
       116.3475,
       39.97
      ]
     ]
    ]
   }
  },
  {
   "type": "Feature",
   "id": "LU-057",
   "properties": {
    "id": "LU-057",
    "layer": "LAND_USE",
    "source_type": "agent_generated_design",
    "confidence": "medium",
    "geometry_role": "design_proposal",
    "land_use_code": "0804",
    "land_use_label_zh": "教育用地",
    "zone_role": "university_education",
    "passing_loop_band": "让行轨道分区",
    "area_sqm_declared": 142292.32
   },
   "geometry": {
    "type": "Polygon",
    "coordinates": [
     [
      [
       116.3505,
       39.97
      ],
      [
       116.3475,
       39.97
      ],
      [
       116.3475,
       39.975
      ],
      [
       116.3505,
       39.975
      ],
      [
       116.3505,
       39.97
      ]
     ]
    ]
   }
  },
  {
   "type": "Feature",
   "id": "LU-058",
   "properties": {
    "id": "LU-058",
    "layer": "LAND_USE",
    "source_type": "agent_generated_design",
    "confidence": "medium",
    "geometry_role": "design_proposal",
    "land_use_code": "1401",
    "land_use_label_zh": "公园绿地",
    "zone_role": "park_spine",
    "passing_loop_band": "让行轨道分区",
    "area_sqm_declared": 109083.06
   },
   "geometry": {
    "type": "Polygon",
    "coordinates": [
     [
      [
       116.3448,
       39.975
      ],
      [
       116.3425,
       39.975
      ],
      [
       116.3425,
       39.98
      ],
      [
       116.3448,
       39.98
      ],
      [
       116.3448,
       39.975
      ]
     ]
    ]
   }
  },
  {
   "type": "Feature",
   "id": "LU-059",
   "properties": {
    "id": "LU-059",
    "layer": "LAND_USE",
    "source_type": "agent_generated_design",
    "confidence": "medium",
    "geometry_role": "design_proposal",
    "land_use_code": "1401",
    "land_use_label_zh": "公园绿地",
    "zone_role": "park_spine",
    "passing_loop_band": "让行轨道分区",
    "area_sqm_declared": 128053.95
   },
   "geometry": {
    "type": "Polygon",
    "coordinates": [
     [
      [
       116.3475,
       39.975
      ],
      [
       116.3448,
       39.975
      ],
      [
       116.3448,
       39.98
      ],
      [
       116.3475,
       39.98
      ],
      [
       116.3475,
       39.975
      ]
     ]
    ]
   }
  },
  {
   "type": "Feature",
   "id": "LU-060",
   "properties": {
    "id": "LU-060",
    "layer": "LAND_USE",
    "source_type": "agent_generated_design",
    "confidence": "medium",
    "geometry_role": "design_proposal",
    "land_use_code": "0802",
    "land_use_label_zh": "科研用地",
    "zone_role": "mid_research",
    "passing_loop_band": "让行轨道分区",
    "area_sqm_declared": 142282.08
   },
   "geometry": {
    "type": "Polygon",
    "coordinates": [
     [
      [
       116.3505,
       39.975
      ],
      [
       116.3475,
       39.975
      ],
      [
       116.3475,
       39.98
      ],
      [
       116.3505,
       39.98
      ],
      [
       116.3505,
       39.975
      ]
     ]
    ]
   }
  },
  {
   "type": "Feature",
   "id": "LU-061",
   "properties": {
    "id": "LU-061",
    "layer": "LAND_USE",
    "source_type": "agent_generated_design",
    "confidence": "medium",
    "geometry_role": "design_proposal",
    "land_use_code": "1401",
    "land_use_label_zh": "公园绿地",
    "zone_role": "park_spine",
    "passing_loop_band": "让行轨道分区",
    "area_sqm_declared": 76353.47
   },
   "geometry": {
    "type": "Polygon",
    "coordinates": [
     [
      [
       116.3448,
       39.98
      ],
      [
       116.3425,
       39.98
      ],
      [
       116.3425,
       39.9835
      ],
      [
       116.3448,
       39.9835
      ],
      [
       116.3448,
       39.98
      ]
     ]
    ]
   }
  },
  {
   "type": "Feature",
   "id": "LU-062",
   "properties": {
    "id": "LU-062",
    "layer": "LAND_USE",
    "source_type": "agent_generated_design",
    "confidence": "medium",
    "geometry_role": "design_proposal",
    "land_use_code": "1401",
    "land_use_label_zh": "公园绿地",
    "zone_role": "park_spine",
    "passing_loop_band": "让行轨道分区",
    "area_sqm_declared": 89632.28
   },
   "geometry": {
    "type": "Polygon",
    "coordinates": [
     [
      [
       116.3475,
       39.98
      ],
      [
       116.3448,
       39.98
      ],
      [
       116.3448,
       39.9835
      ],
      [
       116.3475,
       39.9835
      ],
      [
       116.3475,
       39.98
      ]
     ]
    ]
   }
  },
  {
   "type": "Feature",
   "id": "LU-063",
   "properties": {
    "id": "LU-063",
    "layer": "LAND_USE",
    "source_type": "agent_generated_design",
    "confidence": "medium",
    "geometry_role": "design_proposal",
    "land_use_code": "0802",
    "land_use_label_zh": "科研用地",
    "zone_role": "mid_research",
    "passing_loop_band": "让行轨道分区",
    "area_sqm_declared": 99591.36
   },
   "geometry": {
    "type": "Polygon",
    "coordinates": [
     [
      [
       116.3505,
       39.98
      ],
      [
       116.3475,
       39.98
      ],
      [
       116.3475,
       39.9835
      ],
      [
       116.3505,
       39.9835
      ],
      [
       116.3505,
       39.98
      ]
     ]
    ]
   }
  },
  {
   "type": "Feature",
   "id": "LU-064",
   "properties": {
    "id": "LU-064",
    "layer": "LAND_USE",
    "source_type": "agent_generated_design",
    "confidence": "medium",
    "geometry_role": "design_proposal",
    "land_use_code": "1401",
    "land_use_label_zh": "公园绿地",
    "zone_role": "park_spine",
    "passing_loop_band": "让行轨道分区",
    "area_sqm_declared": 98163.09
   },
   "geometry": {
    "type": "Polygon",
    "coordinates": [
     [
      [
       116.3448,
       39.9835
      ],
      [
       116.3425,
       39.9835
      ],
      [
       116.3425,
       39.988
      ],
      [
       116.3448,
       39.988
      ],
      [
       116.3448,
       39.9835
      ]
     ]
    ]
   }
  },
  {
   "type": "Feature",
   "id": "LU-065",
   "properties": {
    "id": "LU-065",
    "layer": "LAND_USE",
    "source_type": "agent_generated_design",
    "confidence": "medium",
    "geometry_role": "design_proposal",
    "land_use_code": "1401",
    "land_use_label_zh": "公园绿地",
    "zone_role": "park_spine",
    "passing_loop_band": "让行轨道分区",
    "area_sqm_declared": 115234.86
   },
   "geometry": {
    "type": "Polygon",
    "coordinates": [
     [
      [
       116.3475,
       39.9835
      ],
      [
       116.3448,
       39.9835
      ],
      [
       116.3448,
       39.988
      ],
      [
       116.3475,
       39.988
      ],
      [
       116.3475,
       39.9835
      ]
     ]
    ]
   }
  },
  {
   "type": "Feature",
   "id": "LU-066",
   "properties": {
    "id": "LU-066",
    "layer": "LAND_USE",
    "source_type": "agent_generated_design",
    "confidence": "medium",
    "geometry_role": "design_proposal",
    "land_use_code": "0802",
    "land_use_label_zh": "科研用地",
    "zone_role": "origin_research",
    "passing_loop_band": "让行轨道分区",
    "area_sqm_declared": 128038.65
   },
   "geometry": {
    "type": "Polygon",
    "coordinates": [
     [
      [
       116.3505,
       39.9835
      ],
      [
       116.3475,
       39.9835
      ],
      [
       116.3475,
       39.988
      ],
      [
       116.3505,
       39.988
      ],
      [
       116.3505,
       39.9835
      ]
     ]
    ]
   }
  },
  {
   "type": "Feature",
   "id": "LU-067",
   "properties": {
    "id": "LU-067",
    "layer": "LAND_USE",
    "source_type": "agent_generated_design",
    "confidence": "medium",
    "geometry_role": "design_proposal",
    "land_use_code": "1401",
    "land_use_label_zh": "公园绿地",
    "zone_role": "park_spine",
    "passing_loop_band": "让行轨道分区",
    "area_sqm_declared": 119968.46
   },
   "geometry": {
    "type": "Polygon",
    "coordinates": [
     [
      [
       116.3448,
       39.988
      ],
      [
       116.3425,
       39.988
      ],
      [
       116.3425,
       39.9935
      ],
      [
       116.3448,
       39.9935
      ],
      [
       116.3448,
       39.988
      ]
     ]
    ]
   }
  },
  {
   "type": "Feature",
   "id": "LU-068",
   "properties": {
    "id": "LU-068",
    "layer": "LAND_USE",
    "source_type": "agent_generated_design",
    "confidence": "medium",
    "geometry_role": "design_proposal",
    "land_use_code": "1401",
    "land_use_label_zh": "公园绿地",
    "zone_role": "park_spine",
    "passing_loop_band": "让行轨道分区",
    "area_sqm_declared": 140832.46
   },
   "geometry": {
    "type": "Polygon",
    "coordinates": [
     [
      [
       116.3475,
       39.988
      ],
      [
       116.3448,
       39.988
      ],
      [
       116.3448,
       39.9935
      ],
      [
       116.3475,
       39.9935
      ],
      [
       116.3475,
       39.988
      ]
     ]
    ]
   }
  },
  {
   "type": "Feature",
   "id": "LU-069",
   "properties": {
    "id": "LU-069",
    "layer": "LAND_USE",
    "source_type": "agent_generated_design",
    "confidence": "medium",
    "geometry_role": "design_proposal",
    "land_use_code": "0802",
    "land_use_label_zh": "科研用地",
    "zone_role": "origin_research",
    "passing_loop_band": "让行轨道分区",
    "area_sqm_declared": 156480.41
   },
   "geometry": {
    "type": "Polygon",
    "coordinates": [
     [
      [
       116.3505,
       39.988
      ],
      [
       116.3475,
       39.988
      ],
      [
       116.3475,
       39.9935
      ],
      [
       116.3505,
       39.9935
      ],
      [
       116.3505,
       39.988
      ]
     ]
    ]
   }
  },
  {
   "type": "Feature",
   "id": "LU-070",
   "properties": {
    "id": "LU-070",
    "layer": "LAND_USE",
    "source_type": "agent_generated_design",
    "confidence": "medium",
    "geometry_role": "design_proposal",
    "land_use_code": "1401",
    "land_use_label_zh": "公园绿地",
    "zone_role": "park_spine",
    "passing_loop_band": "让行轨道分区",
    "area_sqm_declared": 98148.94
   },
   "geometry": {
    "type": "Polygon",
    "coordinates": [
     [
      [
       116.3448,
       39.9935
      ],
      [
       116.3425,
       39.9935
      ],
      [
       116.3425,
       39.998
      ],
      [
       116.3448,
       39.998
      ],
      [
       116.3448,
       39.9935
      ]
     ]
    ]
   }
  },
  {
   "type": "Feature",
   "id": "LU-071",
   "properties": {
    "id": "LU-071",
    "layer": "LAND_USE",
    "source_type": "agent_generated_design",
    "confidence": "medium",
    "geometry_role": "design_proposal",
    "land_use_code": "1401",
    "land_use_label_zh": "公园绿地",
    "zone_role": "park_spine",
    "passing_loop_band": "让行轨道分区",
    "area_sqm_declared": 115218.26
   },
   "geometry": {
    "type": "Polygon",
    "coordinates": [
     [
      [
       116.3475,
       39.9935
      ],
      [
       116.3448,
       39.9935
      ],
      [
       116.3448,
       39.998
      ],
      [
       116.3475,
       39.998
      ],
      [
       116.3475,
       39.9935
      ]
     ]
    ]
   }
  },
  {
   "type": "Feature",
   "id": "LU-072",
   "properties": {
    "id": "LU-072",
    "layer": "LAND_USE",
    "source_type": "agent_generated_design",
    "confidence": "medium",
    "geometry_role": "design_proposal",
    "land_use_code": "0802",
    "land_use_label_zh": "科研用地",
    "zone_role": "upper_research",
    "passing_loop_band": "让行轨道分区",
    "area_sqm_declared": 128020.2
   },
   "geometry": {
    "type": "Polygon",
    "coordinates": [
     [
      [
       116.3505,
       39.9935
      ],
      [
       116.3475,
       39.9935
      ],
      [
       116.3475,
       39.998
      ],
      [
       116.3505,
       39.998
      ],
      [
       116.3505,
       39.9935
      ]
     ]
    ]
   }
  },
  {
   "type": "Feature",
   "id": "LU-073",
   "properties": {
    "id": "LU-073",
    "layer": "LAND_USE",
    "source_type": "agent_generated_design",
    "confidence": "medium",
    "geometry_role": "design_proposal",
    "land_use_code": "1401",
    "land_use_label_zh": "公园绿地",
    "zone_role": "park_spine",
    "passing_loop_band": "让行轨道分区",
    "area_sqm_declared": 109046.91
   },
   "geometry": {
    "type": "Polygon",
    "coordinates": [
     [
      [
       116.3448,
       39.998
      ],
      [
       116.3425,
       39.998
      ],
      [
       116.3425,
       40.003
      ],
      [
       116.3448,
       40.003
      ],
      [
       116.3448,
       39.998
      ]
     ]
    ]
   }
  },
  {
   "type": "Feature",
   "id": "LU-074",
   "properties": {
    "id": "LU-074",
    "layer": "LAND_USE",
    "source_type": "agent_generated_design",
    "confidence": "medium",
    "geometry_role": "design_proposal",
    "land_use_code": "1401",
    "land_use_label_zh": "公园绿地",
    "zone_role": "park_spine",
    "passing_loop_band": "让行轨道分区",
    "area_sqm_declared": 128011.52
   },
   "geometry": {
    "type": "Polygon",
    "coordinates": [
     [
      [
       116.3475,
       39.998
      ],
      [
       116.3448,
       39.998
      ],
      [
       116.3448,
       40.003
      ],
      [
       116.3475,
       40.003
      ],
      [
       116.3475,
       39.998
      ]
     ]
    ]
   }
  },
  {
   "type": "Feature",
   "id": "LU-075",
   "properties": {
    "id": "LU-075",
    "layer": "LAND_USE",
    "source_type": "agent_generated_design",
    "confidence": "medium",
    "geometry_role": "design_proposal",
    "land_use_code": "0802",
    "land_use_label_zh": "科研用地",
    "zone_role": "upper_research",
    "passing_loop_band": "让行轨道分区",
    "area_sqm_declared": 142234.93
   },
   "geometry": {
    "type": "Polygon",
    "coordinates": [
     [
      [
       116.3505,
       39.998
      ],
      [
       116.3475,
       39.998
      ],
      [
       116.3475,
       40.003
      ],
      [
       116.3505,
       40.003
      ],
      [
       116.3505,
       39.998
      ]
     ]
    ]
   }
  },
  {
   "type": "Feature",
   "id": "LU-076",
   "properties": {
    "id": "LU-076",
    "layer": "LAND_USE",
    "source_type": "agent_generated_design",
    "confidence": "medium",
    "geometry_role": "design_proposal",
    "land_use_code": "1401",
    "land_use_label_zh": "公园绿地",
    "zone_role": "park_spine",
    "passing_loop_band": "让行轨道分区",
    "area_sqm_declared": 98135.5
   },
   "geometry": {
    "type": "Polygon",
    "coordinates": [
     [
      [
       116.3448,
       40.003
      ],
      [
       116.3425,
       40.003
      ],
      [
       116.3425,
       40.0075
      ],
      [
       116.3448,
       40.0075
      ],
      [
       116.3448,
       40.003
      ]
     ]
    ]
   }
  },
  {
   "type": "Feature",
   "id": "LU-077",
   "properties": {
    "id": "LU-077",
    "layer": "LAND_USE",
    "source_type": "agent_generated_design",
    "confidence": "medium",
    "geometry_role": "design_proposal",
    "land_use_code": "1401",
    "land_use_label_zh": "公园绿地",
    "zone_role": "park_spine",
    "passing_loop_band": "让行轨道分区",
    "area_sqm_declared": 115202.48
   },
   "geometry": {
    "type": "Polygon",
    "coordinates": [
     [
      [
       116.3475,
       40.003
      ],
      [
       116.3448,
       40.003
      ],
      [
       116.3448,
       40.0075
      ],
      [
       116.3475,
       40.0075
      ],
      [
       116.3475,
       40.003
      ]
     ]
    ]
   }
  },
  {
   "type": "Feature",
   "id": "LU-078",
   "properties": {
    "id": "LU-078",
    "layer": "LAND_USE",
    "source_type": "agent_generated_design",
    "confidence": "medium",
    "geometry_role": "design_proposal",
    "land_use_code": "0802",
    "land_use_label_zh": "科研用地",
    "zone_role": "upper_research",
    "passing_loop_band": "让行轨道分区",
    "area_sqm_declared": 128002.67
   },
   "geometry": {
    "type": "Polygon",
    "coordinates": [
     [
      [
       116.3505,
       40.003
      ],
      [
       116.3475,
       40.003
      ],
      [
       116.3475,
       40.0075
      ],
      [
       116.3505,
       40.0075
      ],
      [
       116.3505,
       40.003
      ]
     ]
    ]
   }
  },
  {
   "type": "Feature",
   "id": "LU-079",
   "properties": {
    "id": "LU-079",
    "layer": "LAND_USE",
    "source_type": "agent_generated_design",
    "confidence": "medium",
    "geometry_role": "design_proposal",
    "land_use_code": "1401",
    "land_use_label_zh": "公园绿地",
    "zone_role": "park_spine",
    "passing_loop_band": "让行轨道分区",
    "area_sqm_declared": 119934.74
   },
   "geometry": {
    "type": "Polygon",
    "coordinates": [
     [
      [
       116.3448,
       40.0075
      ],
      [
       116.3425,
       40.0075
      ],
      [
       116.3425,
       40.013
      ],
      [
       116.3448,
       40.013
      ],
      [
       116.3448,
       40.0075
      ]
     ]
    ]
   }
  },
  {
   "type": "Feature",
   "id": "LU-080",
   "properties": {
    "id": "LU-080",
    "layer": "LAND_USE",
    "source_type": "agent_generated_design",
    "confidence": "medium",
    "geometry_role": "design_proposal",
    "land_use_code": "1401",
    "land_use_label_zh": "公园绿地",
    "zone_role": "park_spine",
    "passing_loop_band": "让行轨道分区",
    "area_sqm_declared": 140792.87
   },
   "geometry": {
    "type": "Polygon",
    "coordinates": [
     [
      [
       116.3475,
       40.0075
      ],
      [
       116.3448,
       40.0075
      ],
      [
       116.3448,
       40.013
      ],
      [
       116.3475,
       40.013
      ],
      [
       116.3475,
       40.0075
      ]
     ]
    ]
   }
  },
  {
   "type": "Feature",
   "id": "LU-081",
   "properties": {
    "id": "LU-081",
    "layer": "LAND_USE",
    "source_type": "agent_generated_design",
    "confidence": "medium",
    "geometry_role": "design_proposal",
    "land_use_code": "0802",
    "land_use_label_zh": "科研用地",
    "zone_role": "zhongzhiyuan_research",
    "passing_loop_band": "让行轨道分区",
    "area_sqm_declared": 156436.42
   },
   "geometry": {
    "type": "Polygon",
    "coordinates": [
     [
      [
       116.3505,
       40.0075
      ],
      [
       116.3475,
       40.0075
      ],
      [
       116.3475,
       40.013
      ],
      [
       116.3505,
       40.013
      ],
      [
       116.3505,
       40.0075
      ]
     ]
    ]
   }
  },
  {
   "type": "Feature",
   "id": "LU-082",
   "properties": {
    "id": "LU-082",
    "layer": "LAND_USE",
    "source_type": "agent_generated_design",
    "confidence": "medium",
    "geometry_role": "design_proposal",
    "land_use_code": "1401",
    "land_use_label_zh": "公园绿地",
    "zone_role": "park_spine",
    "passing_loop_band": "让行轨道分区",
    "area_sqm_declared": 130827.05
   },
   "geometry": {
    "type": "Polygon",
    "coordinates": [
     [
      [
       116.3448,
       40.013
      ],
      [
       116.3425,
       40.013
      ],
      [
       116.3425,
       40.019
      ],
      [
       116.3448,
       40.019
      ],
      [
       116.3448,
       40.013
      ]
     ]
    ]
   }
  },
  {
   "type": "Feature",
   "id": "LU-083",
   "properties": {
    "id": "LU-083",
    "layer": "LAND_USE",
    "source_type": "agent_generated_design",
    "confidence": "medium",
    "geometry_role": "design_proposal",
    "land_use_code": "1401",
    "land_use_label_zh": "公园绿地",
    "zone_role": "park_spine",
    "passing_loop_band": "让行轨道分区",
    "area_sqm_declared": 153579.49
   },
   "geometry": {
    "type": "Polygon",
    "coordinates": [
     [
      [
       116.3475,
       40.013
      ],
      [
       116.3448,
       40.013
      ],
      [
       116.3448,
       40.019
      ],
      [
       116.3475,
       40.019
      ],
      [
       116.3475,
       40.013
      ]
     ]
    ]
   }
  },
  {
   "type": "Feature",
   "id": "LU-084",
   "properties": {
    "id": "LU-084",
    "layer": "LAND_USE",
    "source_type": "agent_generated_design",
    "confidence": "medium",
    "geometry_role": "design_proposal",
    "land_use_code": "0802",
    "land_use_label_zh": "科研用地",
    "zone_role": "zhongzhiyuan_research",
    "passing_loop_band": "让行轨道分区",
    "area_sqm_declared": 170643.76
   },
   "geometry": {
    "type": "Polygon",
    "coordinates": [
     [
      [
       116.3505,
       40.013
      ],
      [
       116.3475,
       40.013
      ],
      [
       116.3475,
       40.019
      ],
      [
       116.3505,
       40.019
      ],
      [
       116.3505,
       40.013
      ]
     ]
    ]
   }
  }
 ]
}