{
 "type": "FeatureCollection",
 "features": [
  {
   "type": "Feature",
   "id": "PHASE-1",
   "properties": {
    "id": "PHASE-1",
    "layer": "PHASE",
    "source_type": "agent_generated_design",
    "confidence": "medium",
    "geometry_role": "design_proposal",
    "phase_id": "PHASE-1",
    "phase_name_zh": "一期：南部大钟寺让行站场更新试点（2026-2028）",
    "phase_order": 1,
    "area_sqm_declared": 6114493.71
   },
   "geometry": {
    "type": "Polygon",
    "coordinates": [
     [
      [
       116.33997777777778,
       39.965
      ],
      [
       116.3397,
       39.975
      ],
      [
       116.3417,
       40.006
      ],
      [
       116.34204146341463,
       40.013
      ],
      [
       116.35456027397261,
       40.013
      ],
      [
       116.3533,
       39.99
      ],
      [
       116.3553,
       39.965
      ],
      [
       116.33997777777778,
       39.965
      ]
     ]
    ]
   }
  },
  {
   "type": "Feature",
   "id": "PHASE-2",
   "properties": {
    "id": "PHASE-2",
    "layer": "PHASE",
    "source_type": "agent_generated_design",
    "confidence": "medium",
    "geometry_role": "design_proposal",
    "phase_id": "PHASE-2",
    "phase_name_zh": "二期：中部原点社区与公园脊缝合（2028-2030）",
    "phase_order": 2,
    "area_sqm_declared": 4335639.31
   },
   "geometry": {
    "type": "Polygon",
    "coordinates": [
     [
      [
       116.35373835616438,
       39.998
      ],
      [
       116.3533,
       39.99
      ],
      [
       116.3553,
       39.965
      ],
      [
       116.33997777777778,
       39.965
      ],
      [
       116.3397,
       39.975
      ],
      [
       116.34118387096774,
       39.998
      ],
      [
       116.35373835616438,
       39.998
      ]
     ]
    ]
   }
  },
  {
   "type": "Feature",
   "id": "PHASE-3",
   "properties": {
    "id": "PHASE-3",
    "layer": "PHASE",
    "source_type": "agent_generated_design",
    "confidence": "medium",
    "geometry_role": "design_proposal",
    "phase_id": "PHASE-3",
    "phase_name_zh": "三期：北部众智园加速让行站场建设（2030-2032）",
    "phase_order": 3,
    "area_sqm_declared": 2491948.06
   },
   "geometry": {
    "type": "Polygon",
    "coordinates": [
     [
      [
       116.35488904109589,
       40.019
      ],
      [
       116.35373835616438,
       39.998
      ],
      [
       116.34118387096774,
       39.998
      ],
      [
       116.3417,
       40.006
      ],
      [
       116.34233414634146,
       40.019
      ],
      [
       116.35488904109589,
       40.019
      ]
     ]
    ]
   }
  }
 ]
}