{
 "type": "FeatureCollection",
 "features": [
  {
   "type": "Feature",
   "id": "PUB-061",
   "properties": {
    "id": "PUB-061",
    "layer": "PUBLIC_SPACE",
    "source_type": "agent_generated_design",
    "confidence": "medium",
    "geometry_role": "design_proposal",
    "space_type": "plaza",
    "name_zh": "让行广场（错车节点）",
    "area_sqm_declared": 76353.47
   },
   "geometry": {
    "type": "Polygon",
    "coordinates": [
     [
      [
       116.3448,
       39.98
      ],
      [
       116.3425,
       39.98
      ],
      [
       116.3425,
       39.9835
      ],
      [
       116.3448,
       39.9835
      ],
      [
       116.3448,
       39.98
      ]
     ]
    ]
   }
  },
  {
   "type": "Feature",
   "id": "PUB-062",
   "properties": {
    "id": "PUB-062",
    "layer": "PUBLIC_SPACE",
    "source_type": "agent_generated_design",
    "confidence": "medium",
    "geometry_role": "design_proposal",
    "space_type": "plaza",
    "name_zh": "让行广场（错车节点）",
    "area_sqm_declared": 89632.28
   },
   "geometry": {
    "type": "Polygon",
    "coordinates": [
     [
      [
       116.3475,
       39.98
      ],
      [
       116.3448,
       39.98
      ],
      [
       116.3448,
       39.9835
      ],
      [
       116.3475,
       39.9835
      ],
      [
       116.3475,
       39.98
      ]
     ]
    ]
   }
  },
  {
   "type": "Feature",
   "id": "PUB-064",
   "properties": {
    "id": "PUB-064",
    "layer": "PUBLIC_SPACE",
    "source_type": "agent_generated_design",
    "confidence": "medium",
    "geometry_role": "design_proposal",
    "space_type": "plaza",
    "name_zh": "让行广场（错车节点）",
    "area_sqm_declared": 98163.09
   },
   "geometry": {
    "type": "Polygon",
    "coordinates": [
     [
      [
       116.3448,
       39.9835
      ],
      [
       116.3425,
       39.9835
      ],
      [
       116.3425,
       39.988
      ],
      [
       116.3448,
       39.988
      ],
      [
       116.3448,
       39.9835
      ]
     ]
    ]
   }
  },
  {
   "type": "Feature",
   "id": "PUB-065",
   "properties": {
    "id": "PUB-065",
    "layer": "PUBLIC_SPACE",
    "source_type": "agent_generated_design",
    "confidence": "medium",
    "geometry_role": "design_proposal",
    "space_type": "plaza",
    "name_zh": "让行广场（错车节点）",
    "area_sqm_declared": 115234.86
   },
   "geometry": {
    "type": "Polygon",
    "coordinates": [
     [
      [
       116.3475,
       39.9835
      ],
      [
       116.3448,
       39.9835
      ],
      [
       116.3448,
       39.988
      ],
      [
       116.3475,
       39.988
      ],
      [
       116.3475,
       39.9835
      ]
     ]
    ]
   }
  },
  {
   "type": "Feature",
   "id": "PUB-067",
   "properties": {
    "id": "PUB-067",
    "layer": "PUBLIC_SPACE",
    "source_type": "agent_generated_design",
    "confidence": "medium",
    "geometry_role": "design_proposal",
    "space_type": "plaza",
    "name_zh": "让行广场（错车节点）",
    "area_sqm_declared": 119968.46
   },
   "geometry": {
    "type": "Polygon",
    "coordinates": [
     [
      [
       116.3448,
       39.988
      ],
      [
       116.3425,
       39.988
      ],
      [
       116.3425,
       39.9935
      ],
      [
       116.3448,
       39.9935
      ],
      [
       116.3448,
       39.988
      ]
     ]
    ]
   }
  },
  {
   "type": "Feature",
   "id": "PUB-068",
   "properties": {
    "id": "PUB-068",
    "layer": "PUBLIC_SPACE",
    "source_type": "agent_generated_design",
    "confidence": "medium",
    "geometry_role": "design_proposal",
    "space_type": "plaza",
    "name_zh": "让行广场（错车节点）",
    "area_sqm_declared": 140832.46
   },
   "geometry": {
    "type": "Polygon",
    "coordinates": [
     [
      [
       116.3475,
       39.988
      ],
      [
       116.3448,
       39.988
      ],
      [
       116.3448,
       39.9935
      ],
      [
       116.3475,
       39.9935
      ],
      [
       116.3475,
       39.988
      ]
     ]
    ]
   }
  }
 ]
}