{
 "type": "FeatureCollection",
 "features": [
  {
   "type": "Feature",
   "id": "ROAD-001",
   "properties": {
    "id": "ROAD-001",
    "layer": "ROAD_CENTERLINE",
    "source_type": "agent_generated_design",
    "confidence": "medium",
    "geometry_role": "design_proposal",
    "road_class": "secondary",
    "road_class_label_zh": "次干路"
   },
   "geometry": {
    "type": "LineString",
    "coordinates": [
     [
      116.3475,
      39.944
     ],
     [
      116.3505,
      39.944
     ]
    ]
   }
  },
  {
   "type": "Feature",
   "id": "ROAD-002",
   "properties": {
    "id": "ROAD-002",
    "layer": "ROAD_CENTERLINE",
    "source_type": "agent_generated_design",
    "confidence": "medium",
    "geometry_role": "design_proposal",
    "road_class": "arterial",
    "road_class_label_zh": "主干路"
   },
   "geometry": {
    "type": "LineString",
    "coordinates": [
     [
      116.3475,
      39.94984
     ],
     [
      116.3505,
      39.94984
     ]
    ]
   }
  },
  {
   "type": "Feature",
   "id": "ROAD-003",
   "properties": {
    "id": "ROAD-003",
    "layer": "ROAD_CENTERLINE",
    "source_type": "agent_generated_design",
    "confidence": "medium",
    "geometry_role": "design_proposal",
    "road_class": "secondary",
    "road_class_label_zh": "次干路"
   },
   "geometry": {
    "type": "LineString",
    "coordinates": [
     [
      116.3475,
      39.955
     ],
     [
      116.3505,
      39.955
     ]
    ]
   }
  },
  {
   "type": "Feature",
   "id": "ROAD-004",
   "properties": {
    "id": "ROAD-004",
    "layer": "ROAD_CENTERLINE",
    "source_type": "agent_generated_design",
    "confidence": "medium",
    "geometry_role": "design_proposal",
    "road_class": "secondary",
    "road_class_label_zh": "次干路"
   },
   "geometry": {
    "type": "LineString",
    "coordinates": [
     [
      116.3475,
      39.96
     ],
     [
      116.3505,
      39.96
     ]
    ]
   }
  },
  {
   "type": "Feature",
   "id": "ROAD-005",
   "properties": {
    "id": "ROAD-005",
    "layer": "ROAD_CENTERLINE",
    "source_type": "agent_generated_design",
    "confidence": "medium",
    "geometry_role": "design_proposal",
    "road_class": "secondary",
    "road_class_label_zh": "次干路"
   },
   "geometry": {
    "type": "LineString",
    "coordinates": [
     [
      116.3475,
      39.965
     ],
     [
      116.3505,
      39.965
     ]
    ]
   }
  },
  {
   "type": "Feature",
   "id": "ROAD-006",
   "properties": {
    "id": "ROAD-006",
    "layer": "ROAD_CENTERLINE",
    "source_type": "agent_generated_design",
    "confidence": "medium",
    "geometry_role": "design_proposal",
    "road_class": "secondary",
    "road_class_label_zh": "次干路"
   },
   "geometry": {
    "type": "LineString",
    "coordinates": [
     [
      116.3475,
      39.97
     ],
     [
      116.3505,
      39.97
     ]
    ]
   }
  },
  {
   "type": "Feature",
   "id": "ROAD-007",
   "properties": {
    "id": "ROAD-007",
    "layer": "ROAD_CENTERLINE",
    "source_type": "agent_generated_design",
    "confidence": "medium",
    "geometry_role": "design_proposal",
    "road_class": "secondary",
    "road_class_label_zh": "次干路"
   },
   "geometry": {
    "type": "LineString",
    "coordinates": [
     [
      116.3475,
      39.975
     ],
     [
      116.3505,
      39.975
     ]
    ]
   }
  },
  {
   "type": "Feature",
   "id": "ROAD-008",
   "properties": {
    "id": "ROAD-008",
    "layer": "ROAD_CENTERLINE",
    "source_type": "agent_generated_design",
    "confidence": "medium",
    "geometry_role": "design_proposal",
    "road_class": "secondary",
    "road_class_label_zh": "次干路"
   },
   "geometry": {
    "type": "LineString",
    "coordinates": [
     [
      116.3475,
      39.98
     ],
     [
      116.3505,
      39.98
     ]
    ]
   }
  },
  {
   "type": "Feature",
   "id": "ROAD-009",
   "properties": {
    "id": "ROAD-009",
    "layer": "ROAD_CENTERLINE",
    "source_type": "agent_generated_design",
    "confidence": "medium",
    "geometry_role": "design_proposal",
    "road_class": "secondary",
    "road_class_label_zh": "次干路"
   },
   "geometry": {
    "type": "LineString",
    "coordinates": [
     [
      116.3475,
      39.9835
     ],
     [
      116.3505,
      39.9835
     ]
    ]
   }
  },
  {
   "type": "Feature",
   "id": "ROAD-010",
   "properties": {
    "id": "ROAD-010",
    "layer": "ROAD_CENTERLINE",
    "source_type": "agent_generated_design",
    "confidence": "medium",
    "geometry_role": "design_proposal",
    "road_class": "secondary",
    "road_class_label_zh": "次干路"
   },
   "geometry": {
    "type": "LineString",
    "coordinates": [
     [
      116.3475,
      39.988
     ],
     [
      116.3505,
      39.988
     ]
    ]
   }
  },
  {
   "type": "Feature",
   "id": "ROAD-011",
   "properties": {
    "id": "ROAD-011",
    "layer": "ROAD_CENTERLINE",
    "source_type": "agent_generated_design",
    "confidence": "medium",
    "geometry_role": "design_proposal",
    "road_class": "arterial",
    "road_class_label_zh": "主干路"
   },
   "geometry": {
    "type": "LineString",
    "coordinates": [
     [
      116.3475,
      39.9935
     ],
     [
      116.3505,
      39.9935
     ]
    ]
   }
  },
  {
   "type": "Feature",
   "id": "ROAD-012",
   "properties": {
    "id": "ROAD-012",
    "layer": "ROAD_CENTERLINE",
    "source_type": "agent_generated_design",
    "confidence": "medium",
    "geometry_role": "design_proposal",
    "road_class": "secondary",
    "road_class_label_zh": "次干路"
   },
   "geometry": {
    "type": "LineString",
    "coordinates": [
     [
      116.3475,
      39.998
     ],
     [
      116.3505,
      39.998
     ]
    ]
   }
  },
  {
   "type": "Feature",
   "id": "ROAD-013",
   "properties": {
    "id": "ROAD-013",
    "layer": "ROAD_CENTERLINE",
    "source_type": "agent_generated_design",
    "confidence": "medium",
    "geometry_role": "design_proposal",
    "road_class": "secondary",
    "road_class_label_zh": "次干路"
   },
   "geometry": {
    "type": "LineString",
    "coordinates": [
     [
      116.3475,
      40.003
     ],
     [
      116.3505,
      40.003
     ]
    ]
   }
  },
  {
   "type": "Feature",
   "id": "ROAD-014",
   "properties": {
    "id": "ROAD-014",
    "layer": "ROAD_CENTERLINE",
    "source_type": "agent_generated_design",
    "confidence": "medium",
    "geometry_role": "design_proposal",
    "road_class": "arterial",
    "road_class_label_zh": "主干路"
   },
   "geometry": {
    "type": "LineString",
    "coordinates": [
     [
      116.3475,
      40.0075
     ],
     [
      116.3505,
      40.0075
     ]
    ]
   }
  },
  {
   "type": "Feature",
   "id": "ROAD-015",
   "properties": {
    "id": "ROAD-015",
    "layer": "ROAD_CENTERLINE",
    "source_type": "agent_generated_design",
    "confidence": "medium",
    "geometry_role": "design_proposal",
    "road_class": "secondary",
    "road_class_label_zh": "次干路"
   },
   "geometry": {
    "type": "LineString",
    "coordinates": [
     [
      116.3475,
      40.013
     ],
     [
      116.3505,
      40.013
     ]
    ]
   }
  },
  {
   "type": "Feature",
   "id": "ROAD-016",
   "properties": {
    "id": "ROAD-016",
    "layer": "ROAD_CENTERLINE",
    "source_type": "agent_generated_design",
    "confidence": "medium",
    "geometry_role": "design_proposal",
    "road_class": "secondary",
    "road_class_label_zh": "次干路"
   },
   "geometry": {
    "type": "LineString",
    "coordinates": [
     [
      116.3475,
      40.019
     ],
     [
      116.3505,
      40.019
     ]
    ]
   }
  },
  {
   "type": "Feature",
   "id": "ROAD-017",
   "properties": {
    "id": "ROAD-017",
    "layer": "ROAD_CENTERLINE",
    "source_type": "agent_generated_design",
    "confidence": "medium",
    "geometry_role": "design_proposal",
    "road_class": "greenway",
    "road_class_label_zh": "公园慢行主脊"
   },
   "geometry": {
    "type": "LineString",
    "coordinates": [
     [
      116.3428,
      40.013
     ],
     [
      116.3428,
      40.019
     ]
    ]
   }
  }
 ]
}