{
  "type": "FeatureCollection",
  "features": [
    {
      "type": "Feature",
      "properties": {
        "id": "BLDG-001",
        "layer": "BUILDING_FOOTPRINT",
        "source_type": "agent_generated_design",
        "confidence": "low",
        "geometry_role": "design_proposal",
        "name_zh": "众智园创新中心A座",
        "building_type": "ai_r_and_d",
        "function_zh": "研发办公",
        "provisional": true
      },
      "geometry": {
        "type": "Polygon",
        "coordinates": [
          [
            [
              116.346,
              40.01
            ],
            [
              116.349,
              40.01
            ],
            [
              116.349,
              40.014
            ],
            [
              116.346,
              40.014
            ],
            [
              116.346,
              40.01
            ]
          ]
        ]
      },
      "id": "BLDG-001"
    },
    {
      "type": "Feature",
      "properties": {
        "id": "BLDG-002",
        "layer": "BUILDING_FOOTPRINT",
        "source_type": "agent_generated_design",
        "confidence": "low",
        "geometry_role": "design_proposal",
        "name_zh": "众智园标准治理展示厅",
        "building_type": "ai_r_and_d",
        "function_zh": "展示体验",
        "provisional": true
      },
      "geometry": {
        "type": "Polygon",
        "coordinates": [
          [
            [
              116.35,
              40.011
            ],
            [
              116.352,
              40.011
            ],
            [
              116.352,
              40.015
            ],
            [
              116.35,
              40.015
            ],
            [
              116.35,
              40.011
            ]
          ]
        ]
      },
      "id": "BLDG-002"
    },
    {
      "type": "Feature",
      "properties": {
        "id": "BLDG-003",
        "layer": "BUILDING_FOOTPRINT",
        "source_type": "agent_generated_design",
        "confidence": "low",
        "geometry_role": "design_proposal",
        "name_zh": "众智园共享测试场",
        "building_type": "ai_r_and_d",
        "function_zh": "测试验证",
        "provisional": true
      },
      "geometry": {
        "type": "Polygon",
        "coordinates": [
          [
            [
              116.344,
              40.016
            ],
            [
              116.348,
              40.016
            ],
            [
              116.348,
              40.02
            ],
            [
              116.344,
              40.02
            ],
            [
              116.344,
              40.016
            ]
          ]
        ]
      },
      "id": "BLDG-003"
    },
    {
      "type": "Feature",
      "properties": {
        "id": "BLDG-004",
        "layer": "BUILDING_FOOTPRINT",
        "source_type": "agent_generated_design",
        "confidence": "low",
        "geometry_role": "design_proposal",
        "name_zh": "AI原点开源发布厅",
        "building_type": "mixed_use",
        "function_zh": "成果发布",
        "provisional": true
      },
      "geometry": {
        "type": "Polygon",
        "coordinates": [
          [
            [
              116.344,
              39.985
            ],
            [
              116.347,
              39.985
            ],
            [
              116.347,
              39.989
            ],
            [
              116.344,
              39.989
            ],
            [
              116.344,
              39.985
            ]
          ]
        ]
      },
      "id": "BLDG-004"
    },
    {
      "type": "Feature",
      "properties": {
        "id": "BLDG-005",
        "layer": "BUILDING_FOOTPRINT",
        "source_type": "agent_generated_design",
        "confidence": "low",
        "geometry_role": "design_proposal",
        "name_zh": "原点社区孵化器",
        "building_type": "ai_r_and_d",
        "function_zh": "孵化转化",
        "provisional": true
      },
      "geometry": {
        "type": "Polygon",
        "coordinates": [
          [
            [
              116.348,
              39.986
            ],
            [
              116.351,
              39.986
            ],
            [
              116.351,
              39.99
            ],
            [
              116.348,
              39.99
            ],
            [
              116.348,
              39.986
            ]
          ]
        ]
      },
      "id": "BLDG-005"
    },
    {
      "type": "Feature",
      "properties": {
        "id": "BLDG-006",
        "layer": "BUILDING_FOOTPRINT",
        "source_type": "agent_generated_design",
        "confidence": "low",
        "geometry_role": "design_proposal",
        "name_zh": "人才公寓A栋",
        "building_type": "existing_retained",
        "function_zh": "人才居住",
        "provisional": true
      },
      "geometry": {
        "type": "Polygon",
        "coordinates": [
          [
            [
              116.344,
              39.99
            ],
            [
              116.346,
              39.99
            ],
            [
              116.346,
              39.992
            ],
            [
              116.344,
              39.992
            ],
            [
              116.344,
              39.99
            ]
          ]
        ]
      },
      "id": "BLDG-006"
    },
    {
      "type": "Feature",
      "properties": {
        "id": "BLDG-007",
        "layer": "BUILDING_FOOTPRINT",
        "source_type": "agent_generated_design",
        "confidence": "low",
        "geometry_role": "design_proposal",
        "name_zh": "大钟寺国际路演厅",
        "building_type": "mixed_use",
        "function_zh": "国际路演",
        "provisional": true
      },
      "geometry": {
        "type": "Polygon",
        "coordinates": [
          [
            [
              116.344,
              39.945
            ],
            [
              116.347,
              39.945
            ],
            [
              116.347,
              39.948
            ],
            [
              116.344,
              39.948
            ],
            [
              116.344,
              39.945
            ]
          ]
        ]
      },
      "id": "BLDG-007"
    },
    {
      "type": "Feature",
      "properties": {
        "id": "BLDG-008",
        "layer": "BUILDING_FOOTPRINT",
        "source_type": "agent_generated_design",
        "confidence": "low",
        "geometry_role": "design_proposal",
        "name_zh": "智能终端展示中心",
        "building_type": "ai_r_and_d",
        "function_zh": "企业展示",
        "provisional": true
      },
      "geometry": {
        "type": "Polygon",
        "coordinates": [
          [
            [
              116.349,
              39.945
            ],
            [
              116.352,
              39.945
            ],
            [
              116.352,
              39.948
            ],
            [
              116.349,
              39.948
            ],
            [
              116.349,
              39.945
            ]
          ]
        ]
      },
      "id": "BLDG-008"
    },
    {
      "type": "Feature",
      "properties": {
        "id": "BLDG-009",
        "layer": "BUILDING_FOOTPRINT",
        "source_type": "agent_generated_design",
        "confidence": "low",
        "geometry_role": "design_proposal",
        "name_zh": "数据要素会客厅",
        "building_type": "mixed_use",
        "function_zh": "数据服务",
        "provisional": true
      },
      "geometry": {
        "type": "Polygon",
        "coordinates": [
          [
            [
              116.345,
              39.9465
            ],
            [
              116.348,
              39.9465
            ],
            [
              116.348,
              39.949
            ],
            [
              116.345,
              39.949
            ],
            [
              116.345,
              39.9465
            ]
          ]
        ]
      },
      "id": "BLDG-009"
    }
  ]
}