{
  "type": "FeatureCollection",
  "features": [
    {
      "type": "Feature",
      "properties": {
        "id": "CONSTRAINTS-001",
        "layer": "REGULATORY_CONTROL",
        "source_type": "agent_inferred_from_public_data",
        "confidence": "low",
        "geometry_role": "provisional_constraint",
        "name_zh": "京张铁路遗址保护线",
        "constraint_type": "heritage_protection",
        "provisional": true,
        "note": "概念性约束，待官方确认"
      },
      "geometry": {
        "type": "Polygon",
        "coordinates": [
          [
            [
              116.3485,
              39.94
            ],
            [
              116.3505,
              39.94
            ],
            [
              116.3505,
              40.026
            ],
            [
              116.3485,
              40.026
            ],
            [
              116.3485,
              39.94
            ]
          ]
        ]
      },
      "id": "CONSTRAINTS-001"
    },
    {
      "type": "Feature",
      "properties": {
        "id": "CONSTRAINTS-002",
        "layer": "REGULATORY_CONTROL",
        "source_type": "agent_inferred_from_public_data",
        "confidence": "low",
        "geometry_role": "provisional_constraint",
        "name_zh": "北五环路退让控制",
        "constraint_type": "road_setback",
        "provisional": true,
        "note": "概念性约束，待官方确认"
      },
      "geometry": {
        "type": "Polygon",
        "coordinates": [
          [
            [
              116.355,
              40.025
            ],
            [
              116.34261681737767,
              40.025
            ],
            [
              116.34268998810938,
              40.0265
            ],
            [
              116.355,
              40.0265
            ],
            [
              116.355,
              40.025
            ]
          ]
        ]
      },
      "id": "CONSTRAINTS-002"
    },
    {
      "type": "Feature",
      "properties": {
        "id": "CONSTRAINTS-003",
        "layer": "REGULATORY_CONTROL",
        "source_type": "agent_inferred_from_public_data",
        "confidence": "low",
        "geometry_role": "provisional_constraint",
        "name_zh": "清河蓝线",
        "constraint_type": "water_blue_line",
        "provisional": true,
        "note": "概念性约束，待官方确认"
      },
      "geometry": {
        "type": "Polygon",
        "coordinates": [
          [
            [
              116.343,
              40.023
            ],
            [
              116.354,
              40.023
            ],
            [
              116.354,
              40.024
            ],
            [
              116.343,
              40.024
            ],
            [
              116.343,
              40.023
            ]
          ]
        ]
      },
      "id": "CONSTRAINTS-003"
    }
  ]
}