{
  "type": "FeatureCollection",
  "features": [
    {
      "type": "Feature",
      "properties": {
        "id": "GREEN-001",
        "layer": "GREEN_SPACE",
        "source_type": "agent_generated_design",
        "confidence": "medium",
        "geometry_role": "design_proposal",
        "name_zh": "京张遗址公园绿带",
        "green_type": "park_green",
        "provisional": true
      },
      "geometry": {
        "type": "Polygon",
        "coordinates": [
          [
            [
              116.347,
              39.94
            ],
            [
              116.351,
              39.94
            ],
            [
              116.351,
              40.026
            ],
            [
              116.347,
              40.026
            ],
            [
              116.347,
              39.94
            ]
          ]
        ]
      },
      "id": "GREEN-001"
    },
    {
      "type": "Feature",
      "properties": {
        "id": "GREEN-002",
        "layer": "GREEN_SPACE",
        "source_type": "agent_generated_design",
        "confidence": "medium",
        "geometry_role": "design_proposal",
        "name_zh": "清河滨水绿廊",
        "green_type": "park_green",
        "provisional": true
      },
      "geometry": {
        "type": "Polygon",
        "coordinates": [
          [
            [
              116.343,
              40.022
            ],
            [
              116.354,
              40.022
            ],
            [
              116.354,
              40.026
            ],
            [
              116.343,
              40.026
            ],
            [
              116.343,
              40.022
            ]
          ]
        ]
      },
      "id": "GREEN-002"
    },
    {
      "type": "Feature",
      "properties": {
        "id": "GREEN-003",
        "layer": "GREEN_SPACE",
        "source_type": "agent_generated_design",
        "confidence": "medium",
        "geometry_role": "design_proposal",
        "name_zh": "小月河场景赋能绿带",
        "green_type": "park_green",
        "provisional": true
      },
      "geometry": {
        "type": "Polygon",
        "coordinates": [
          [
            [
              116.343,
              39.98
            ],
            [
              116.343,
              39.96
            ],
            [
              116.34010666280939,
              39.96
            ],
            [
              116.34,
              39.96383986113781
            ],
            [
              116.34,
              39.979805322245866
            ],
            [
              116.34001255985511,
              39.98
            ],
            [
              116.343,
              39.98
            ]
          ]
        ]
      },
      "id": "GREEN-003"
    },
    {
      "type": "Feature",
      "properties": {
        "id": "GREEN-004",
        "layer": "GREEN_SPACE",
        "source_type": "agent_generated_design",
        "confidence": "medium",
        "geometry_role": "design_proposal",
        "name_zh": "原点社区口袋公园群",
        "green_type": "park_green",
        "provisional": true
      },
      "geometry": {
        "type": "Polygon",
        "coordinates": [
          [
            [
              116.343,
              39.984
            ],
            [
              116.353,
              39.984
            ],
            [
              116.353,
              39.993
            ],
            [
              116.343,
              39.993
            ],
            [
              116.343,
              39.984
            ]
          ]
        ]
      },
      "id": "GREEN-004"
    },
    {
      "type": "Feature",
      "properties": {
        "id": "GREEN-005",
        "layer": "GREEN_SPACE",
        "source_type": "agent_generated_design",
        "confidence": "medium",
        "geometry_role": "design_proposal",
        "name_zh": "大钟寺路口绿地",
        "green_type": "park_green",
        "provisional": true
      },
      "geometry": {
        "type": "Polygon",
        "coordinates": [
          [
            [
              116.342,
              39.943
            ],
            [
              116.355,
              39.943
            ],
            [
              116.355,
              39.95
            ],
            [
              116.342,
              39.95
            ],
            [
              116.342,
              39.943
            ]
          ]
        ]
      },
      "id": "GREEN-005"
    }
  ]
}