{
  "type": "FeatureCollection",
  "features": [
    {
      "type": "Feature",
      "properties": {
        "id": "LU-001",
        "layer": "LAND_USE",
        "source_type": "agent_generated_design",
        "confidence": "medium",
        "geometry_role": "design_proposal",
        "land_use_code": "05",
        "land_use_label_zh": "商业服务业用地",
        "name_zh": "大钟寺商业服务带",
        "provisional": true
      },
      "geometry": {
        "type": "Polygon",
        "coordinates": [
          [
            [
              116.3553,
              39.939
            ],
            [
              116.34068999614273,
              39.939
            ],
            [
              116.34038444058717,
              39.95
            ],
            [
              116.3553,
              39.95
            ],
            [
              116.3553,
              39.939
            ]
          ]
        ]
      },
      "id": "LU-001"
    },
    {
      "type": "Feature",
      "properties": {
        "id": "LU-002",
        "layer": "LAND_USE",
        "source_type": "agent_generated_design",
        "confidence": "medium",
        "geometry_role": "design_proposal",
        "land_use_code": "0701",
        "land_use_label_zh": "城镇住宅用地",
        "name_zh": "居住生活区",
        "provisional": true
      },
      "geometry": {
        "type": "Polygon",
        "coordinates": [
          [
            [
              116.3553,
              39.95
            ],
            [
              116.34038444058717,
              39.95
            ],
            [
              116.33996777392049,
              39.965
            ],
            [
              116.3553,
              39.965
            ],
            [
              116.3553,
              39.95
            ]
          ]
        ]
      },
      "id": "LU-002"
    },
    {
      "type": "Feature",
      "properties": {
        "id": "LU-003",
        "layer": "LAND_USE",
        "source_type": "agent_generated_design",
        "confidence": "medium",
        "geometry_role": "design_proposal",
        "land_use_code": "0802",
        "land_use_label_zh": "科研用地",
        "name_zh": "高校科研带",
        "provisional": true
      },
      "geometry": {
        "type": "Polygon",
        "coordinates": [
          [
            [
              116.33996777392049,
              39.965
            ],
            [
              116.3397,
              39.974639861138115
            ],
            [
              116.3397,
              39.975155322245726
            ],
            [
              116.33988352759704,
              39.978
            ],
            [
              116.35427003194896,
              39.978
            ],
            [
              116.3553,
              39.965125399361995
            ],
            [
              116.3553,
              39.965
            ],
            [
              116.33996777392049,
              39.965
            ]
          ]
        ]
      },
      "id": "LU-003"
    },
    {
      "type": "Feature",
      "properties": {
        "id": "LU-004",
        "layer": "LAND_USE",
        "source_type": "agent_generated_design",
        "confidence": "medium",
        "geometry_role": "design_proposal",
        "land_use_code": "0802",
        "land_use_label_zh": "科研用地",
        "name_zh": "AI原点社区科研带",
        "provisional": true
      },
      "geometry": {
        "type": "Polygon",
        "coordinates": [
          [
            [
              116.35352919308313,
              39.994
            ],
            [
              116.35331002189038,
              39.99000012573223
            ],
            [
              116.35427003194896,
              39.978
            ],
            [
              116.33988352759704,
              39.978
            ],
            [
              116.34091578566156,
              39.994
            ],
            [
              116.35352919308313,
              39.994
            ]
          ]
        ]
      },
      "id": "LU-004"
    },
    {
      "type": "Feature",
      "properties": {
        "id": "LU-005",
        "layer": "LAND_USE",
        "source_type": "agent_generated_design",
        "confidence": "medium",
        "geometry_role": "design_proposal",
        "land_use_code": "1401",
        "land_use_label_zh": "公园绿地",
        "name_zh": "京张遗址公园中段",
        "provisional": true
      },
      "geometry": {
        "type": "Polygon",
        "coordinates": [
          [
            [
              116.3542963163708,
              40.008
            ],
            [
              116.35352919308313,
              39.994
            ],
            [
              116.34091578566156,
              39.994
            ],
            [
              116.34169001569765,
              40.00600056555933
            ],
            [
              116.341787549085,
              40.008
            ],
            [
              116.3542963163708,
              40.008
            ]
          ]
        ]
      },
      "id": "LU-005"
    },
    {
      "type": "Feature",
      "properties": {
        "id": "LU-006",
        "layer": "LAND_USE",
        "source_type": "agent_generated_design",
        "confidence": "medium",
        "geometry_role": "design_proposal",
        "land_use_code": "0802",
        "land_use_label_zh": "科研用地",
        "name_zh": "众智园研发带",
        "provisional": true
      },
      "geometry": {
        "type": "Polygon",
        "coordinates": [
          [
            [
              116.35484426157629,
              40.018
            ],
            [
              116.3542963163708,
              40.008
            ],
            [
              116.341787549085,
              40.008
            ],
            [
              116.34227535396305,
              40.018
            ],
            [
              116.35484426157629,
              40.018
            ]
          ]
        ]
      },
      "id": "LU-006"
    },
    {
      "type": "Feature",
      "properties": {
        "id": "LU-007",
        "layer": "LAND_USE",
        "source_type": "agent_generated_design",
        "confidence": "medium",
        "geometry_role": "design_proposal",
        "land_use_code": "0803",
        "land_use_label_zh": "文化用地",
        "name_zh": "清河文化创新带",
        "provisional": true
      },
      "geometry": {
        "type": "Polygon",
        "coordinates": [
          [
            [
              116.3553,
              40.0265
            ],
            [
              116.3553,
              40.026317226232784
            ],
            [
              116.35484426157629,
              40.018
            ],
            [
              116.34227535396305,
              40.018
            ],
            [
              116.34268998810938,
              40.0265
            ],
            [
              116.3553,
              40.0265
            ]
          ]
        ]
      },
      "id": "LU-007"
    }
  ]
}