{
  "type": "FeatureCollection",
  "features": [
    {
      "type": "Feature",
      "properties": {
        "id": "PHASE-001",
        "layer": "PHASE",
        "source_type": "agent_generated_design",
        "confidence": "medium",
        "geometry_role": "design_proposal",
        "name_zh": "近期试点（1-2年）",
        "phase_number": 1,
        "provisional": true
      },
      "geometry": {
        "type": "Polygon",
        "coordinates": [
          [
            [
              116.342,
              39.944
            ],
            [
              116.355,
              39.944
            ],
            [
              116.355,
              39.965
            ],
            [
              116.342,
              39.965
            ],
            [
              116.342,
              39.944
            ]
          ]
        ]
      },
      "id": "PHASE-001"
    },
    {
      "type": "Feature",
      "properties": {
        "id": "PHASE-002",
        "layer": "PHASE",
        "source_type": "agent_generated_design",
        "confidence": "medium",
        "geometry_role": "design_proposal",
        "name_zh": "中期更新（3-5年）",
        "phase_number": 2,
        "provisional": true
      },
      "geometry": {
        "type": "Polygon",
        "coordinates": [
          [
            [
              116.342,
              39.965
            ],
            [
              116.342,
              39.995
            ],
            [
              116.35358398760368,
              39.995
            ],
            [
              116.35331002189038,
              39.99000012573223
            ],
            [
              116.355,
              39.96887539936194
            ],
            [
              116.355,
              39.965
            ],
            [
              116.342,
              39.965
            ]
          ]
        ]
      },
      "id": "PHASE-002"
    },
    {
      "type": "Feature",
      "properties": {
        "id": "PHASE-003",
        "layer": "PHASE",
        "source_type": "agent_generated_design",
        "confidence": "medium",
        "geometry_role": "design_proposal",
        "name_zh": "长期治理（5-10年）",
        "phase_number": 3,
        "provisional": true
      },
      "geometry": {
        "type": "Polygon",
        "coordinates": [
          [
            [
              116.342,
              40.0123552437575
            ],
            [
              116.34266559786548,
              40.026
            ],
            [
              116.355,
              40.026
            ],
            [
              116.355,
              40.02084222623286
            ],
            [
              116.35358398760368,
              39.995
            ],
            [
              116.342,
              39.995
            ],
            [
              116.342,
              40.0123552437575
            ]
          ]
        ]
      },
      "id": "PHASE-003"
    }
  ]
}