{
  "type": "FeatureCollection",
  "features": [
    {
      "type": "Feature",
      "properties": {
        "id": "PUBLIC-001",
        "layer": "PUBLIC_SPACE",
        "source_type": "agent_generated_design",
        "confidence": "medium",
        "geometry_role": "design_proposal",
        "name_zh": "开源成果展示廊",
        "provisional": true
      },
      "geometry": {
        "type": "Polygon",
        "coordinates": [
          [
            [
              116.348,
              39.986
            ],
            [
              116.352,
              39.986
            ],
            [
              116.352,
              39.989
            ],
            [
              116.348,
              39.989
            ],
            [
              116.348,
              39.986
            ]
          ]
        ]
      },
      "id": "PUBLIC-001"
    },
    {
      "type": "Feature",
      "properties": {
        "id": "PUBLIC-002",
        "layer": "PUBLIC_SPACE",
        "source_type": "agent_generated_design",
        "confidence": "medium",
        "geometry_role": "design_proposal",
        "name_zh": "AI贡献荣誉墙广场",
        "provisional": true
      },
      "geometry": {
        "type": "Polygon",
        "coordinates": [
          [
            [
              116.348,
              39.995
            ],
            [
              116.352,
              39.995
            ],
            [
              116.352,
              39.998
            ],
            [
              116.348,
              39.998
            ],
            [
              116.348,
              39.995
            ]
          ]
        ]
      },
      "id": "PUBLIC-002"
    },
    {
      "type": "Feature",
      "properties": {
        "id": "PUBLIC-003",
        "layer": "PUBLIC_SPACE",
        "source_type": "agent_generated_design",
        "confidence": "medium",
        "geometry_role": "design_proposal",
        "name_zh": "开发者散步道",
        "provisional": true
      },
      "geometry": {
        "type": "Polygon",
        "coordinates": [
          [
            [
              116.348,
              40.0
            ],
            [
              116.352,
              40.0
            ],
            [
              116.352,
              40.005
            ],
            [
              116.348,
              40.005
            ],
            [
              116.348,
              40.0
            ]
          ]
        ]
      },
      "id": "PUBLIC-003"
    },
    {
      "type": "Feature",
      "properties": {
        "id": "PUBLIC-004",
        "layer": "PUBLIC_SPACE",
        "source_type": "agent_generated_design",
        "confidence": "medium",
        "geometry_role": "design_proposal",
        "name_zh": "大钟寺站前广场",
        "provisional": true
      },
      "geometry": {
        "type": "Polygon",
        "coordinates": [
          [
            [
              116.346,
              39.944
            ],
            [
              116.35,
              39.944
            ],
            [
              116.35,
              39.948
            ],
            [
              116.346,
              39.948
            ],
            [
              116.346,
              39.944
            ]
          ]
        ]
      },
      "id": "PUBLIC-004"
    },
    {
      "type": "Feature",
      "properties": {
        "id": "PUBLIC-005",
        "layer": "PUBLIC_SPACE",
        "source_type": "agent_generated_design",
        "confidence": "medium",
        "geometry_role": "design_proposal",
        "name_zh": "京张铁路记忆广场",
        "provisional": true
      },
      "geometry": {
        "type": "Polygon",
        "coordinates": [
          [
            [
              116.349,
              39.97
            ],
            [
              116.352,
              39.97
            ],
            [
              116.352,
              39.974
            ],
            [
              116.349,
              39.974
            ],
            [
              116.349,
              39.97
            ]
          ]
        ]
      },
      "id": "PUBLIC-005"
    },
    {
      "type": "Feature",
      "properties": {
        "id": "PUBLIC-006",
        "layer": "PUBLIC_SPACE",
        "source_type": "agent_generated_design",
        "confidence": "medium",
        "geometry_role": "design_proposal",
        "name_zh": "全球AI活动周主舞台",
        "provisional": true
      },
      "geometry": {
        "type": "Polygon",
        "coordinates": [
          [
            [
              116.349,
              40.012
            ],
            [
              116.353,
              40.012
            ],
            [
              116.353,
              40.016
            ],
            [
              116.349,
              40.016
            ],
            [
              116.349,
              40.012
            ]
          ]
        ]
      },
      "id": "PUBLIC-006"
    }
  ]
}