{
  "type": "FeatureCollection",
  "features": [
    {
      "type": "Feature",
      "properties": {
        "id": "ROAD-001",
        "layer": "ROAD_CENTERLINE",
        "source_type": "agent_generated_design",
        "confidence": "medium",
        "geometry_role": "design_proposal",
        "name_zh": "京张遗址公园慢行主轴",
        "road_class": "greenway",
        "provisional": true
      },
      "geometry": {
        "type": "LineString",
        "coordinates": [
          [
            116.349,
            39.94
          ],
          [
            116.349,
            40.026
          ]
        ]
      },
      "id": "ROAD-001"
    },
    {
      "type": "Feature",
      "properties": {
        "id": "ROAD-002",
        "layer": "ROAD_CENTERLINE",
        "source_type": "agent_generated_design",
        "confidence": "medium",
        "geometry_role": "design_proposal",
        "name_zh": "五道口-大钟寺骑行联络道",
        "road_class": "cycleway",
        "provisional": true
      },
      "geometry": {
        "type": "LineString",
        "coordinates": [
          [
            116.343,
            39.96
          ],
          [
            116.355,
            39.96
          ]
        ]
      },
      "id": "ROAD-002"
    },
    {
      "type": "Feature",
      "properties": {
        "id": "ROAD-003",
        "layer": "ROAD_CENTERLINE",
        "source_type": "agent_generated_design",
        "confidence": "medium",
        "geometry_role": "design_proposal",
        "name_zh": "众智园内部微循环",
        "road_class": "local_access",
        "provisional": true
      },
      "geometry": {
        "type": "LineString",
        "coordinates": [
          [
            116.345,
            40.01
          ],
          [
            116.353,
            40.01
          ],
          [
            116.353,
            40.02
          ]
        ]
      },
      "id": "ROAD-003"
    },
    {
      "type": "Feature",
      "properties": {
        "id": "ROAD-004",
        "layer": "ROAD_CENTERLINE",
        "source_type": "agent_generated_design",
        "confidence": "medium",
        "geometry_role": "design_proposal",
        "name_zh": "原点社区步行街",
        "road_class": "pedestrian",
        "provisional": true
      },
      "geometry": {
        "type": "LineString",
        "coordinates": [
          [
            116.343,
            39.985
          ],
          [
            116.353,
            39.985
          ],
          [
            116.353,
            39.993
          ]
        ]
      },
      "id": "ROAD-004"
    },
    {
      "type": "Feature",
      "properties": {
        "id": "ROAD-005",
        "layer": "ROAD_CENTERLINE",
        "source_type": "agent_generated_design",
        "confidence": "medium",
        "geometry_role": "design_proposal",
        "name_zh": "大钟寺站接驳廊道",
        "road_class": "pedestrian",
        "provisional": true
      },
      "geometry": {
        "type": "LineString",
        "coordinates": [
          [
            116.342,
            39.947
          ],
          [
            116.355,
            39.947
          ]
        ]
      },
      "id": "ROAD-005"
    },
    {
      "type": "Feature",
      "properties": {
        "id": "ROAD-006",
        "layer": "ROAD_CENTERLINE",
        "source_type": "agent_generated_design",
        "confidence": "medium",
        "geometry_role": "design_proposal",
        "name_zh": "清河滨水步道",
        "road_class": "greenway",
        "provisional": true
      },
      "geometry": {
        "type": "LineString",
        "coordinates": [
          [
            116.343,
            40.024
          ],
          [
            116.354,
            40.024
          ]
        ]
      },
      "id": "ROAD-006"
    }
  ]
}