{
  "type": "FeatureCollection",
  "name": "common_habitat_building_prototypes",
  "features": [
    {
      "type": "Feature",
      "id": "BLDG-001",
      "properties": {
        "id": "BLDG-001",
        "layer": "BUILDING_FOOTPRINT",
        "source_type": "agent_generated_design",
        "confidence": "low",
        "geometry_role": "design_proposal",
        "building_type": "existing_retained",
        "name_zh": "可逆更新建筑原型 01",
        "area_sqm_declared": 17935.7,
        "retain_renovate_demolish": "待现状建筑、权属、结构安全和 official 控规资料确认",
        "design_status": "概念性体量落点，不是具体拆改留结论"
      },
      "geometry": {
        "type": "Polygon",
        "coordinates": [
          [
            [
              116.342175,
              39.9469
            ],
            [
              116.34322499999999,
              39.9469
            ],
            [
              116.34322499999999,
              39.9451
            ],
            [
              116.342175,
              39.9451
            ],
            [
              116.342175,
              39.9469
            ]
          ]
        ]
      }
    },
    {
      "type": "Feature",
      "id": "BLDG-002",
      "properties": {
        "id": "BLDG-002",
        "layer": "BUILDING_FOOTPRINT",
        "source_type": "agent_generated_design",
        "confidence": "low",
        "geometry_role": "design_proposal",
        "building_type": "community_service",
        "name_zh": "可逆更新建筑原型 02",
        "area_sqm_declared": 21351.98,
        "retain_renovate_demolish": "待现状建筑、权属、结构安全和 official 控规资料确认",
        "design_status": "概念性体量落点，不是具体拆改留结论"
      },
      "geometry": {
        "type": "Polygon",
        "coordinates": [
          [
            [
              116.350775,
              39.9469
            ],
            [
              116.352025,
              39.9469
            ],
            [
              116.352025,
              39.9451
            ],
            [
              116.350775,
              39.9451
            ],
            [
              116.350775,
              39.9469
            ]
          ]
        ]
      }
    },
    {
      "type": "Feature",
      "id": "BLDG-003",
      "properties": {
        "id": "BLDG-003",
        "layer": "BUILDING_FOOTPRINT",
        "source_type": "agent_generated_design",
        "confidence": "low",
        "geometry_role": "design_proposal",
        "building_type": "ai_r_and_d",
        "name_zh": "可逆更新建筑原型 03",
        "area_sqm_declared": 15442.853,
        "retain_renovate_demolish": "待现状建筑、权属、结构安全和 official 控规资料确认",
        "design_status": "概念性体量落点，不是具体拆改留结论"
      },
      "geometry": {
        "type": "Polygon",
        "coordinates": [
          [
            [
              116.342175,
              39.954775
            ],
            [
              116.34322499999999,
              39.954775
            ],
            [
              116.34322499999999,
              39.953225
            ],
            [
              116.342175,
              39.953225
            ],
            [
              116.342175,
              39.954775
            ]
          ]
        ]
      }
    },
    {
      "type": "Feature",
      "id": "BLDG-004",
      "properties": {
        "id": "BLDG-004",
        "layer": "BUILDING_FOOTPRINT",
        "source_type": "agent_generated_design",
        "confidence": "low",
        "geometry_role": "design_proposal",
        "building_type": "lab",
        "name_zh": "可逆更新建筑原型 04",
        "area_sqm_declared": 18384.311,
        "retain_renovate_demolish": "待现状建筑、权属、结构安全和 official 控规资料确认",
        "design_status": "概念性体量落点，不是具体拆改留结论"
      },
      "geometry": {
        "type": "Polygon",
        "coordinates": [
          [
            [
              116.350775,
              39.954775
            ],
            [
              116.352025,
              39.954775
            ],
            [
              116.352025,
              39.953225
            ],
            [
              116.350775,
              39.953225
            ],
            [
              116.350775,
              39.954775
            ]
          ]
        ]
      }
    },
    {
      "type": "Feature",
      "id": "BLDG-005",
      "properties": {
        "id": "BLDG-005",
        "layer": "BUILDING_FOOTPRINT",
        "source_type": "agent_generated_design",
        "confidence": "low",
        "geometry_role": "design_proposal",
        "building_type": "mixed_use",
        "name_zh": "可逆更新建筑原型 05",
        "area_sqm_declared": 17931.312,
        "retain_renovate_demolish": "待现状建筑、权属、结构安全和 official 控规资料确认",
        "design_status": "概念性体量落点，不是具体拆改留结论"
      },
      "geometry": {
        "type": "Polygon",
        "coordinates": [
          [
            [
              116.342175,
              39.9639
            ],
            [
              116.34322499999999,
              39.9639
            ],
            [
              116.34322499999999,
              39.9621
            ],
            [
              116.342175,
              39.9621
            ],
            [
              116.342175,
              39.9639
            ]
          ]
        ]
      }
    },
    {
      "type": "Feature",
      "id": "BLDG-006",
      "properties": {
        "id": "BLDG-006",
        "layer": "BUILDING_FOOTPRINT",
        "source_type": "agent_generated_design",
        "confidence": "low",
        "geometry_role": "design_proposal",
        "building_type": "cultural",
        "name_zh": "可逆更新建筑原型 06",
        "area_sqm_declared": 21346.757,
        "retain_renovate_demolish": "待现状建筑、权属、结构安全和 official 控规资料确认",
        "design_status": "概念性体量落点，不是具体拆改留结论"
      },
      "geometry": {
        "type": "Polygon",
        "coordinates": [
          [
            [
              116.350775,
              39.9639
            ],
            [
              116.352025,
              39.9639
            ],
            [
              116.352025,
              39.9621
            ],
            [
              116.350775,
              39.9621
            ],
            [
              116.350775,
              39.9639
            ]
          ]
        ]
      }
    },
    {
      "type": "Feature",
      "id": "BLDG-007",
      "properties": {
        "id": "BLDG-007",
        "layer": "BUILDING_FOOTPRINT",
        "source_type": "agent_generated_design",
        "confidence": "low",
        "geometry_role": "design_proposal",
        "building_type": "existing_retained",
        "name_zh": "可逆更新建筑原型 07",
        "area_sqm_declared": 15438.851,
        "retain_renovate_demolish": "待现状建筑、权属、结构安全和 official 控规资料确认",
        "design_status": "概念性体量落点，不是具体拆改留结论"
      },
      "geometry": {
        "type": "Polygon",
        "coordinates": [
          [
            [
              116.342175,
              39.972775
            ],
            [
              116.34322499999999,
              39.972775
            ],
            [
              116.34322499999999,
              39.971225000000004
            ],
            [
              116.342175,
              39.971225000000004
            ],
            [
              116.342175,
              39.972775
            ]
          ]
        ]
      }
    },
    {
      "type": "Feature",
      "id": "BLDG-008",
      "properties": {
        "id": "BLDG-008",
        "layer": "BUILDING_FOOTPRINT",
        "source_type": "agent_generated_design",
        "confidence": "low",
        "geometry_role": "design_proposal",
        "building_type": "community_service",
        "name_zh": "可逆更新建筑原型 08",
        "area_sqm_declared": 18379.547,
        "retain_renovate_demolish": "待现状建筑、权属、结构安全和 official 控规资料确认",
        "design_status": "概念性体量落点，不是具体拆改留结论"
      },
      "geometry": {
        "type": "Polygon",
        "coordinates": [
          [
            [
              116.350775,
              39.972775
            ],
            [
              116.352025,
              39.972775
            ],
            [
              116.352025,
              39.971225000000004
            ],
            [
              116.350775,
              39.971225000000004
            ],
            [
              116.350775,
              39.972775
            ]
          ]
        ]
      }
    },
    {
      "type": "Feature",
      "id": "BLDG-009",
      "properties": {
        "id": "BLDG-009",
        "layer": "BUILDING_FOOTPRINT",
        "source_type": "agent_generated_design",
        "confidence": "low",
        "geometry_role": "design_proposal",
        "building_type": "ai_r_and_d",
        "name_zh": "可逆更新建筑原型 09",
        "area_sqm_declared": 17926.664,
        "retain_renovate_demolish": "待现状建筑、权属、结构安全和 official 控规资料确认",
        "design_status": "概念性体量落点，不是具体拆改留结论"
      },
      "geometry": {
        "type": "Polygon",
        "coordinates": [
          [
            [
              116.342175,
              39.9819
            ],
            [
              116.34322499999999,
              39.9819
            ],
            [
              116.34322499999999,
              39.9801
            ],
            [
              116.342175,
              39.9801
            ],
            [
              116.342175,
              39.9819
            ]
          ]
        ]
      }
    },
    {
      "type": "Feature",
      "id": "BLDG-010",
      "properties": {
        "id": "BLDG-010",
        "layer": "BUILDING_FOOTPRINT",
        "source_type": "agent_generated_design",
        "confidence": "low",
        "geometry_role": "design_proposal",
        "building_type": "lab",
        "name_zh": "可逆更新建筑原型 10",
        "area_sqm_declared": 21341.223,
        "retain_renovate_demolish": "待现状建筑、权属、结构安全和 official 控规资料确认",
        "design_status": "概念性体量落点，不是具体拆改留结论"
      },
      "geometry": {
        "type": "Polygon",
        "coordinates": [
          [
            [
              116.350775,
              39.9819
            ],
            [
              116.352025,
              39.9819
            ],
            [
              116.352025,
              39.9801
            ],
            [
              116.350775,
              39.9801
            ],
            [
              116.350775,
              39.9819
            ]
          ]
        ]
      }
    },
    {
      "type": "Feature",
      "id": "BLDG-011",
      "properties": {
        "id": "BLDG-011",
        "layer": "BUILDING_FOOTPRINT",
        "source_type": "agent_generated_design",
        "confidence": "low",
        "geometry_role": "design_proposal",
        "building_type": "mixed_use",
        "name_zh": "可逆更新建筑原型 11",
        "area_sqm_declared": 15434.848,
        "retain_renovate_demolish": "待现状建筑、权属、结构安全和 official 控规资料确认",
        "design_status": "概念性体量落点，不是具体拆改留结论"
      },
      "geometry": {
        "type": "Polygon",
        "coordinates": [
          [
            [
              116.342175,
              39.990775
            ],
            [
              116.34322499999999,
              39.990775
            ],
            [
              116.34322499999999,
              39.989225000000005
            ],
            [
              116.342175,
              39.989225000000005
            ],
            [
              116.342175,
              39.990775
            ]
          ]
        ]
      }
    },
    {
      "type": "Feature",
      "id": "BLDG-012",
      "properties": {
        "id": "BLDG-012",
        "layer": "BUILDING_FOOTPRINT",
        "source_type": "agent_generated_design",
        "confidence": "low",
        "geometry_role": "design_proposal",
        "building_type": "cultural",
        "name_zh": "可逆更新建筑原型 12",
        "area_sqm_declared": 18374.782,
        "retain_renovate_demolish": "待现状建筑、权属、结构安全和 official 控规资料确认",
        "design_status": "概念性体量落点，不是具体拆改留结论"
      },
      "geometry": {
        "type": "Polygon",
        "coordinates": [
          [
            [
              116.350775,
              39.990775
            ],
            [
              116.352025,
              39.990775
            ],
            [
              116.352025,
              39.989225000000005
            ],
            [
              116.350775,
              39.989225000000005
            ],
            [
              116.350775,
              39.990775
            ]
          ]
        ]
      }
    },
    {
      "type": "Feature",
      "id": "BLDG-013",
      "properties": {
        "id": "BLDG-013",
        "layer": "BUILDING_FOOTPRINT",
        "source_type": "agent_generated_design",
        "confidence": "low",
        "geometry_role": "design_proposal",
        "building_type": "existing_retained",
        "name_zh": "可逆更新建筑原型 13",
        "area_sqm_declared": 17922.015,
        "retain_renovate_demolish": "待现状建筑、权属、结构安全和 official 控规资料确认",
        "design_status": "概念性体量落点，不是具体拆改留结论"
      },
      "geometry": {
        "type": "Polygon",
        "coordinates": [
          [
            [
              116.342175,
              39.999900000000004
            ],
            [
              116.34322499999999,
              39.999900000000004
            ],
            [
              116.34322499999999,
              39.9981
            ],
            [
              116.342175,
              39.9981
            ],
            [
              116.342175,
              39.999900000000004
            ]
          ]
        ]
      }
    },
    {
      "type": "Feature",
      "id": "BLDG-014",
      "properties": {
        "id": "BLDG-014",
        "layer": "BUILDING_FOOTPRINT",
        "source_type": "agent_generated_design",
        "confidence": "low",
        "geometry_role": "design_proposal",
        "building_type": "community_service",
        "name_zh": "可逆更新建筑原型 14",
        "area_sqm_declared": 21335.688,
        "retain_renovate_demolish": "待现状建筑、权属、结构安全和 official 控规资料确认",
        "design_status": "概念性体量落点，不是具体拆改留结论"
      },
      "geometry": {
        "type": "Polygon",
        "coordinates": [
          [
            [
              116.350775,
              39.999900000000004
            ],
            [
              116.352025,
              39.999900000000004
            ],
            [
              116.352025,
              39.9981
            ],
            [
              116.350775,
              39.9981
            ],
            [
              116.350775,
              39.999900000000004
            ]
          ]
        ]
      }
    },
    {
      "type": "Feature",
      "id": "BLDG-015",
      "properties": {
        "id": "BLDG-015",
        "layer": "BUILDING_FOOTPRINT",
        "source_type": "agent_generated_design",
        "confidence": "low",
        "geometry_role": "design_proposal",
        "building_type": "ai_r_and_d",
        "name_zh": "可逆更新建筑原型 15",
        "area_sqm_declared": 15430.843,
        "retain_renovate_demolish": "待现状建筑、权属、结构安全和 official 控规资料确认",
        "design_status": "概念性体量落点，不是具体拆改留结论"
      },
      "geometry": {
        "type": "Polygon",
        "coordinates": [
          [
            [
              116.342175,
              40.008775
            ],
            [
              116.34322499999999,
              40.008775
            ],
            [
              116.34322499999999,
              40.007225000000005
            ],
            [
              116.342175,
              40.007225000000005
            ],
            [
              116.342175,
              40.008775
            ]
          ]
        ]
      }
    },
    {
      "type": "Feature",
      "id": "BLDG-016",
      "properties": {
        "id": "BLDG-016",
        "layer": "BUILDING_FOOTPRINT",
        "source_type": "agent_generated_design",
        "confidence": "low",
        "geometry_role": "design_proposal",
        "building_type": "lab",
        "name_zh": "可逆更新建筑原型 16",
        "area_sqm_declared": 18370.014,
        "retain_renovate_demolish": "待现状建筑、权属、结构安全和 official 控规资料确认",
        "design_status": "概念性体量落点，不是具体拆改留结论"
      },
      "geometry": {
        "type": "Polygon",
        "coordinates": [
          [
            [
              116.350775,
              40.008775
            ],
            [
              116.352025,
              40.008775
            ],
            [
              116.352025,
              40.007225000000005
            ],
            [
              116.350775,
              40.007225000000005
            ],
            [
              116.350775,
              40.008775
            ]
          ]
        ]
      }
    },
    {
      "type": "Feature",
      "id": "BLDG-017",
      "properties": {
        "id": "BLDG-017",
        "layer": "BUILDING_FOOTPRINT",
        "source_type": "agent_generated_design",
        "confidence": "low",
        "geometry_role": "design_proposal",
        "building_type": "mixed_use",
        "name_zh": "可逆更新建筑原型 17",
        "area_sqm_declared": 16866.469,
        "retain_renovate_demolish": "待现状建筑、权属、结构安全和 official 控规资料确认",
        "design_status": "概念性体量落点，不是具体拆改留结论"
      },
      "geometry": {
        "type": "Polygon",
        "coordinates": [
          [
            [
              116.34322499999999,
              40.0161
            ],
            [
              116.34219268292682,
              40.0161
            ],
            [
              116.34228048780487,
              40.017900000000004
            ],
            [
              116.34322499999999,
              40.017900000000004
            ],
            [
              116.34322499999999,
              40.0161
            ]
          ]
        ]
      }
    },
    {
      "type": "Feature",
      "id": "BLDG-018",
      "properties": {
        "id": "BLDG-018",
        "layer": "BUILDING_FOOTPRINT",
        "source_type": "agent_generated_design",
        "confidence": "low",
        "geometry_role": "design_proposal",
        "building_type": "cultural",
        "name_zh": "可逆更新建筑原型 18",
        "area_sqm_declared": 21330.151,
        "retain_renovate_demolish": "待现状建筑、权属、结构安全和 official 控规资料确认",
        "design_status": "概念性体量落点，不是具体拆改留结论"
      },
      "geometry": {
        "type": "Polygon",
        "coordinates": [
          [
            [
              116.350775,
              40.017900000000004
            ],
            [
              116.352025,
              40.017900000000004
            ],
            [
              116.352025,
              40.0161
            ],
            [
              116.350775,
              40.0161
            ],
            [
              116.350775,
              40.017900000000004
            ]
          ]
        ]
      }
    },
    {
      "type": "Feature",
      "id": "BLDG-019",
      "properties": {
        "id": "BLDG-019",
        "layer": "BUILDING_FOOTPRINT",
        "source_type": "agent_generated_design",
        "confidence": "low",
        "geometry_role": "design_proposal",
        "building_type": "existing_retained",
        "name_zh": "可逆更新建筑原型 19",
        "area_sqm_declared": 10580.734,
        "retain_renovate_demolish": "待现状建筑、权属、结构安全和 official 控规资料确认",
        "design_status": "概念性体量落点，不是具体拆改留结论"
      },
      "geometry": {
        "type": "Polygon",
        "coordinates": [
          [
            [
              116.34322499999999,
              40.021725
            ],
            [
              116.34246707317072,
              40.021725
            ],
            [
              116.34254268292682,
              40.023275
            ],
            [
              116.34322499999999,
              40.023275
            ],
            [
              116.34322499999999,
              40.021725
            ]
          ]
        ]
      }
    },
    {
      "type": "Feature",
      "id": "BLDG-020",
      "properties": {
        "id": "BLDG-020",
        "layer": "BUILDING_FOOTPRINT",
        "source_type": "agent_generated_design",
        "confidence": "low",
        "geometry_role": "design_proposal",
        "building_type": "community_service",
        "name_zh": "可逆更新建筑原型 20",
        "area_sqm_declared": 18366.172,
        "retain_renovate_demolish": "待现状建筑、权属、结构安全和 official 控规资料确认",
        "design_status": "概念性体量落点，不是具体拆改留结论"
      },
      "geometry": {
        "type": "Polygon",
        "coordinates": [
          [
            [
              116.350775,
              40.023275
            ],
            [
              116.352025,
              40.023275
            ],
            [
              116.352025,
              40.021725
            ],
            [
              116.350775,
              40.021725
            ],
            [
              116.350775,
              40.023275
            ]
          ]
        ]
      }
    }
  ]
}
