{
  "type": "FeatureCollection",
  "name": "common_habitat_green_spine",
  "features": [
    {
      "type": "Feature",
      "id": "GREEN-001",
      "properties": {
        "id": "GREEN-001",
        "layer": "GREEN_SPACE",
        "source_type": "agent_generated_design",
        "confidence": "medium",
        "geometry_role": "design_proposal",
        "land_use_code": "1401",
        "name_zh": "水土生境网与京张连续绿脊",
        "area_sqm_declared": 1251087.068,
        "ai_state": "N0_default",
        "usage_note": "优先用于遮阴、雨水、土壤、生境和慢行；AI 仅为可撤除的养护辅助。"
      },
      "geometry": {
        "type": "Polygon",
        "coordinates": [
          [
            [
              116.34531949461207,
              39.97599783475314
            ],
            [
              116.34591967507332,
              39.99400324859051
            ],
            [
              116.34551948027733,
              40.01001104042977
            ],
            [
              116.34632110697235,
              40.025041540961475
            ],
            [
              116.34787889302764,
              40.02495845903852
            ],
            [
              116.34708051972267,
              40.00998895957023
            ],
            [
              116.34748032492668,
              39.99399675140949
            ],
            [
              116.34688050538794,
              39.97600216524686
            ],
            [
              116.34757965358652,
              39.95802406871182
            ],
            [
              116.34797979632471,
              39.940517823916
            ],
            [
              116.3464202036753,
              39.940482176084004
            ],
            [
              116.34602034641348,
              39.957975931288175
            ],
            [
              116.34531949461207,
              39.97599783475314
            ]
          ]
        ]
      }
    }
  ]
}
