{
  "type": "FeatureCollection",
  "name": "common_habitat_land_use_partition",
  "features": [
    {
      "type": "Feature",
      "id": "LU-001",
      "properties": {
        "id": "LU-001",
        "layer": "LAND_USE",
        "source_type": "agent_generated_design",
        "confidence": "medium",
        "geometry_role": "design_proposal",
        "land_use_code": "0802",
        "name_zh": "研发、教育与开放验证复合区",
        "area_sqm_declared": 2674562.492,
        "proposal_status": "概念性用途结构，待 official polygon、现状与控规条件补齐后深化"
      },
      "geometry": {
        "type": "Polygon",
        "coordinates": [
          [
            [
              116.3407,
              39.939
            ],
            [
              116.3397,
              39.975
            ],
            [
              116.3417,
              40.006
            ],
            [
              116.3427,
              40.0265
            ],
            [
              116.344068,
              40.0265
            ],
            [
              116.344068,
              39.939
            ],
            [
              116.3407,
              39.939
            ]
          ]
        ]
      }
    },
    {
      "type": "Feature",
      "id": "LU-002",
      "properties": {
        "id": "LU-002",
        "layer": "LAND_USE",
        "source_type": "agent_generated_design",
        "confidence": "medium",
        "geometry_role": "design_proposal",
        "land_use_code": "1401",
        "name_zh": "京张共生脊与公园开敞空间",
        "area_sqm_declared": 2589339.239,
        "proposal_status": "概念性用途结构，待 official polygon、现状与控规条件补齐后深化"
      },
      "geometry": {
        "type": "Polygon",
        "coordinates": [
          [
            [
              116.344068,
              39.939
            ],
            [
              116.344068,
              40.0265
            ],
            [
              116.347188,
              40.0265
            ],
            [
              116.347188,
              39.939
            ],
            [
              116.344068,
              39.939
            ]
          ]
        ]
      }
    },
    {
      "type": "Feature",
      "id": "LU-003",
      "properties": {
        "id": "LU-003",
        "layer": "LAND_USE",
        "source_type": "agent_generated_design",
        "confidence": "medium",
        "geometry_role": "design_proposal",
        "land_use_code": "05",
        "name_zh": "产业服务与城市生活服务区",
        "area_sqm_declared": 3366138.181,
        "proposal_status": "概念性用途结构，待 official polygon、现状与控规条件补齐后深化"
      },
      "geometry": {
        "type": "Polygon",
        "coordinates": [
          [
            [
              116.347188,
              39.939
            ],
            [
              116.347188,
              40.0265
            ],
            [
              116.351244,
              40.0265
            ],
            [
              116.351244,
              39.939
            ],
            [
              116.347188,
              39.939
            ]
          ]
        ]
      }
    },
    {
      "type": "Feature",
      "id": "LU-004",
      "properties": {
        "id": "LU-004",
        "layer": "LAND_USE",
        "source_type": "agent_generated_design",
        "confidence": "medium",
        "geometry_role": "design_proposal",
        "land_use_code": "0702",
        "name_zh": "社区服务与公共配套区",
        "area_sqm_declared": 2782792.823,
        "proposal_status": "概念性用途结构，待 official polygon、现状与控规条件补齐后深化"
      },
      "geometry": {
        "type": "Polygon",
        "coordinates": [
          [
            [
              116.3553,
              40.0265
            ],
            [
              116.3533,
              39.99
            ],
            [
              116.3553,
              39.965
            ],
            [
              116.3553,
              39.939
            ],
            [
              116.351244,
              39.939
            ],
            [
              116.351244,
              40.0265
            ],
            [
              116.3553,
              40.0265
            ]
          ]
        ]
      }
    }
  ]
}
