{
  "type": "FeatureCollection",
  "name": "common_habitat_public_space_and_scenarios",
  "features": [
    {
      "type": "Feature",
      "id": "PUBLIC-001",
      "properties": {
        "id": "PUBLIC-001",
        "layer": "PUBLIC_SPACE",
        "source_type": "agent_generated_design",
        "confidence": "medium",
        "geometry_role": "design_proposal",
        "name_zh": "三处共益横门与连续非消费性公共界面",
        "area_sqm_declared": 459480.836,
        "ordinary_use_first": true,
        "ai_optional": true
      },
      "geometry": {
        "type": "Polygon",
        "coordinates": [
          [
            [
              116.34755656752641,
              39.9465432368354
            ],
            [
              116.34750911688245,
              39.94649088311755
            ],
            [
              116.34745676316459,
              39.94644343247358
            ],
            [
              116.34740001056777,
              39.946401341879145
            ],
            [
              116.34733940565052,
              39.94636501668967
            ],
            [
              116.3472755320713,
              39.946334806736594
            ],
            [
              116.34722707111324,
              39.94631746712854
            ],
            [
              116.34735995822045,
              39.94050365618789
            ],
            [
              116.34704004177955,
              39.94049634381211
            ],
            [
              116.34690769097918,
              39.94628669132866
            ],
            [
              116.34685953496815,
              39.946293834598116
            ],
            [
              116.34679099503236,
              39.946311002958275
            ],
            [
              116.3467244679287,
              39.946334806736594
            ],
            [
              116.34666059434947,
              39.94636501668967
            ],
            [
              116.34659998943222,
              39.946401341879145
            ],
            [
              116.3465432368354,
              39.94644343247358
            ],
            [
              116.34649088311754,
              39.94649088311755
            ],
            [
              116.34644343247358,
              39.9465432368354
            ],
            [
              116.34640134187913,
              39.94659998943223
            ],
            [
              116.34636501668966,
              39.94666059434949
            ],
            [
              116.34633691990949,
              39.946720000000006
            ],
            [
              116.341,
              39.946720000000006
            ],
            [
              116.341,
              39.94728
            ],
            [
              116.34633691990949,
              39.94728
            ],
            [
              116.34636501668966,
              39.94733940565052
            ],
            [
              116.34640134187913,
              39.947400010567776
            ],
            [
              116.34644343247358,
              39.9474567631646
            ],
            [
              116.34649088311754,
              39.94750911688246
            ],
            [
              116.3465432368354,
              39.947556567526426
            ],
            [
              116.34659998943222,
              39.94759865812086
            ],
            [
              116.34666059434947,
              39.94763498331034
            ],
            [
              116.3467244679287,
              39.94766519326341
            ],
            [
              116.34679099503236,
              39.94768899704173
            ],
            [
              116.34685953496815,
              39.94770616540189
            ],
            [
              116.34687519276915,
              39.94770848801726
            ],
            [
              116.34664007105918,
              39.95799506282793
            ],
            [
              116.3459401208506,
              39.97599378247752
            ],
            [
              116.34594008881488,
              39.976005330372836
            ],
            [
              116.34633325835404,
              39.98780041654731
            ],
            [
              116.34629099503238,
              39.987811002958274
            ],
            [
              116.3462244679287,
              39.98783480673659
            ],
            [
              116.34616059434948,
              39.98786501668967
            ],
            [
              116.34609998943223,
              39.987901341879144
            ],
            [
              116.34604323683541,
              39.98794343247358
            ],
            [
              116.34599088311755,
              39.98799088311755
            ],
            [
              116.34594343247359,
              39.9880432368354
            ],
            [
              116.34590134187914,
              39.98809998943223
            ],
            [
              116.34586501668967,
              39.98816059434949
            ],
            [
              116.3458369199095,
              39.988220000000005
            ],
            [
              116.341,
              39.988220000000005
            ],
            [
              116.341,
              39.98878
            ],
            [
              116.3458369199095,
              39.98878
            ],
            [
              116.34586501668967,
              39.988839405650516
            ],
            [
              116.34590134187914,
              39.988900010567775
            ],
            [
              116.34594343247359,
              39.9889567631646
            ],
            [
              116.34599088311755,
              39.98900911688246
            ],
            [
              116.34604323683541,
              39.989056567526426
            ],
            [
              116.34609998943223,
              39.98909865812086
            ],
            [
              116.34616059434948,
              39.989134983310336
            ],
            [
              116.3462244679287,
              39.98916519326341
            ],
            [
              116.34629099503238,
              39.98918899704173
            ],
            [
              116.34635953496816,
              39.98920616540189
            ],
            [
              116.34638021892167,
              39.98920923357656
            ],
            [
              116.34653993334837,
              39.99400066637751
            ],
            [
              116.34614004997657,
              40.00999600124941
            ],
            [
              116.34614022707125,
              40.010008521222865
            ],
            [
              116.34643594998239,
              40.01555332580685
            ],
            [
              116.34640134187913,
              40.015599989432225
            ],
            [
              116.34636501668966,
              40.015660594349484
            ],
            [
              116.34633691990949,
              40.01572
            ],
            [
              116.343,
              40.01572
            ],
            [
              116.343,
              40.016279999999995
            ],
            [
              116.34633691990949,
              40.016279999999995
            ],
            [
              116.34636501668966,
              40.01633940565051
            ],
            [
              116.34640134187913,
              40.01640001056777
            ],
            [
              116.34644343247358,
              40.0164567631646
            ],
            [
              116.34648667806309,
              40.01650447731982
            ],
            [
              116.34694022707124,
              40.025008521222865
            ],
            [
              116.34725977292875,
              40.02499147877713
            ],
            [
              116.34681732566176,
              40.01669559252104
            ],
            [
              116.34685953496815,
              40.016706165401885
            ],
            [
              116.34692942765896,
              40.016716533003205
            ],
            [
              116.347,
              40.01672
            ],
            [
              116.34707057234102,
              40.016716533003205
            ],
            [
              116.34714046503184,
              40.016706165401885
            ],
            [
              116.34720900496762,
              40.016688997041726
            ],
            [
              116.3472755320713,
              40.01666519326341
            ],
            [
              116.34733940565052,
              40.01663498331033
            ],
            [
              116.34740001056777,
              40.016598658120856
            ],
            [
              116.34745676316459,
              40.01655656752642
            ],
            [
              116.34750911688245,
              40.01650911688245
            ],
            [
              116.34755656752641,
              40.0164567631646
            ],
            [
              116.34759865812086,
              40.01640001056777
            ],
            [
              116.34763498331033,
              40.01633940565051
            ],
            [
              116.3476630800905,
              40.016279999999995
            ],
            [
              116.354,
              40.016279999999995
            ],
            [
              116.354,
              40.01572
            ],
            [
              116.3476630800905,
              40.01572
            ],
            [
              116.34763498331033,
              40.015660594349484
            ],
            [
              116.34759865812086,
              40.015599989432225
            ],
            [
              116.34755656752641,
              40.0155432368354
            ],
            [
              116.34750911688245,
              40.01549088311754
            ],
            [
              116.34745676316459,
              40.015443432473575
            ],
            [
              116.34740001056777,
              40.01540134187914
            ],
            [
              116.34733940565052,
              40.015365016689664
            ],
            [
              116.3472755320713,
              40.01533480673659
            ],
            [
              116.34720900496762,
              40.01531100295827
            ],
            [
              116.34714046503184,
              40.01529383459811
            ],
            [
              116.34707057234102,
              40.01528346699679
            ],
            [
              116.347,
              40.01528
            ],
            [
              116.34692942765896,
              40.01528346699679
            ],
            [
              116.34685953496815,
              40.01529383459811
            ],
            [
              116.34679099503236,
              40.01531100295827
            ],
            [
              116.34674437061747,
              40.015327685440674
            ],
            [
              116.34646010660978,
              40.009997735296444
            ],
            [
              116.34685995002343,
              39.994003998750586
            ],
            [
              116.34685991118512,
              39.99399466962716
            ],
            [
              116.34669979896506,
              39.98919130302533
            ],
            [
              116.34670900496764,
              39.98918899704173
            ],
            [
              116.3467755320713,
              39.98916519326341
            ],
            [
              116.34683940565053,
              39.989134983310336
            ],
            [
              116.34690001056778,
              39.98909865812086
            ],
            [
              116.3469567631646,
              39.989056567526426
            ],
            [
              116.34700911688246,
              39.98900911688246
            ],
            [
              116.34705656752642,
              39.9889567631646
            ],
            [
              116.34709865812087,
              39.988900010567775
            ],
            [
              116.34713498331034,
              39.988839405650516
            ],
            [
              116.34716308009051,
              39.98878
            ],
            [
              116.353,
              39.98878
            ],
            [
              116.353,
              39.988220000000005
            ],
            [
              116.34716308009051,
              39.988220000000005
            ],
            [
              116.34713498331034,
              39.98816059434949
            ],
            [
              116.34709865812087,
              39.98809998943223
            ],
            [
              116.34705656752642,
              39.9880432368354
            ],
            [
              116.34700911688246,
              39.98799088311755
            ],
            [
              116.3469567631646,
              39.98794343247358
            ],
            [
              116.34690001056778,
              39.987901341879144
            ],
            [
              116.34683940565053,
              39.98786501668967
            ],
            [
              116.3467755320713,
              39.98783480673659
            ],
            [
              116.34670900496764,
              39.987811002958274
            ],
            [
              116.34665332405137,
              39.98779705561483
            ],
            [
              116.34626010366934,
              39.97600044415321
            ],
            [
              116.34695987914941,
              39.958006217522474
            ],
            [
              116.34695995822045,
              39.95800365618789
            ],
            [
              116.34719564536881,
              39.947692343447024
            ],
            [
              116.34720900496762,
              39.94768899704173
            ],
            [
              116.3472755320713,
              39.94766519326341
            ],
            [
              116.34733940565052,
              39.94763498331034
            ],
            [
              116.34740001056777,
              39.94759865812086
            ],
            [
              116.34745676316459,
              39.947556567526426
            ],
            [
              116.34750911688245,
              39.94750911688246
            ],
            [
              116.34755656752641,
              39.9474567631646
            ],
            [
              116.34759865812086,
              39.947400010567776
            ],
            [
              116.34763498331033,
              39.94733940565052
            ],
            [
              116.3476630800905,
              39.94728
            ],
            [
              116.354,
              39.94728
            ],
            [
              116.354,
              39.946720000000006
            ],
            [
              116.3476630800905,
              39.946720000000006
            ],
            [
              116.34763498331033,
              39.94666059434949
            ],
            [
              116.34759865812086,
              39.94659998943223
            ],
            [
              116.34755656752641,
              39.9465432368354
            ]
          ]
        ]
      }
    },
    {
      "type": "Feature",
      "id": "SCN-01",
      "properties": {
        "id": "SCN-01",
        "layer": "SCENARIO_NODE",
        "source_type": "agent_generated_design",
        "confidence": "low",
        "geometry_role": "design_proposal",
        "name_zh": "无障碍通行链预测维护",
        "scenario_id": "S01",
        "ai_state": "N1",
        "non_digital_equivalent_required": true,
        "human_override_required": true,
        "design_status": "概念建议，可供专业团队深化研究"
      },
      "geometry": {
        "type": "Point",
        "coordinates": [
          116.34605,
          39.9448
        ]
      }
    },
    {
      "type": "Feature",
      "id": "SCN-02",
      "properties": {
        "id": "SCN-02",
        "layer": "SCENARIO_NODE",
        "source_type": "agent_generated_design",
        "confidence": "low",
        "geometry_role": "design_proposal",
        "name_zh": "无账号无障碍导航",
        "scenario_id": "S02",
        "ai_state": "N1",
        "non_digital_equivalent_required": true,
        "human_override_required": true,
        "design_status": "概念建议，可供专业团队深化研究"
      },
      "geometry": {
        "type": "Point",
        "coordinates": [
          116.3465,
          39.95
        ]
      }
    },
    {
      "type": "Feature",
      "id": "SCN-03",
      "properties": {
        "id": "SCN-03",
        "layer": "SCENARIO_NODE",
        "source_type": "agent_generated_design",
        "confidence": "low",
        "geometry_role": "design_proposal",
        "name_zh": "热浪与安静路线助手",
        "scenario_id": "S03",
        "ai_state": "N1",
        "non_digital_equivalent_required": true,
        "human_override_required": true,
        "design_status": "概念建议，可供专业团队深化研究"
      },
      "geometry": {
        "type": "Point",
        "coordinates": [
          116.34705000000001,
          39.956
        ]
      }
    },
    {
      "type": "Feature",
      "id": "SCN-04",
      "properties": {
        "id": "SCN-04",
        "layer": "SCENARIO_NODE",
        "source_type": "agent_generated_design",
        "confidence": "low",
        "geometry_role": "design_proposal",
        "name_zh": "雨水生境养护助手",
        "scenario_id": "S04",
        "ai_state": "N1",
        "non_digital_equivalent_required": true,
        "human_override_required": true,
        "design_status": "概念建议，可供专业团队深化研究"
      },
      "geometry": {
        "type": "Point",
        "coordinates": [
          116.34605,
          39.962
        ]
      }
    },
    {
      "type": "Feature",
      "id": "SCN-05",
      "properties": {
        "id": "SCN-05",
        "layer": "SCENARIO_NODE",
        "source_type": "agent_generated_design",
        "confidence": "low",
        "geometry_role": "design_proposal",
        "name_zh": "无门槛公共服务转译台",
        "scenario_id": "S05",
        "ai_state": "N1",
        "non_digital_equivalent_required": true,
        "human_override_required": true,
        "design_status": "概念建议，可供专业团队深化研究"
      },
      "geometry": {
        "type": "Point",
        "coordinates": [
          116.3465,
          39.968
        ]
      }
    },
    {
      "type": "Feature",
      "id": "SCN-06",
      "properties": {
        "id": "SCN-06",
        "layer": "SCENARIO_NODE",
        "source_type": "agent_generated_design",
        "confidence": "low",
        "geometry_role": "design_proposal",
        "name_zh": "京张记忆无障碍讲述",
        "scenario_id": "S06",
        "ai_state": "N1",
        "non_digital_equivalent_required": true,
        "human_override_required": true,
        "design_status": "概念建议，可供专业团队深化研究"
      },
      "geometry": {
        "type": "Point",
        "coordinates": [
          116.34705000000001,
          39.974
        ]
      }
    },
    {
      "type": "Feature",
      "id": "SCN-07",
      "properties": {
        "id": "SCN-07",
        "layer": "SCENARIO_NODE",
        "source_type": "agent_generated_design",
        "confidence": "low",
        "geometry_role": "design_proposal",
        "name_zh": "可追溯公众意见整理",
        "scenario_id": "S07",
        "ai_state": "N1",
        "non_digital_equivalent_required": true,
        "human_override_required": true,
        "design_status": "概念建议，可供专业团队深化研究"
      },
      "geometry": {
        "type": "Point",
        "coordinates": [
          116.34605,
          39.98
        ]
      }
    },
    {
      "type": "Feature",
      "id": "SCN-08",
      "properties": {
        "id": "SCN-08",
        "layer": "SCENARIO_NODE",
        "source_type": "agent_generated_design",
        "confidence": "low",
        "geometry_role": "design_proposal",
        "name_zh": "夜间安心回程",
        "scenario_id": "S08",
        "ai_state": "N1",
        "non_digital_equivalent_required": true,
        "human_override_required": true,
        "design_status": "概念建议，可供专业团队深化研究"
      },
      "geometry": {
        "type": "Point",
        "coordinates": [
          116.3465,
          39.986
        ]
      }
    },
    {
      "type": "Feature",
      "id": "SCN-09",
      "properties": {
        "id": "SCN-09",
        "layer": "SCENARIO_NODE",
        "source_type": "agent_generated_design",
        "confidence": "low",
        "geometry_role": "design_proposal",
        "name_zh": "低能耗端侧感知评测台",
        "scenario_id": "S09",
        "ai_state": "N2",
        "non_digital_equivalent_required": true,
        "human_override_required": true,
        "design_status": "概念建议，可供专业团队深化研究"
      },
      "geometry": {
        "type": "Point",
        "coordinates": [
          116.34705000000001,
          39.992
        ]
      }
    },
    {
      "type": "Feature",
      "id": "SCN-10",
      "properties": {
        "id": "SCN-10",
        "layer": "SCENARIO_NODE",
        "source_type": "agent_generated_design",
        "confidence": "low",
        "geometry_role": "design_proposal",
        "name_zh": "机器人共享空间安全沙盒",
        "scenario_id": "S10",
        "ai_state": "N2",
        "non_digital_equivalent_required": true,
        "human_override_required": true,
        "design_status": "概念建议，可供专业团队深化研究"
      },
      "geometry": {
        "type": "Point",
        "coordinates": [
          116.34605,
          39.998
        ]
      }
    },
    {
      "type": "Feature",
      "id": "SCN-11",
      "properties": {
        "id": "SCN-11",
        "layer": "SCENARIO_NODE",
        "source_type": "agent_generated_design",
        "confidence": "low",
        "geometry_role": "design_proposal",
        "name_zh": "公共服务 Agent 可靠性与红队实验室",
        "scenario_id": "S11",
        "ai_state": "N2",
        "non_digital_equivalent_required": true,
        "human_override_required": true,
        "design_status": "概念建议，可供专业团队深化研究"
      },
      "geometry": {
        "type": "Point",
        "coordinates": [
          116.3465,
          40.004
        ]
      }
    },
    {
      "type": "Feature",
      "id": "SCN-12",
      "properties": {
        "id": "SCN-12",
        "layer": "SCENARIO_NODE",
        "source_type": "agent_generated_design",
        "confidence": "low",
        "geometry_role": "design_proposal",
        "name_zh": "AI 能源、算力与退出成本基准",
        "scenario_id": "S12",
        "ai_state": "N2",
        "non_digital_equivalent_required": true,
        "human_override_required": true,
        "design_status": "概念建议，可供专业团队深化研究"
      },
      "geometry": {
        "type": "Point",
        "coordinates": [
          116.34705000000001,
          40.01
        ]
      }
    },
    {
      "type": "Feature",
      "id": "SCN-13",
      "properties": {
        "id": "SCN-13",
        "layer": "SCENARIO_NODE",
        "source_type": "agent_generated_design",
        "confidence": "low",
        "geometry_role": "design_proposal",
        "name_zh": "公共法律与政策文本导航",
        "scenario_id": "S13",
        "ai_state": "N1",
        "non_digital_equivalent_required": true,
        "human_override_required": true,
        "design_status": "概念建议，可供专业团队深化研究"
      },
      "geometry": {
        "type": "Point",
        "coordinates": [
          116.34605,
          40.015
        ]
      }
    },
    {
      "type": "Feature",
      "id": "SCN-14",
      "properties": {
        "id": "SCN-14",
        "layer": "SCENARIO_NODE",
        "source_type": "agent_generated_design",
        "confidence": "low",
        "geometry_role": "design_proposal",
        "name_zh": "开放学习与 AI 素养实验课",
        "scenario_id": "S14",
        "ai_state": "N1",
        "non_digital_equivalent_required": true,
        "human_override_required": true,
        "design_status": "概念建议，可供专业团队深化研究"
      },
      "geometry": {
        "type": "Point",
        "coordinates": [
          116.3465,
          40.02
        ]
      }
    },
    {
      "type": "Feature",
      "id": "SCN-15",
      "properties": {
        "id": "SCN-15",
        "layer": "SCENARIO_NODE",
        "source_type": "agent_generated_design",
        "confidence": "low",
        "geometry_role": "design_proposal",
        "name_zh": "就医前公共服务导航",
        "scenario_id": "S15",
        "ai_state": "N1",
        "non_digital_equivalent_required": true,
        "human_override_required": true,
        "design_status": "概念建议，可供专业团队深化研究"
      },
      "geometry": {
        "type": "Point",
        "coordinates": [
          116.34705000000001,
          40.024
        ]
      }
    }
  ]
}
