{
  "type": "FeatureCollection",
  "name": "common_habitat_mobility_network",
  "features": [
    {
      "type": "Feature",
      "id": "ROAD-001",
      "properties": {
        "id": "ROAD-001",
        "layer": "ROAD_CENTERLINE",
        "source_type": "agent_generated_design",
        "confidence": "medium",
        "geometry_role": "design_proposal",
        "road_class": "greenway",
        "name_zh": "京张共生脊慢行主线",
        "usage_note": "概念性慢行或接驳关系，不表示道路红线、桥隧方案或工程线位。"
      },
      "geometry": {
        "type": "LineString",
        "coordinates": [
          [
            116.3472,
            39.9405
          ],
          [
            116.3468,
            39.958
          ],
          [
            116.3461,
            39.976
          ],
          [
            116.3467,
            39.994
          ],
          [
            116.3463,
            40.01
          ],
          [
            116.3471,
            40.025
          ]
        ]
      }
    },
    {
      "type": "Feature",
      "id": "ROAD-002",
      "properties": {
        "id": "ROAD-002",
        "layer": "ROAD_CENTERLINE",
        "source_type": "agent_generated_design",
        "confidence": "medium",
        "geometry_role": "design_proposal",
        "road_class": "transit_connection",
        "name_zh": "大钟寺四象限公平抵达横门",
        "usage_note": "概念性慢行或接驳关系，不表示道路红线、桥隧方案或工程线位。"
      },
      "geometry": {
        "type": "LineString",
        "coordinates": [
          [
            116.341,
            39.947
          ],
          [
            116.354,
            39.947
          ]
        ]
      }
    },
    {
      "type": "Feature",
      "id": "ROAD-003",
      "properties": {
        "id": "ROAD-003",
        "layer": "ROAD_CENTERLINE",
        "source_type": "agent_generated_design",
        "confidence": "medium",
        "geometry_role": "design_proposal",
        "road_class": "pedestrian",
        "name_zh": "原点社区校园园区缝合横门",
        "usage_note": "概念性慢行或接驳关系，不表示道路红线、桥隧方案或工程线位。"
      },
      "geometry": {
        "type": "LineString",
        "coordinates": [
          [
            116.341,
            39.9885
          ],
          [
            116.353,
            39.9885
          ]
        ]
      }
    },
    {
      "type": "Feature",
      "id": "ROAD-004",
      "properties": {
        "id": "ROAD-004",
        "layer": "ROAD_CENTERLINE",
        "source_type": "agent_generated_design",
        "confidence": "medium",
        "geometry_role": "design_proposal",
        "road_class": "cycleway",
        "name_zh": "众智园清河创新横门",
        "usage_note": "概念性慢行或接驳关系，不表示道路红线、桥隧方案或工程线位。"
      },
      "geometry": {
        "type": "LineString",
        "coordinates": [
          [
            116.343,
            40.016
          ],
          [
            116.354,
            40.016
          ]
        ]
      }
    }
  ]
}
