{
 "type": "FeatureCollection",
 "name": "buildings",
 "features": [
  {
   "type": "Feature",
   "id": "BLD-001",
   "properties": {
    "id": "BLD-001",
    "layer": "BUILDING_FOOTPRINT",
    "source_type": "agent_generated_design",
    "confidence": "low",
    "geometry_role": "design_proposal",
    "building_type": "office",
    "label_zh": "商务办公",
    "label_en": "office",
    "parcel_id": "LU-002",
    "land_use_code": "0902",
    "area_sqm_declared": 71100.576
   },
   "geometry": {
    "type": "Polygon",
    "coordinates": [
     [
      [
       116.3407728,
       39.94285
      ],
      [
       116.3407728,
       39.94615
      ],
      [
       116.3430431,
       39.94615
      ],
      [
       116.3430431,
       39.94285
      ],
      [
       116.3407728,
       39.94285
      ]
     ]
    ]
   }
  },
  {
   "type": "Feature",
   "id": "BLD-002",
   "properties": {
    "id": "BLD-002",
    "layer": "BUILDING_FOOTPRINT",
    "source_type": "agent_generated_design",
    "confidence": "low",
    "geometry_role": "design_proposal",
    "building_type": "office",
    "label_zh": "商务办公",
    "label_en": "office",
    "parcel_id": "LU-002",
    "land_use_code": "0902",
    "area_sqm_declared": 71100.536
   },
   "geometry": {
    "type": "Polygon",
    "coordinates": [
     [
      [
       116.3431513,
       39.94285
      ],
      [
       116.3431513,
       39.94615
      ],
      [
       116.3454216,
       39.94615
      ],
      [
       116.3454216,
       39.94285
      ],
      [
       116.3431513,
       39.94285
      ]
     ]
    ]
   }
  },
  {
   "type": "Feature",
   "id": "BLD-003",
   "properties": {
    "id": "BLD-003",
    "layer": "BUILDING_FOOTPRINT",
    "source_type": "agent_generated_design",
    "confidence": "low",
    "geometry_role": "design_proposal",
    "building_type": "retail",
    "label_zh": "商业服务",
    "label_en": "retail",
    "parcel_id": "LU-003",
    "land_use_code": "0901",
    "area_sqm_declared": 80233.942
   },
   "geometry": {
    "type": "Polygon",
    "coordinates": [
     [
      [
       116.349627,
       39.94285
      ],
      [
       116.349627,
       39.94615
      ],
      [
       116.352189,
       39.94615
      ],
      [
       116.352189,
       39.94285
      ],
      [
       116.349627,
       39.94285
      ]
     ]
    ]
   }
  },
  {
   "type": "Feature",
   "id": "BLD-004",
   "properties": {
    "id": "BLD-004",
    "layer": "BUILDING_FOOTPRINT",
    "source_type": "agent_generated_design",
    "confidence": "low",
    "geometry_role": "design_proposal",
    "building_type": "retail",
    "label_zh": "商业服务",
    "label_en": "retail",
    "parcel_id": "LU-003",
    "land_use_code": "0901",
    "area_sqm_declared": 80233.892
   },
   "geometry": {
    "type": "Polygon",
    "coordinates": [
     [
      [
       116.352311,
       39.94285
      ],
      [
       116.352311,
       39.94615
      ],
      [
       116.354873,
       39.94615
      ],
      [
       116.354873,
       39.94285
      ],
      [
       116.352311,
       39.94285
      ]
     ]
    ]
   }
  },
  {
   "type": "Feature",
   "id": "BLD-005",
   "properties": {
    "id": "BLD-005",
    "layer": "BUILDING_FOOTPRINT",
    "source_type": "agent_generated_design",
    "confidence": "low",
    "geometry_role": "design_proposal",
    "building_type": "mixed_use",
    "label_zh": "混合功能",
    "label_en": "mixed_use",
    "parcel_id": "LU-005",
    "land_use_code": "0904",
    "area_sqm_declared": 104407.979
   },
   "geometry": {
    "type": "Polygon",
    "coordinates": [
     [
      [
       116.3403854,
       39.95525
      ],
      [
       116.3403854,
       39.95975
      ],
      [
       116.3428307,
       39.95975
      ],
      [
       116.3428307,
       39.95525
      ],
      [
       116.3403854,
       39.95525
      ]
     ]
    ]
   }
  },
  {
   "type": "Feature",
   "id": "BLD-006",
   "properties": {
    "id": "BLD-006",
    "layer": "BUILDING_FOOTPRINT",
    "source_type": "agent_generated_design",
    "confidence": "low",
    "geometry_role": "design_proposal",
    "building_type": "mixed_use",
    "label_zh": "混合功能",
    "label_en": "mixed_use",
    "parcel_id": "LU-005",
    "land_use_code": "0904",
    "area_sqm_declared": 104407.916
   },
   "geometry": {
    "type": "Polygon",
    "coordinates": [
     [
      [
       116.3429471,
       39.95525
      ],
      [
       116.3429471,
       39.95975
      ],
      [
       116.3453924,
       39.95975
      ],
      [
       116.3453924,
       39.95525
      ],
      [
       116.3429471,
       39.95525
      ]
     ]
    ]
   }
  },
  {
   "type": "Feature",
   "id": "BLD-007",
   "properties": {
    "id": "BLD-007",
    "layer": "BUILDING_FOOTPRINT",
    "source_type": "agent_generated_design",
    "confidence": "low",
    "geometry_role": "design_proposal",
    "building_type": "office",
    "label_zh": "商务办公",
    "label_en": "office",
    "parcel_id": "LU-006",
    "land_use_code": "0902",
    "area_sqm_declared": 109389.454
   },
   "geometry": {
    "type": "Polygon",
    "coordinates": [
     [
      [
       116.349627,
       39.95525
      ],
      [
       116.349627,
       39.95975
      ],
      [
       116.352189,
       39.95975
      ],
      [
       116.352189,
       39.95525
      ],
      [
       116.349627,
       39.95525
      ]
     ]
    ]
   }
  },
  {
   "type": "Feature",
   "id": "BLD-008",
   "properties": {
    "id": "BLD-008",
    "layer": "BUILDING_FOOTPRINT",
    "source_type": "agent_generated_design",
    "confidence": "low",
    "geometry_role": "design_proposal",
    "building_type": "office",
    "label_zh": "商务办公",
    "label_en": "office",
    "parcel_id": "LU-006",
    "land_use_code": "0902",
    "area_sqm_declared": 109389.386
   },
   "geometry": {
    "type": "Polygon",
    "coordinates": [
     [
      [
       116.352311,
       39.95525
      ],
      [
       116.352311,
       39.95975
      ],
      [
       116.354873,
       39.95975
      ],
      [
       116.354873,
       39.95525
      ],
      [
       116.352311,
       39.95525
      ]
     ]
    ]
   }
  },
  {
   "type": "Feature",
   "id": "BLD-009",
   "properties": {
    "id": "BLD-009",
    "layer": "BUILDING_FOOTPRINT",
    "source_type": "agent_generated_design",
    "confidence": "low",
    "geometry_role": "design_proposal",
    "building_type": "residential",
    "label_zh": "居住",
    "label_en": "residential",
    "parcel_id": "LU-008",
    "land_use_code": "0701",
    "area_sqm_declared": 72913.342
   },
   "geometry": {
    "type": "Polygon",
    "coordinates": [
     [
      [
       116.340127,
       39.9685
      ],
      [
       116.340127,
       39.9715
      ],
      [
       116.342689,
       39.9715
      ],
      [
       116.342689,
       39.9685
      ],
      [
       116.340127,
       39.9685
      ]
     ]
    ]
   }
  },
  {
   "type": "Feature",
   "id": "BLD-010",
   "properties": {
    "id": "BLD-010",
    "layer": "BUILDING_FOOTPRINT",
    "source_type": "agent_generated_design",
    "confidence": "low",
    "geometry_role": "design_proposal",
    "building_type": "residential",
    "label_zh": "居住",
    "label_en": "residential",
    "parcel_id": "LU-008",
    "land_use_code": "0701",
    "area_sqm_declared": 72913.296
   },
   "geometry": {
    "type": "Polygon",
    "coordinates": [
     [
      [
       116.342811,
       39.9685
      ],
      [
       116.342811,
       39.9715
      ],
      [
       116.345373,
       39.9715
      ],
      [
       116.345373,
       39.9685
      ],
      [
       116.342811,
       39.9685
      ]
     ]
    ]
   }
  },
  {
   "type": "Feature",
   "id": "BLD-011",
   "properties": {
    "id": "BLD-011",
    "layer": "BUILDING_FOOTPRINT",
    "source_type": "agent_generated_design",
    "confidence": "low",
    "geometry_role": "design_proposal",
    "building_type": "ai_r_and_d",
    "label_zh": "AI研发",
    "label_en": "ai_r_and_d",
    "parcel_id": "LU-009",
    "land_use_code": "0802",
    "area_sqm_declared": 72913.179
   },
   "geometry": {
    "type": "Polygon",
    "coordinates": [
     [
      [
       116.349627,
       39.9685
      ],
      [
       116.349627,
       39.9715
      ],
      [
       116.352189,
       39.9715
      ],
      [
       116.352189,
       39.9685
      ],
      [
       116.349627,
       39.9685
      ]
     ]
    ]
   }
  },
  {
   "type": "Feature",
   "id": "BLD-012",
   "properties": {
    "id": "BLD-012",
    "layer": "BUILDING_FOOTPRINT",
    "source_type": "agent_generated_design",
    "confidence": "low",
    "geometry_role": "design_proposal",
    "building_type": "ai_r_and_d",
    "label_zh": "AI研发",
    "label_en": "ai_r_and_d",
    "parcel_id": "LU-009",
    "land_use_code": "0802",
    "area_sqm_declared": 70162.516
   },
   "geometry": {
    "type": "Polygon",
    "coordinates": [
     [
      [
       116.354873,
       39.9685
      ],
      [
       116.352311,
       39.9685
      ],
      [
       116.352311,
       39.9715
      ],
      [
       116.3546576,
       39.9715
      ],
      [
       116.354873,
       39.9688076
      ],
      [
       116.354873,
       39.9685
      ]
     ]
    ]
   }
  },
  {
   "type": "Feature",
   "id": "BLD-013",
   "properties": {
    "id": "BLD-013",
    "layer": "BUILDING_FOOTPRINT",
    "source_type": "agent_generated_design",
    "confidence": "low",
    "geometry_role": "design_proposal",
    "building_type": "residential",
    "label_zh": "居住",
    "label_en": "residential",
    "parcel_id": "LU-011",
    "land_use_code": "0701",
    "area_sqm_declared": 61771.497
   },
   "geometry": {
    "type": "Polygon",
    "coordinates": [
     [
      [
       116.342689,
       39.980525
      ],
      [
       116.342689,
       39.977975
      ],
      [
       116.340127,
       39.977975
      ],
      [
       116.340127,
       39.9797235
      ],
      [
       116.3401787,
       39.980525
      ],
      [
       116.342689,
       39.980525
      ]
     ]
    ]
   }
  },
  {
   "type": "Feature",
   "id": "BLD-014",
   "properties": {
    "id": "BLD-014",
    "layer": "BUILDING_FOOTPRINT",
    "source_type": "agent_generated_design",
    "confidence": "low",
    "geometry_role": "design_proposal",
    "building_type": "residential",
    "label_zh": "居住",
    "label_en": "residential",
    "parcel_id": "LU-011",
    "land_use_code": "0701",
    "area_sqm_declared": 61968.045
   },
   "geometry": {
    "type": "Polygon",
    "coordinates": [
     [
      [
       116.342811,
       39.977975
      ],
      [
       116.342811,
       39.980525
      ],
      [
       116.345373,
       39.980525
      ],
      [
       116.345373,
       39.977975
      ],
      [
       116.342811,
       39.977975
      ]
     ]
    ]
   }
  },
  {
   "type": "Feature",
   "id": "BLD-015",
   "properties": {
    "id": "BLD-015",
    "layer": "BUILDING_FOOTPRINT",
    "source_type": "agent_generated_design",
    "confidence": "low",
    "geometry_role": "design_proposal",
    "building_type": "residential",
    "label_zh": "居住",
    "label_en": "residential",
    "parcel_id": "LU-012",
    "land_use_code": "0701",
    "area_sqm_declared": 53841.005
   },
   "geometry": {
    "type": "Polygon",
    "coordinates": [
     [
      [
       116.349571,
       39.977975
      ],
      [
       116.349571,
       39.980525
      ],
      [
       116.351797,
       39.980525
      ],
      [
       116.351797,
       39.977975
      ],
      [
       116.349571,
       39.977975
      ]
     ]
    ]
   }
  },
  {
   "type": "Feature",
   "id": "BLD-016",
   "properties": {
    "id": "BLD-016",
    "layer": "BUILDING_FOOTPRINT",
    "source_type": "agent_generated_design",
    "confidence": "low",
    "geometry_role": "design_proposal",
    "building_type": "residential",
    "label_zh": "居住",
    "label_en": "residential",
    "parcel_id": "LU-012",
    "land_use_code": "0701",
    "area_sqm_declared": 51976.613
   },
   "geometry": {
    "type": "Polygon",
    "coordinates": [
     [
      [
       116.354129,
       39.977975
      ],
      [
       116.351903,
       39.977975
      ],
      [
       116.351903,
       39.980525
      ],
      [
       116.3539517,
       39.980525
      ],
      [
       116.354129,
       39.9783083
      ],
      [
       116.354129,
       39.977975
      ]
     ]
    ]
   }
  },
  {
   "type": "Feature",
   "id": "BLD-017",
   "properties": {
    "id": "BLD-017",
    "layer": "BUILDING_FOOTPRINT",
    "source_type": "agent_generated_design",
    "confidence": "low",
    "geometry_role": "design_proposal",
    "building_type": "ai_r_and_d",
    "label_zh": "AI研发",
    "label_en": "ai_r_and_d",
    "parcel_id": "LU-014",
    "land_use_code": "0802",
    "area_sqm_declared": 43122.493
   },
   "geometry": {
    "type": "Polygon",
    "coordinates": [
     [
      [
       116.340637,
       39.985775
      ],
      [
       116.340637,
       39.987725
      ],
      [
       116.3429687,
       39.987725
      ],
      [
       116.3429687,
       39.985775
      ],
      [
       116.340637,
       39.985775
      ]
     ]
    ]
   }
  },
  {
   "type": "Feature",
   "id": "BLD-018",
   "properties": {
    "id": "BLD-018",
    "layer": "BUILDING_FOOTPRINT",
    "source_type": "agent_generated_design",
    "confidence": "low",
    "geometry_role": "design_proposal",
    "building_type": "ai_r_and_d",
    "label_zh": "AI研发",
    "label_en": "ai_r_and_d",
    "parcel_id": "LU-014",
    "land_use_code": "0802",
    "area_sqm_declared": 43122.468
   },
   "geometry": {
    "type": "Polygon",
    "coordinates": [
     [
      [
       116.3430797,
       39.985775
      ],
      [
       116.3430797,
       39.987725
      ],
      [
       116.3454114,
       39.987725
      ],
      [
       116.3454114,
       39.985775
      ],
      [
       116.3430797,
       39.985775
      ]
     ]
    ]
   }
  },
  {
   "type": "Feature",
   "id": "BLD-019",
   "properties": {
    "id": "BLD-019",
    "layer": "BUILDING_FOOTPRINT",
    "source_type": "agent_generated_design",
    "confidence": "low",
    "geometry_role": "design_proposal",
    "building_type": "office",
    "label_zh": "商务办公",
    "label_en": "office",
    "parcel_id": "LU-015",
    "land_use_code": "0902",
    "area_sqm_declared": 35886.143
   },
   "geometry": {
    "type": "Polygon",
    "coordinates": [
     [
      [
       116.3495234,
       39.985775
      ],
      [
       116.3495234,
       39.987725
      ],
      [
       116.3514638,
       39.987725
      ],
      [
       116.3514638,
       39.985775
      ],
      [
       116.3495234,
       39.985775
      ]
     ]
    ]
   }
  },
  {
   "type": "Feature",
   "id": "BLD-020",
   "properties": {
    "id": "BLD-020",
    "layer": "BUILDING_FOOTPRINT",
    "source_type": "agent_generated_design",
    "confidence": "low",
    "geometry_role": "design_proposal",
    "building_type": "office",
    "label_zh": "商务办公",
    "label_en": "office",
    "parcel_id": "LU-015",
    "land_use_code": "0902",
    "area_sqm_declared": 35203.724
   },
   "geometry": {
    "type": "Polygon",
    "coordinates": [
     [
      [
       116.3534966,
       39.985775
      ],
      [
       116.3515562,
       39.985775
      ],
      [
       116.3515562,
       39.987725
      ],
      [
       116.3533893,
       39.987725
      ],
      [
       116.3534966,
       39.9863838
      ],
      [
       116.3534966,
       39.985775
      ]
     ]
    ]
   }
  },
  {
   "type": "Feature",
   "id": "BLD-021",
   "properties": {
    "id": "BLD-021",
    "layer": "BUILDING_FOOTPRINT",
    "source_type": "agent_generated_design",
    "confidence": "low",
    "geometry_role": "design_proposal",
    "building_type": "education",
    "label_zh": "教育科研配套",
    "label_en": "education",
    "parcel_id": "LU-017",
    "land_use_code": "0804",
    "area_sqm_declared": 21464.516
   },
   "geometry": {
    "type": "Polygon",
    "coordinates": [
     [
      [
       116.341027,
       39.991225
      ],
      [
       116.341027,
       39.992275
      ],
      [
       116.3431825,
       39.992275
      ],
      [
       116.3431825,
       39.991225
      ],
      [
       116.341027,
       39.991225
      ]
     ]
    ]
   }
  },
  {
   "type": "Feature",
   "id": "BLD-022",
   "properties": {
    "id": "BLD-022",
    "layer": "BUILDING_FOOTPRINT",
    "source_type": "agent_generated_design",
    "confidence": "low",
    "geometry_role": "design_proposal",
    "building_type": "education",
    "label_zh": "教育科研配套",
    "label_en": "education",
    "parcel_id": "LU-017",
    "land_use_code": "0804",
    "area_sqm_declared": 21464.504
   },
   "geometry": {
    "type": "Polygon",
    "coordinates": [
     [
      [
       116.3432852,
       39.991225
      ],
      [
       116.3432852,
       39.992275
      ],
      [
       116.3454407,
       39.992275
      ],
      [
       116.3454407,
       39.991225
      ],
      [
       116.3432852,
       39.991225
      ]
     ]
    ]
   }
  },
  {
   "type": "Feature",
   "id": "BLD-023",
   "properties": {
    "id": "BLD-023",
    "layer": "BUILDING_FOOTPRINT",
    "source_type": "agent_generated_design",
    "confidence": "low",
    "geometry_role": "design_proposal",
    "building_type": "ai_r_and_d",
    "label_zh": "AI研发",
    "label_en": "ai_r_and_d",
    "parcel_id": "LU-018",
    "land_use_code": "0802",
    "area_sqm_declared": 17949.307
   },
   "geometry": {
    "type": "Polygon",
    "coordinates": [
     [
      [
       116.3495004,
       39.991225
      ],
      [
       116.3495004,
       39.992275
      ],
      [
       116.351303,
       39.992275
      ],
      [
       116.351303,
       39.991225
      ],
      [
       116.3495004,
       39.991225
      ]
     ]
    ]
   }
  },
  {
   "type": "Feature",
   "id": "BLD-024",
   "properties": {
    "id": "BLD-024",
    "layer": "BUILDING_FOOTPRINT",
    "source_type": "agent_generated_design",
    "confidence": "low",
    "geometry_role": "design_proposal",
    "building_type": "ai_r_and_d",
    "label_zh": "AI研发",
    "label_en": "ai_r_and_d",
    "parcel_id": "LU-018",
    "land_use_code": "0802",
    "area_sqm_declared": 17949.299
   },
   "geometry": {
    "type": "Polygon",
    "coordinates": [
     [
      [
       116.3513888,
       39.991225
      ],
      [
       116.3513888,
       39.992275
      ],
      [
       116.3531914,
       39.992275
      ],
      [
       116.3531914,
       39.991225
      ],
      [
       116.3513888,
       39.991225
      ]
     ]
    ]
   }
  },
  {
   "type": "Feature",
   "id": "BLD-025",
   "properties": {
    "id": "BLD-025",
    "layer": "BUILDING_FOOTPRINT",
    "source_type": "agent_generated_design",
    "confidence": "low",
    "geometry_role": "design_proposal",
    "building_type": "residential",
    "label_zh": "居住",
    "label_en": "residential",
    "parcel_id": "LU-020",
    "land_use_code": "0701",
    "area_sqm_declared": 67655.013
   },
   "geometry": {
    "type": "Polygon",
    "coordinates": [
     [
      [
       116.3432977,
       40.001625
      ],
      [
       116.3432977,
       39.997875
      ],
      [
       116.3412741,
       39.997875
      ],
      [
       116.3415161,
       40.001625
      ],
      [
       116.3432977,
       40.001625
      ]
     ]
    ]
   }
  },
  {
   "type": "Feature",
   "id": "BLD-026",
   "properties": {
    "id": "BLD-026",
    "layer": "BUILDING_FOOTPRINT",
    "source_type": "agent_generated_design",
    "confidence": "low",
    "geometry_role": "design_proposal",
    "building_type": "residential",
    "label_zh": "居住",
    "label_en": "residential",
    "parcel_id": "LU-020",
    "land_use_code": "0701",
    "area_sqm_declared": 73277.815
   },
   "geometry": {
    "type": "Polygon",
    "coordinates": [
     [
      [
       116.3433958,
       39.997875
      ],
      [
       116.3433958,
       40.001625
      ],
      [
       116.3454565,
       40.001625
      ],
      [
       116.3454565,
       39.997875
      ],
      [
       116.3433958,
       39.997875
      ]
     ]
    ]
   }
  },
  {
   "type": "Feature",
   "id": "BLD-027",
   "properties": {
    "id": "BLD-027",
    "layer": "BUILDING_FOOTPRINT",
    "source_type": "agent_generated_design",
    "confidence": "low",
    "geometry_role": "design_proposal",
    "building_type": "ai_r_and_d",
    "label_zh": "AI研发",
    "label_en": "ai_r_and_d",
    "parcel_id": "LU-024",
    "land_use_code": "0802",
    "area_sqm_declared": 9065.538
   },
   "geometry": {
    "type": "Polygon",
    "coordinates": [
     [
      [
       116.3495541,
       40.006525
      ],
      [
       116.3495541,
       40.006975
      ],
      [
       116.3516789,
       40.006975
      ],
      [
       116.3516789,
       40.006525
      ],
      [
       116.3495541,
       40.006525
      ]
     ]
    ]
   }
  },
  {
   "type": "Feature",
   "id": "BLD-028",
   "properties": {
    "id": "BLD-028",
    "layer": "BUILDING_FOOTPRINT",
    "source_type": "agent_generated_design",
    "confidence": "low",
    "geometry_role": "design_proposal",
    "building_type": "ai_r_and_d",
    "label_zh": "AI研发",
    "label_en": "ai_r_and_d",
    "parcel_id": "LU-024",
    "land_use_code": "0802",
    "area_sqm_declared": 9065.533
   },
   "geometry": {
    "type": "Polygon",
    "coordinates": [
     [
      [
       116.35178,
       40.006525
      ],
      [
       116.35178,
       40.006975
      ],
      [
       116.3539048,
       40.006975
      ],
      [
       116.3539048,
       40.006525
      ],
      [
       116.35178,
       40.006525
      ]
     ]
    ]
   }
  },
  {
   "type": "Feature",
   "id": "BLD-029",
   "properties": {
    "id": "BLD-029",
    "layer": "BUILDING_FOOTPRINT",
    "source_type": "agent_generated_design",
    "confidence": "low",
    "geometry_role": "design_proposal",
    "building_type": "ai_r_and_d",
    "label_zh": "AI研发",
    "label_en": "ai_r_and_d",
    "parcel_id": "LU-026",
    "land_use_code": "0802",
    "area_sqm_declared": 77223.859
   },
   "geometry": {
    "type": "Polygon",
    "coordinates": [
     [
      [
       116.3437463,
       40.01985
      ],
      [
       116.3437463,
       40.01415
      ],
      [
       116.3421782,
       40.01415
      ],
      [
       116.3424563,
       40.01985
      ],
      [
       116.3437463,
       40.01985
      ]
     ]
    ]
   }
  },
  {
   "type": "Feature",
   "id": "BLD-030",
   "properties": {
    "id": "BLD-030",
    "layer": "BUILDING_FOOTPRINT",
    "source_type": "agent_generated_design",
    "confidence": "low",
    "geometry_role": "design_proposal",
    "building_type": "ai_r_and_d",
    "label_zh": "AI研发",
    "label_en": "ai_r_and_d",
    "parcel_id": "LU-026",
    "land_use_code": "0802",
    "area_sqm_declared": 91389.499
   },
   "geometry": {
    "type": "Polygon",
    "coordinates": [
     [
      [
       116.3438269,
       40.01415
      ],
      [
       116.3438269,
       40.01985
      ],
      [
       116.3455181,
       40.01985
      ],
      [
       116.3455181,
       40.01415
      ],
      [
       116.3438269,
       40.01415
      ]
     ]
    ]
   }
  },
  {
   "type": "Feature",
   "id": "BLD-031",
   "properties": {
    "id": "BLD-031",
    "layer": "BUILDING_FOOTPRINT",
    "source_type": "agent_generated_design",
    "confidence": "low",
    "geometry_role": "design_proposal",
    "building_type": "incubator",
    "label_zh": "孵化加速",
    "label_en": "incubator",
    "parcel_id": "LU-027",
    "land_use_code": "16",
    "area_sqm_declared": 138441.226
   },
   "geometry": {
    "type": "Polygon",
    "coordinates": [
     [
      [
       116.349627,
       40.01415
      ],
      [
       116.349627,
       40.01985
      ],
      [
       116.352189,
       40.01985
      ],
      [
       116.352189,
       40.01415
      ],
      [
       116.349627,
       40.01415
      ]
     ]
    ]
   }
  },
  {
   "type": "Feature",
   "id": "BLD-032",
   "properties": {
    "id": "BLD-032",
    "layer": "BUILDING_FOOTPRINT",
    "source_type": "agent_generated_design",
    "confidence": "low",
    "geometry_role": "design_proposal",
    "building_type": "incubator",
    "label_zh": "孵化加速",
    "label_en": "incubator",
    "parcel_id": "LU-027",
    "land_use_code": "16",
    "area_sqm_declared": 126783.402
   },
   "geometry": {
    "type": "Polygon",
    "coordinates": [
     [
      [
       116.352311,
       40.01415
      ],
      [
       116.352311,
       40.01985
      ],
      [
       116.3548134,
       40.01985
      ],
      [
       116.3545011,
       40.01415
      ],
      [
       116.352311,
       40.01415
      ]
     ]
    ]
   }
  }
 ]
}