{
 "type": "FeatureCollection",
 "name": "constraints",
 "features": [
  {
   "type": "Feature",
   "id": "CON-HERITAGE-001",
   "properties": {
    "id": "CON-HERITAGE-001",
    "layer": "HERITAGE_PROTECTION",
    "source_type": "agent_inferred_from_public_data",
    "confidence": "low",
    "geometry_role": "provisional_constraint",
    "official_boundary": false,
    "boundary_precision": "provisional_rough",
    "label_zh": "京张遗址公园文化景观控制走廊（临时）",
    "label_en": "Jing-Zhang relic park heritage corridor (provisional)",
    "usage_note": "仅用于展示与临时自检；非文物保护正式红线，须以官方文保范围为准。",
    "area_sqm_declared": 2821715.132
   },
   "geometry": {
    "type": "Polygon",
    "coordinates": [
     [
      [
       116.3458,
       39.975
      ],
      [
       116.3458,
       39.9835
      ],
      [
       116.3458,
       39.99
      ],
      [
       116.3458,
       39.9935
      ],
      [
       116.3458,
       40.006
      ],
      [
       116.3458,
       40.0075
      ],
      [
       116.3458,
       40.0265
      ],
      [
       116.3492,
       40.0265
      ],
      [
       116.3492,
       40.0075
      ],
      [
       116.3492,
       40.006
      ],
      [
       116.3492,
       39.9935
      ],
      [
       116.3492,
       39.99
      ],
      [
       116.3492,
       39.9835
      ],
      [
       116.3492,
       39.975
      ],
      [
       116.3492,
       39.965
      ],
      [
       116.3492,
       39.95
      ],
      [
       116.3492,
       39.939
      ],
      [
       116.3458,
       39.939
      ],
      [
       116.3458,
       39.95
      ],
      [
       116.3458,
       39.965
      ],
      [
       116.3458,
       39.975
      ]
     ]
    ]
   }
  },
  {
   "type": "Feature",
   "id": "CON-RAIL-001",
   "properties": {
    "id": "CON-RAIL-001",
    "layer": "EXISTING_RAIL",
    "source_type": "osm",
    "confidence": "low",
    "geometry_role": "existing_condition",
    "label_zh": "京张铁路遗址线位（现状/示意）",
    "label_en": "Jing-Zhang railway relic alignment (existing/indicative)",
    "usage_note": "线位为公开资料示意，非工程测量成果。"
   },
   "geometry": {
    "type": "LineString",
    "coordinates": [
     [
      116.3475,
      39.9395
     ],
     [
      116.3475,
      40.026
     ]
    ]
   }
  },
  {
   "type": "Feature",
   "id": "CON-N5RING-001",
   "properties": {
    "id": "CON-N5RING-001",
    "layer": "EXISTING_PRIMARY_ROAD",
    "source_type": "osm",
    "confidence": "low",
    "geometry_role": "existing_condition",
    "label_zh": "北五环路（现状边界·示意）",
    "label_en": "North 5th Ring Rd (existing boundary, indicative)"
   },
   "geometry": {
    "type": "LineString",
    "coordinates": [
     [
      116.343,
      40.0262
     ],
     [
      116.355,
      40.0262
     ]
    ]
   }
  }
 ]
}