{
 "type": "FeatureCollection",
 "name": "green_space",
 "features": [
  {
   "type": "Feature",
   "id": "GS-001",
   "properties": {
    "id": "GS-001",
    "layer": "GREEN_SPACE",
    "source_type": "agent_generated_design",
    "confidence": "medium",
    "geometry_role": "design_proposal",
    "land_use_code": "1401",
    "label_zh": "京张遗址公园·智脊段",
    "label_en": "Jing-Zhang relic park spine",
    "green_role_zh": "公园绿地",
    "area_sqm_declared": 354925.345
   },
   "geometry": {
    "type": "Polygon",
    "coordinates": [
     [
      [
       116.3458,
       39.939
      ],
      [
       116.3458,
       39.95
      ],
      [
       116.3492,
       39.95
      ],
      [
       116.3492,
       39.939
      ],
      [
       116.3458,
       39.939
      ]
     ]
    ]
   }
  },
  {
   "type": "Feature",
   "id": "GS-002",
   "properties": {
    "id": "GS-002",
    "layer": "GREEN_SPACE",
    "source_type": "agent_generated_design",
    "confidence": "medium",
    "geometry_role": "design_proposal",
    "land_use_code": "1401",
    "label_zh": "京张遗址公园·智脊段",
    "label_en": "Jing-Zhang relic park spine",
    "green_role_zh": "公园绿地",
    "area_sqm_declared": 483898.567
   },
   "geometry": {
    "type": "Polygon",
    "coordinates": [
     [
      [
       116.3458,
       39.95
      ],
      [
       116.3458,
       39.965
      ],
      [
       116.3492,
       39.965
      ],
      [
       116.3492,
       39.95
      ],
      [
       116.3458,
       39.95
      ]
     ]
    ]
   }
  },
  {
   "type": "Feature",
   "id": "GS-003",
   "properties": {
    "id": "GS-003",
    "layer": "GREEN_SPACE",
    "source_type": "agent_generated_design",
    "confidence": "medium",
    "geometry_role": "design_proposal",
    "land_use_code": "1401",
    "label_zh": "京张遗址公园·智脊段",
    "label_en": "Jing-Zhang relic park spine",
    "green_role_zh": "公园绿地",
    "area_sqm_declared": 322540.992
   },
   "geometry": {
    "type": "Polygon",
    "coordinates": [
     [
      [
       116.3458,
       39.965
      ],
      [
       116.3458,
       39.975
      ],
      [
       116.3492,
       39.975
      ],
      [
       116.3492,
       39.965
      ],
      [
       116.3458,
       39.965
      ]
     ]
    ]
   }
  },
  {
   "type": "Feature",
   "id": "GS-004",
   "properties": {
    "id": "GS-004",
    "layer": "GREEN_SPACE",
    "source_type": "agent_generated_design",
    "confidence": "medium",
    "geometry_role": "design_proposal",
    "land_use_code": "1401",
    "label_zh": "京张遗址公园·智脊段",
    "label_en": "Jing-Zhang relic park spine",
    "green_role_zh": "公园绿地",
    "area_sqm_declared": 274123.319
   },
   "geometry": {
    "type": "Polygon",
    "coordinates": [
     [
      [
       116.3458,
       39.975
      ],
      [
       116.3458,
       39.9835
      ],
      [
       116.3492,
       39.9835
      ],
      [
       116.3492,
       39.975
      ],
      [
       116.3458,
       39.975
      ]
     ]
    ]
   }
  },
  {
   "type": "Feature",
   "id": "GS-005",
   "properties": {
    "id": "GS-005",
    "layer": "GREEN_SPACE",
    "source_type": "agent_generated_design",
    "confidence": "medium",
    "geometry_role": "design_proposal",
    "land_use_code": "1401",
    "label_zh": "京张遗址公园·智脊段",
    "label_en": "Jing-Zhang relic park spine",
    "green_role_zh": "公园绿地",
    "area_sqm_declared": 209601.065
   },
   "geometry": {
    "type": "Polygon",
    "coordinates": [
     [
      [
       116.3458,
       39.9835
      ],
      [
       116.3458,
       39.99
      ],
      [
       116.3492,
       39.99
      ],
      [
       116.3492,
       39.9835
      ],
      [
       116.3458,
       39.9835
      ]
     ]
    ]
   }
  },
  {
   "type": "Feature",
   "id": "GS-006",
   "properties": {
    "id": "GS-006",
    "layer": "GREEN_SPACE",
    "source_type": "agent_generated_design",
    "confidence": "medium",
    "geometry_role": "design_proposal",
    "land_use_code": "1401",
    "label_zh": "京张遗址公园·智脊段",
    "label_en": "Jing-Zhang relic park spine",
    "green_role_zh": "公园绿地",
    "area_sqm_declared": 112853.98
   },
   "geometry": {
    "type": "Polygon",
    "coordinates": [
     [
      [
       116.3458,
       39.99
      ],
      [
       116.3458,
       39.9935
      ],
      [
       116.3492,
       39.9935
      ],
      [
       116.3492,
       39.99
      ],
      [
       116.3458,
       39.99
      ]
     ]
    ]
   }
  },
  {
   "type": "Feature",
   "id": "GS-007",
   "properties": {
    "id": "GS-007",
    "layer": "GREEN_SPACE",
    "source_type": "agent_generated_design",
    "confidence": "medium",
    "geometry_role": "design_proposal",
    "land_use_code": "1401",
    "label_zh": "京张遗址公园·智脊段",
    "label_en": "Jing-Zhang relic park spine",
    "green_role_zh": "公园绿地",
    "area_sqm_declared": 403003.451
   },
   "geometry": {
    "type": "Polygon",
    "coordinates": [
     [
      [
       116.3458,
       39.9935
      ],
      [
       116.3458,
       40.006
      ],
      [
       116.3492,
       40.006
      ],
      [
       116.3492,
       39.9935
      ],
      [
       116.3458,
       39.9935
      ]
     ]
    ]
   }
  },
  {
   "type": "Feature",
   "id": "GS-008",
   "properties": {
    "id": "GS-008",
    "layer": "GREEN_SPACE",
    "source_type": "agent_generated_design",
    "confidence": "medium",
    "geometry_role": "design_proposal",
    "land_use_code": "1402",
    "label_zh": "防护绿地",
    "label_en": "Protective green",
    "green_role_zh": "防护绿地",
    "area_sqm_declared": 549295.714
   },
   "geometry": {
    "type": "Polygon",
    "coordinates": [
     [
      [
       116.3534918,
       39.9935
      ],
      [
       116.3492,
       39.9935
      ],
      [
       116.3492,
       40.006
      ],
      [
       116.3541767,
       40.006
      ],
      [
       116.3534918,
       39.9935
      ]
     ]
    ]
   }
  },
  {
   "type": "Feature",
   "id": "GS-009",
   "properties": {
    "id": "GS-009",
    "layer": "GREEN_SPACE",
    "source_type": "agent_generated_design",
    "confidence": "medium",
    "geometry_role": "design_proposal",
    "land_use_code": "1401",
    "label_zh": "京张遗址公园·智脊段",
    "label_en": "Jing-Zhang relic park spine",
    "green_role_zh": "公园绿地",
    "area_sqm_declared": 48355.534
   },
   "geometry": {
    "type": "Polygon",
    "coordinates": [
     [
      [
       116.3458,
       40.006
      ],
      [
       116.3458,
       40.0075
      ],
      [
       116.3492,
       40.0075
      ],
      [
       116.3492,
       40.006
      ],
      [
       116.3458,
       40.006
      ]
     ]
    ]
   }
  },
  {
   "type": "Feature",
   "id": "GS-010",
   "properties": {
    "id": "GS-010",
    "layer": "GREEN_SPACE",
    "source_type": "agent_generated_design",
    "confidence": "medium",
    "geometry_role": "design_proposal",
    "land_use_code": "1402",
    "label_zh": "防护绿地",
    "label_en": "Protective green",
    "green_role_zh": "防护绿地",
    "area_sqm_declared": 57790.583
   },
   "geometry": {
    "type": "Polygon",
    "coordinates": [
     [
      [
       116.3417732,
       40.0075
      ],
      [
       116.3458,
       40.0075
      ],
      [
       116.3458,
       40.006
      ],
      [
       116.3417,
       40.006
      ],
      [
       116.3417732,
       40.0075
      ]
     ]
    ]
   }
  },
  {
   "type": "Feature",
   "id": "GS-011",
   "properties": {
    "id": "GS-011",
    "layer": "GREEN_SPACE",
    "source_type": "agent_generated_design",
    "confidence": "medium",
    "geometry_role": "design_proposal",
    "land_use_code": "1401",
    "label_zh": "京张遗址公园·智脊段",
    "label_en": "Jing-Zhang relic park spine",
    "green_role_zh": "公园绿地",
    "area_sqm_declared": 612412.879
   },
   "geometry": {
    "type": "Polygon",
    "coordinates": [
     [
      [
       116.3492,
       40.0265
      ],
      [
       116.3492,
       40.0075
      ],
      [
       116.3458,
       40.0075
      ],
      [
       116.3458,
       40.0265
      ],
      [
       116.3492,
       40.0265
      ]
     ]
    ]
   }
  }
 ]
}