{
 "type": "FeatureCollection",
 "name": "land_use",
 "features": [
  {
   "type": "Feature",
   "id": "LU-001",
   "properties": {
    "id": "LU-001",
    "layer": "LAND_USE",
    "source_type": "agent_generated_design",
    "confidence": "medium",
    "geometry_role": "design_proposal",
    "land_use_code": "1401",
    "label_zh": "京张遗址公园·智脊段",
    "label_en": "Jing-Zhang relic park spine",
    "district_zh": "大钟寺智能原生消费区",
    "area_sqm_declared": 354925.345
   },
   "geometry": {
    "type": "Polygon",
    "coordinates": [
     [
      [
       116.3458,
       39.939
      ],
      [
       116.3458,
       39.95
      ],
      [
       116.3492,
       39.95
      ],
      [
       116.3492,
       39.939
      ],
      [
       116.3458,
       39.939
      ]
     ]
    ]
   }
  },
  {
   "type": "Feature",
   "id": "LU-002",
   "properties": {
    "id": "LU-002",
    "layer": "LAND_USE",
    "source_type": "agent_generated_design",
    "confidence": "medium",
    "geometry_role": "design_proposal",
    "land_use_code": "0902",
    "label_zh": "商务金融用地",
    "label_en": "Business & finance",
    "district_zh": "大钟寺智能原生消费区",
    "column": "W",
    "area_sqm_declared": 548335.914
   },
   "geometry": {
    "type": "Polygon",
    "coordinates": [
     [
      [
       116.3407,
       39.939
      ],
      [
       116.3403944,
       39.95
      ],
      [
       116.3458,
       39.95
      ],
      [
       116.3458,
       39.939
      ],
      [
       116.3407,
       39.939
      ]
     ]
    ]
   }
  },
  {
   "type": "Feature",
   "id": "LU-003",
   "properties": {
    "id": "LU-003",
    "layer": "LAND_USE",
    "source_type": "agent_generated_design",
    "confidence": "medium",
    "geometry_role": "design_proposal",
    "land_use_code": "0901",
    "label_zh": "商业用地",
    "label_en": "Commercial",
    "district_zh": "大钟寺智能原生消费区",
    "column": "E",
    "area_sqm_declared": 636777.119
   },
   "geometry": {
    "type": "Polygon",
    "coordinates": [
     [
      [
       116.3492,
       39.939
      ],
      [
       116.3492,
       39.95
      ],
      [
       116.3553,
       39.95
      ],
      [
       116.3553,
       39.939
      ],
      [
       116.3492,
       39.939
      ]
     ]
    ]
   }
  },
  {
   "type": "Feature",
   "id": "LU-004",
   "properties": {
    "id": "LU-004",
    "layer": "LAND_USE",
    "source_type": "agent_generated_design",
    "confidence": "medium",
    "geometry_role": "design_proposal",
    "land_use_code": "1401",
    "label_zh": "京张遗址公园·智脊段",
    "label_en": "Jing-Zhang relic park spine",
    "district_zh": "大钟寺商务门户",
    "area_sqm_declared": 483898.567
   },
   "geometry": {
    "type": "Polygon",
    "coordinates": [
     [
      [
       116.3458,
       39.95
      ],
      [
       116.3458,
       39.965
      ],
      [
       116.3492,
       39.965
      ],
      [
       116.3492,
       39.95
      ],
      [
       116.3458,
       39.95
      ]
     ]
    ]
   }
  },
  {
   "type": "Feature",
   "id": "LU-005",
   "properties": {
    "id": "LU-005",
    "layer": "LAND_USE",
    "source_type": "agent_generated_design",
    "confidence": "medium",
    "geometry_role": "design_proposal",
    "land_use_code": "0904",
    "label_zh": "其他商业服务业用地",
    "label_en": "Other commercial services",
    "district_zh": "大钟寺商务门户",
    "column": "W",
    "area_sqm_declared": 798983.99
   },
   "geometry": {
    "type": "Polygon",
    "coordinates": [
     [
      [
       116.3399778,
       39.965
      ],
      [
       116.3458,
       39.965
      ],
      [
       116.3458,
       39.95
      ],
      [
       116.3403944,
       39.95
      ],
      [
       116.3399778,
       39.965
      ]
     ]
    ]
   }
  },
  {
   "type": "Feature",
   "id": "LU-006",
   "properties": {
    "id": "LU-006",
    "layer": "LAND_USE",
    "source_type": "agent_generated_design",
    "confidence": "medium",
    "geometry_role": "design_proposal",
    "land_use_code": "0902",
    "label_zh": "商务金融用地",
    "label_en": "Business & finance",
    "district_zh": "大钟寺商务门户",
    "column": "E",
    "area_sqm_declared": 868169.994
   },
   "geometry": {
    "type": "Polygon",
    "coordinates": [
     [
      [
       116.3553,
       39.95
      ],
      [
       116.3492,
       39.95
      ],
      [
       116.3492,
       39.965
      ],
      [
       116.3553,
       39.965
      ],
      [
       116.3553,
       39.95
      ]
     ]
    ]
   }
  },
  {
   "type": "Feature",
   "id": "LU-007",
   "properties": {
    "id": "LU-007",
    "layer": "LAND_USE",
    "source_type": "agent_generated_design",
    "confidence": "medium",
    "geometry_role": "design_proposal",
    "land_use_code": "1401",
    "label_zh": "京张遗址公园·智脊段",
    "label_en": "Jing-Zhang relic park spine",
    "district_zh": "南段缝合过渡",
    "area_sqm_declared": 322540.992
   },
   "geometry": {
    "type": "Polygon",
    "coordinates": [
     [
      [
       116.3458,
       39.965
      ],
      [
       116.3458,
       39.975
      ],
      [
       116.3492,
       39.975
      ],
      [
       116.3492,
       39.965
      ],
      [
       116.3458,
       39.965
      ]
     ]
    ]
   }
  },
  {
   "type": "Feature",
   "id": "LU-008",
   "properties": {
    "id": "LU-008",
    "layer": "LAND_USE",
    "source_type": "agent_generated_design",
    "confidence": "medium",
    "geometry_role": "design_proposal",
    "land_use_code": "0701",
    "label_zh": "城镇住宅用地",
    "label_en": "Urban residential",
    "district_zh": "南段缝合过渡",
    "column": "W",
    "area_sqm_declared": 565500.657
   },
   "geometry": {
    "type": "Polygon",
    "coordinates": [
     [
      [
       116.3397,
       39.975
      ],
      [
       116.3458,
       39.975
      ],
      [
       116.3458,
       39.965
      ],
      [
       116.3399778,
       39.965
      ],
      [
       116.3397,
       39.975
      ]
     ]
    ]
   }
  },
  {
   "type": "Feature",
   "id": "LU-009",
   "properties": {
    "id": "LU-009",
    "layer": "LAND_USE",
    "source_type": "agent_generated_design",
    "confidence": "medium",
    "geometry_role": "design_proposal",
    "land_use_code": "0802",
    "label_zh": "科研用地",
    "label_en": "R&D / scientific research",
    "district_zh": "南段缝合过渡",
    "column": "E",
    "area_sqm_declared": 540732.148
   },
   "geometry": {
    "type": "Polygon",
    "coordinates": [
     [
      [
       116.3553,
       39.965
      ],
      [
       116.3492,
       39.965
      ],
      [
       116.3492,
       39.975
      ],
      [
       116.3545,
       39.975
      ],
      [
       116.3553,
       39.965
      ]
     ]
    ]
   }
  },
  {
   "type": "Feature",
   "id": "LU-010",
   "properties": {
    "id": "LU-010",
    "layer": "LAND_USE",
    "source_type": "agent_generated_design",
    "confidence": "medium",
    "geometry_role": "design_proposal",
    "land_use_code": "1401",
    "label_zh": "京张遗址公园·智脊段",
    "label_en": "Jing-Zhang relic park spine",
    "district_zh": "中段生活社区",
    "area_sqm_declared": 274123.319
   },
   "geometry": {
    "type": "Polygon",
    "coordinates": [
     [
      [
       116.3458,
       39.975
      ],
      [
       116.3458,
       39.9835
      ],
      [
       116.3492,
       39.9835
      ],
      [
       116.3492,
       39.975
      ],
      [
       116.3458,
       39.975
      ]
     ]
    ]
   }
  },
  {
   "type": "Feature",
   "id": "LU-011",
   "properties": {
    "id": "LU-011",
    "layer": "LAND_USE",
    "source_type": "agent_generated_design",
    "confidence": "medium",
    "geometry_role": "design_proposal",
    "land_use_code": "0701",
    "label_zh": "城镇住宅用地",
    "label_en": "Urban residential",
    "district_zh": "中段生活社区",
    "column": "W",
    "area_sqm_declared": 469704.265
   },
   "geometry": {
    "type": "Polygon",
    "coordinates": [
     [
      [
       116.3402484,
       39.9835
      ],
      [
       116.3458,
       39.9835
      ],
      [
       116.3458,
       39.975
      ],
      [
       116.3397,
       39.975
      ],
      [
       116.3402484,
       39.9835
      ]
     ]
    ]
   }
  },
  {
   "type": "Feature",
   "id": "LU-012",
   "properties": {
    "id": "LU-012",
    "layer": "LAND_USE",
    "source_type": "agent_generated_design",
    "confidence": "medium",
    "geometry_role": "design_proposal",
    "land_use_code": "0701",
    "label_zh": "城镇住宅用地",
    "label_en": "Urban residential",
    "district_zh": "中段生活社区",
    "column": "E",
    "area_sqm_declared": 399898.516
   },
   "geometry": {
    "type": "Polygon",
    "coordinates": [
     [
      [
       116.3545,
       39.975
      ],
      [
       116.3492,
       39.975
      ],
      [
       116.3492,
       39.9835
      ],
      [
       116.35382,
       39.9835
      ],
      [
       116.3545,
       39.975
      ]
     ]
    ]
   }
  },
  {
   "type": "Feature",
   "id": "LU-013",
   "properties": {
    "id": "LU-013",
    "layer": "LAND_USE",
    "source_type": "agent_generated_design",
    "confidence": "medium",
    "geometry_role": "design_proposal",
    "land_use_code": "1401",
    "label_zh": "京张遗址公园·智脊段",
    "label_en": "Jing-Zhang relic park spine",
    "district_zh": "AI原点社区核心",
    "area_sqm_declared": 209601.065
   },
   "geometry": {
    "type": "Polygon",
    "coordinates": [
     [
      [
       116.3458,
       39.9835
      ],
      [
       116.3458,
       39.99
      ],
      [
       116.3492,
       39.99
      ],
      [
       116.3492,
       39.9835
      ],
      [
       116.3458,
       39.9835
      ]
     ]
    ]
   }
  },
  {
   "type": "Feature",
   "id": "LU-014",
   "properties": {
    "id": "LU-014",
    "layer": "LAND_USE",
    "source_type": "agent_generated_design",
    "confidence": "medium",
    "geometry_role": "design_proposal",
    "land_use_code": "0802",
    "label_zh": "科研用地",
    "label_en": "R&D / scientific research",
    "district_zh": "AI原点社区核心",
    "column": "W",
    "area_sqm_declared": 329316.991
   },
   "geometry": {
    "type": "Polygon",
    "coordinates": [
     [
      [
       116.3406677,
       39.99
      ],
      [
       116.3458,
       39.99
      ],
      [
       116.3458,
       39.9835
      ],
      [
       116.3402484,
       39.9835
      ],
      [
       116.3406677,
       39.99
      ]
     ]
    ]
   }
  },
  {
   "type": "Feature",
   "id": "LU-015",
   "properties": {
    "id": "LU-015",
    "layer": "LAND_USE",
    "source_type": "agent_generated_design",
    "confidence": "medium",
    "geometry_role": "design_proposal",
    "land_use_code": "0902",
    "label_zh": "商务金融用地",
    "label_en": "Business & finance",
    "district_zh": "AI原点社区核心",
    "column": "E",
    "area_sqm_declared": 268782.856
   },
   "geometry": {
    "type": "Polygon",
    "coordinates": [
     [
      [
       116.35382,
       39.9835
      ],
      [
       116.3492,
       39.9835
      ],
      [
       116.3492,
       39.99
      ],
      [
       116.3533,
       39.99
      ],
      [
       116.35382,
       39.9835
      ]
     ]
    ]
   }
  },
  {
   "type": "Feature",
   "id": "LU-016",
   "properties": {
    "id": "LU-016",
    "layer": "LAND_USE",
    "source_type": "agent_generated_design",
    "confidence": "medium",
    "geometry_role": "design_proposal",
    "land_use_code": "1401",
    "label_zh": "京张遗址公园·智脊段",
    "label_en": "Jing-Zhang relic park spine",
    "district_zh": "AI原点社区书院",
    "area_sqm_declared": 112853.98
   },
   "geometry": {
    "type": "Polygon",
    "coordinates": [
     [
      [
       116.3458,
       39.99
      ],
      [
       116.3458,
       39.9935
      ],
      [
       116.3492,
       39.9935
      ],
      [
       116.3492,
       39.99
      ],
      [
       116.3458,
       39.99
      ]
     ]
    ]
   }
  },
  {
   "type": "Feature",
   "id": "LU-017",
   "properties": {
    "id": "LU-017",
    "layer": "LAND_USE",
    "source_type": "agent_generated_design",
    "confidence": "medium",
    "geometry_role": "design_proposal",
    "land_use_code": "0804",
    "label_zh": "教育用地",
    "label_en": "Education",
    "district_zh": "AI原点社区书院",
    "column": "W",
    "area_sqm_declared": 166604.312
   },
   "geometry": {
    "type": "Polygon",
    "coordinates": [
     [
      [
       116.3408935,
       39.9935
      ],
      [
       116.3458,
       39.9935
      ],
      [
       116.3458,
       39.99
      ],
      [
       116.3406677,
       39.99
      ],
      [
       116.3408935,
       39.9935
      ]
     ]
    ]
   }
  },
  {
   "type": "Feature",
   "id": "LU-018",
   "properties": {
    "id": "LU-018",
    "layer": "LAND_USE",
    "source_type": "agent_generated_design",
    "confidence": "medium",
    "geometry_role": "design_proposal",
    "land_use_code": "0802",
    "label_zh": "科研用地",
    "label_en": "R&D / scientific research",
    "district_zh": "AI原点社区书院",
    "column": "E",
    "area_sqm_declared": 139271.315
   },
   "geometry": {
    "type": "Polygon",
    "coordinates": [
     [
      [
       116.3533,
       39.99
      ],
      [
       116.3492,
       39.99
      ],
      [
       116.3492,
       39.9935
      ],
      [
       116.3534918,
       39.9935
      ],
      [
       116.3533,
       39.99
      ]
     ]
    ]
   }
  },
  {
   "type": "Feature",
   "id": "LU-019",
   "properties": {
    "id": "LU-019",
    "layer": "LAND_USE",
    "source_type": "agent_generated_design",
    "confidence": "medium",
    "geometry_role": "design_proposal",
    "land_use_code": "1401",
    "label_zh": "京张遗址公园·智脊段",
    "label_en": "Jing-Zhang relic park spine",
    "district_zh": "北段缝合过渡",
    "area_sqm_declared": 403003.451
   },
   "geometry": {
    "type": "Polygon",
    "coordinates": [
     [
      [
       116.3458,
       39.9935
      ],
      [
       116.3458,
       40.006
      ],
      [
       116.3492,
       40.006
      ],
      [
       116.3492,
       39.9935
      ],
      [
       116.3458,
       39.9935
      ]
     ]
    ]
   }
  },
  {
   "type": "Feature",
   "id": "LU-020",
   "properties": {
    "id": "LU-020",
    "layer": "LAND_USE",
    "source_type": "agent_generated_design",
    "confidence": "medium",
    "geometry_role": "design_proposal",
    "land_use_code": "0701",
    "label_zh": "城镇住宅用地",
    "label_en": "Urban residential",
    "district_zh": "北段缝合过渡",
    "column": "W",
    "area_sqm_declared": 533773.799
   },
   "geometry": {
    "type": "Polygon",
    "coordinates": [
     [
      [
       116.3417,
       40.006
      ],
      [
       116.3458,
       40.006
      ],
      [
       116.3458,
       39.9935
      ],
      [
       116.3408935,
       39.9935
      ],
      [
       116.3417,
       40.006
      ]
     ]
    ]
   }
  },
  {
   "type": "Feature",
   "id": "LU-021",
   "properties": {
    "id": "LU-021",
    "layer": "LAND_USE",
    "source_type": "agent_generated_design",
    "confidence": "medium",
    "geometry_role": "design_proposal",
    "land_use_code": "1402",
    "label_zh": "防护绿地",
    "label_en": "Protective green",
    "district_zh": "北段缝合过渡",
    "column": "E",
    "area_sqm_declared": 549295.308
   },
   "geometry": {
    "type": "Polygon",
    "coordinates": [
     [
      [
       116.3534918,
       39.9935
      ],
      [
       116.3492,
       39.9935
      ],
      [
       116.3492,
       40.006
      ],
      [
       116.3541767,
       40.006
      ],
      [
       116.3534918,
       39.9935
      ]
     ]
    ]
   }
  },
  {
   "type": "Feature",
   "id": "LU-022",
   "properties": {
    "id": "LU-022",
    "layer": "LAND_USE",
    "source_type": "agent_generated_design",
    "confidence": "medium",
    "geometry_role": "design_proposal",
    "land_use_code": "1401",
    "label_zh": "京张遗址公园·智脊段",
    "label_en": "Jing-Zhang relic park spine",
    "district_zh": "众智园门户",
    "area_sqm_declared": 48355.534
   },
   "geometry": {
    "type": "Polygon",
    "coordinates": [
     [
      [
       116.3458,
       40.006
      ],
      [
       116.3458,
       40.0075
      ],
      [
       116.3492,
       40.0075
      ],
      [
       116.3492,
       40.006
      ],
      [
       116.3458,
       40.006
      ]
     ]
    ]
   }
  },
  {
   "type": "Feature",
   "id": "LU-023",
   "properties": {
    "id": "LU-023",
    "layer": "LAND_USE",
    "source_type": "agent_generated_design",
    "confidence": "medium",
    "geometry_role": "design_proposal",
    "land_use_code": "1402",
    "label_zh": "防护绿地",
    "label_en": "Protective green",
    "district_zh": "众智园门户",
    "column": "W",
    "area_sqm_declared": 57790.792
   },
   "geometry": {
    "type": "Polygon",
    "coordinates": [
     [
      [
       116.3417732,
       40.0075
      ],
      [
       116.3458,
       40.0075
      ],
      [
       116.3458,
       40.006
      ],
      [
       116.3417,
       40.006
      ],
      [
       116.3417732,
       40.0075
      ]
     ]
    ]
   }
  },
  {
   "type": "Feature",
   "id": "LU-024",
   "properties": {
    "id": "LU-024",
    "layer": "LAND_USE",
    "source_type": "agent_generated_design",
    "confidence": "medium",
    "geometry_role": "design_proposal",
    "land_use_code": "0802",
    "label_zh": "科研用地",
    "label_en": "R&D / scientific research",
    "district_zh": "众智园门户",
    "column": "E",
    "area_sqm_declared": 71364.317
   },
   "geometry": {
    "type": "Polygon",
    "coordinates": [
     [
      [
       116.3541767,
       40.006
      ],
      [
       116.3492,
       40.006
      ],
      [
       116.3492,
       40.0075
      ],
      [
       116.3542589,
       40.0075
      ],
      [
       116.3541767,
       40.006
      ]
     ]
    ]
   }
  },
  {
   "type": "Feature",
   "id": "LU-025",
   "properties": {
    "id": "LU-025",
    "layer": "LAND_USE",
    "source_type": "agent_generated_design",
    "confidence": "medium",
    "geometry_role": "design_proposal",
    "land_use_code": "1401",
    "label_zh": "京张遗址公园·智脊段",
    "label_en": "Jing-Zhang relic park spine",
    "district_zh": "众智园全栈加速核",
    "area_sqm_declared": 612412.879
   },
   "geometry": {
    "type": "Polygon",
    "coordinates": [
     [
      [
       116.3492,
       40.0265
      ],
      [
       116.3492,
       40.0075
      ],
      [
       116.3458,
       40.0075
      ],
      [
       116.3458,
       40.0265
      ],
      [
       116.3492,
       40.0265
      ]
     ]
    ]
   }
  },
  {
   "type": "Feature",
   "id": "LU-026",
   "properties": {
    "id": "LU-026",
    "layer": "LAND_USE",
    "source_type": "agent_generated_design",
    "confidence": "medium",
    "geometry_role": "design_proposal",
    "land_use_code": "0802",
    "label_zh": "科研用地",
    "label_en": "R&D / scientific research",
    "district_zh": "众智园全栈加速核",
    "column": "W",
    "area_sqm_declared": 641859.22
   },
   "geometry": {
    "type": "Polygon",
    "coordinates": [
     [
      [
       116.3458,
       40.0265
      ],
      [
       116.3458,
       40.0075
      ],
      [
       116.3417732,
       40.0075
      ],
      [
       116.3427,
       40.0265
      ],
      [
       116.3458,
       40.0265
      ]
     ]
    ]
   }
  },
  {
   "type": "Feature",
   "id": "LU-027",
   "properties": {
    "id": "LU-027",
    "layer": "LAND_USE",
    "source_type": "agent_generated_design",
    "confidence": "medium",
    "geometry_role": "design_proposal",
    "land_use_code": "16",
    "label_zh": "留白用地",
    "label_en": "Reserved (white) land",
    "district_zh": "众智园全栈加速核",
    "column": "E",
    "area_sqm_declared": 1004965.512
   },
   "geometry": {
    "type": "Polygon",
    "coordinates": [
     [
      [
       116.3542589,
       40.0075
      ],
      [
       116.3492,
       40.0075
      ],
      [
       116.3492,
       40.0265
      ],
      [
       116.3553,
       40.0265
      ],
      [
       116.3542589,
       40.0075
      ]
     ]
    ]
   }
  }
 ]
}