{
 "type": "FeatureCollection",
 "name": "phasing",
 "features": [
  {
   "type": "Feature",
   "id": "PH-1",
   "properties": {
    "id": "PH-1",
    "layer": "PHASE",
    "source_type": "agent_generated_design",
    "confidence": "medium",
    "geometry_role": "design_proposal",
    "phase": "PH-1",
    "label_zh": "近期 2026–2028",
    "label_en": "Phase 1 (2026–2028)",
    "note_zh": "大钟寺+南段快速启动，依托现状大钟寺站与商务基础",
    "area_sqm_declared": 3691085.461
   },
   "geometry": {
    "type": "Polygon",
    "coordinates": [
     [
      [
       116.3407,
       39.939
      ],
      [
       116.3399778,
       39.965
      ],
      [
       116.3553,
       39.965
      ],
      [
       116.3553,
       39.939
      ],
      [
       116.3407,
       39.939
      ]
     ]
    ]
   }
  },
  {
   "type": "Feature",
   "id": "PH-2",
   "properties": {
    "id": "PH-2",
    "layer": "PHASE",
    "source_type": "agent_generated_design",
    "confidence": "medium",
    "geometry_role": "design_proposal",
    "phase": "PH-2",
    "label_zh": "中期 2029–2032",
    "label_en": "Phase 2 (2029–2032)",
    "note_zh": "AI原点社区成型，缝合遗址公园两侧",
    "area_sqm_declared": 3798955.952
   },
   "geometry": {
    "type": "Polygon",
    "coordinates": [
     [
      [
       116.3533,
       39.99
      ],
      [
       116.3553,
       39.965
      ],
      [
       116.3399778,
       39.965
      ],
      [
       116.3397,
       39.975
      ],
      [
       116.3408935,
       39.9935
      ],
      [
       116.3534918,
       39.9935
      ],
      [
       116.3533,
       39.99
      ]
     ]
    ]
   }
  },
  {
   "type": "Feature",
   "id": "PH-3",
   "properties": {
    "id": "PH-3",
    "layer": "PHASE",
    "source_type": "agent_generated_design",
    "confidence": "medium",
    "geometry_role": "design_proposal",
    "phase": "PH-3",
    "label_zh": "远期 2033–2035",
    "label_en": "Phase 3 (2033–2035)",
    "note_zh": "众智园全栈加速核与留白弹性预留",
    "area_sqm_declared": 3922791.819
   },
   "geometry": {
    "type": "Polygon",
    "coordinates": [
     [
      [
       116.3534918,
       39.9935
      ],
      [
       116.3408935,
       39.9935
      ],
      [
       116.3417,
       40.006
      ],
      [
       116.3427,
       40.0265
      ],
      [
       116.3553,
       40.0265
      ],
      [
       116.3534918,
       39.9935
      ]
     ]
    ]
   }
  }
 ]
}