{
 "type": "FeatureCollection",
 "name": "public_space",
 "features": [
  {
   "type": "Feature",
   "id": "PS-001",
   "properties": {
    "id": "PS-001",
    "layer": "PUBLIC_SPACE",
    "source_type": "agent_generated_design",
    "confidence": "medium",
    "geometry_role": "design_proposal",
    "land_use_code": "1403",
    "label_zh": "南门户活力广场",
    "label_en": "South gateway plaza",
    "area_sqm_declared": 91107.013
   },
   "geometry": {
    "type": "Polygon",
    "coordinates": [
     [
      [
       116.35,
       39.9408
      ],
      [
       116.35,
       39.9432
      ],
      [
       116.354,
       39.9432
      ],
      [
       116.354,
       39.9408
      ],
      [
       116.35,
       39.9408
      ]
     ]
    ]
   }
  },
  {
   "type": "Feature",
   "id": "PS-002",
   "properties": {
    "id": "PS-002",
    "layer": "PUBLIC_SPACE",
    "source_type": "agent_generated_design",
    "confidence": "medium",
    "geometry_role": "design_proposal",
    "land_use_code": "1403",
    "label_zh": "大钟寺缝合广场",
    "label_en": "Dazhongsi stitch plaza",
    "area_sqm_declared": 91088.853
   },
   "geometry": {
    "type": "Polygon",
    "coordinates": [
     [
      [
       116.3414,
       39.9545
      ],
      [
       116.3414,
       39.9575
      ],
      [
       116.3446,
       39.9575
      ],
      [
       116.3446,
       39.9545
      ],
      [
       116.3414,
       39.9545
      ]
     ]
    ]
   }
  },
  {
   "type": "Feature",
   "id": "PS-003",
   "properties": {
    "id": "PS-003",
    "layer": "PUBLIC_SPACE",
    "source_type": "agent_generated_design",
    "confidence": "medium",
    "geometry_role": "design_proposal",
    "land_use_code": "1403",
    "label_zh": "大钟寺商务前厅",
    "label_en": "Dazhongsi business forecourt",
    "area_sqm_declared": 74006.887
   },
   "geometry": {
    "type": "Polygon",
    "coordinates": [
     [
      [
       116.3497,
       39.9572
      ],
      [
       116.3497,
       39.9598
      ],
      [
       116.3527,
       39.9598
      ],
      [
       116.3527,
       39.9572
      ],
      [
       116.3497,
       39.9572
      ]
     ]
    ]
   }
  },
  {
   "type": "Feature",
   "id": "PS-004",
   "properties": {
    "id": "PS-004",
    "layer": "PUBLIC_SPACE",
    "source_type": "agent_generated_design",
    "confidence": "medium",
    "geometry_role": "design_proposal",
    "land_use_code": "1403",
    "label_zh": "原点社区中心广场",
    "label_en": "AI-Origin community plaza",
    "area_sqm_declared": 109256.049
   },
   "geometry": {
    "type": "Polygon",
    "coordinates": [
     [
      [
       116.3494,
       39.9864
      ],
      [
       116.3494,
       39.9896
      ],
      [
       116.353,
       39.9896
      ],
      [
       116.353,
       39.9864
      ],
      [
       116.3494,
       39.9864
      ]
     ]
    ]
   }
  },
  {
   "type": "Feature",
   "id": "PS-005",
   "properties": {
    "id": "PS-005",
    "layer": "PUBLIC_SPACE",
    "source_type": "agent_generated_design",
    "confidence": "medium",
    "geometry_role": "design_proposal",
    "land_use_code": "1403",
    "label_zh": "原点书院前庭",
    "label_en": "AI-Origin academy forecourt",
    "area_sqm_declared": 63729.594
   },
   "geometry": {
    "type": "Polygon",
    "coordinates": [
     [
      [
       116.3422,
       39.9903
      ],
      [
       116.3422,
       39.9927
      ],
      [
       116.345,
       39.9927
      ],
      [
       116.345,
       39.9903
      ],
      [
       116.3422,
       39.9903
      ]
     ]
    ]
   }
  },
  {
   "type": "Feature",
   "id": "PS-006",
   "properties": {
    "id": "PS-006",
    "layer": "PUBLIC_SPACE",
    "source_type": "agent_generated_design",
    "confidence": "medium",
    "geometry_role": "design_proposal",
    "land_use_code": "1403",
    "label_zh": "北段缝合广场",
    "label_en": "North stitch plaza",
    "area_sqm_declared": 90269.767
   },
   "geometry": {
    "type": "Polygon",
    "coordinates": [
     [
      [
       116.3495,
       40.0006
      ],
      [
       116.3495,
       40.0034
      ],
      [
       116.3529,
       40.0034
      ],
      [
       116.3529,
       40.0006
      ],
      [
       116.3495,
       40.0006
      ]
     ]
    ]
   }
  },
  {
   "type": "Feature",
   "id": "PS-007",
   "properties": {
    "id": "PS-007",
    "layer": "PUBLIC_SPACE",
    "source_type": "agent_generated_design",
    "confidence": "medium",
    "geometry_role": "design_proposal",
    "land_use_code": "1403",
    "label_zh": "众智园门户广场",
    "label_en": "Zhongzhiyuan gateway plaza",
    "area_sqm_declared": 151685.455
   },
   "geometry": {
    "type": "Polygon",
    "coordinates": [
     [
      [
       116.3492,
       40.013
      ],
      [
       116.3492,
       40.017
      ],
      [
       116.3532,
       40.017
      ],
      [
       116.3532,
       40.013
      ],
      [
       116.3492,
       40.013
      ]
     ]
    ]
   }
  },
  {
   "type": "Feature",
   "id": "PS-008",
   "properties": {
    "id": "PS-008",
    "layer": "PUBLIC_SPACE",
    "source_type": "agent_generated_design",
    "confidence": "medium",
    "geometry_role": "design_proposal",
    "land_use_code": "1403",
    "label_zh": "众智园荣誉广场",
    "label_en": "Zhongzhiyuan honor plaza",
    "area_sqm_declared": 94019.902
   },
   "geometry": {
    "type": "Polygon",
    "coordinates": [
     [
      [
       116.3453,
       40.0217
      ],
      [
       116.3453,
       40.0183
      ],
      [
       116.3423,
       40.0183
      ],
      [
       116.3424659,
       40.0217
      ],
      [
       116.3453,
       40.0217
      ]
     ]
    ]
   }
  },
  {
   "type": "Feature",
   "id": "PS-009",
   "properties": {
    "id": "PS-009",
    "layer": "PUBLIC_SPACE",
    "source_type": "agent_generated_design",
    "confidence": "medium",
    "geometry_role": "design_proposal",
    "land_use_code": "1403",
    "label_zh": "众智园交流环廊",
    "label_en": "Zhongzhiyuan exchange ring",
    "area_sqm_declared": 70904.255
   },
   "geometry": {
    "type": "Polygon",
    "coordinates": [
     [
      [
       116.3495,
       40.0224
      ],
      [
       116.3495,
       40.0246
      ],
      [
       116.3529,
       40.0246
      ],
      [
       116.3529,
       40.0224
      ],
      [
       116.3495,
       40.0224
      ]
     ]
    ]
   }
  }
 ]
}