{
 "type": "FeatureCollection",
 "name": "roads",
 "features": [
  {
   "type": "Feature",
   "id": "RD-001",
   "properties": {
    "id": "RD-001",
    "layer": "ROAD_CENTERLINE",
    "source_type": "agent_generated_design",
    "confidence": "medium",
    "geometry_role": "design_proposal",
    "road_class": "greenway",
    "label_zh": "京张智脊主绿道",
    "label_en": "Jing-Zhang spine greenway",
    "length_m": 9605.37
   },
   "geometry": {
    "type": "LineString",
    "coordinates": [
     [
      116.3475,
      39.9395
     ],
     [
      116.3475,
      39.965
     ],
     [
      116.3471,
      39.99
     ],
     [
      116.3475,
      40.006
     ],
     [
      116.3475,
      40.026
     ]
    ]
   }
  },
  {
   "type": "Feature",
   "id": "RD-002",
   "properties": {
    "id": "RD-002",
    "layer": "ROAD_CENTERLINE",
    "source_type": "osm",
    "confidence": "low",
    "geometry_role": "existing_condition",
    "road_class": "arterial",
    "label_zh": "东侧主干路（学院路—西土城路一线）",
    "label_en": "East arterial (Xueyuan–Xitucheng)",
    "length_m": 9613.73
   },
   "geometry": {
    "type": "LineString",
    "coordinates": [
     [
      116.3548,
      39.9395
     ],
     [
      116.3548,
      39.965
     ],
     [
      116.3528,
      39.99
     ],
     [
      116.3548,
      40.026
     ]
    ]
   }
  },
  {
   "type": "Feature",
   "id": "RD-003",
   "properties": {
    "id": "RD-003",
    "layer": "ROAD_CENTERLINE",
    "source_type": "agent_generated_design",
    "confidence": "medium",
    "geometry_role": "design_proposal",
    "road_class": "secondary",
    "label_zh": "西侧次干路",
    "label_en": "West secondary road",
    "length_m": 9445.18
   },
   "geometry": {
    "type": "LineString",
    "coordinates": [
     [
      116.3412,
      39.94
     ],
     [
      116.3402,
      39.975
     ],
     [
      116.3422,
      40.006
     ],
     [
      116.3432,
      40.025
     ]
    ]
   }
  },
  {
   "type": "Feature",
   "id": "RD-004",
   "properties": {
    "id": "RD-004",
    "layer": "ROAD_CENTERLINE",
    "source_type": "agent_generated_design",
    "confidence": "medium",
    "geometry_role": "design_proposal",
    "road_class": "greenway",
    "label_zh": "大钟寺缝合·人字连廊",
    "label_en": "Herringbone stitch 1",
    "length_m": 1253.73
   },
   "geometry": {
    "type": "LineString",
    "coordinates": [
     [
      116.3405609,
      39.9440087
     ],
     [
      116.3475,
      39.945
     ],
     [
      116.355,
      39.944
     ]
    ]
   }
  },
  {
   "type": "Feature",
   "id": "RD-005",
   "properties": {
    "id": "RD-005",
    "layer": "ROAD_CENTERLINE",
    "source_type": "agent_generated_design",
    "confidence": "medium",
    "geometry_role": "design_proposal",
    "road_class": "greenway",
    "label_zh": "南过渡缝合·人字连廊",
    "label_en": "Herringbone stitch 2",
    "length_m": 1258.83
   },
   "geometry": {
    "type": "LineString",
    "coordinates": [
     [
      116.3405,
      39.955
     ],
     [
      116.3475,
      39.956
     ],
     [
      116.355,
      39.955
     ]
    ]
   }
  },
  {
   "type": "Feature",
   "id": "RD-006",
   "properties": {
    "id": "RD-006",
    "layer": "ROAD_CENTERLINE",
    "source_type": "agent_generated_design",
    "confidence": "medium",
    "geometry_role": "design_proposal",
    "road_class": "greenway",
    "label_zh": "南段缝合·人字连廊",
    "label_en": "Herringbone stitch 3",
    "length_m": 1256.83
   },
   "geometry": {
    "type": "LineString",
    "coordinates": [
     [
      116.3405,
      39.969
     ],
     [
      116.3475,
      39.97
     ],
     [
      116.3549798,
      39.9690027
     ]
    ]
   }
  },
  {
   "type": "Feature",
   "id": "RD-007",
   "properties": {
    "id": "RD-007",
    "layer": "ROAD_CENTERLINE",
    "source_type": "agent_generated_design",
    "confidence": "medium",
    "geometry_role": "design_proposal",
    "road_class": "greenway",
    "label_zh": "原点南缝合·人字连廊",
    "label_en": "Herringbone stitch 4",
    "length_m": 1126.25
   },
   "geometry": {
    "type": "LineString",
    "coordinates": [
     [
      116.3405065,
      39.9875009
     ],
     [
      116.3475,
      39.9885
     ],
     [
      116.3534838,
      39.9877022
     ]
    ]
   }
  },
  {
   "type": "Feature",
   "id": "RD-008",
   "properties": {
    "id": "RD-008",
    "layer": "ROAD_CENTERLINE",
    "source_type": "agent_generated_design",
    "confidence": "medium",
    "geometry_role": "design_proposal",
    "road_class": "greenway",
    "label_zh": "原点北缝合·人字连廊",
    "label_en": "Herringbone stitch 5",
    "length_m": 1095.77
   },
   "geometry": {
    "type": "LineString",
    "coordinates": [
     [
      116.340767,
      39.9915381
     ],
     [
      116.3475,
      39.9925
     ],
     [
      116.3533939,
      39.9917141
     ]
    ]
   }
  },
  {
   "type": "Feature",
   "id": "RD-009",
   "properties": {
    "id": "RD-009",
    "layer": "ROAD_CENTERLINE",
    "source_type": "agent_generated_design",
    "confidence": "medium",
    "geometry_role": "design_proposal",
    "road_class": "greenway",
    "label_zh": "北过渡缝合·人字连廊",
    "label_en": "Herringbone stitch 6",
    "length_m": 1086.2
   },
   "geometry": {
    "type": "LineString",
    "coordinates": [
     [
      116.3414181,
      40.0016312
     ],
     [
      116.3475,
      40.0025
     ],
     [
      116.3539379,
      40.0016416
     ]
    ]
   }
  },
  {
   "type": "Feature",
   "id": "RD-010",
   "properties": {
    "id": "RD-010",
    "layer": "ROAD_CENTERLINE",
    "source_type": "agent_generated_design",
    "confidence": "medium",
    "geometry_role": "design_proposal",
    "road_class": "greenway",
    "label_zh": "众智园南缝合·人字连廊",
    "label_en": "Herringbone stitch 7",
    "length_m": 1086.03
   },
   "geometry": {
    "type": "LineString",
    "coordinates": [
     [
      116.3421505,
      40.0152358
     ],
     [
      116.3475,
      40.016
     ],
     [
      116.3546723,
      40.0150437
     ]
    ]
   }
  },
  {
   "type": "Feature",
   "id": "RD-011",
   "properties": {
    "id": "RD-011",
    "layer": "ROAD_CENTERLINE",
    "source_type": "agent_generated_design",
    "confidence": "medium",
    "geometry_role": "design_proposal",
    "road_class": "greenway",
    "label_zh": "众智园北缝合·人字连廊",
    "label_en": "Herringbone stitch 8",
    "length_m": 1088.19
   },
   "geometry": {
    "type": "LineString",
    "coordinates": [
     [
      116.3423961,
      40.0202709
     ],
     [
      116.3475,
      40.021
     ],
     [
      116.3549442,
      40.0200074
     ]
    ]
   }
  },
  {
   "type": "Feature",
   "id": "RD-012",
   "properties": {
    "id": "RD-012",
    "layer": "ROAD_CENTERLINE",
    "source_type": "agent_generated_design",
    "confidence": "medium",
    "geometry_role": "design_proposal",
    "road_class": "transit_connection",
    "label_zh": "大钟寺站接驳",
    "label_en": "Dazhongsi station link",
    "length_m": 263.81
   },
   "geometry": {
    "type": "LineString",
    "coordinates": [
     [
      116.352,
      39.9445
     ],
     [
      116.3492,
      39.9455
     ]
    ]
   }
  },
  {
   "type": "Feature",
   "id": "RD-013",
   "properties": {
    "id": "RD-013",
    "layer": "ROAD_CENTERLINE",
    "source_type": "agent_generated_design",
    "confidence": "medium",
    "geometry_role": "design_proposal",
    "road_class": "transit_connection",
    "label_zh": "五道口·原点接驳",
    "label_en": "Wudaokou-Origin link",
    "length_m": 88.04
   },
   "geometry": {
    "type": "LineString",
    "coordinates": [
     [
      116.35,
      39.989
     ],
     [
      116.3492,
      39.9885
     ]
    ]
   }
  },
  {
   "type": "Feature",
   "id": "RD-014",
   "properties": {
    "id": "RD-014",
    "layer": "ROAD_CENTERLINE",
    "source_type": "agent_generated_design",
    "confidence": "medium",
    "geometry_role": "design_proposal",
    "road_class": "transit_connection",
    "label_zh": "清河·众智园接驳",
    "label_en": "Qinghe-Zhongzhiyuan link",
    "length_m": 124.1
   },
   "geometry": {
    "type": "LineString",
    "coordinates": [
     [
      116.3505,
      40.018
     ],
     [
      116.3492,
      40.0175
     ]
    ]
   }
  }
 ]
}