{
  "type": "FeatureCollection",
  "name": "building_footprints_scaffold",
  "features": [
    {
      "type": "Feature",
      "id": "BLDG-001",
      "properties": {
        "id": "BLDG-001",
        "layer": "BUILDING_FOOTPRINT",
        "source_type": "agent_inferred_from_public_data",
        "confidence": "medium",
        "geometry_role": "provisional_constraint",
        "building_type": "ai_r_and_d",
        "name_zh": "AI研发示范建筑基底",
        "area_sqm_declared": 310807.184,
        "source_id": "SITE-PACKAGE",
        "boundary_precision": "provisional_rough",
        "usage_note": "Participant-generated design layer derived from the provisional site package; not an official control layer. Replace/relocate after official polygons and regulatory controls are released.",
        "area_sqm_calculated": 310807.184
      },
      "geometry": {
        "type": "Polygon",
        "coordinates": [
          [
            [
              116.341572,
              39.95475
            ],
            [
              116.341572,
              39.97225
            ],
            [
              116.34344399999999,
              39.97225
            ],
            [
              116.34344399999999,
              39.95475
            ],
            [
              116.341572,
              39.95475
            ]
          ]
        ]
      }
    }
  ]
}
