{
  "type": "FeatureCollection",
  "name": "green_space_scaffold",
  "features": [
    {
      "type": "Feature",
      "id": "GREEN-001",
      "properties": {
        "id": "GREEN-001",
        "layer": "GREEN_SPACE",
        "source_type": "agent_inferred_from_public_data",
        "confidence": "medium",
        "geometry_role": "provisional_constraint",
        "land_use_code": "1401",
        "name_zh": "连续公园绿地",
        "area_sqm_declared": 1408600.768,
        "source_id": "SITE-PACKAGE",
        "boundary_precision": "provisional_rough",
        "usage_note": "Participant-generated design layer derived from the provisional site package; not an official control layer. Replace/relocate after official polygons and regulatory controls are released.",
        "area_sqm_calculated": 1408600.768
      },
      "geometry": {
        "type": "Polygon",
        "coordinates": [
          [
            [
              116.34438,
              39.953
            ],
            [
              116.34438,
              40.012499999999996
            ],
            [
              116.346876,
              40.012499999999996
            ],
            [
              116.346876,
              39.953
            ],
            [
              116.34438,
              39.953
            ]
          ]
        ]
      }
    }
  ]
}
