{
  "type": "FeatureCollection",
  "name": "phasing_scaffold",
  "features": [
    {
      "type": "Feature",
      "id": "PHASE-001",
      "properties": {
        "id": "PHASE-001",
        "layer": "PHASE",
        "source_type": "agent_inferred_from_public_data",
        "confidence": "medium",
        "geometry_role": "provisional_constraint",
        "phase": "phase_1",
        "name_zh": "一期可讨论范围",
        "area_sqm_declared": 4587013.573,
        "source_id": "SITE-PACKAGE",
        "boundary_precision": "provisional_rough",
        "usage_note": "Participant-generated design layer derived from the provisional site package; not an official control layer. Replace/relocate after official polygons and regulatory controls are released.",
        "area_sqm_calculated": 4587013.573
      },
      "geometry": {
        "type": "Polygon",
        "coordinates": [
          [
            [
              116.3417,
              40.006
            ],
            [
              116.34218780487805,
              40.016
            ],
            [
              116.34843599999999,
              40.016
            ],
            [
              116.34843599999999,
              39.9495
            ],
            [
              116.340948,
              39.9495
            ],
            [
              116.340948,
              39.99434399999997
            ],
            [
              116.3417,
              40.006
            ]
          ]
        ]
      }
    }
  ]
}
