{
 "type": "FeatureCollection",
 "name": "public_space",
 "features": [
  {
   "type": "Feature",
   "id": "PS-LM00",
   "properties": {
    "id": "PS-LM00",
    "layer": "PUBLIC_SPACE",
    "scenario_type": "ai_landmark",
    "label_zh": "原点发布广场",
    "landmark_id": "ORIGIN-SQUARE",
    "official_boundary": false,
    "geometry_role": "design_proposal",
    "confidence": "low",
    "source_type": "agent_generated_design"
   },
   "geometry": {
    "type": "Polygon",
    "coordinates": [
     [
      [
       116.34828389559547,
       40.016663407016466
      ],
      [
       116.34828227659752,
       40.01683359665073
      ],
      [
       116.34871611597485,
       40.016836035696144
      ],
      [
       116.34871773389524,
       40.016665846047275
      ],
      [
       116.34828389559547,
       40.016663407016466
      ]
     ]
    ]
   }
  },
  {
   "type": "Feature",
   "id": "PS-LM01",
   "properties": {
    "id": "PS-LM01",
    "layer": "PUBLIC_SPACE",
    "scenario_type": "ai_landmark",
    "label_zh": "街坊AI学院",
    "landmark_id": "BLOCK-AI-ACADEMY",
    "official_boundary": false,
    "geometry_role": "design_proposal",
    "confidence": "low",
    "source_type": "agent_generated_design"
   },
   "geometry": {
    "type": "Polygon",
    "coordinates": [
     [
      [
       116.34728397946152,
       39.98841369502953
      ],
      [
       116.3472823595998,
       39.98858388546197
      ],
      [
       116.34771602013001,
       39.9885863268281
      ],
      [
       116.34771763891567,
       39.988416136381026
      ],
      [
       116.34728397946152,
       39.98841369502953
      ]
     ]
    ]
   }
  },
  {
   "type": "Feature",
   "id": "PS-LM02",
   "properties": {
    "id": "PS-LM02",
    "layer": "PUBLIC_SPACE",
    "scenario_type": "ai_landmark",
    "label_zh": "智巷·场景试验街",
    "landmark_id": "AI-ALLEY",
    "official_boundary": false,
    "geometry_role": "design_proposal",
    "confidence": "low",
    "source_type": "agent_generated_design"
   },
   "geometry": {
    "type": "Polygon",
    "coordinates": [
     [
      [
       116.34828410551157,
       39.94683382776045
      ],
      [
       116.34828249051033,
       39.947004019451235
      ],
      [
       116.34871588847462,
       39.9470064549838
      ],
      [
       116.34871750240205,
       39.94683626327841
      ],
      [
       116.34828410551157,
       39.94683382776045
      ]
     ]
    ]
   }
  },
  {
   "type": "Feature",
   "id": "PS-SN00",
   "properties": {
    "id": "PS-SN00",
    "layer": "PUBLIC_SPACE",
    "scenario_type": "scenario_node",
    "label_zh": "AI场景节点",
    "official_boundary": false,
    "geometry_role": "design_proposal",
    "confidence": "low",
    "source_type": "agent_generated_design"
   },
   "geometry": {
    "type": "Polygon",
    "coordinates": [
     [
      [
       116.34708665619303,
       40.00998868829845
      ],
      [
       116.34708150776001,
       40.01052902411387
      ],
      [
       116.34778419669543,
       40.01053298094811
      ],
      [
       116.34778933958852,
       40.00999264505741
      ],
      [
       116.34708665619303,
       40.00998868829845
      ]
     ]
    ]
   }
  },
  {
   "type": "Feature",
   "id": "PS-SN01",
   "properties": {
    "id": "PS-SN01",
    "layer": "PUBLIC_SPACE",
    "scenario_type": "scenario_node",
    "label_zh": "AI场景节点",
    "official_boundary": false,
    "geometry_role": "design_proposal",
    "confidence": "low",
    "source_type": "agent_generated_design"
   },
   "geometry": {
    "type": "Polygon",
    "coordinates": [
     [
      [
       116.34714438569196,
       40.00352862488026
      ],
      [
       116.3471370943493,
       40.00429410146837
      ],
      [
       116.34813247983378,
       40.00429970452866
      ],
      [
       116.34813976006161,
       40.00353422778952
      ],
      [
       116.34714438569196,
       40.00352862488026
      ]
     ]
    ]
   }
  },
  {
   "type": "Feature",
   "id": "PS-SN02",
   "properties": {
    "id": "PS-SN02",
    "layer": "PUBLIC_SPACE",
    "scenario_type": "scenario_node",
    "label_zh": "AI场景节点",
    "official_boundary": false,
    "geometry_role": "design_proposal",
    "confidence": "low",
    "source_type": "agent_generated_design"
   },
   "geometry": {
    "type": "Polygon",
    "coordinates": [
     [
      [
       116.34720209604399,
       39.99706855416989
      ],
      [
       116.34719266312645,
       39.99805917203038
      ],
      [
       116.34848069195671,
       39.99806641987365
      ],
      [
       116.34849010626574,
       39.99707580176034
      ],
      [
       116.34720209604399,
       39.99706855416989
      ]
     ]
    ]
   }
  },
  {
   "type": "Feature",
   "id": "PS-SN03",
   "properties": {
    "id": "PS-SN03",
    "layer": "PUBLIC_SPACE",
    "scenario_type": "scenario_node",
    "label_zh": "AI场景节点",
    "official_boundary": false,
    "geometry_role": "design_proposal",
    "confidence": "low",
    "source_type": "agent_generated_design"
   },
   "geometry": {
    "type": "Polygon",
    "coordinates": [
     [
      [
       116.34769562770126,
       39.990948659061495
      ],
      [
       116.34769048753446,
       39.991488996723014
      ],
      [
       116.34839298140757,
       39.99149294831328
      ],
      [
       116.3483981160397,
       39.990952610576585
      ],
      [
       116.34769562770126,
       39.990948659061495
      ]
     ]
    ]
   }
  },
  {
   "type": "Feature",
   "id": "PS-SN04",
   "properties": {
    "id": "PS-SN04",
    "layer": "PUBLIC_SPACE",
    "scenario_type": "scenario_node",
    "label_zh": "AI场景节点",
    "official_boundary": false,
    "geometry_role": "design_proposal",
    "confidence": "low",
    "source_type": "agent_generated_design"
   },
   "geometry": {
    "type": "Polygon",
    "coordinates": [
     [
      [
       116.3477280911708,
       39.984488151155354
      ],
      [
       116.34772081125391,
       39.98525363035482
      ],
      [
       116.34871592047496,
       39.98525922620448
      ],
      [
       116.34872318928758,
       39.984493746854156
      ],
      [
       116.3477280911708,
       39.984488151155354
      ]
     ]
    ]
   }
  },
  {
   "type": "Feature",
   "id": "PS-SN05",
   "properties": {
    "id": "PS-SN05",
    "layer": "PUBLIC_SPACE",
    "scenario_type": "scenario_node",
    "label_zh": "AI场景节点",
    "official_boundary": false,
    "geometry_role": "design_proposal",
    "confidence": "low",
    "source_type": "agent_generated_design"
   },
   "geometry": {
    "type": "Polygon",
    "coordinates": [
     [
      [
       116.34773999844559,
       39.97802729120762
      ],
      [
       116.34773057964959,
       39.97901791243849
      ],
      [
       116.3490182510477,
       39.97902515146091
      ],
      [
       116.34902765125285,
       39.97803452997747
      ],
      [
       116.34773999844559,
       39.97802729120762
      ]
     ]
    ]
   }
  },
  {
   "type": "Feature",
   "id": "PS-SN06",
   "properties": {
    "id": "PS-SN06",
    "layer": "PUBLIC_SPACE",
    "scenario_type": "scenario_node",
    "label_zh": "AI场景节点",
    "official_boundary": false,
    "geometry_role": "design_proposal",
    "confidence": "low",
    "source_type": "agent_generated_design"
   },
   "geometry": {
    "type": "Polygon",
    "coordinates": [
     [
      [
       116.348187618433,
       39.971906605269105
      ],
      [
       116.34818248560325,
       39.97244694476403
      ],
      [
       116.34888478456307,
       39.97245089182134
      ],
      [
       116.34888991186342,
       39.97191055225129
      ],
      [
       116.348187618433,
       39.971906605269105
      ]
     ]
    ]
   }
  },
  {
   "type": "Feature",
   "id": "PS-SN07",
   "properties": {
    "id": "PS-SN07",
    "layer": "PUBLIC_SPACE",
    "scenario_type": "scenario_node",
    "label_zh": "AI场景节点",
    "official_boundary": false,
    "geometry_role": "design_proposal",
    "confidence": "low",
    "source_type": "agent_generated_design"
   },
   "geometry": {
    "type": "Polygon",
    "coordinates": [
     [
      [
       116.34819946417785,
       39.96544573093368
      ],
      [
       116.34819219442292,
       39.96621121272733
      ],
      [
       116.34918702759371,
       39.966216802333435
      ],
      [
       116.349194286255,
       39.965451320389086
      ],
      [
       116.34819946417785,
       39.96544573093368
      ]
     ]
    ]
   }
  },
  {
   "type": "Feature",
   "id": "PS-SN08",
   "properties": {
    "id": "PS-SN08",
    "layer": "PUBLIC_SPACE",
    "scenario_type": "scenario_node",
    "label_zh": "AI场景节点",
    "official_boundary": false,
    "geometry_role": "design_proposal",
    "confidence": "low",
    "source_type": "agent_generated_design"
   },
   "geometry": {
    "type": "Polygon",
    "coordinates": [
     [
      [
       116.34821129943815,
       39.95898484940285
      ],
      [
       116.3482018937891,
       39.95997547399077
      ],
      [
       116.34948920805691,
       39.95998270493559
      ],
      [
       116.34949859513281,
       39.958992080095385
      ],
      [
       116.34821129943815,
       39.95898484940285
      ]
     ]
    ]
   }
  },
  {
   "type": "Feature",
   "id": "PS-SN09",
   "properties": {
    "id": "PS-SN09",
    "layer": "PUBLIC_SPACE",
    "scenario_type": "scenario_node",
    "label_zh": "AI场景节点",
    "official_boundary": false,
    "geometry_role": "design_proposal",
    "confidence": "low",
    "source_type": "agent_generated_design"
   },
   "geometry": {
    "type": "Polygon",
    "coordinates": [
     [
      [
       116.34865873020694,
       39.952864140272226
      ],
      [
       116.34865360454287,
       39.95340448159812
      ],
      [
       116.3493557087683,
       39.953408424250775
      ],
      [
       116.34936082890823,
       39.952868082849825
      ],
      [
       116.34865873020694,
       39.952864140272226
      ]
     ]
    ]
   }
  }
 ]
}