{
  "type": "FeatureCollection",
  "name": "constraints",
  "data_gap": {
    "reason_zh": "组织方尚未公开正式道路红线、控规地块、文保控制线、蓝线与市政控制条件；本包不虚构任何 official_constraint 几何。",
    "reason_en": "No official road redlines, regulatory parcels, heritage control lines, blue lines, or municipal controls have been published; this package fabricates no official_constraint geometry.",
    "recalculation_trigger": "Add official or cleared constraint geometry with source, CRS, and conversion method, then re-run land-use, roads, metrics, and self-check.",
    "related_assumptions": [
      "A-CONTROLS-001",
      "A-PROV-BOUNDARY-001"
    ]
  },
  "features": []
}