{
  "type": "FeatureCollection",
  "name": "green_space",
  "features": [
    {
      "type": "Feature",
      "id": "GREEN-001",
      "properties": {
        "id": "GREEN-001",
        "layer": "GREEN_SPACE",
        "source_type": "agent_generated_design",
        "confidence": "medium",
        "geometry_role": "design_proposal",
        "name_zh": "京张遗址公园回响轴绿廊段",
        "label_zh": "京张遗址公园回响轴绿廊段",
        "label_en": "Echo Spine linear-park segment (Jing-Zhang Railway Heritage Park)",
        "green_type": "park",
        "area_sqm_declared": 308614.658
      },
      "geometry": {
        "type": "Polygon",
        "coordinates": [
          [
            [
              116.345,
              39.939
            ],
            [
              116.345,
              39.94984
            ],
            [
              116.348,
              39.94984
            ],
            [
              116.348,
              39.939
            ],
            [
              116.345,
              39.939
            ]
          ]
        ]
      }
    },
    {
      "type": "Feature",
      "id": "GREEN-002",
      "properties": {
        "id": "GREEN-002",
        "layer": "GREEN_SPACE",
        "source_type": "agent_generated_design",
        "confidence": "medium",
        "geometry_role": "design_proposal",
        "name_zh": "京张遗址公园回响轴绿廊段",
        "label_zh": "京张遗址公园回响轴绿廊段",
        "label_en": "Echo Spine linear-park segment (Jing-Zhang Railway Heritage Park)",
        "green_type": "park",
        "area_sqm_declared": 232283.337
      },
      "geometry": {
        "type": "Polygon",
        "coordinates": [
          [
            [
              116.345,
              39.94984
            ],
            [
              116.345,
              39.958
            ],
            [
              116.348,
              39.958
            ],
            [
              116.348,
              39.94984
            ],
            [
              116.345,
              39.94984
            ]
          ]
        ]
      }
    },
    {
      "type": "Feature",
      "id": "GREEN-003",
      "properties": {
        "id": "GREEN-003",
        "layer": "GREEN_SPACE",
        "source_type": "agent_generated_design",
        "confidence": "medium",
        "geometry_role": "design_proposal",
        "name_zh": "京张遗址公园回响轴绿廊段",
        "label_zh": "京张遗址公园回响轴绿廊段",
        "label_en": "Echo Spine linear-park segment (Jing-Zhang Railway Heritage Park)",
        "green_type": "park",
        "area_sqm_declared": 199240.926
      },
      "geometry": {
        "type": "Polygon",
        "coordinates": [
          [
            [
              116.345,
              39.958
            ],
            [
              116.345,
              39.965
            ],
            [
              116.348,
              39.965
            ],
            [
              116.348,
              39.958
            ],
            [
              116.345,
              39.958
            ]
          ]
        ]
      }
    },
    {
      "type": "Feature",
      "id": "GREEN-004",
      "properties": {
        "id": "GREEN-004",
        "layer": "GREEN_SPACE",
        "source_type": "agent_generated_design",
        "confidence": "medium",
        "geometry_role": "design_proposal",
        "name_zh": "京张遗址公园回响轴绿廊段",
        "label_zh": "京张遗址公园回响轴绿廊段",
        "label_en": "Echo Spine linear-park segment (Jing-Zhang Railway Heritage Park)",
        "green_type": "park",
        "area_sqm_declared": 270366.28
      },
      "geometry": {
        "type": "Polygon",
        "coordinates": [
          [
            [
              116.345,
              39.965
            ],
            [
              116.345,
              39.9745
            ],
            [
              116.348,
              39.9745
            ],
            [
              116.348,
              39.965
            ],
            [
              116.345,
              39.965
            ]
          ]
        ]
      }
    },
    {
      "type": "Feature",
      "id": "GREEN-005",
      "properties": {
        "id": "GREEN-005",
        "layer": "GREEN_SPACE",
        "source_type": "agent_generated_design",
        "confidence": "medium",
        "geometry_role": "design_proposal",
        "name_zh": "京张遗址公园回响轴绿廊段",
        "label_zh": "京张遗址公园回响轴绿廊段",
        "label_en": "Echo Spine linear-park segment (Jing-Zhang Railway Heritage Park)",
        "green_type": "park",
        "area_sqm_declared": 256102.353
      },
      "geometry": {
        "type": "Polygon",
        "coordinates": [
          [
            [
              116.345,
              39.9745
            ],
            [
              116.345,
              39.9835
            ],
            [
              116.348,
              39.9835
            ],
            [
              116.348,
              39.9745
            ],
            [
              116.345,
              39.9745
            ]
          ]
        ]
      }
    },
    {
      "type": "Feature",
      "id": "GREEN-006",
      "properties": {
        "id": "GREEN-006",
        "layer": "GREEN_SPACE",
        "source_type": "agent_generated_design",
        "confidence": "medium",
        "geometry_role": "design_proposal",
        "name_zh": "京张遗址公园回响轴绿廊段",
        "label_zh": "京张遗址公园回响轴绿廊段",
        "label_en": "Echo Spine linear-park segment (Jing-Zhang Railway Heritage Park)",
        "green_type": "park",
        "area_sqm_declared": 199139.059
      },
      "geometry": {
        "type": "Polygon",
        "coordinates": [
          [
            [
              116.345,
              39.9935
            ],
            [
              116.345,
              40.0005
            ],
            [
              116.348,
              40.0005
            ],
            [
              116.348,
              39.9935
            ],
            [
              116.345,
              39.9935
            ]
          ]
        ]
      }
    },
    {
      "type": "Feature",
      "id": "GREEN-007",
      "properties": {
        "id": "GREEN-007",
        "layer": "GREEN_SPACE",
        "source_type": "agent_generated_design",
        "confidence": "medium",
        "geometry_role": "design_proposal",
        "name_zh": "京张遗址公园回响轴绿廊段",
        "label_zh": "京张遗址公园回响轴绿廊段",
        "label_en": "Echo Spine linear-park segment (Jing-Zhang Railway Heritage Park)",
        "green_type": "park",
        "area_sqm_declared": 199118.963
      },
      "geometry": {
        "type": "Polygon",
        "coordinates": [
          [
            [
              116.345,
              40.0005
            ],
            [
              116.345,
              40.0075
            ],
            [
              116.348,
              40.0075
            ],
            [
              116.348,
              40.0005
            ],
            [
              116.345,
              40.0005
            ]
          ]
        ]
      }
    },
    {
      "type": "Feature",
      "id": "GREEN-008",
      "properties": {
        "id": "GREEN-008",
        "layer": "GREEN_SPACE",
        "source_type": "agent_generated_design",
        "confidence": "medium",
        "geometry_role": "design_proposal",
        "name_zh": "京张遗址公园回响轴绿廊段",
        "label_zh": "京张遗址公园回响轴绿廊段",
        "label_en": "Echo Spine linear-park segment (Jing-Zhang Railway Heritage Park)",
        "green_type": "park",
        "area_sqm_declared": 270200.73
      },
      "geometry": {
        "type": "Polygon",
        "coordinates": [
          [
            [
              116.345,
              40.0075
            ],
            [
              116.345,
              40.017
            ],
            [
              116.348,
              40.017
            ],
            [
              116.348,
              40.0075
            ],
            [
              116.345,
              40.0075
            ]
          ]
        ]
      }
    },
    {
      "type": "Feature",
      "id": "GREEN-009",
      "properties": {
        "id": "GREEN-009",
        "layer": "GREEN_SPACE",
        "source_type": "agent_generated_design",
        "confidence": "medium",
        "geometry_role": "design_proposal",
        "name_zh": "北五环防护绿带段",
        "label_zh": "北五环防护绿带段",
        "label_en": "Protective green belt near the North 5th Ring",
        "green_type": "protective",
        "area_sqm_declared": 270163.704
      },
      "geometry": {
        "type": "Polygon",
        "coordinates": [
          [
            [
              116.348,
              40.0265
            ],
            [
              116.348,
              40.017
            ],
            [
              116.345,
              40.017
            ],
            [
              116.345,
              40.0265
            ],
            [
              116.348,
              40.0265
            ]
          ]
        ]
      }
    },
    {
      "type": "Feature",
      "id": "GREEN-010",
      "properties": {
        "id": "GREEN-010",
        "layer": "GREEN_SPACE",
        "source_type": "agent_generated_design",
        "confidence": "medium",
        "geometry_role": "design_proposal",
        "name_zh": "蓟门里社区口袋公园（概念）",
        "label_zh": "蓟门里社区口袋公园（概念）",
        "label_en": "Jimenli pocket park (conceptual)",
        "green_type": "pocket_park",
        "area_sqm_declared": 40227.943
      },
      "geometry": {
        "type": "Polygon",
        "coordinates": [
          [
            [
              116.34072352941176,
              39.952599099099096
            ],
            [
              116.34072352941176,
              39.9544009009009
            ],
            [
              116.34307647058823,
              39.9544009009009
            ],
            [
              116.34307647058823,
              39.952599099099096
            ],
            [
              116.34072352941176,
              39.952599099099096
            ]
          ]
        ]
      }
    },
    {
      "type": "Feature",
      "id": "GREEN-011",
      "properties": {
        "id": "GREEN-011",
        "layer": "GREEN_SPACE",
        "source_type": "agent_generated_design",
        "confidence": "medium",
        "geometry_role": "design_proposal",
        "name_zh": "学院路创新口袋公园（概念）",
        "label_zh": "学院路创新口袋公园（概念）",
        "label_en": "Xueyuan Road innovation pocket park (conceptual)",
        "green_type": "pocket_park",
        "area_sqm_declared": 48664.133
      },
      "geometry": {
        "type": "Polygon",
        "coordinates": [
          [
            [
              116.35080588235293,
              39.96900900900901
            ],
            [
              116.35080588235293,
              39.97099099099099
            ],
            [
              116.35339411764706,
              39.97099099099099
            ],
            [
              116.35339411764706,
              39.96900900900901
            ],
            [
              116.35080588235293,
              39.96900900900901
            ]
          ]
        ]
      }
    },
    {
      "type": "Feature",
      "id": "GREEN-012",
      "properties": {
        "id": "GREEN-012",
        "layer": "GREEN_SPACE",
        "source_type": "agent_generated_design",
        "confidence": "medium",
        "geometry_role": "design_proposal",
        "name_zh": "原点社区共创花园（概念）",
        "label_zh": "原点社区共创花园（概念）",
        "label_en": "Origin Community co-creation garden (conceptual)",
        "green_type": "pocket_park",
        "area_sqm_declared": 48651.272
      },
      "geometry": {
        "type": "Polygon",
        "coordinates": [
          [
            [
              116.34150588235293,
              39.98750900900901
            ],
            [
              116.34150588235293,
              39.989490990990994
            ],
            [
              116.34409411764706,
              39.989490990990994
            ],
            [
              116.34409411764706,
              39.98750900900901
            ],
            [
              116.34150588235293,
              39.98750900900901
            ]
          ]
        ]
      }
    },
    {
      "type": "Feature",
      "id": "GREEN-013",
      "properties": {
        "id": "GREEN-013",
        "layer": "GREEN_SPACE",
        "source_type": "agent_generated_design",
        "confidence": "medium",
        "geometry_role": "design_proposal",
        "name_zh": "文化绿地节点（概念）",
        "label_zh": "文化绿地节点（概念）",
        "label_en": "Cultural green node (conceptual)",
        "green_type": "pocket_park",
        "area_sqm_declared": 40198.883
      },
      "geometry": {
        "type": "Polygon",
        "coordinates": [
          [
            [
              116.35082352941177,
              40.0025990990991
            ],
            [
              116.35082352941177,
              40.004400900900905
            ],
            [
              116.35317647058824,
              40.004400900900905
            ],
            [
              116.35317647058824,
              40.0025990990991
            ],
            [
              116.35082352941177,
              40.0025990990991
            ]
          ]
        ]
      }
    },
    {
      "type": "Feature",
      "id": "GREEN-014",
      "properties": {
        "id": "GREEN-014",
        "layer": "GREEN_SPACE",
        "source_type": "agent_generated_design",
        "confidence": "medium",
        "geometry_role": "design_proposal",
        "name_zh": "众智园清河绿楔（概念）",
        "label_zh": "众智园清河绿楔（概念）",
        "label_en": "Zhongzhiyuan Qinghe green wedge (conceptual)",
        "green_type": "pocket_park",
        "area_sqm_declared": 57871.881
      },
      "geometry": {
        "type": "Polygon",
        "coordinates": [
          [
            [
              116.34338823529413,
              40.01991891891892
            ],
            [
              116.34338823529413,
              40.02208108108108
            ],
            [
              116.34621176470588,
              40.02208108108108
            ],
            [
              116.34621176470588,
              40.01991891891892
            ],
            [
              116.34338823529413,
              40.01991891891892
            ]
          ]
        ]
      }
    }
  ]
}