{
  "type": "FeatureCollection",
  "name": "phasing",
  "features": [
    {
      "type": "Feature",
      "id": "PHASE-001",
      "properties": {
        "id": "PHASE-001",
        "layer": "PHASE",
        "source_type": "agent_generated_design",
        "confidence": "medium",
        "geometry_role": "design_proposal",
        "phase": 1,
        "name_zh": "近期（1-3年）：原点社区启动区与回响轴中北段公共空间",
        "label_zh": "近期（1-3年）：原点社区启动区与回响轴中北段公共空间",
        "label_en": "Phase 1 (1-3 yr): Origin Community starter area and mid-north Echo Spine public space",
        "area_sqm_declared": 5149217.511
      },
      "geometry": {
        "type": "Polygon",
        "coordinates": [
          [
            [
              116.3533,
              39.99
            ],
            [
              116.35382,
              39.9835
            ],
            [
              116.34024838709676,
              39.9835
            ],
            [
              116.3417,
              40.006
            ],
            [
              116.3427,
              40.0265
            ],
            [
              116.3553,
              40.0265
            ],
            [
              116.3533,
              39.99
            ]
          ]
        ]
      }
    },
    {
      "type": "Feature",
      "id": "PHASE-002",
      "properties": {
        "id": "PHASE-002",
        "layer": "PHASE",
        "source_type": "agent_generated_design",
        "confidence": "medium",
        "geometry_role": "design_proposal",
        "phase": 2,
        "name_zh": "中期（3-5年）：大钟寺站城一体化与智能原生业态更新",
        "label_zh": "中期（3-5年）：大钟寺站城一体化与智能原生业态更新",
        "label_en": "Phase 2 (3-5 yr): Dazhongsi station-city integration and native-AI programs",
        "area_sqm_declared": 3691085.461
      },
      "geometry": {
        "type": "Polygon",
        "coordinates": [
          [
            [
              116.3407,
              39.939
            ],
            [
              116.33997777777778,
              39.965
            ],
            [
              116.3553,
              39.965
            ],
            [
              116.3553,
              39.939
            ],
            [
              116.3407,
              39.939
            ]
          ]
        ]
      }
    },
    {
      "type": "Feature",
      "id": "PHASE-003",
      "properties": {
        "id": "PHASE-003",
        "layer": "PHASE",
        "source_type": "agent_generated_design",
        "confidence": "medium",
        "geometry_role": "design_proposal",
        "phase": 3,
        "name_zh": "远期（5-10年）：中段存量缝合与场景化全覆盖",
        "label_zh": "远期（5-10年）：中段存量缝合与场景化全覆盖",
        "label_en": "Phase 3 (5-10 yr): mid-belt infill stitching and full scenario coverage",
        "area_sqm_declared": 2572502.961
      },
      "geometry": {
        "type": "Polygon",
        "coordinates": [
          [
            [
              116.3553,
              39.965
            ],
            [
              116.33997777777778,
              39.965
            ],
            [
              116.3397,
              39.975
            ],
            [
              116.34024838709676,
              39.9835
            ],
            [
              116.35382,
              39.9835
            ],
            [
              116.3553,
              39.965
            ]
          ]
        ]
      }
    }
  ]
}