{
  "type": "FeatureCollection",
  "name": "public_space",
  "features": [
    {
      "type": "Feature",
      "id": "PUBLIC-001",
      "properties": {
        "id": "PUBLIC-001",
        "layer": "PUBLIC_SPACE",
        "source_type": "agent_generated_design",
        "confidence": "medium",
        "geometry_role": "design_proposal",
        "name_zh": "回响步道：遗址公园连续公共活力带（概念）",
        "label_zh": "回响步道",
        "label_en": "Echo Walk continuous public promenade (conceptual)",
        "public_space_type": "linear_promenade",
        "area_sqm_declared": 995899.503
      },
      "geometry": {
        "type": "Polygon",
        "coordinates": [
          [
            [
              116.3459,
              39.939
            ],
            [
              116.3459,
              40.0265
            ],
            [
              116.3471,
              40.0265
            ],
            [
              116.3471,
              39.939
            ],
            [
              116.3459,
              39.939
            ]
          ]
        ]
      }
    },
    {
      "type": "Feature",
      "id": "PUBLIC-002",
      "properties": {
        "id": "PUBLIC-002",
        "layer": "PUBLIC_SPACE",
        "source_type": "agent_generated_design",
        "confidence": "medium",
        "geometry_role": "design_proposal",
        "name_zh": "原点广场：AI原点社区中央公共空间（概念）",
        "label_zh": "原点广场",
        "label_en": "Origin Plaza central public space (conceptual)",
        "public_space_type": "civic_square",
        "area_sqm_declared": 284519.223
      },
      "geometry": {
        "type": "Polygon",
        "coordinates": [
          [
            [
              116.345,
              39.9835
            ],
            [
              116.345,
              39.9935
            ],
            [
              116.348,
              39.9935
            ],
            [
              116.348,
              39.9835
            ],
            [
              116.345,
              39.9835
            ]
          ]
        ]
      }
    },
    {
      "type": "Feature",
      "id": "PUBLIC-003",
      "properties": {
        "id": "PUBLIC-003",
        "layer": "PUBLIC_SPACE",
        "source_type": "agent_generated_design",
        "confidence": "medium",
        "geometry_role": "design_proposal",
        "name_zh": "大钟寺站前钟鸣广场（概念）",
        "label_zh": "大钟寺站前钟鸣广场（概念）",
        "label_en": "Bell Resonance station forecourt at Dazhongsi (conceptual)",
        "public_space_type": "plaza",
        "area_sqm_declared": 48680.7
      },
      "geometry": {
        "type": "Polygon",
        "coordinates": [
          [
            [
              116.34190588235293,
              39.94550900900901
            ],
            [
              116.34190588235293,
              39.94749099099099
            ],
            [
              116.34449411764706,
              39.94749099099099
            ],
            [
              116.34449411764706,
              39.94550900900901
            ],
            [
              116.34190588235293,
              39.94550900900901
            ]
          ]
        ]
      }
    },
    {
      "type": "Feature",
      "id": "PUBLIC-004",
      "properties": {
        "id": "PUBLIC-004",
        "layer": "PUBLIC_SPACE",
        "source_type": "agent_generated_design",
        "confidence": "medium",
        "geometry_role": "design_proposal",
        "name_zh": "清华东路西口发布广场（概念）",
        "label_zh": "清华东路西口发布广场（概念）",
        "label_en": "Release plaza near Qinghua East Road West (conceptual)",
        "public_space_type": "plaza",
        "area_sqm_declared": 40207.587
      },
      "geometry": {
        "type": "Polygon",
        "coordinates": [
          [
            [
              116.34962352941177,
              39.9875990990991
            ],
            [
              116.34962352941177,
              39.989400900900904
            ],
            [
              116.35197647058824,
              39.989400900900904
            ],
            [
              116.35197647058824,
              39.9875990990991
            ],
            [
              116.34962352941177,
              39.9875990990991
            ]
          ]
        ]
      }
    },
    {
      "type": "Feature",
      "id": "PUBLIC-005",
      "properties": {
        "id": "PUBLIC-005",
        "layer": "PUBLIC_SPACE",
        "source_type": "agent_generated_design",
        "confidence": "medium",
        "geometry_role": "design_proposal",
        "name_zh": "回响之门广场（概念）",
        "label_zh": "回响之门广场（概念）",
        "label_en": "Echo Gate plaza (conceptual)",
        "public_space_type": "plaza",
        "area_sqm_declared": 48634.78
      },
      "geometry": {
        "type": "Polygon",
        "coordinates": [
          [
            [
              116.34250588235294,
              40.01100900900901
            ],
            [
              116.34250588235294,
              40.01299099099099
            ],
            [
              116.34509411764706,
              40.01299099099099
            ],
            [
              116.34509411764706,
              40.01100900900901
            ],
            [
              116.34250588235294,
              40.01100900900901
            ]
          ]
        ]
      }
    },
    {
      "type": "Feature",
      "id": "PUBLIC-006",
      "properties": {
        "id": "PUBLIC-006",
        "layer": "PUBLIC_SPACE",
        "source_type": "agent_generated_design",
        "confidence": "medium",
        "geometry_role": "design_proposal",
        "name_zh": "众智园开放测试前庭（概念）",
        "label_zh": "众智园开放测试前庭（概念）",
        "label_en": "Zhongzhiyuan open-testing forecourt (conceptual)",
        "public_space_type": "plaza",
        "area_sqm_declared": 40188.748
      },
      "geometry": {
        "type": "Polygon",
        "coordinates": [
          [
            [
              116.34982352941176,
              40.0200990990991
            ],
            [
              116.34982352941176,
              40.0219009009009
            ],
            [
              116.35217647058823,
              40.0219009009009
            ],
            [
              116.35217647058823,
              40.0200990990991
            ],
            [
              116.34982352941176,
              40.0200990990991
            ]
          ]
        ]
      }
    }
  ]
}