{
  "type": "FeatureCollection",
  "name": "roads",
  "features": [
    {
      "type": "Feature",
      "id": "ROAD-001",
      "properties": {
        "id": "ROAD-001",
        "layer": "ROAD_CENTERLINE",
        "source_type": "agent_generated_design",
        "confidence": "medium",
        "geometry_role": "design_proposal",
        "road_class": "secondary",
        "name_zh": "西侧创新服务街（概念微循环）",
        "label_zh": "西侧创新服务街（概念微循环）",
        "label_en": "West innovation-service street (conceptual)",
        "length_m_declared": 9715.877
      },
      "geometry": {
        "type": "LineString",
        "coordinates": [
          [
            116.344,
            39.939
          ],
          [
            116.344,
            40.0265
          ]
        ]
      }
    },
    {
      "type": "Feature",
      "id": "ROAD-002",
      "properties": {
        "id": "ROAD-002",
        "layer": "ROAD_CENTERLINE",
        "source_type": "agent_generated_design",
        "confidence": "medium",
        "geometry_role": "design_proposal",
        "road_class": "secondary",
        "name_zh": "东侧场景服务街（概念微循环）",
        "label_zh": "东侧场景服务街（概念微循环）",
        "label_en": "East scenario-service street (conceptual)",
        "length_m_declared": 9715.871
      },
      "geometry": {
        "type": "LineString",
        "coordinates": [
          [
            116.349,
            39.939
          ],
          [
            116.349,
            40.0265
          ]
        ]
      }
    },
    {
      "type": "Feature",
      "id": "ROAD-003",
      "properties": {
        "id": "ROAD-003",
        "layer": "ROAD_CENTERLINE",
        "source_type": "agent_generated_design",
        "confidence": "medium",
        "geometry_role": "design_proposal",
        "road_class": "greenway",
        "name_zh": "回响步道绿道主线（概念）",
        "label_zh": "回响步道绿道主线（概念）",
        "label_en": "Echo Walk greenway spine (conceptual)",
        "length_m_declared": 9715.874
      },
      "geometry": {
        "type": "LineString",
        "coordinates": [
          [
            116.3465,
            39.939
          ],
          [
            116.3465,
            40.0265
          ]
        ]
      }
    },
    {
      "type": "Feature",
      "id": "ROAD-004",
      "properties": {
        "id": "ROAD-004",
        "layer": "ROAD_CENTERLINE",
        "source_type": "agent_generated_design",
        "confidence": "medium",
        "geometry_role": "design_proposal",
        "road_class": "branch",
        "name_zh": "大钟寺站前缝合街（概念）",
        "label_zh": "大钟寺站前缝合街（概念）",
        "label_en": "Dazhongsi forecourt stitch street (conceptual)",
        "length_m_declared": 1266.753
      },
      "geometry": {
        "type": "LineString",
        "coordinates": [
          [
            116.34047777777778,
            39.947
          ],
          [
            116.3553,
            39.947
          ]
        ]
      }
    },
    {
      "type": "Feature",
      "id": "ROAD-005",
      "properties": {
        "id": "ROAD-005",
        "layer": "ROAD_CENTERLINE",
        "source_type": "agent_generated_design",
        "confidence": "medium",
        "geometry_role": "design_proposal",
        "road_class": "branch",
        "name_zh": "蓟门缝合支路（概念）",
        "label_zh": "蓟门缝合支路（概念）",
        "label_en": "Jimen stitch street (conceptual)",
        "length_m_declared": 1300.901
      },
      "geometry": {
        "type": "LineString",
        "coordinates": [
          [
            116.340075,
            39.9615
          ],
          [
            116.3553,
            39.9615
          ]
        ]
      }
    },
    {
      "type": "Feature",
      "id": "ROAD-006",
      "properties": {
        "id": "ROAD-006",
        "layer": "ROAD_CENTERLINE",
        "source_type": "agent_generated_design",
        "confidence": "medium",
        "geometry_role": "design_proposal",
        "road_class": "pedestrian",
        "name_zh": "学院路慢行缝合走廊（概念）",
        "label_zh": "学院路慢行缝合走廊（概念）",
        "label_en": "Xueyuan Rd walking stitch (conceptual)",
        "length_m_declared": 1266.578
      },
      "geometry": {
        "type": "LineString",
        "coordinates": [
          [
            116.33971388888888,
            39.9745
          ],
          [
            116.35454,
            39.9745
          ]
        ]
      }
    },
    {
      "type": "Feature",
      "id": "ROAD-007",
      "properties": {
        "id": "ROAD-007",
        "layer": "ROAD_CENTERLINE",
        "source_type": "agent_generated_design",
        "confidence": "medium",
        "geometry_role": "design_proposal",
        "road_class": "pedestrian",
        "name_zh": "原点社区东西缝合轴（概念）",
        "label_zh": "原点社区东西缝合轴（概念）",
        "label_en": "Origin Community E-W stitch axis (conceptual)",
        "length_m_declared": 1097.454
      },
      "geometry": {
        "type": "LineString",
        "coordinates": [
          [
            116.34057096774194,
            39.9885
          ],
          [
            116.35342,
            39.9885
          ]
        ]
      }
    },
    {
      "type": "Feature",
      "id": "ROAD-008",
      "properties": {
        "id": "ROAD-008",
        "layer": "ROAD_CENTERLINE",
        "source_type": "agent_generated_design",
        "confidence": "medium",
        "geometry_role": "design_proposal",
        "road_class": "branch",
        "name_zh": "文化节点支路（概念）",
        "label_zh": "文化节点支路（概念）",
        "label_en": "Culture-node stitch street (conceptual)",
        "length_m_declared": 1069.611
      },
      "geometry": {
        "type": "LineString",
        "coordinates": [
          [
            116.34137741935484,
            40.001
          ],
          [
            116.35390273972602,
            40.001
          ]
        ]
      }
    },
    {
      "type": "Feature",
      "id": "ROAD-009",
      "properties": {
        "id": "ROAD-009",
        "layer": "ROAD_CENTERLINE",
        "source_type": "agent_generated_design",
        "confidence": "medium",
        "geometry_role": "design_proposal",
        "road_class": "pedestrian",
        "name_zh": "回响之门慢行桥联络线（概念）",
        "label_zh": "回响之门慢行桥联络线（概念）",
        "label_en": "Echo Gate slow-mobility link (conceptual)",
        "length_m_declared": 1068.37
      },
      "geometry": {
        "type": "LineString",
        "coordinates": [
          [
            116.34199268292683,
            40.012
          ],
          [
            116.35450547945206,
            40.012
          ]
        ]
      }
    },
    {
      "type": "Feature",
      "id": "ROAD-010",
      "properties": {
        "id": "ROAD-010",
        "layer": "ROAD_CENTERLINE",
        "source_type": "agent_generated_design",
        "confidence": "medium",
        "geometry_role": "design_proposal",
        "road_class": "branch",
        "name_zh": "众智园开放测试环路段（概念）",
        "label_zh": "众智园开放测试环路段（概念）",
        "label_en": "Zhongzhiyuan open-testing loop segment (conceptual)",
        "length_m_declared": 1072.85
      },
      "geometry": {
        "type": "LineString",
        "coordinates": [
          [
            116.34243170731708,
            40.021
          ],
          [
            116.35499863013699,
            40.021
          ]
        ]
      }
    },
    {
      "type": "Feature",
      "id": "ROAD-011",
      "properties": {
        "id": "ROAD-011",
        "layer": "ROAD_CENTERLINE",
        "source_type": "agent_generated_design",
        "confidence": "medium",
        "geometry_role": "design_proposal",
        "road_class": "transit_connection",
        "name_zh": "大钟寺站接驳线（概念）",
        "label_zh": "大钟寺站接驳线（概念）",
        "label_en": "Dazhongsi station connection (conceptual)",
        "length_m_declared": 213.658
      },
      "geometry": {
        "type": "LineString",
        "coordinates": [
          [
            116.344,
            39.947
          ],
          [
            116.3465,
            39.947
          ]
        ]
      }
    },
    {
      "type": "Feature",
      "id": "ROAD-012",
      "properties": {
        "id": "ROAD-012",
        "layer": "ROAD_CENTERLINE",
        "source_type": "agent_generated_design",
        "confidence": "medium",
        "geometry_role": "design_proposal",
        "road_class": "transit_connection",
        "name_zh": "清华东路西口站接驳线（概念）",
        "label_zh": "清华东路西口站接驳线（概念）",
        "label_en": "Qinghua East Rd West station connection (conceptual)",
        "length_m_declared": 213.529
      },
      "geometry": {
        "type": "LineString",
        "coordinates": [
          [
            116.349,
            39.9885
          ],
          [
            116.3465,
            39.9885
          ]
        ]
      }
    }
  ]
}