{
  "type": "FeatureCollection",
  "name": "open_house_buildings",
  "features": [
    {
      "type": "Feature",
      "id": "BLDG-01-01",
      "properties": {
        "id": "BLDG-01-01",
        "layer": "BUILDING_FOOTPRINT",
        "source_type": "agent_generated_design",
        "confidence": "medium",
        "geometry_role": "design_proposal",
        "name_zh": "开放之家原型建筑01-01",
        "name_en": "Open House Prototype 01-01",
        "intervention": "adaptive_reuse_or_infill_subject_to_survey",
        "height_control": "pending_professional_confirmation",
        "area_sqm_declared": 10416.0,
        "planning_status": "conceptual_reference_scheme"
      },
      "geometry": {
        "type": "Polygon",
        "coordinates": [
          [
            [
              116.34551221155195,
              40.01555949233175
            ],
            [
              116.34560786452145,
              40.01631239825165
            ],
            [
              116.34705336700412,
              40.01620381943923
            ],
            [
              116.3469576982679,
              40.01545091457215
            ],
            [
              116.34551221155195,
              40.01555949233175
            ]
          ]
        ]
      }
    },
    {
      "type": "Feature",
      "id": "BLDG-01-02",
      "properties": {
        "id": "BLDG-01-02",
        "layer": "BUILDING_FOOTPRINT",
        "source_type": "agent_generated_design",
        "confidence": "medium",
        "geometry_role": "design_proposal",
        "name_zh": "开放之家原型建筑01-02",
        "name_en": "Open House Prototype 01-02",
        "intervention": "adaptive_reuse_or_infill_subject_to_survey",
        "height_control": "pending_professional_confirmation",
        "area_sqm_declared": 10416.0,
        "planning_status": "conceptual_reference_scheme"
      },
      "geometry": {
        "type": "Polygon",
        "coordinates": [
          [
            [
              116.34773755633029,
              40.015572039122375
            ],
            [
              116.34783323379698,
              40.01632494340001
            ],
            [
              116.34927873339338,
              40.01621633680232
            ],
            [
              116.3491830401602,
              40.01546343357823
            ],
            [
              116.34773755633029,
              40.015572039122375
            ]
          ]
        ]
      }
    },
    {
      "type": "Feature",
      "id": "BLDG-01-03",
      "properties": {
        "id": "BLDG-01-03",
        "layer": "BUILDING_FOOTPRINT",
        "source_type": "agent_generated_design",
        "confidence": "medium",
        "geometry_role": "design_proposal",
        "name_zh": "开放之家原型建筑01-03",
        "name_en": "Open House Prototype 01-03",
        "intervention": "adaptive_reuse_or_infill_subject_to_survey",
        "height_control": "pending_professional_confirmation",
        "area_sqm_declared": 10416.0,
        "planning_status": "conceptual_reference_scheme"
      },
      "geometry": {
        "type": "Polygon",
        "coordinates": [
          [
            [
              116.3499629025017,
              40.01558454318466
            ],
            [
              116.35005860446543,
              40.01633744581889
            ],
            [
              116.35150410117248,
              40.01622881143603
            ],
            [
              116.35140838344249,
              40.01547590985608
            ],
            [
              116.3499629025017,
              40.01558454318466
            ]
          ]
        ]
      }
    },
    {
      "type": "Feature",
      "id": "BLDG-01-04",
      "properties": {
        "id": "BLDG-01-04",
        "layer": "BUILDING_FOOTPRINT",
        "source_type": "agent_generated_design",
        "confidence": "medium",
        "geometry_role": "design_proposal",
        "name_zh": "开放之家原型建筑01-04",
        "name_en": "Open House Prototype 01-04",
        "intervention": "adaptive_reuse_or_infill_subject_to_survey",
        "height_control": "pending_professional_confirmation",
        "area_sqm_declared": 10416.0,
        "planning_status": "conceptual_reference_scheme"
      },
      "geometry": {
        "type": "Polygon",
        "coordinates": [
          [
            [
              116.34549586516822,
              40.01727055338445
            ],
            [
              116.34559152009118,
              40.018023459114076
            ],
            [
              116.34703705873856,
              40.01791488082748
            ],
            [
              116.3469413880475,
              40.01716197615073
            ],
            [
              116.34549586516822,
              40.01727055338445
            ]
          ]
        ]
      }
    },
    {
      "type": "Feature",
      "id": "BLDG-01-05",
      "properties": {
        "id": "BLDG-01-05",
        "layer": "BUILDING_FOOTPRINT",
        "source_type": "agent_generated_design",
        "confidence": "medium",
        "geometry_role": "design_proposal",
        "name_zh": "开放之家原型建筑01-05",
        "name_en": "Open House Prototype 01-05",
        "intervention": "adaptive_reuse_or_infill_subject_to_survey",
        "height_control": "pending_professional_confirmation",
        "area_sqm_declared": 10416.0,
        "planning_status": "conceptual_reference_scheme"
      },
      "geometry": {
        "type": "Polygon",
        "coordinates": [
          [
            [
              116.34772126551677,
              40.01728310093102
            ],
            [
              116.34781694493904,
              40.01803600501828
            ],
            [
              116.34926248069992,
              40.01792739894472
            ],
            [
              116.34916678550981,
              40.017174495911085
            ],
            [
              116.34772126551677,
              40.01728310093102
            ]
          ]
        ]
      }
    },
    {
      "type": "Feature",
      "id": "BLDG-01-06",
      "properties": {
        "id": "BLDG-01-06",
        "layer": "BUILDING_FOOTPRINT",
        "source_type": "agent_generated_design",
        "confidence": "medium",
        "geometry_role": "design_proposal",
        "name_zh": "开放之家原型建筑01-06",
        "name_en": "Open House Prototype 01-06",
        "intervention": "adaptive_reuse_or_infill_subject_to_survey",
        "height_control": "pending_professional_confirmation",
        "area_sqm_declared": 10416.0,
        "planning_status": "conceptual_reference_scheme"
      },
      "geometry": {
        "type": "Polygon",
        "coordinates": [
          [
            [
              116.34994666725855,
              40.01729560574666
            ],
            [
              116.35004237117997,
              40.01804850819042
            ],
            [
              116.35148790405125,
              40.01793987433003
            ],
            [
              116.35139218436225,
              40.01718697294063
            ],
            [
              116.34994666725855,
              40.01729560574666
            ]
          ]
        ]
      }
    },
    {
      "type": "Feature",
      "id": "BLDG-02-01",
      "properties": {
        "id": "BLDG-02-01",
        "layer": "BUILDING_FOOTPRINT",
        "source_type": "agent_generated_design",
        "confidence": "medium",
        "geometry_role": "design_proposal",
        "name_zh": "开放之家原型建筑02-01",
        "name_en": "Open House Prototype 02-01",
        "intervention": "adaptive_reuse_or_infill_subject_to_survey",
        "height_control": "pending_professional_confirmation",
        "area_sqm_declared": 10416.0,
        "planning_status": "conceptual_reference_scheme"
      },
      "geometry": {
        "type": "Polygon",
        "coordinates": [
          [
            [
              116.34461735976032,
              39.98719361498985
            ],
            [
              116.34450737263295,
              39.98794536236999
            ],
            [
              116.34595005145835,
              39.988070245424204
            ],
            [
              116.34606002300868,
              39.98731849656537
            ],
            [
              116.34461735976032,
              39.98719361498985
            ]
          ]
        ]
      }
    },
    {
      "type": "Feature",
      "id": "BLDG-02-02",
      "properties": {
        "id": "BLDG-02-02",
        "layer": "BUILDING_FOOTPRINT",
        "source_type": "agent_generated_design",
        "confidence": "medium",
        "geometry_role": "design_proposal",
        "name_zh": "开放之家原型建筑02-02",
        "name_en": "Open House Prototype 02-02",
        "intervention": "adaptive_reuse_or_infill_subject_to_survey",
        "height_control": "pending_professional_confirmation",
        "area_sqm_declared": 10416.0,
        "planning_status": "conceptual_reference_scheme"
      },
      "geometry": {
        "type": "Polygon",
        "coordinates": [
          [
            [
              116.34684178347544,
              39.98720617162377
            ],
            [
              116.34673182068164,
              39.987957921309274
            ],
            [
              116.34817450419769,
              39.98808277670887
            ],
            [
              116.34828445141412,
              39.987331025545394
            ],
            [
              116.34684178347544,
              39.98720617162377
            ]
          ]
        ]
      }
    },
    {
      "type": "Feature",
      "id": "BLDG-02-03",
      "properties": {
        "id": "BLDG-02-03",
        "layer": "BUILDING_FOOTPRINT",
        "source_type": "agent_generated_design",
        "confidence": "medium",
        "geometry_role": "design_proposal",
        "name_zh": "开放之家原型建筑02-03",
        "name_en": "Open House Prototype 02-03",
        "intervention": "adaptive_reuse_or_infill_subject_to_survey",
        "height_control": "pending_professional_confirmation",
        "area_sqm_declared": 10416.0,
        "planning_status": "conceptual_reference_scheme"
      },
      "geometry": {
        "type": "Polygon",
        "coordinates": [
          [
            [
              116.34906620858392,
              39.987218685572024
            ],
            [
              116.34895627012398,
              39.98797043756177
            ],
            [
              116.3503989583276,
              39.98809526530652
            ],
            [
              116.35050888120983,
              39.98734351183953
            ],
            [
              116.34906620858392,
              39.987218685572024
            ]
          ]
        ]
      }
    },
    {
      "type": "Feature",
      "id": "BLDG-02-04",
      "properties": {
        "id": "BLDG-02-04",
        "layer": "BUILDING_FOOTPRINT",
        "source_type": "agent_generated_design",
        "confidence": "medium",
        "geometry_role": "design_proposal",
        "name_zh": "开放之家原型建筑02-04",
        "name_en": "Open House Prototype 02-04",
        "intervention": "adaptive_reuse_or_infill_subject_to_survey",
        "height_control": "pending_professional_confirmation",
        "area_sqm_declared": 10416.0,
        "planning_status": "conceptual_reference_scheme"
      },
      "geometry": {
        "type": "Polygon",
        "coordinates": [
          [
            [
              116.34460100745045,
              39.98890468413637
            ],
            [
              116.34449101714378,
              39.989656431256265
            ],
            [
              116.34593373189242,
              39.98978131476703
            ],
            [
              116.34604370662069,
              39.98902956616836
            ],
            [
              116.34460100745045,
              39.98890468413637
            ]
          ]
        ]
      }
    },
    {
      "type": "Feature",
      "id": "BLDG-02-05",
      "properties": {
        "id": "BLDG-02-05",
        "layer": "BUILDING_FOOTPRINT",
        "source_type": "agent_generated_design",
        "confidence": "medium",
        "geometry_role": "design_proposal",
        "name_zh": "开放之家原型建筑02-05",
        "name_en": "Open House Prototype 02-05",
        "intervention": "adaptive_reuse_or_infill_subject_to_survey",
        "height_control": "pending_professional_confirmation",
        "area_sqm_declared": 10416.0,
        "planning_status": "conceptual_reference_scheme"
      },
      "geometry": {
        "type": "Polygon",
        "coordinates": [
          [
            [
              116.34682548665704,
              39.98891724152697
            ],
            [
              116.34671552068603,
              39.98966899095235
            ],
            [
              116.34815824012573,
              39.98979384680683
            ],
            [
              116.34826819051801,
              39.98904209590339
            ],
            [
              116.34682548665704,
              39.98891724152697
            ]
          ]
        ]
      }
    },
    {
      "type": "Feature",
      "id": "BLDG-02-06",
      "properties": {
        "id": "BLDG-02-06",
        "layer": "BUILDING_FOOTPRINT",
        "source_type": "agent_generated_design",
        "confidence": "medium",
        "geometry_role": "design_proposal",
        "name_zh": "开放之家原型建筑02-06",
        "name_en": "Open House Prototype 02-06",
        "intervention": "adaptive_reuse_or_infill_subject_to_survey",
        "height_control": "pending_professional_confirmation",
        "area_sqm_declared": 10416.0,
        "planning_status": "conceptual_reference_scheme"
      },
      "geometry": {
        "type": "Polygon",
        "coordinates": [
          [
            [
              116.34904996725713,
              39.988929756229325
            ],
            [
              116.34894002562208,
              39.98968150795907
            ],
            [
              116.35038274974976,
              39.98980633615704
            ],
            [
              116.35049267580578,
              39.98905458294997
            ],
            [
              116.34904996725713,
              39.988929756229325
            ]
          ]
        ]
      }
    },
    {
      "type": "Feature",
      "id": "BLDG-03-01",
      "properties": {
        "id": "BLDG-03-01",
        "layer": "BUILDING_FOOTPRINT",
        "source_type": "agent_generated_design",
        "confidence": "medium",
        "geometry_role": "design_proposal",
        "name_zh": "开放之家原型建筑03-01",
        "name_en": "Open House Prototype 03-01",
        "intervention": "adaptive_reuse_or_infill_subject_to_survey",
        "height_control": "pending_professional_confirmation",
        "area_sqm_declared": 10416.0,
        "planning_status": "conceptual_reference_scheme"
      },
      "geometry": {
        "type": "Polygon",
        "coordinates": [
          [
            [
              116.34551522638755,
              39.94572992254674
            ],
            [
              116.34561079249686,
              39.946482836718864
            ],
            [
              116.34705482265385,
              39.94637424473403
            ],
            [
              116.34695924083267,
              39.94562133161178
            ],
            [
              116.34551522638755,
              39.94572992254674
            ]
          ]
        ]
      }
    },
    {
      "type": "Feature",
      "id": "BLDG-03-02",
      "properties": {
        "id": "BLDG-03-02",
        "layer": "BUILDING_FOOTPRINT",
        "source_type": "agent_generated_design",
        "confidence": "medium",
        "geometry_role": "design_proposal",
        "name_zh": "开放之家原型建筑03-02",
        "name_en": "Open House Prototype 03-02",
        "intervention": "adaptive_reuse_or_infill_subject_to_survey",
        "height_control": "pending_professional_confirmation",
        "area_sqm_declared": 10416.0,
        "planning_status": "conceptual_reference_scheme"
      },
      "geometry": {
        "type": "Polygon",
        "coordinates": [
          [
            [
              116.34773830707549,
              39.94574245122972
            ],
            [
              116.3478338975967,
              39.9464953637641
            ],
            [
              116.34927792487805,
              39.94638674406216
            ],
            [
              116.3491823186452,
              39.9456338325784
            ],
            [
              116.34773830707549,
              39.94574245122972
            ]
          ]
        ]
      }
    },
    {
      "type": "Feature",
      "id": "BLDG-03-03",
      "properties": {
        "id": "BLDG-03-03",
        "layer": "BUILDING_FOOTPRINT",
        "source_type": "agent_generated_design",
        "confidence": "medium",
        "geometry_role": "design_proposal",
        "name_zh": "开放之家原型建筑03-03",
        "name_en": "Open House Prototype 03-03",
        "intervention": "adaptive_reuse_or_infill_subject_to_survey",
        "height_control": "pending_professional_confirmation",
        "area_sqm_declared": 10416.0,
        "planning_status": "conceptual_reference_scheme"
      },
      "geometry": {
        "type": "Polygon",
        "coordinates": [
          [
            [
              116.34996138915253,
              39.94575493728932
            ],
            [
              116.3500570040855,
              39.94650784818484
            ],
            [
              116.3515010284881,
              39.94639920076591
            ],
            [
              116.35140539784375,
              39.945646290921765
            ],
            [
              116.34996138915253,
              39.94575493728932
            ]
          ]
        ]
      }
    },
    {
      "type": "Feature",
      "id": "BLDG-03-04",
      "properties": {
        "id": "BLDG-03-04",
        "layer": "BUILDING_FOOTPRINT",
        "source_type": "agent_generated_design",
        "confidence": "medium",
        "geometry_role": "design_proposal",
        "name_zh": "开放之家原型建筑03-04",
        "name_en": "Open House Prototype 03-04",
        "intervention": "adaptive_reuse_or_infill_subject_to_survey",
        "height_control": "pending_professional_confirmation",
        "area_sqm_declared": 10416.0,
        "planning_status": "conceptual_reference_scheme"
      },
      "geometry": {
        "type": "Polygon",
        "coordinates": [
          [
            [
              116.34549892042749,
              39.947441004276556
            ],
            [
              116.34559448848307,
              39.94819391825847
            ],
            [
              116.34703855467887,
              39.948085326798946
            ],
            [
              116.34694297091005,
              39.94733241386699
            ],
            [
              116.34549892042749,
              39.947441004276556
            ]
          ]
        ]
      }
    },
    {
      "type": "Feature",
      "id": "BLDG-03-05",
      "properties": {
        "id": "BLDG-03-05",
        "layer": "BUILDING_FOOTPRINT",
        "source_type": "agent_generated_design",
        "confidence": "medium",
        "geometry_role": "design_proposal",
        "name_zh": "开放之家原型建筑03-05",
        "name_en": "Open House Prototype 03-05",
        "intervention": "adaptive_reuse_or_infill_subject_to_survey",
        "height_control": "pending_professional_confirmation",
        "area_sqm_declared": 10416.0,
        "planning_status": "conceptual_reference_scheme"
      },
      "geometry": {
        "type": "Polygon",
        "coordinates": [
          [
            [
              116.34772205649209,
              39.94745353371473
            ],
            [
              116.34781764896171,
              39.94820644605879
            ],
            [
              116.3492617122816,
              39.9480978268805
            ],
            [
              116.34916610409903,
              39.94734491558713
            ],
            [
              116.34772205649209,
              39.94745353371473
            ]
          ]
        ]
      }
    },
    {
      "type": "Feature",
      "id": "BLDG-03-06",
      "properties": {
        "id": "BLDG-03-06",
        "layer": "BUILDING_FOOTPRINT",
        "source_type": "agent_generated_design",
        "confidence": "medium",
        "geometry_role": "design_proposal",
        "name_zh": "开放之家原型建筑03-06",
        "name_en": "Open House Prototype 03-06",
        "intervention": "adaptive_reuse_or_infill_subject_to_survey",
        "height_control": "pending_professional_confirmation",
        "area_sqm_declared": 10416.0,
        "planning_status": "conceptual_reference_scheme"
      },
      "geometry": {
        "type": "Polygon",
        "coordinates": [
          [
            [
              116.34994519394593,
              39.94746602052696
            ],
            [
              116.35004081082938,
              39.94821893123203
            ],
            [
              116.35148487127029,
              39.948110284335094
            ],
            [
              116.35138923867413,
              39.94735737468144
            ],
            [
              116.34994519394593,
              39.94746602052696
            ]
          ]
        ]
      }
    }
  ]
}
