{
  "type": "FeatureCollection",
  "name": "open_house_green",
  "features": [
    {
      "type": "Feature",
      "id": "GREEN-OPEN-PARK",
      "properties": {
        "id": "GREEN-OPEN-PARK",
        "layer": "GREEN_SPACE",
        "source_type": "agent_generated_design",
        "confidence": "medium",
        "geometry_role": "design_proposal",
        "name_zh": "京张开放公园与雨洪花园网络",
        "name_en": "Jingzhang Open Park and Rain-garden Network",
        "green_type": "continuous_public_green_infrastructure",
        "area_sqm_declared": 2540104.245,
        "planning_status": "conceptual_reference_scheme"
      },
      "geometry": {
        "type": "Polygon",
        "coordinates": [
          [
            [
              116.34943975203488,
              39.953449110568236
            ],
            [
              116.34812306861166,
              39.94062219004729
            ],
            [
              116.34544045095626,
              39.94078529020017
            ],
            [
              116.34673833510799,
              39.953433919472836
            ],
            [
              116.34119406866607,
              39.953402544765765
            ],
            [
              116.34118629185953,
              39.95421305544979
            ],
            [
              116.34682157018726,
              39.954244943511725
            ],
            [
              116.34705155919971,
              39.95648581126219
            ],
            [
              116.3459353119463,
              39.970943604904626
            ],
            [
              116.34102595954376,
              39.970915799613785
            ],
            [
              116.34101817592929,
              39.97172630781437
            ],
            [
              116.34587274337117,
              39.97175380442617
            ],
            [
              116.34576853088612,
              39.97310320374425
            ],
            [
              116.34651268705585,
              39.984082487175655
            ],
            [
              116.34089978112884,
              39.984050705532866
            ],
            [
              116.34089199240412,
              39.98486121187067
            ],
            [
              116.34656765430552,
              39.98489334785576
            ],
            [
              116.34689711004529,
              39.98975301756142
            ],
            [
              116.34607470607374,
              40.00246984337738
            ],
            [
              116.34147048327114,
              40.002443772881314
            ],
            [
              116.34152281285259,
              40.0032546183151
            ],
            [
              116.3460222951051,
              40.003280095864845
            ],
            [
              116.34576512415332,
              40.00725554646533
            ],
            [
              116.3463662760736,
              40.018234150675234
            ],
            [
              116.34229560189327,
              40.01821111871695
            ],
            [
              116.34233515403531,
              40.01902188913217
            ],
            [
              116.3464106793404,
              40.01904494717423
            ],
            [
              116.34672711559878,
              40.02482253179684
            ],
            [
              116.34941900194524,
              40.02473535450861
            ],
            [
              116.34910794830273,
              40.0190601286483
            ],
            [
              116.35408219930889,
              40.01908796136746
            ],
            [
              116.35408984142101,
              40.01827745770074
            ],
            [
              116.3490635130895,
              40.01824933292941
            ],
            [
              116.34846152810452,
              40.007263427126425
            ],
            [
              116.34871807038263,
              40.0032952765428
            ],
            [
              116.35402991902643,
              40.00332500555266
            ],
            [
              116.35398549795983,
              40.002514209505904
            ],
            [
              116.34877044951371,
              40.00248502258296
            ],
            [
              116.34959349682757,
              39.989750487205846
            ],
            [
              116.34926505047267,
              39.984908523260955
            ],
            [
              116.35370545920381,
              39.98493336802634
            ],
            [
              116.35377028886849,
              39.98412317851371
            ],
            [
              116.3492100513056,
              39.984097663606406
            ],
            [
              116.34846494139592,
              39.97311070029723
            ],
            [
              116.34856850751913,
              39.971768985622184
            ],
            [
              116.35452752902441,
              39.971802321374426
            ],
            [
              116.35453515309936,
              39.97099181100394
            ],
            [
              116.3486310443001,
              39.970958784392025
            ],
            [
              116.34974945656344,
              39.956465546796885
            ],
            [
              116.34952301906634,
              39.95426013292178
            ],
            [
              116.35469219910956,
              39.95428902213452
            ],
            [
              116.35469981651616,
              39.95347850928168
            ],
            [
              116.34943975203488,
              39.953449110568236
            ]
          ]
        ]
      }
    }
  ]
}
