{
  "type": "FeatureCollection",
  "name": "open_house_land_use",
  "features": [
    {
      "type": "Feature",
      "id": "LU-001",
      "properties": {
        "id": "LU-001",
        "layer": "LAND_USE",
        "source_type": "agent_generated_design",
        "confidence": "medium",
        "geometry_role": "design_proposal",
        "name_zh": "城市采用与全球首发区",
        "name_en": "City Adoption and Global Launch",
        "land_use_code": "05",
        "planning_status": "conceptual_reference_scheme",
        "area_sqm_declared": 1712498.249,
        "design_note_zh": "按开放创新流程配置的概念性功能分区，须在法定控规和权属资料补齐后深化。"
      },
      "geometry": {
        "type": "Polygon",
        "coordinates": [
          [
            [
              116.34070000000001,
              39.93899999999999
            ],
            [
              116.34036192616416,
              39.95117595444935
            ],
            [
              116.35530001647538,
              39.9512599891336
            ],
            [
              116.3553,
              39.939
            ],
            [
              116.34070000000001,
              39.93899999999999
            ]
          ]
        ]
      }
    },
    {
      "type": "Feature",
      "id": "LU-002",
      "properties": {
        "id": "LU-002",
        "layer": "LAND_USE",
        "source_type": "agent_generated_design",
        "confidence": "medium",
        "geometry_role": "design_proposal",
        "name_zh": "应用研发与企业协作区",
        "name_en": "Applied AI and Enterprise Collaboration",
        "land_use_code": "0802",
        "planning_status": "conceptual_reference_scheme",
        "area_sqm_declared": 1884517.693,
        "design_note_zh": "按开放创新流程配置的概念性功能分区，须在法定控规和权属资料补齐后深化。"
      },
      "geometry": {
        "type": "Polygon",
        "coordinates": [
          [
            [
              116.35530001647538,
              39.9512599891336
            ],
            [
              116.34036192616416,
              39.95117595444935
            ],
            [
              116.3399970943449,
              39.96430954515443
            ],
            [
              116.35530000150125,
              39.96439566310049
            ],
            [
              116.35530001647538,
              39.9512599891336
            ]
          ]
        ]
      }
    },
    {
      "type": "Feature",
      "id": "LU-003",
      "properties": {
        "id": "LU-003",
        "layer": "LAND_USE",
        "source_type": "agent_generated_design",
        "confidence": "medium",
        "geometry_role": "design_proposal",
        "name_zh": "全球人才与社区服务区",
        "name_en": "Global Talent and Community Services",
        "land_use_code": "0702",
        "planning_status": "conceptual_reference_scheme",
        "area_sqm_declared": 1746995.034,
        "design_note_zh": "按开放创新流程配置的概念性功能分区，须在法定控规和权属资料补齐后深化。"
      },
      "geometry": {
        "type": "Polygon",
        "coordinates": [
          [
            [
              116.3553,
              39.965
            ],
            [
              116.35530000150125,
              39.96439566310049
            ],
            [
              116.3399970943449,
              39.96430954515443
            ],
            [
              116.3397,
              39.975
            ],
            [
              116.33980114533483,
              39.97656835869096
            ],
            [
              116.35436816508071,
              39.976650412368386
            ],
            [
              116.3553,
              39.965
            ]
          ]
        ]
      }
    },
    {
      "type": "Feature",
      "id": "LU-004",
      "properties": {
        "id": "LU-004",
        "layer": "LAND_USE",
        "source_type": "agent_generated_design",
        "confidence": "medium",
        "geometry_role": "design_proposal",
        "name_zh": "京张开放公园带",
        "name_en": "Jingzhang Open Park",
        "land_use_code": "1401",
        "planning_status": "conceptual_reference_scheme",
        "area_sqm_declared": 1484098.12,
        "design_note_zh": "按开放创新流程配置的概念性功能分区，须在法定控规和权属资料补齐后深化。"
      },
      "geometry": {
        "type": "Polygon",
        "coordinates": [
          [
            [
              116.35436816508071,
              39.976650412368386
            ],
            [
              116.33980114533483,
              39.97656835869096
            ],
            [
              116.34053572048738,
              39.9879567376862
            ],
            [
              116.35345769461385,
              39.98802953991531
            ],
            [
              116.35436816508071,
              39.976650412368386
            ]
          ]
        ]
      }
    },
    {
      "type": "Feature",
      "id": "LU-005",
      "properties": {
        "id": "LU-005",
        "layer": "LAND_USE",
        "source_type": "agent_generated_design",
        "confidence": "medium",
        "geometry_role": "design_proposal",
        "name_zh": "AI原点协同转化区",
        "name_en": "AI Origin Co-creation",
        "land_use_code": "0802",
        "planning_status": "conceptual_reference_scheme",
        "area_sqm_declared": 1571054.772,
        "design_note_zh": "按开放创新流程配置的概念性功能分区，须在法定控规和权属资料补齐后深化。"
      },
      "geometry": {
        "type": "Polygon",
        "coordinates": [
          [
            [
              116.3533,
              39.99
            ],
            [
              116.35345769461385,
              39.98802953991531
            ],
            [
              116.34053572048738,
              39.9879567376862
            ],
            [
              116.34138357826183,
              40.00109714395718
            ],
            [
              116.35391172677494,
              40.001167662613156
            ],
            [
              116.3533,
              39.99
            ]
          ]
        ]
      }
    },
    {
      "type": "Feature",
      "id": "LU-006",
      "properties": {
        "id": "LU-006",
        "layer": "LAND_USE",
        "source_type": "agent_generated_design",
        "confidence": "medium",
        "geometry_role": "design_proposal",
        "name_zh": "开放学习与科技文化区",
        "name_en": "Open Learning and Tech Culture",
        "land_use_code": "0803",
        "planning_status": "conceptual_reference_scheme",
        "area_sqm_declared": 1349419.369,
        "design_note_zh": "按开放创新流程配置的概念性功能分区，须在法定控规和权属资料补齐后深化。"
      },
      "geometry": {
        "type": "Polygon",
        "coordinates": [
          [
            [
              116.35391172677494,
              40.001167662613156
            ],
            [
              116.34138357826183,
              40.00109714395718
            ],
            [
              116.34169999999999,
              40.00600000000001
            ],
            [
              116.34201627995209,
              40.01248488811593
            ],
            [
              116.35453568418559,
              40.01255529450692
            ],
            [
              116.35391172677494,
              40.001167662613156
            ]
          ]
        ]
      }
    },
    {
      "type": "Feature",
      "id": "LU-007",
      "properties": {
        "id": "LU-007",
        "layer": "LAND_USE",
        "source_type": "agent_generated_design",
        "confidence": "medium",
        "geometry_role": "design_proposal",
        "name_zh": "全栈自主创新区",
        "name_en": "Full-stack Autonomous Innovation",
        "land_use_code": "0802",
        "planning_status": "conceptual_reference_scheme",
        "area_sqm_declared": 1664242.149,
        "design_note_zh": "按开放创新流程配置的概念性功能分区，须在法定控规和权属资料补齐后深化。"
      },
      "geometry": {
        "type": "Polygon",
        "coordinates": [
          [
            [
              116.35453568418559,
              40.01255529450692
            ],
            [
              116.34201627995209,
              40.01248488811593
            ],
            [
              116.34270000000001,
              40.026500000000006
            ],
            [
              116.3553,
              40.02649999999999
            ],
            [
              116.35453568418559,
              40.01255529450692
            ]
          ]
        ]
      }
    }
  ]
}
