{
  "type": "FeatureCollection",
  "name": "open_house_public_space",
  "features": [
    {
      "type": "Feature",
      "id": "ROOM-01",
      "properties": {
        "id": "ROOM-01",
        "layer": "PUBLIC_SPACE",
        "source_type": "agent_generated_design",
        "confidence": "medium",
        "geometry_role": "design_proposal",
        "name_zh": "城市采用客厅",
        "name_en": "City Adoption Room",
        "public_space_type": "open_house_room",
        "color": "#E4513F",
        "area_sqm_declared": 211600.0,
        "planning_status": "conceptual_reference_scheme"
      },
      "geometry": {
        "type": "Polygon",
        "coordinates": [
          [
            [
              116.35121070940892,
              39.94486392147623
            ],
            [
              116.3458285815647,
              39.94483367730235
            ],
            [
              116.34578912173264,
              39.948976296247935
            ],
            [
              116.35117157417281,
              39.94900654483561
            ],
            [
              116.35121070940892,
              39.94486392147623
            ]
          ]
        ]
      }
    },
    {
      "type": "Feature",
      "id": "ROOM-02",
      "properties": {
        "id": "ROOM-02",
        "layer": "PUBLIC_SPACE",
        "source_type": "agent_generated_design",
        "confidence": "medium",
        "geometry_role": "design_proposal",
        "name_zh": "协同共创客厅",
        "name_en": "Co-creation Room",
        "public_space_type": "open_house_room",
        "color": "#F2C14E",
        "area_sqm_declared": 211600.0,
        "planning_status": "conceptual_reference_scheme"
      },
      "geometry": {
        "type": "Polygon",
        "coordinates": [
          [
            [
              116.3502124015571,
              39.98644384252248
            ],
            [
              116.34482701330197,
              39.98641352590735
            ],
            [
              116.34478743485123,
              39.99055611421918
            ],
            [
              116.35017314837714,
              39.99058643525749
            ],
            [
              116.3502124015571,
              39.98644384252248
            ]
          ]
        ]
      }
    },
    {
      "type": "Feature",
      "id": "ROOM-03",
      "properties": {
        "id": "ROOM-03",
        "layer": "PUBLIC_SPACE",
        "source_type": "agent_generated_design",
        "confidence": "medium",
        "geometry_role": "design_proposal",
        "name_zh": "自主创新客厅",
        "name_en": "Autonomous Innovation Room",
        "public_space_type": "open_house_room",
        "color": "#17866E",
        "area_sqm_declared": 211600.0,
        "planning_status": "conceptual_reference_scheme"
      },
      "geometry": {
        "type": "Polygon",
        "coordinates": [
          [
            [
              116.35121350744122,
              40.014693548224415
            ],
            [
              116.34582589835273,
              40.01466326042736
            ],
            [
              116.34578634071526,
              40.01880582931273
            ],
            [
              116.3511742755343,
              40.01883612152796
            ],
            [
              116.35121350744122,
              40.014693548224415
            ]
          ]
        ]
      }
    },
    {
      "type": "Feature",
      "id": "PORT-01",
      "properties": {
        "id": "PORT-01",
        "layer": "SCENARIO_NODE",
        "source_type": "agent_generated_design",
        "confidence": "medium",
        "geometry_role": "design_proposal",
        "name_zh": "到达交换台",
        "name_en": "Arrival Exchange",
        "public_space_type": "open_port",
        "scenario_id": "SCN-01",
        "access_rule": "public_first_with_safety_gate",
        "planning_status": "conceptual_reference_scheme"
      },
      "geometry": {
        "type": "Point",
        "coordinates": [
          116.35077161840427,
          39.94379115724859
        ]
      }
    },
    {
      "type": "Feature",
      "id": "PORT-02",
      "properties": {
        "id": "PORT-02",
        "layer": "SCENARIO_NODE",
        "source_type": "agent_generated_design",
        "confidence": "medium",
        "geometry_role": "design_proposal",
        "name_zh": "AI城市展厅",
        "name_en": "AI City Gallery",
        "public_space_type": "open_port",
        "scenario_id": "SCN-02",
        "access_rule": "public_first_with_safety_gate",
        "planning_status": "conceptual_reference_scheme"
      },
      "geometry": {
        "type": "Point",
        "coordinates": [
          116.34523823262725,
          39.950845351940224
        ]
      }
    },
    {
      "type": "Feature",
      "id": "PORT-03",
      "properties": {
        "id": "PORT-03",
        "layer": "SCENARIO_NODE",
        "source_type": "agent_generated_design",
        "confidence": "medium",
        "geometry_role": "design_proposal",
        "name_zh": "智能原生商业街",
        "name_en": "Smart-native Market",
        "public_space_type": "open_port",
        "scenario_id": "SCN-03",
        "access_rule": "public_first_with_safety_gate",
        "planning_status": "conceptual_reference_scheme"
      },
      "geometry": {
        "type": "Point",
        "coordinates": [
          116.35063763690746,
          39.95796102734967
        ]
      }
    },
    {
      "type": "Feature",
      "id": "PORT-04",
      "properties": {
        "id": "PORT-04",
        "layer": "SCENARIO_NODE",
        "source_type": "agent_generated_design",
        "confidence": "medium",
        "geometry_role": "design_proposal",
        "name_zh": "居民共创桌",
        "name_en": "Resident Co-design Desk",
        "public_space_type": "open_port",
        "scenario_id": "SCN-04",
        "access_rule": "public_first_with_safety_gate",
        "planning_status": "conceptual_reference_scheme"
      },
      "geometry": {
        "type": "Point",
        "coordinates": [
          116.34510307550488,
          39.96501518913464
        ]
      }
    },
    {
      "type": "Feature",
      "id": "PORT-05",
      "properties": {
        "id": "PORT-05",
        "layer": "SCENARIO_NODE",
        "source_type": "agent_generated_design",
        "confidence": "medium",
        "geometry_role": "design_proposal",
        "name_zh": "家庭学习院",
        "name_en": "Family Learning Yard",
        "public_space_type": "open_port",
        "scenario_id": "SCN-05",
        "access_rule": "public_first_with_safety_gate",
        "planning_status": "conceptual_reference_scheme"
      },
      "geometry": {
        "type": "Point",
        "coordinates": [
          116.350503560524,
          39.9721308623344
        ]
      }
    },
    {
      "type": "Feature",
      "id": "PORT-06",
      "properties": {
        "id": "PORT-06",
        "layer": "SCENARIO_NODE",
        "source_type": "agent_generated_design",
        "confidence": "medium",
        "geometry_role": "design_proposal",
        "name_zh": "AI原点会客厅",
        "name_en": "AI Origin Salon",
        "public_space_type": "open_port",
        "scenario_id": "SCN-06",
        "access_rule": "public_first_with_safety_gate",
        "planning_status": "conceptual_reference_scheme"
      },
      "geometry": {
        "type": "Point",
        "coordinates": [
          116.34496782265944,
          39.9791849912048
        ]
      }
    },
    {
      "type": "Feature",
      "id": "PORT-07",
      "properties": {
        "id": "PORT-07",
        "layer": "SCENARIO_NODE",
        "source_type": "agent_generated_design",
        "confidence": "medium",
        "geometry_role": "design_proposal",
        "name_zh": "开源铸造所",
        "name_en": "Open-source Foundry",
        "public_space_type": "open_port",
        "scenario_id": "SCN-07",
        "access_rule": "public_first_with_safety_gate",
        "planning_status": "conceptual_reference_scheme"
      },
      "geometry": {
        "type": "Point",
        "coordinates": [
          116.35036938917888,
          39.98630066219953
        ]
      }
    },
    {
      "type": "Feature",
      "id": "PORT-08",
      "properties": {
        "id": "PORT-08",
        "layer": "SCENARIO_NODE",
        "source_type": "agent_generated_design",
        "confidence": "medium",
        "geometry_role": "design_proposal",
        "name_zh": "跨境知识产权诊所",
        "name_en": "Cross-border IP Clinic",
        "public_space_type": "open_port",
        "scenario_id": "SCN-08",
        "access_rule": "public_first_with_safety_gate",
        "planning_status": "conceptual_reference_scheme"
      },
      "geometry": {
        "type": "Point",
        "coordinates": [
          116.34483247401522,
          39.99335475814744
        ]
      }
    },
    {
      "type": "Feature",
      "id": "PORT-09",
      "properties": {
        "id": "PORT-09",
        "layer": "SCENARIO_NODE",
        "source_type": "agent_generated_design",
        "confidence": "medium",
        "geometry_role": "design_proposal",
        "name_zh": "标准与安全实验室",
        "name_en": "Standards and Safety Lab",
        "public_space_type": "open_port",
        "scenario_id": "SCN-09",
        "access_rule": "public_first_with_safety_gate",
        "planning_status": "conceptual_reference_scheme"
      },
      "geometry": {
        "type": "Point",
        "coordinates": [
          116.35023512279697,
          40.00047042694177
        ]
      }
    },
    {
      "type": "Feature",
      "id": "PORT-10",
      "properties": {
        "id": "PORT-10",
        "layer": "SCENARIO_NODE",
        "source_type": "agent_generated_design",
        "confidence": "medium",
        "geometry_role": "design_proposal",
        "name_zh": "算力数据撮合台",
        "name_en": "Compute and Data Match Desk",
        "public_space_type": "open_port",
        "scenario_id": "SCN-10",
        "access_rule": "public_first_with_safety_gate",
        "planning_status": "conceptual_reference_scheme"
      },
      "geometry": {
        "type": "Point",
        "coordinates": [
          116.34469702949653,
          40.007524489959266
        ]
      }
    },
    {
      "type": "Feature",
      "id": "PORT-11",
      "properties": {
        "id": "PORT-11",
        "layer": "SCENARIO_NODE",
        "source_type": "agent_generated_design",
        "confidence": "medium",
        "geometry_role": "design_proposal",
        "name_zh": "林下移动实验场",
        "name_en": "Forest Mobility Lab",
        "public_space_type": "open_port",
        "scenario_id": "SCN-11",
        "access_rule": "public_first_with_safety_gate",
        "planning_status": "conceptual_reference_scheme"
      },
      "geometry": {
        "type": "Point",
        "coordinates": [
          116.35010076130314,
          40.01464015655783
        ]
      }
    },
    {
      "type": "Feature",
      "id": "PORT-12",
      "properties": {
        "id": "PORT-12",
        "layer": "SCENARIO_NODE",
        "source_type": "agent_generated_design",
        "confidence": "medium",
        "geometry_role": "design_proposal",
        "name_zh": "全球发布厅",
        "name_en": "Global Release Hall",
        "public_space_type": "open_port",
        "scenario_id": "SCN-12",
        "access_rule": "public_first_with_safety_gate",
        "planning_status": "conceptual_reference_scheme"
      },
      "geometry": {
        "type": "Point",
        "coordinates": [
          116.3445614890275,
          40.02169418663705
        ]
      }
    }
  ]
}
