{
  "type": "FeatureCollection",
  "name": "open_house_mobility",
  "features": [
    {
      "type": "Feature",
      "id": "ROAD-OPEN-SPINE",
      "properties": {
        "id": "ROAD-OPEN-SPINE",
        "layer": "ROAD_CENTERLINE",
        "source_type": "agent_generated_design",
        "confidence": "medium",
        "geometry_role": "design_proposal",
        "name_zh": "京张开放廊道",
        "name_en": "Jingzhang Open Corridor",
        "mode": "walk_cycle_autonomous_shuttle",
        "planning_status": "conceptual_reference_scheme"
      },
      "geometry": {
        "type": "LineString",
        "coordinates": [
          [
            116.34678176127137,
            39.94070374789636
          ],
          [
            116.34840050797415,
            39.956475686879756
          ],
          [
            116.3471167359608,
            39.9731069598609
          ],
          [
            116.34824530335497,
            39.989751760225225
          ],
          [
            116.34711332594495,
            40.00725949463758
          ],
          [
            116.34807305952293,
            40.024778950976646
          ]
        ]
      }
    },
    {
      "type": "Feature",
      "id": "ROAD-DOOR-01",
      "properties": {
        "id": "ROAD-DOOR-01",
        "layer": "ROAD_CENTERLINE",
        "source_type": "agent_generated_design",
        "confidence": "medium",
        "geometry_role": "design_proposal",
        "name_zh": "开放门廊01",
        "name_en": "Open Threshold 01",
        "mode": "walk_cycle_service",
        "planning_status": "conceptual_reference_scheme"
      },
      "geometry": {
        "type": "LineString",
        "coordinates": [
          [
            116.34075827224788,
            39.94855107192961
          ],
          [
            116.355227694817,
            39.94863244858216
          ]
        ]
      }
    },
    {
      "type": "Feature",
      "id": "ROAD-DOOR-02",
      "properties": {
        "id": "ROAD-DOOR-02",
        "layer": "ROAD_CENTERLINE",
        "source_type": "agent_generated_design",
        "confidence": "medium",
        "geometry_role": "design_proposal",
        "name_zh": "开放门廊02",
        "name_en": "Open Threshold 02",
        "mode": "walk_cycle_service",
        "planning_status": "conceptual_reference_scheme"
      },
      "geometry": {
        "type": "LineString",
        "coordinates": [
          [
            116.34060690658238,
            39.96431301555579
          ],
          [
            116.35507965084606,
            39.96439443740105
          ]
        ]
      }
    },
    {
      "type": "Feature",
      "id": "ROAD-DOOR-03",
      "properties": {
        "id": "ROAD-DOOR-03",
        "layer": "ROAD_CENTERLINE",
        "source_type": "agent_generated_design",
        "confidence": "medium",
        "geometry_role": "design_proposal",
        "name_zh": "开放门廊03",
        "name_en": "Open Threshold 03",
        "mode": "walk_cycle_service",
        "planning_status": "conceptual_reference_scheme"
      },
      "geometry": {
        "type": "LineString",
        "coordinates": [
          [
            116.34043858264165,
            39.98182623527153
          ],
          [
            116.35394798862217,
            39.98190232134415
          ]
        ]
      }
    },
    {
      "type": "Feature",
      "id": "ROAD-DOOR-04",
      "properties": {
        "id": "ROAD-DOOR-04",
        "layer": "ROAD_CENTERLINE",
        "source_type": "agent_generated_design",
        "confidence": "medium",
        "geometry_role": "design_proposal",
        "name_zh": "开放门廊04",
        "name_en": "Open Threshold 04",
        "mode": "walk_cycle_service",
        "planning_status": "conceptual_reference_scheme"
      },
      "geometry": {
        "type": "LineString",
        "coordinates": [
          [
            116.3412139834596,
            39.998469065363295
          ],
          [
            116.35376776244367,
            39.99853974415051
          ]
        ]
      }
    },
    {
      "type": "Feature",
      "id": "ROAD-DOOR-05",
      "properties": {
        "id": "ROAD-DOOR-05",
        "layer": "ROAD_CENTERLINE",
        "source_type": "agent_generated_design",
        "confidence": "medium",
        "geometry_role": "design_proposal",
        "name_zh": "开放门廊05",
        "name_en": "Open Threshold 05",
        "mode": "walk_cycle_service",
        "planning_status": "conceptual_reference_scheme"
      },
      "geometry": {
        "type": "LineString",
        "coordinates": [
          [
            116.3422299166188,
            40.016864614398415
          ],
          [
            116.35458532800016,
            40.01693408632512
          ]
        ]
      }
    }
  ]
}
