{
  "type": "FeatureCollection",
  "name": "buildings_provisional",
  "crs": {
    "type": "name",
    "properties": {
      "name": "EPSG:4326"
    }
  },
  "features": [
    {
      "type": "Feature",
      "id": "BLDG-001",
      "properties": {
        "id": "BLDG-001",
        "layer": "BUILDING_FOOTPRINT",
        "source_type": "agent_generated_design",
        "confidence": "medium",
        "geometry_role": "design_proposal",
        "official_boundary": false,
        "area_sqm_declared": 151692.221,
        "source_refs": [
          "AGENT-TASKBOOK",
          "SRC-BJ-THREE-ZONES",
          "SRC-BJ-JINGZHANG-PARK"
        ],
        "assumption_refs": [
          "A-PROVISIONAL-SITE-001",
          "A-OFFICIAL-POLYGON-MISSING-001",
          "A-PLANNING-CONTROLS-001"
        ],
        "provenance": {
          "source_refs": [
            "AGENT-TASKBOOK",
            "SRC-BJ-THREE-ZONES",
            "SRC-BJ-JINGZHANG-PARK"
          ],
          "assumption_refs": [
            "A-PROVISIONAL-SITE-001",
            "A-OFFICIAL-POLYGON-MISSING-001",
            "A-PLANNING-CONTROLS-001"
          ]
        },
        "building_type": "ai_r_and_d",
        "name_zh": "众智园研发基底",
        "statutory_status": "provisional_design_footprint_only"
      },
      "geometry": {
        "type": "Polygon",
        "coordinates": [
          [
            [
              116.3435,
              40.01
            ],
            [
              116.3435,
              40.014
            ],
            [
              116.3475,
              40.014
            ],
            [
              116.3475,
              40.01
            ],
            [
              116.3435,
              40.01
            ]
          ]
        ]
      }
    },
    {
      "type": "Feature",
      "id": "BLDG-002",
      "properties": {
        "id": "BLDG-002",
        "layer": "BUILDING_FOOTPRINT",
        "source_type": "agent_generated_design",
        "confidence": "medium",
        "geometry_role": "design_proposal",
        "official_boundary": false,
        "area_sqm_declared": 128034.93,
        "source_refs": [
          "AGENT-TASKBOOK",
          "SRC-BJ-THREE-ZONES",
          "SRC-BJ-JINGZHANG-PARK"
        ],
        "assumption_refs": [
          "A-PROVISIONAL-SITE-001",
          "A-OFFICIAL-POLYGON-MISSING-001",
          "A-PLANNING-CONTROLS-001"
        ],
        "provenance": {
          "source_refs": [
            "AGENT-TASKBOOK",
            "SRC-BJ-THREE-ZONES",
            "SRC-BJ-JINGZHANG-PARK"
          ],
          "assumption_refs": [
            "A-PROVISIONAL-SITE-001",
            "A-OFFICIAL-POLYGON-MISSING-001",
            "A-PLANNING-CONTROLS-001"
          ]
        },
        "building_type": "incubator",
        "name_zh": "原点社区孵化基底",
        "statutory_status": "provisional_design_footprint_only"
      },
      "geometry": {
        "type": "Polygon",
        "coordinates": [
          [
            [
              116.3485,
              39.9855
            ],
            [
              116.3485,
              39.99
            ],
            [
              116.3515,
              39.99
            ],
            [
              116.3515,
              39.9855
            ],
            [
              116.3485,
              39.9855
            ]
          ]
        ]
      }
    },
    {
      "type": "Feature",
      "id": "BLDG-003",
      "properties": {
        "id": "BLDG-003",
        "layer": "BUILDING_FOOTPRINT",
        "source_type": "agent_generated_design",
        "confidence": "medium",
        "geometry_role": "design_proposal",
        "official_boundary": false,
        "area_sqm_declared": 121467.799,
        "source_refs": [
          "AGENT-TASKBOOK",
          "SRC-BJ-THREE-ZONES",
          "SRC-BJ-JINGZHANG-PARK"
        ],
        "assumption_refs": [
          "A-PROVISIONAL-SITE-001",
          "A-OFFICIAL-POLYGON-MISSING-001",
          "A-PLANNING-CONTROLS-001"
        ],
        "provenance": {
          "source_refs": [
            "AGENT-TASKBOOK",
            "SRC-BJ-THREE-ZONES",
            "SRC-BJ-JINGZHANG-PARK"
          ],
          "assumption_refs": [
            "A-PROVISIONAL-SITE-001",
            "A-OFFICIAL-POLYGON-MISSING-001",
            "A-PLANNING-CONTROLS-001"
          ]
        },
        "building_type": "cultural",
        "name_zh": "大钟寺文化展示基底",
        "statutory_status": "provisional_design_footprint_only"
      },
      "geometry": {
        "type": "Polygon",
        "coordinates": [
          [
            [
              116.344,
              39.9452
            ],
            [
              116.344,
              39.9484
            ],
            [
              116.348,
              39.9484
            ],
            [
              116.348,
              39.9452
            ],
            [
              116.344,
              39.9452
            ]
          ]
        ]
      }
    },
    {
      "type": "Feature",
      "id": "BLDG-004",
      "properties": {
        "id": "BLDG-004",
        "layer": "BUILDING_FOOTPRINT",
        "source_type": "agent_generated_design",
        "confidence": "medium",
        "geometry_role": "design_proposal",
        "official_boundary": false,
        "area_sqm_declared": 166014.816,
        "source_refs": [
          "AGENT-TASKBOOK",
          "SRC-BJ-THREE-ZONES",
          "SRC-BJ-JINGZHANG-PARK"
        ],
        "assumption_refs": [
          "A-PROVISIONAL-SITE-001",
          "A-OFFICIAL-POLYGON-MISSING-001",
          "A-PLANNING-CONTROLS-001"
        ],
        "provenance": {
          "source_refs": [
            "AGENT-TASKBOOK",
            "SRC-BJ-THREE-ZONES",
            "SRC-BJ-JINGZHANG-PARK"
          ],
          "assumption_refs": [
            "A-PROVISIONAL-SITE-001",
            "A-OFFICIAL-POLYGON-MISSING-001",
            "A-PLANNING-CONTROLS-001"
          ]
        },
        "building_type": "mixed_use",
        "name_zh": "中段公共创新服务基底",
        "statutory_status": "provisional_design_footprint_only"
      },
      "geometry": {
        "type": "Polygon",
        "coordinates": [
          [
            [
              116.349,
              39.967
            ],
            [
              116.349,
              39.972
            ],
            [
              116.3525,
              39.972
            ],
            [
              116.3525,
              39.967
            ],
            [
              116.349,
              39.967
            ]
          ]
        ]
      }
    }
  ]
}
