{
  "type": "FeatureCollection",
  "name": "candidate_analysis_constraints",
  "crs": {
    "type": "name",
    "properties": {
      "name": "EPSG:4326"
    }
  },
  "features": [
    {
      "type": "Feature",
      "id": "CONSTRAINT-001",
      "properties": {
        "id": "CONSTRAINT-001",
        "layer": "HERITAGE_PROTECTION",
        "source_type": "agent_generated_design",
        "confidence": "low",
        "geometry_role": "analysis_helper",
        "official_boundary": false,
        "area_sqm_declared": 153648.113,
        "source_refs": [
          "BOUNDARY-SOURCE",
          "SRC-BJ-JINGZHANG-PARK",
          "SRC-BJ-TSINGHUA-YUAN"
        ],
        "assumption_refs": [
          "A-PROVISIONAL-SITE-001",
          "A-OFFICIAL-POLYGON-MISSING-001",
          "A-PLANNING-CONTROLS-001"
        ],
        "provenance": {
          "source_refs": [
            "BOUNDARY-SOURCE",
            "SRC-BJ-JINGZHANG-PARK",
            "SRC-BJ-TSINGHUA-YUAN"
          ],
          "assumption_refs": [
            "A-PROVISIONAL-SITE-001",
            "A-OFFICIAL-POLYGON-MISSING-001",
            "A-PLANNING-CONTROLS-001"
          ]
        },
        "constraint_type": "heritage_candidate",
        "constraint_code": "HERITAGE_CANDIDATE",
        "constraint_status": "unknown",
        "provisional_only": true,
        "control_value_status": "unknown",
        "proposal_ref": "CONSTRAINTS",
        "name_zh": "遗产语境候选分析带（待核验）",
        "usage_note": "仅表达待核验的 heritage candidate context；官方文保控制边界未提供，不代表文保线、红线或法定控制地带。",
        "status": "unknown",
        "boundary_precision": "provisional_rough",
        "candidate_status": "待核验",
        "official_heritage_boundary_provided": false,
        "layer_semantics": "candidate_analysis",
        "layer_usage": "candidate_only"
      },
      "geometry": {
        "type": "Polygon",
        "coordinates": [
          [
            [
              116.3458,
              39.9445
            ],
            [
              116.3458,
              40.0255
            ],
            [
              116.346,
              40.0255
            ],
            [
              116.346,
              39.9445
            ],
            [
              116.3458,
              39.9445
            ]
          ]
        ]
      }
    }
  ]
}
