{
  "type": "FeatureCollection",
  "name": "key_areas_provisional",
  "crs": {
    "type": "name",
    "properties": {
      "name": "EPSG:4326"
    }
  },
  "features": [
    {
      "type": "Feature",
      "id": "PROV-KEY-001",
      "properties": {
        "id": "PROV-KEY-001",
        "layer": "KEY_AREA",
        "source_type": "agent_inferred_from_public_data",
        "confidence": "low",
        "geometry_role": "provisional_constraint",
        "official_boundary": false,
        "area_sqm_declared": 1929201.877,
        "source_refs": [
          "KEY-AREA-SOURCE",
          "OFFICIAL-ANNOUNCEMENT"
        ],
        "assumption_refs": [
          "A-PROVISIONAL-SITE-001",
          "A-OFFICIAL-POLYGON-MISSING-001"
        ],
        "provenance": {
          "source_refs": [
            "KEY-AREA-SOURCE",
            "OFFICIAL-ANNOUNCEMENT"
          ],
          "assumption_refs": [
            "A-PROVISIONAL-SITE-001",
            "A-OFFICIAL-POLYGON-MISSING-001"
          ]
        },
        "parent_scope_id": "key_detailed_design_area",
        "area_id": "zhongzhiyuan_ai_acceleration_area",
        "official_name_zh": "众智园AI自主创新加速区",
        "concept_nickname_zh": "智织原点",
        "name_zh": "众智园AI自主创新加速区 / 智织原点",
        "boundary_precision": "provisional_rough",
        "boundary_status": "provisional_only",
        "geometry_method": "retained_existing_provisional_constraint",
        "usage_note": "名称依据公开公告语义；polygon 仅为 provisional constraint，不是 official key-area boundary。"
      },
      "geometry": {
        "type": "Polygon",
        "coordinates": [
          [
            [
              116.343,
              40.0075
            ],
            [
              116.354,
              40.0075
            ],
            [
              116.354,
              40.026
            ],
            [
              116.343,
              40.026
            ],
            [
              116.343,
              40.0075
            ]
          ]
        ]
      }
    },
    {
      "type": "Feature",
      "id": "PROV-KEY-002",
      "properties": {
        "id": "PROV-KEY-002",
        "layer": "KEY_AREA",
        "source_type": "agent_inferred_from_public_data",
        "confidence": "low",
        "geometry_role": "provisional_constraint",
        "official_boundary": false,
        "area_sqm_declared": 1043236.909,
        "source_refs": [
          "KEY-AREA-SOURCE",
          "OFFICIAL-ANNOUNCEMENT"
        ],
        "assumption_refs": [
          "A-PROVISIONAL-SITE-001",
          "A-OFFICIAL-POLYGON-MISSING-001"
        ],
        "provenance": {
          "source_refs": [
            "KEY-AREA-SOURCE",
            "OFFICIAL-ANNOUNCEMENT"
          ],
          "assumption_refs": [
            "A-PROVISIONAL-SITE-001",
            "A-OFFICIAL-POLYGON-MISSING-001"
          ]
        },
        "parent_scope_id": "key_detailed_design_area",
        "area_id": "beijing_ai_origin_community",
        "official_name_zh": "北京AI原点社区",
        "concept_nickname_zh": "原点共创客厅",
        "name_zh": "北京AI原点社区 / 原点共创客厅",
        "boundary_precision": "provisional_rough",
        "boundary_status": "provisional_only",
        "geometry_method": "retained_existing_provisional_constraint",
        "usage_note": "名称依据公开公告语义；polygon 仅为 provisional constraint，不是 official key-area boundary。"
      },
      "geometry": {
        "type": "Polygon",
        "coordinates": [
          [
            [
              116.342,
              39.9835
            ],
            [
              116.353,
              39.9835
            ],
            [
              116.353,
              39.9935
            ],
            [
              116.342,
              39.9935
            ],
            [
              116.342,
              39.9835
            ]
          ]
        ]
      }
    },
    {
      "type": "Feature",
      "id": "PROV-KEY-003",
      "properties": {
        "id": "PROV-KEY-003",
        "layer": "KEY_AREA",
        "source_type": "agent_inferred_from_public_data",
        "confidence": "low",
        "geometry_role": "provisional_constraint",
        "official_boundary": false,
        "area_sqm_declared": 720454.219,
        "source_refs": [
          "KEY-AREA-SOURCE",
          "OFFICIAL-ANNOUNCEMENT"
        ],
        "assumption_refs": [
          "A-PROVISIONAL-SITE-001",
          "A-OFFICIAL-POLYGON-MISSING-001"
        ],
        "provenance": {
          "source_refs": [
            "KEY-AREA-SOURCE",
            "OFFICIAL-ANNOUNCEMENT"
          ],
          "assumption_refs": [
            "A-PROVISIONAL-SITE-001",
            "A-OFFICIAL-POLYGON-MISSING-001"
          ]
        },
        "parent_scope_id": "key_detailed_design_area",
        "area_id": "dazhongsi_ai_industry_cluster",
        "official_name_zh": "大钟寺AI产业聚集区",
        "concept_nickname_zh": "钟织转化枢纽",
        "name_zh": "大钟寺AI产业聚集区 / 钟织转化枢纽",
        "boundary_precision": "provisional_rough",
        "boundary_status": "provisional_only",
        "geometry_method": "retained_existing_provisional_constraint",
        "usage_note": "名称依据公开公告语义；polygon 仅为 provisional constraint，不是 official key-area boundary。"
      },
      "geometry": {
        "type": "Polygon",
        "coordinates": [
          [
            [
              116.342,
              39.944
            ],
            [
              116.355,
              39.944
            ],
            [
              116.355,
              39.94984
            ],
            [
              116.342,
              39.94984
            ],
            [
              116.342,
              39.944
            ]
          ]
        ]
      }
    }
  ]
}
