{
  "type": "FeatureCollection",
  "name": "phasing_provisional",
  "crs": {
    "type": "name",
    "properties": {
      "name": "EPSG:4326"
    }
  },
  "features": [
    {
      "type": "Feature",
      "id": "PHASE-001",
      "properties": {
        "id": "PHASE-001",
        "layer": "PHASE",
        "source_type": "agent_generated_design",
        "confidence": "medium",
        "geometry_role": "design_proposal",
        "official_boundary": false,
        "area_sqm_declared": 687825.726,
        "source_refs": [
          "AGENT-TASKBOOK",
          "SRC-BJ-THREE-ZONES",
          "SRC-BJ-JINGZHANG-PARK"
        ],
        "assumption_refs": [
          "A-PROVISIONAL-SITE-001",
          "A-OFFICIAL-POLYGON-MISSING-001"
        ],
        "provenance": {
          "source_refs": [
            "AGENT-TASKBOOK",
            "SRC-BJ-THREE-ZONES",
            "SRC-BJ-JINGZHANG-PARK"
          ],
          "assumption_refs": [
            "A-PROVISIONAL-SITE-001",
            "A-OFFICIAL-POLYGON-MISSING-001"
          ]
        },
        "phase_code": "0_foundation",
        "phase_sequence": 0,
        "implementation_logic": "先缝合：先建立历史—蓝绿—慢行的公共主缝",
        "name_zh": "0_foundation 基础缝合期",
        "statutory_status": "provisional_phasing_area"
      },
      "geometry": {
        "type": "Polygon",
        "coordinates": [
          [
            [
              116.346,
              39.95
            ],
            [
              116.346,
              39.979
            ],
            [
              116.3485,
              39.979
            ],
            [
              116.3485,
              39.95
            ],
            [
              116.346,
              39.95
            ]
          ]
        ]
      }
    },
    {
      "type": "Feature",
      "id": "PHASE-002",
      "properties": {
        "id": "PHASE-002",
        "layer": "PHASE",
        "source_type": "agent_generated_design",
        "confidence": "medium",
        "geometry_role": "design_proposal",
        "official_boundary": false,
        "area_sqm_declared": 1043236.909,
        "source_refs": [
          "AGENT-TASKBOOK",
          "SRC-BJ-THREE-ZONES",
          "SRC-BJ-JINGZHANG-PARK"
        ],
        "assumption_refs": [
          "A-PROVISIONAL-SITE-001",
          "A-DATA-BOUNDARY-001"
        ],
        "provenance": {
          "source_refs": [
            "AGENT-TASKBOOK",
            "SRC-BJ-THREE-ZONES",
            "SRC-BJ-JINGZHANG-PARK"
          ],
          "assumption_refs": [
            "A-PROVISIONAL-SITE-001",
            "A-DATA-BOUNDARY-001"
          ]
        },
        "phase_code": "1_weave",
        "phase_sequence": 1,
        "implementation_logic": "再试验：在原点社区验证校企转化与公共服务场景",
        "name_zh": "1_weave 织网试验期",
        "statutory_status": "provisional_phasing_area"
      },
      "geometry": {
        "type": "Polygon",
        "coordinates": [
          [
            [
              116.342,
              39.9835
            ],
            [
              116.353,
              39.9835
            ],
            [
              116.353,
              39.9935
            ],
            [
              116.342,
              39.9935
            ],
            [
              116.342,
              39.9835
            ]
          ]
        ]
      }
    },
    {
      "type": "Feature",
      "id": "PHASE-003",
      "properties": {
        "id": "PHASE-003",
        "layer": "PHASE",
        "source_type": "agent_generated_design",
        "confidence": "low",
        "geometry_role": "design_proposal",
        "official_boundary": false,
        "area_sqm_declared": 2649656.096,
        "source_refs": [
          "AGENT-TASKBOOK",
          "SRC-BJ-THREE-ZONES",
          "SRC-BJ-JINGZHANG-PARK"
        ],
        "assumption_refs": [
          "A-PROVISIONAL-SITE-001",
          "A-OFFICIAL-POLYGON-MISSING-001",
          "A-OWNERSHIP-IMPLEMENTATION-001"
        ],
        "provenance": {
          "source_refs": [
            "AGENT-TASKBOOK",
            "SRC-BJ-THREE-ZONES",
            "SRC-BJ-JINGZHANG-PARK"
          ],
          "assumption_refs": [
            "A-PROVISIONAL-SITE-001",
            "A-OFFICIAL-POLYGON-MISSING-001",
            "A-OWNERSHIP-IMPLEMENTATION-001"
          ]
        },
        "phase_code": "2_scale",
        "phase_sequence": 2,
        "implementation_logic": "后扩展：在两端重点区扩展可复核的创新与文化接口",
        "name_zh": "2_scale 扩展期",
        "statutory_status": "provisional_phasing_area"
      },
      "geometry": {
        "type": "MultiPolygon",
        "coordinates": [
          [
            [
              [
                116.342,
                39.94984
              ],
              [
                116.355,
                39.94984
              ],
              [
                116.355,
                39.944
              ],
              [
                116.342,
                39.944
              ],
              [
                116.342,
                39.94984
              ]
            ]
          ],
          [
            [
              [
                116.343,
                40.026
              ],
              [
                116.354,
                40.026
              ],
              [
                116.354,
                40.0075
              ],
              [
                116.343,
                40.0075
              ],
              [
                116.343,
                40.026
              ]
            ]
          ]
        ]
      }
    }
  ]
}
