{
  "type": "FeatureCollection",
  "name": "public_spaces_provisional",
  "crs": {
    "type": "name",
    "properties": {
      "name": "EPSG:4326"
    }
  },
  "features": [
    {
      "type": "Feature",
      "id": "PUBLIC-001",
      "properties": {
        "id": "PUBLIC-001",
        "layer": "PUBLIC_SPACE",
        "source_type": "agent_generated_design",
        "confidence": "medium",
        "geometry_role": "design_proposal",
        "official_boundary": false,
        "area_sqm_declared": 132720.958,
        "source_refs": [
          "AGENT-TASKBOOK",
          "SRC-BJ-JINGZHANG-PARK"
        ],
        "assumption_refs": [
          "A-PROVISIONAL-SITE-001",
          "A-OFFICIAL-POLYGON-MISSING-001",
          "A-DATA-BOUNDARY-001"
        ],
        "provenance": {
          "source_refs": [
            "AGENT-TASKBOOK",
            "SRC-BJ-JINGZHANG-PARK"
          ],
          "assumption_refs": [
            "A-PROVISIONAL-SITE-001",
            "A-OFFICIAL-POLYGON-MISSING-001",
            "A-DATA-BOUNDARY-001"
          ]
        },
        "public_role": "innovation_courtyard",
        "land_use_code": "1403",
        "name_zh": "众智园共创庭院",
        "statutory_status": "provisional_public_space_proposal"
      },
      "geometry": {
        "type": "Polygon",
        "coordinates": [
          [
            [
              116.349,
              40.015
            ],
            [
              116.349,
              40.019
            ],
            [
              116.3525,
              40.019
            ],
            [
              116.3525,
              40.015
            ],
            [
              116.349,
              40.015
            ]
          ]
        ]
      }
    },
    {
      "type": "Feature",
      "id": "PUBLIC-002",
      "properties": {
        "id": "PUBLIC-002",
        "layer": "PUBLIC_SPACE",
        "source_type": "agent_generated_design",
        "confidence": "medium",
        "geometry_role": "design_proposal",
        "official_boundary": false,
        "area_sqm_declared": 165971.755,
        "source_refs": [
          "AGENT-TASKBOOK",
          "SRC-BJ-JINGZHANG-PARK"
        ],
        "assumption_refs": [
          "A-PROVISIONAL-SITE-001",
          "A-OFFICIAL-POLYGON-MISSING-001",
          "A-DATA-BOUNDARY-001"
        ],
        "provenance": {
          "source_refs": [
            "AGENT-TASKBOOK",
            "SRC-BJ-JINGZHANG-PARK"
          ],
          "assumption_refs": [
            "A-PROVISIONAL-SITE-001",
            "A-OFFICIAL-POLYGON-MISSING-001",
            "A-DATA-BOUNDARY-001"
          ]
        },
        "public_role": "station_interface",
        "land_use_code": "1403",
        "name_zh": "原点社区站点客厅",
        "statutory_status": "provisional_public_space_proposal"
      },
      "geometry": {
        "type": "Polygon",
        "coordinates": [
          [
            [
              116.3495,
              39.985
            ],
            [
              116.3495,
              39.99
            ],
            [
              116.353,
              39.99
            ],
            [
              116.353,
              39.985
            ],
            [
              116.3495,
              39.985
            ]
          ]
        ]
      }
    },
    {
      "type": "Feature",
      "id": "PUBLIC-003",
      "properties": {
        "id": "PUBLIC-003",
        "layer": "PUBLIC_SPACE",
        "source_type": "agent_generated_design",
        "confidence": "medium",
        "geometry_role": "design_proposal",
        "official_boundary": false,
        "area_sqm_declared": 65478.851,
        "source_refs": [
          "AGENT-TASKBOOK",
          "SRC-BJ-JINGZHANG-PARK"
        ],
        "assumption_refs": [
          "A-PROVISIONAL-SITE-001",
          "A-OFFICIAL-POLYGON-MISSING-001",
          "A-DATA-BOUNDARY-001"
        ],
        "provenance": {
          "source_refs": [
            "AGENT-TASKBOOK",
            "SRC-BJ-JINGZHANG-PARK"
          ],
          "assumption_refs": [
            "A-PROVISIONAL-SITE-001",
            "A-OFFICIAL-POLYGON-MISSING-001",
            "A-DATA-BOUNDARY-001"
          ]
        },
        "public_role": "heritage_forecourt",
        "land_use_code": "1403",
        "name_zh": "大钟寺遗产前场",
        "statutory_status": "provisional_public_space_proposal"
      },
      "geometry": {
        "type": "Polygon",
        "coordinates": [
          [
            [
              116.3435,
              39.9452
            ],
            [
              116.3435,
              39.9482
            ],
            [
              116.3458,
              39.9482
            ],
            [
              116.3458,
              39.9452
            ],
            [
              116.3435,
              39.9452
            ]
          ]
        ]
      }
    }
  ]
}
