{
  "type": "FeatureCollection",
  "name": "roads_provisional",
  "crs": {
    "type": "name",
    "properties": {
      "name": "EPSG:4326"
    }
  },
  "features": [
    {
      "type": "Feature",
      "id": "ROAD-001",
      "properties": {
        "id": "ROAD-001",
        "layer": "ROAD_CENTERLINE",
        "source_type": "agent_generated_design",
        "confidence": "low",
        "geometry_role": "design_proposal",
        "official_boundary": false,
        "area_sqm_declared": null,
        "source_refs": [
          "AGENT-TASKBOOK",
          "SRC-BJ-XUEYUAN-HALL"
        ],
        "assumption_refs": [
          "A-DATA-BOUNDARY-001",
          "A-PROVISIONAL-SITE-001"
        ],
        "provenance": {
          "source_refs": [
            "AGENT-TASKBOOK",
            "SRC-BJ-XUEYUAN-HALL"
          ],
          "assumption_refs": [
            "A-DATA-BOUNDARY-001",
            "A-PROVISIONAL-SITE-001"
          ]
        },
        "length_m_declared": 8960.814,
        "road_class": "greenway",
        "name_zh": "京张记忆慢行主缝",
        "network_role": "weave_connector",
        "statutory_status": "provisional_alignment_only"
      },
      "geometry": {
        "type": "LineString",
        "coordinates": [
          [
            116.3475,
            39.9448
          ],
          [
            116.3475,
            40.0255
          ]
        ]
      }
    },
    {
      "type": "Feature",
      "id": "ROAD-002",
      "properties": {
        "id": "ROAD-002",
        "layer": "ROAD_CENTERLINE",
        "source_type": "agent_generated_design",
        "confidence": "low",
        "geometry_role": "design_proposal",
        "official_boundary": false,
        "area_sqm_declared": null,
        "source_refs": [
          "AGENT-TASKBOOK",
          "SRC-BJ-XUEYUAN-HALL"
        ],
        "assumption_refs": [
          "A-DATA-BOUNDARY-001",
          "A-PROVISIONAL-SITE-001"
        ],
        "provenance": {
          "source_refs": [
            "AGENT-TASKBOOK",
            "SRC-BJ-XUEYUAN-HALL"
          ],
          "assumption_refs": [
            "A-DATA-BOUNDARY-001",
            "A-PROVISIONAL-SITE-001"
          ]
        },
        "length_m_declared": 896.866,
        "road_class": "cycleway",
        "name_zh": "原点社区横向骑行接口",
        "network_role": "weave_connector",
        "statutory_status": "provisional_alignment_only"
      },
      "geometry": {
        "type": "LineString",
        "coordinates": [
          [
            116.3425,
            39.985
          ],
          [
            116.353,
            39.985
          ]
        ]
      }
    },
    {
      "type": "Feature",
      "id": "ROAD-003",
      "properties": {
        "id": "ROAD-003",
        "layer": "ROAD_CENTERLINE",
        "source_type": "agent_generated_design",
        "confidence": "low",
        "geometry_role": "design_proposal",
        "official_boundary": false,
        "area_sqm_declared": null,
        "source_refs": [
          "AGENT-TASKBOOK",
          "SRC-BJ-XUEYUAN-HALL"
        ],
        "assumption_refs": [
          "A-DATA-BOUNDARY-001",
          "A-PROVISIONAL-SITE-001"
        ],
        "provenance": {
          "source_refs": [
            "AGENT-TASKBOOK",
            "SRC-BJ-XUEYUAN-HALL"
          ],
          "assumption_refs": [
            "A-DATA-BOUNDARY-001",
            "A-PROVISIONAL-SITE-001"
          ]
        },
        "length_m_declared": 896.473,
        "road_class": "pedestrian",
        "name_zh": "众智园公共步行接口",
        "network_role": "weave_connector",
        "statutory_status": "provisional_alignment_only"
      },
      "geometry": {
        "type": "LineString",
        "coordinates": [
          [
            116.343,
            40.015
          ],
          [
            116.3535,
            40.015
          ]
        ]
      }
    },
    {
      "type": "Feature",
      "id": "ROAD-004",
      "properties": {
        "id": "ROAD-004",
        "layer": "ROAD_CENTERLINE",
        "source_type": "agent_generated_design",
        "confidence": "low",
        "geometry_role": "design_proposal",
        "official_boundary": false,
        "area_sqm_declared": null,
        "source_refs": [
          "AGENT-TASKBOOK",
          "SRC-BJ-XUEYUAN-HALL"
        ],
        "assumption_refs": [
          "A-DATA-BOUNDARY-001",
          "A-PROVISIONAL-SITE-001"
        ],
        "provenance": {
          "source_refs": [
            "AGENT-TASKBOOK",
            "SRC-BJ-XUEYUAN-HALL"
          ],
          "assumption_refs": [
            "A-DATA-BOUNDARY-001",
            "A-PROVISIONAL-SITE-001"
          ]
        },
        "length_m_declared": 811.9,
        "road_class": "local_access",
        "name_zh": "大钟寺四象限微循环",
        "network_role": "weave_connector",
        "statutory_status": "provisional_alignment_only"
      },
      "geometry": {
        "type": "LineString",
        "coordinates": [
          [
            116.343,
            39.947
          ],
          [
            116.3525,
            39.947
          ]
        ]
      }
    }
  ]
}
