{
  "type": "FeatureCollection",
  "name": "site_boundary_provisional",
  "crs": {
    "type": "name",
    "properties": {
      "name": "EPSG:4326"
    }
  },
  "features": [
    {
      "type": "Feature",
      "id": "PROV-SITE-001",
      "properties": {
        "id": "PROV-SITE-001",
        "layer": "SITE_BOUNDARY",
        "source_type": "agent_inferred_from_public_data",
        "confidence": "low",
        "geometry_role": "provisional_constraint",
        "official_boundary": false,
        "area_sqm_declared": 11412825.386,
        "source_refs": [
          "BOUNDARY-SOURCE",
          "OFFICIAL-ANNOUNCEMENT"
        ],
        "assumption_refs": [
          "A-PROVISIONAL-SITE-001",
          "A-OFFICIAL-POLYGON-MISSING-001"
        ],
        "provenance": {
          "source_refs": [
            "BOUNDARY-SOURCE",
            "OFFICIAL-ANNOUNCEMENT"
          ],
          "assumption_refs": [
            "A-PROVISIONAL-SITE-001",
            "A-OFFICIAL-POLYGON-MISSING-001"
          ]
        },
        "scope_id": "overall_design_area",
        "name_zh": "总体设计范围（provisional boundary）",
        "boundary_precision": "provisional_rough",
        "boundary_status": "provisional_only",
        "geometry_method": "retained_existing_provisional_constraint",
        "usage_note": "仅用于方案推演、展示与自检；不得作为 official redline、审批依据或法定控制结论。"
      },
      "geometry": {
        "type": "Polygon",
        "coordinates": [
          [
            [
              116.3407,
              39.939
            ],
            [
              116.3553,
              39.939
            ],
            [
              116.3553,
              39.965
            ],
            [
              116.3533,
              39.99
            ],
            [
              116.3553,
              40.0265
            ],
            [
              116.3427,
              40.0265
            ],
            [
              116.3417,
              40.006
            ],
            [
              116.3397,
              39.975
            ],
            [
              116.3407,
              39.939
            ]
          ]
        ]
      }
    }
  ]
}
