{
 "type": "FeatureCollection",
 "features": [
  {
   "type": "Feature",
   "id": "GREEN-001",
   "properties": {
    "id": "GREEN-001",
    "layer": "GREEN_SPACE",
    "source_type": "agent_generated_design",
    "confidence": "medium",
    "geometry_role": "design_proposal",
    "land_use_code": "1401",
    "name_zh": "京张遗址公园AI学习脊",
    "green_type": "park",
    "area_sqm_declared": 184000.655
   },
   "geometry": {
    "type": "Polygon",
    "coordinates": [
     [
      [
       116.3461967242084,
       39.98361592792323
      ],
      [
       116.34610378897895,
       39.993363231836575
      ],
      [
       116.34809424242158,
       39.99337444463219
      ],
      [
       116.34818689480602,
       39.983627136870496
      ],
      [
       116.3461967242084,
       39.98361592792323
      ]
     ]
    ]
   }
  },
  {
   "type": "Feature",
   "id": "GREEN-002",
   "properties": {
    "id": "GREEN-002",
    "layer": "GREEN_SPACE",
    "source_type": "agent_generated_design",
    "confidence": "medium",
    "geometry_role": "design_proposal",
    "land_use_code": "1401",
    "name_zh": "京张遗址公园AI学习脊",
    "green_type": "park",
    "area_sqm_declared": 150022.822
   },
   "geometry": {
    "type": "Polygon",
    "coordinates": [
     [
      [
       116.34651766832086,
       39.94991774027748
      ],
      [
       116.34644202552781,
       39.957865140757335
      ],
      [
       116.34843144955967,
       39.95787633954311
      ],
      [
       116.34850686213653,
       39.94992893592868
      ],
      [
       116.34651766832086,
       39.94991774027748
      ]
     ]
    ]
   }
  },
  {
   "type": "Feature",
   "id": "GREEN-003",
   "properties": {
    "id": "GREEN-003",
    "layer": "GREEN_SPACE",
    "source_type": "agent_generated_design",
    "confidence": "medium",
    "geometry_role": "design_proposal",
    "land_use_code": "1401",
    "name_zh": "京张遗址公园AI学习脊",
    "green_type": "park",
    "area_sqm_declared": 136810.86
   },
   "geometry": {
    "type": "Polygon",
    "coordinates": [
     [
      [
       116.34603938754277,
       40.00011503886323
      ],
      [
       116.34597023430254,
       40.00736247759552
      ],
      [
       116.34796109421396,
       40.007373695920094
      ],
      [
       116.34803003698885,
       40.00012625432517
      ],
      [
       116.34603938754277,
       40.00011503886323
      ]
     ]
    ]
   }
  },
  {
   "type": "Feature",
   "id": "GREEN-004",
   "properties": {
    "id": "GREEN-004",
    "layer": "GREEN_SPACE",
    "source_type": "agent_generated_design",
    "confidence": "medium",
    "geometry_role": "design_proposal",
    "land_use_code": "1401",
    "name_zh": "京张遗址公园AI学习脊",
    "green_type": "park",
    "area_sqm_declared": 127371.849
   },
   "geometry": {
    "type": "Polygon",
    "coordinates": [
     [
      [
       116.34842905634115,
       39.95812849860481
      ],
      [
       116.34643962500337,
       39.958117299719554
      ],
      [
       116.34637537863617,
       39.96486476476109
      ],
      [
       116.34836500550546,
       39.96487596630824
      ],
      [
       116.34842905634115,
       39.95812849860481
      ]
     ]
    ]
   }
  },
  {
   "type": "Feature",
   "id": "GREEN-005",
   "properties": {
    "id": "GREEN-005",
    "layer": "GREEN_SPACE",
    "source_type": "agent_generated_design",
    "confidence": "medium",
    "geometry_role": "design_proposal",
    "land_use_code": "1401",
    "name_zh": "京张遗址公园AI学习脊",
    "green_type": "park",
    "area_sqm_declared": 120447.336
   },
   "geometry": {
    "type": "Polygon",
    "coordinates": [
     [
      [
       116.34783973222767,
       40.02012518307317
      ],
      [
       116.34584850182797,
       40.020113959710464
      ],
      [
       116.34578750679356,
       40.026500126732486
      ],
      [
       116.34777902937704,
       40.02650016483152
      ],
      [
       116.34783973222767,
       40.02012518307317
      ]
     ]
    ]
   }
  },
  {
   "type": "Feature",
   "id": "GREEN-006",
   "properties": {
    "id": "GREEN-006",
    "layer": "GREEN_SPACE",
    "source_type": "agent_generated_design",
    "confidence": "medium",
    "geometry_role": "design_proposal",
    "land_use_code": "1401",
    "name_zh": "京张遗址公园AI学习脊",
    "green_type": "park",
    "area_sqm_declared": 117934.892
   },
   "geometry": {
    "type": "Polygon",
    "coordinates": [
     [
      [
       116.34596782783339,
       40.007614634374185
      ],
      [
       116.34590819489642,
       40.013862127137564
      ],
      [
       116.34789924362248,
       40.01387334802992
      ],
      [
       116.34795869506881,
       40.007625852798384
      ],
      [
       116.34596782783339,
       40.007614634374185
      ]
     ]
    ]
   }
  },
  {
   "type": "Feature",
   "id": "GREEN-007",
   "properties": {
    "id": "GREEN-007",
    "layer": "GREEN_SPACE",
    "source_type": "agent_generated_design",
    "confidence": "medium",
    "geometry_role": "design_proposal",
    "land_use_code": "1401",
    "name_zh": "京张遗址公园AI学习脊",
    "green_type": "park",
    "area_sqm_declared": 117934.599
   },
   "geometry": {
    "type": "Polygon",
    "coordinates": [
     [
      [
       116.3461013841928,
       39.99361538923289
      ],
      [
       116.34604179311017,
       39.99986288175367
      ],
      [
       116.34803243523496,
       39.999874097116034
      ],
      [
       116.3480918449543,
       39.993626602128074
      ],
      [
       116.3461013841928,
       39.99361538923289
      ]
     ]
    ]
   }
  },
  {
   "type": "Feature",
   "id": "GREEN-008",
   "properties": {
    "id": "GREEN-008",
    "layer": "GREEN_SPACE",
    "source_type": "agent_generated_design",
    "confidence": "medium",
    "geometry_role": "design_proposal",
    "land_use_code": "1401",
    "name_zh": "京张遗址公园AI学习脊",
    "green_type": "park",
    "area_sqm_declared": 117934.137
   },
   "geometry": {
    "type": "Polygon",
    "coordinates": [
     [
      [
       116.34631106914725,
       39.971616573807935
      ],
      [
       116.34625154376933,
       39.97786406594726
      ],
      [
       116.3482415475256,
       39.97787527262414
      ],
      [
       116.3483008917402,
       39.97162777801922
      ],
      [
       116.34631106914725,
       39.971616573807935
      ]
     ]
    ]
   }
  },
  {
   "type": "Feature",
   "id": "GREEN-009",
   "properties": {
    "id": "GREEN-009",
    "layer": "GREEN_SPACE",
    "source_type": "agent_generated_design",
    "confidence": "medium",
    "geometry_role": "design_proposal",
    "land_use_code": "1401",
    "name_zh": "京张遗址公园AI学习脊",
    "green_type": "park",
    "area_sqm_declared": 117934.001
   },
   "geometry": {
    "type": "Polygon",
    "coordinates": [
     [
      [
       116.34637297727205,
       39.9651169234146
      ],
      [
       116.34631347129135,
       39.971364415441144
      ],
      [
       116.34830328657344,
       39.97137561955292
      ],
      [
       116.3483626114498,
       39.96512812506121
      ],
      [
       116.34637297727205,
       39.9651169234146
      ]
     ]
    ]
   }
  },
  {
   "type": "Feature",
   "id": "GREEN-010",
   "properties": {
    "id": "GREEN-010",
    "layer": "GREEN_SPACE",
    "source_type": "agent_generated_design",
    "confidence": "medium",
    "geometry_role": "design_proposal",
    "land_use_code": "1401",
    "name_zh": "京张遗址公园AI学习脊",
    "green_type": "park",
    "area_sqm_declared": 108496.944
   },
   "geometry": {
    "type": "Polygon",
    "coordinates": [
     [
      [
       116.34590578764542,
       40.014114283629446
      ],
      [
       116.34585090980092,
       40.01986180348332
      ],
      [
       116.34784213287206,
       40.019873026746374
      ],
      [
       116.34789684369787,
       40.01412550462143
      ],
      [
       116.34590578764542,
       40.014114283629446
      ]
     ]
    ]
   }
  },
  {
   "type": "Feature",
   "id": "GREEN-011",
   "properties": {
    "id": "GREEN-011",
    "layer": "GREEN_SPACE",
    "source_type": "agent_generated_design",
    "confidence": "medium",
    "geometry_role": "design_proposal",
    "land_use_code": "1401",
    "name_zh": "京张遗址公园AI学习脊",
    "green_type": "park",
    "area_sqm_declared": 104720.402
   },
   "geometry": {
    "type": "Polygon",
    "coordinates": [
     [
      [
       116.34657285032496,
       39.94411805172455
      ],
      [
       116.34652006786209,
       39.94966558095359
      ],
      [
       116.34850925437486,
       39.94967677650534
      ],
      [
       116.34856187619617,
       39.944129245088725
      ],
      [
       116.34657285032496,
       39.94411805172455
      ]
     ]
    ]
   }
  },
  {
   "type": "Feature",
   "id": "GREEN-012",
   "properties": {
    "id": "GREEN-012",
    "layer": "GREEN_SPACE",
    "source_type": "agent_generated_design",
    "confidence": "medium",
    "geometry_role": "design_proposal",
    "land_use_code": "1401",
    "name_zh": "京张遗址公园AI学习脊",
    "green_type": "park",
    "area_sqm_declared": 99058.223
   },
   "geometry": {
    "type": "Polygon",
    "coordinates": [
     [
      [
       116.34823915191446,
       39.978127430803724
      ],
      [
       116.34624914084498,
       39.97811622402734
      ],
      [
       116.34619912779321,
       39.98336377008577
      ],
      [
       116.34818929107561,
       39.9833749789335
      ],
      [
       116.34823915191446,
       39.978127430803724
      ]
     ]
    ]
   }
  },
  {
   "type": "Feature",
   "id": "GREEN-013",
   "properties": {
    "id": "GREEN-013",
    "layer": "GREEN_SPACE",
    "source_type": "agent_generated_design",
    "confidence": "medium",
    "geometry_role": "design_proposal",
    "land_use_code": "1401",
    "name_zh": "京张遗址公园AI学习脊",
    "green_type": "park",
    "area_sqm_declared": 91954.472
   },
   "geometry": {
    "type": "Polygon",
    "coordinates": [
     [
      [
       116.34662153136065,
       39.93900022163207
      ],
      [
       116.34657524917105,
       39.943865892144885
      ],
      [
       116.34856426774144,
       39.94387708540961
      ],
      [
       116.34861051512532,
       39.939000228219584
      ],
      [
       116.34662153136065,
       39.93900022163207
      ]
     ]
    ]
   }
  },
  {
   "type": "Feature",
   "id": "GREEN-014",
   "properties": {
    "id": "GREEN-014",
    "layer": "GREEN_SPACE",
    "source_type": "agent_generated_design",
    "confidence": "medium",
    "geometry_role": "design_proposal",
    "land_use_code": "1402",
    "name_zh": "五环防护绿带",
    "green_type": "protective",
    "area_sqm_declared": 182898.657
   },
   "geometry": {
    "type": "Polygon",
    "coordinates": [
     [
      [
       116.3455908132697,
       40.02011250477511
      ],
      [
       116.34238747457819,
       40.02009437056469
      ],
      [
       116.34270000000001,
       40.026500000000006
      ],
      [
       116.34552978037573,
       40.02650011930064
      ],
      [
       116.3455908132697,
       40.02011250477511
      ]
     ]
    ]
   }
  }
 ]
}
