{
 "type": "FeatureCollection",
 "features": [
  {
   "type": "Feature",
   "id": "PHASE-1",
   "properties": {
    "id": "PHASE-1",
    "layer": "PHASE",
    "source_type": "agent_generated_design",
    "confidence": "medium",
    "geometry_role": "design_proposal",
    "phase_order": 1,
    "timeframe_zh": "近期（1-3年）",
    "name_zh": "三大重点区启动与遗址公园AI学习脊贯通",
    "note": "概念分期，供实施主体深化",
    "area_sqm_declared": 4661353.177
   },
   "geometry": {
    "type": "MultiPolygon",
    "coordinates": [
     [
      [
       [
        116.35500000000002,
        39.94983999999999
       ],
       [
        116.35500000000002,
        39.943999999999996
       ],
       [
        116.34200000000001,
        39.943999999999996
       ],
       [
        116.34200000000001,
        39.94984
       ],
       [
        116.35500000000002,
        39.94983999999999
       ]
      ]
     ],
     [
      [
       [
        116.34578750679356,
        40.026500126732486
       ],
       [
        116.34777902937704,
        40.02650016483152
       ],
       [
        116.34778379144781,
        40.026000128316404
       ],
       [
        116.354,
        40.026
       ],
       [
        116.354,
        40.0075
       ],
       [
        116.34299999999999,
        40.0075
       ],
       [
        116.34299999999999,
        40.025999999999996
       ],
       [
        116.34579228332345,
        40.02600009889316
       ],
       [
        116.34578750679356,
        40.026500126732486
       ]
      ]
     ],
     [
      [
       [
        116.353,
        39.9835
       ],
       [
        116.34200000000001,
        39.98349999999999
       ],
       [
        116.34200000000001,
        39.99349999999999
       ],
       [
        116.353,
        39.99349999999999
       ],
       [
        116.353,
        39.9835
       ]
      ]
     ],
     [
      [
       [
        116.34662153136065,
        39.93900022163207
       ],
       [
        116.34657524917105,
        39.943865892144885
       ],
       [
        116.34856426774144,
        39.94387708540961
       ],
       [
        116.34861051512532,
        39.939000228219584
       ],
       [
        116.34662153136065,
        39.93900022163207
       ]
      ]
     ],
     [
      [
       [
        116.34651766832086,
        39.94991774027748
       ],
       [
        116.34644202552781,
        39.957865140757335
       ],
       [
        116.34843144955967,
        39.95787633954311
       ],
       [
        116.34850686213653,
        39.94992893592868
       ],
       [
        116.34651766832086,
        39.94991774027748
       ]
      ]
     ],
     [
      [
       [
        116.34637297727205,
        39.9651169234146
       ],
       [
        116.34631347129135,
        39.971364415441144
       ],
       [
        116.34830328657344,
        39.97137561955292
       ],
       [
        116.3483626114498,
        39.96512812506121
       ],
       [
        116.34637297727205,
        39.9651169234146
       ]
      ]
     ],
     [
      [
       [
        116.34631106914725,
        39.971616573807935
       ],
       [
        116.34625154376933,
        39.97786406594726
       ],
       [
        116.3482415475256,
        39.97787527262414
       ],
       [
        116.3483008917402,
        39.97162777801922
       ],
       [
        116.34631106914725,
        39.971616573807935
       ]
      ]
     ],
     [
      [
       [
        116.3461013841928,
        39.99361538923289
       ],
       [
        116.34604179311017,
        39.99986288175367
       ],
       [
        116.34803243523496,
        39.999874097116034
       ],
       [
        116.3480918449543,
        39.993626602128074
       ],
       [
        116.3461013841928,
        39.99361538923289
       ]
      ]
     ],
     [
      [
       [
        116.34603938754277,
        40.00011503886323
       ],
       [
        116.34597023430254,
        40.00736247759552
       ],
       [
        116.34796109421396,
        40.007373695920094
       ],
       [
        116.34803003698885,
        40.00012625432517
       ],
       [
        116.34603938754277,
        40.00011503886323
       ]
      ]
     ],
     [
      [
       [
        116.34842905634115,
        39.95812849860481
       ],
       [
        116.34643962500337,
        39.958117299719554
       ],
       [
        116.34637537863617,
        39.96486476476109
       ],
       [
        116.34836500550546,
        39.96487596630824
       ],
       [
        116.34842905634115,
        39.95812849860481
       ]
      ]
     ],
     [
      [
       [
        116.34823915191446,
        39.978127430803724
       ],
       [
        116.34624914084498,
        39.97811622402734
       ],
       [
        116.34619912779321,
        39.98336377008577
       ],
       [
        116.34818929107561,
        39.9833749789335
       ],
       [
        116.34823915191446,
        39.978127430803724
       ]
      ]
     ]
    ]
   }
  },
  {
   "type": "Feature",
   "id": "PHASE-2",
   "properties": {
    "id": "PHASE-2",
    "layer": "PHASE",
    "source_type": "agent_generated_design",
    "confidence": "medium",
    "geometry_role": "design_proposal",
    "phase_order": 2,
    "timeframe_zh": "中期（3-6年）",
    "name_zh": "中段东西缝合与社区更新",
    "note": "概念分期，供实施主体深化",
    "area_sqm_declared": 3305221.846
   },
   "geometry": {
    "type": "Polygon",
    "coordinates": [
     [
      [
       116.3533,
       39.99
      ],
      [
       116.3553,
       39.965
      ],
      [
       116.35530001296077,
       39.95804082763769
      ],
      [
       116.340173616168,
       39.95795571782493
      ],
      [
       116.3397,
       39.975
      ],
      [
       116.34089075795526,
       39.993459788785614
      ],
      [
       116.34200000003375,
       39.993466091581936
      ],
      [
       116.34200000000001,
       39.98349999999999
      ],
      [
       116.353,
       39.9835
      ],
      [
       116.353,
       39.99349999999999
      ],
      [
       116.34802298927495,
       39.993500129324275
      ],
      [
       116.35349338475588,
       39.99353077293517
      ],
      [
       116.3533,
       39.99
      ]
     ],
     [
      [
       116.34836500550546,
       39.96487596630824
      ],
      [
       116.34637537863617,
       39.96486476476109
      ],
      [
       116.34643962500337,
       39.958117299719554
      ],
      [
       116.34842905634115,
       39.95812849860481
      ],
      [
       116.34836500550546,
       39.96487596630824
      ]
     ],
     [
      [
       116.3483626114498,
       39.96512812506121
      ],
      [
       116.34830328657344,
       39.97137561955292
      ],
      [
       116.34631347129135,
       39.971364415441144
      ],
      [
       116.34637297727205,
       39.9651169234146
      ],
      [
       116.3483626114498,
       39.96512812506121
      ]
     ],
     [
      [
       116.3483008917402,
       39.97162777801922
      ],
      [
       116.3482415475256,
       39.97787527262414
      ],
      [
       116.34625154376933,
       39.97786406594726
      ],
      [
       116.34631106914725,
       39.971616573807935
      ],
      [
       116.3483008917402,
       39.97162777801922
      ]
     ],
     [
      [
       116.34818929107561,
       39.9833749789335
      ],
      [
       116.34619912779321,
       39.98336377008577
      ],
      [
       116.34624914084498,
       39.97811622402734
      ],
      [
       116.34823915191446,
       39.978127430803724
      ],
      [
       116.34818929107561,
       39.9833749789335
      ]
     ]
    ]
   }
  },
  {
   "type": "Feature",
   "id": "PHASE-3",
   "properties": {
    "id": "PHASE-3",
    "layer": "PHASE",
    "source_type": "agent_generated_design",
    "confidence": "medium",
    "geometry_role": "design_proposal",
    "phase_order": 3,
    "timeframe_zh": "远期（6-10年）",
    "name_zh": "整带功能成熟与滚动更新",
    "note": "概念分期，供实施主体深化",
    "area_sqm_declared": 3446250.363
   },
   "geometry": {
    "type": "MultiPolygon",
    "coordinates": [
     [
      [
       [
        116.34169999999999,
        40.00600000000001
       ],
       [
        116.34270000000001,
        40.026500000000006
       ],
       [
        116.34578750679356,
        40.026500126732486
       ],
       [
        116.34579228332345,
        40.02600009889316
       ],
       [
        116.34299999999999,
        40.025999999999996
       ],
       [
        116.34299999999999,
        40.0075
       ],
       [
        116.354,
        40.0075
       ],
       [
        116.354,
        40.026
       ],
       [
        116.34778379144781,
        40.026000128316404
       ],
       [
        116.34777902937704,
        40.02650016483152
       ],
       [
        116.34675344884889,
        40.02650014948626
       ],
       [
        116.3553,
        40.02649999999999
       ],
       [
        116.35349338475588,
        39.99353077293517
       ],
       [
        116.34802298927495,
        39.993500129324275
       ],
       [
        116.353,
        39.99349999999999
       ],
       [
        116.34200000000001,
        39.99349999999999
       ],
       [
        116.34200000000001,
        39.98349999999999
       ],
       [
        116.34200000003375,
        39.993466091581936
       ],
       [
        116.34089075795526,
        39.993459788785614
       ],
       [
        116.3397,
        39.975
       ],
       [
        116.34169999999999,
        40.00600000000001
       ]
      ],
      [
       [
        116.34803243523496,
        39.999874097116034
       ],
       [
        116.34604179311017,
        39.99986288175367
       ],
       [
        116.3461013841928,
        39.99361538923289
       ],
       [
        116.3480918449543,
        39.993626602128074
       ],
       [
        116.34803243523496,
        39.999874097116034
       ]
      ],
      [
       [
        116.34796109421396,
        40.007373695920094
       ],
       [
        116.34597023430254,
        40.00736247759552
       ],
       [
        116.34603938754277,
        40.00011503886323
       ],
       [
        116.34803003698885,
        40.00012625432517
       ],
       [
        116.34796109421396,
        40.007373695920094
       ]
      ]
     ],
     [
      [
       [
        116.340173616168,
        39.95795571782493
       ],
       [
        116.35530001296077,
        39.95804082763769
       ],
       [
        116.3553,
        39.965
       ],
       [
        116.3553,
        39.939
       ],
       [
        116.34861051512532,
        39.939000228219584
       ],
       [
        116.34856426774144,
        39.94387708540961
       ],
       [
        116.34657524917105,
        39.943865892144885
       ],
       [
        116.34662153136065,
        39.93900022163207
       ],
       [
        116.34070000000001,
        39.93899999999999
       ],
       [
        116.340173616168,
        39.95795571782493
       ]
      ],
      [
       [
        116.34200000000001,
        39.943999999999996
       ],
       [
        116.35500000000002,
        39.943999999999996
       ],
       [
        116.35500000000002,
        39.94983999999999
       ],
       [
        116.34200000000001,
        39.94984
       ],
       [
        116.34200000000001,
        39.943999999999996
       ]
      ],
      [
       [
        116.34843144955967,
        39.95787633954311
       ],
       [
        116.34644202552781,
        39.957865140757335
       ],
       [
        116.34651766832086,
        39.94991774027748
       ],
       [
        116.34850686213653,
        39.94992893592868
       ],
       [
        116.34843144955967,
        39.95787633954311
       ]
      ]
     ]
    ]
   }
  }
 ]
}
