{
 "type": "FeatureCollection",
 "features": [
  {
   "type": "Feature",
   "id": "PUB-001",
   "properties": {
    "id": "PUB-001",
    "layer": "PUBLIC_SPACE",
    "source_type": "agent_generated_design",
    "confidence": "medium",
    "geometry_role": "design_proposal",
    "public_space_type": "plaza",
    "name_zh": "站前/核心广场",
    "land_use_code": "1403",
    "area_sqm_declared": 22100.0
   },
   "geometry": {
    "type": "Polygon",
    "coordinates": [
     [
      [
       116.35001845687181,
       39.978137422053116
      ],
      [
       116.34849668284012,
       39.97812887859595
      ],
      [
       116.34848214315653,
       39.979659838811365
      ],
      [
       116.35000395114402,
       39.9796683827292
      ],
      [
       116.35001845687181,
       39.978137422053116
      ]
     ]
    ]
   }
  },
  {
   "type": "Feature",
   "id": "PUB-002",
   "properties": {
    "id": "PUB-002",
    "layer": "PUBLIC_SPACE",
    "source_type": "agent_generated_design",
    "confidence": "medium",
    "geometry_role": "design_proposal",
    "public_space_type": "plaza",
    "name_zh": "站前/核心广场",
    "land_use_code": "1403",
    "area_sqm_declared": 22100.0
   },
   "geometry": {
    "type": "Polygon",
    "coordinates": [
     [
      [
       116.3496770829948,
       40.014135508544534
      ],
      [
       116.34815450985677,
       40.01412695425015
      ],
      [
       116.34813994399332,
       40.015657904823605
      ],
      [
       116.34966255114827,
       40.01566645957913
      ],
      [
       116.3496770829948,
       40.014135508544534
      ]
     ]
    ]
   }
  },
  {
   "type": "Feature",
   "id": "PUB-003",
   "properties": {
    "id": "PUB-003",
    "layer": "PUBLIC_SPACE",
    "source_type": "agent_generated_design",
    "confidence": "medium",
    "geometry_role": "design_proposal",
    "public_space_type": "plaza",
    "name_zh": "站前/核心广场",
    "land_use_code": "1403",
    "area_sqm_declared": 21639.61
   },
   "geometry": {
    "type": "Polygon",
    "coordinates": [
     [
      [
       116.34885374461994,
       39.94049502739943
      ],
      [
       116.35037468477395,
       39.940503559538996
      ],
      [
       116.35038890100091,
       39.93900020521479
      ],
      [
       116.34886791305816,
       39.93900022657838
      ],
      [
       116.34885374461994,
       39.94049502739943
      ]
     ]
    ]
   }
  },
  {
   "type": "Feature",
   "id": "PUB-004",
   "properties": {
    "id": "PUB-004",
    "layer": "PUBLIC_SPACE",
    "source_type": "agent_generated_design",
    "confidence": "medium",
    "geometry_role": "design_proposal",
    "public_space_type": "heritage_promenade",
    "name_zh": "京张遗址公园连续漫步道（AI学习步径）",
    "area_sqm_declared": 51953.126
   },
   "geometry": {
    "type": "Polygon",
    "coordinates": [
     [
      [
       116.34747277463984,
       39.98362311876697
      ],
      [
       116.34691084411813,
       39.98361995388773
      ],
      [
       116.34681801038003,
       39.99336725918331
      ],
      [
       116.34738002076386,
       39.99337042514913
      ],
      [
       116.34747277463984,
       39.98362311876697
      ]
     ]
    ]
   }
  },
  {
   "type": "Feature",
   "id": "PUB-005",
   "properties": {
    "id": "PUB-005",
    "layer": "PUBLIC_SPACE",
    "source_type": "agent_generated_design",
    "confidence": "medium",
    "geometry_role": "design_proposal",
    "public_space_type": "heritage_promenade",
    "name_zh": "京张遗址公园连续漫步道（AI学习步径）",
    "area_sqm_declared": 42359.385
   },
   "geometry": {
    "type": "Polygon",
    "coordinates": [
     [
      [
       116.34779309246294,
       39.94992492259142
      ],
      [
       116.34723143773847,
       39.94992176146638
      ],
      [
       116.34715587755235,
       39.95786916307209
      ],
      [
       116.34771759727903,
       39.95787232508219
      ],
      [
       116.34779309246294,
       39.94992492259142
      ]
     ]
    ]
   }
  },
  {
   "type": "Feature",
   "id": "PUB-006",
   "properties": {
    "id": "PUB-006",
    "layer": "PUBLIC_SPACE",
    "source_type": "agent_generated_design",
    "confidence": "medium",
    "geometry_role": "design_proposal",
    "public_space_type": "heritage_promenade",
    "name_zh": "京张遗址公园连续漫步道（AI学习步径）",
    "area_sqm_declared": 38628.949
   },
   "geometry": {
    "type": "Polygon",
    "coordinates": [
     [
      [
       116.34731574500047,
       40.000122233886295
      ],
      [
       116.34675367927447,
       40.00011906716764
      ],
      [
       116.34668460155409,
       40.007366506928115
      ],
      [
       116.34724672670559,
       40.007369674455056
      ],
      [
       116.34731574500047,
       40.000122233886295
      ]
     ]
    ]
   }
  },
  {
   "type": "Feature",
   "id": "PUB-007",
   "properties": {
    "id": "PUB-007",
    "layer": "PUBLIC_SPACE",
    "source_type": "agent_generated_design",
    "confidence": "medium",
    "geometry_role": "design_proposal",
    "public_space_type": "heritage_promenade",
    "name_zh": "京张遗址公园连续漫步道（AI学习步径）",
    "area_sqm_declared": 35963.816
   },
   "geometry": {
    "type": "Polygon",
    "coordinates": [
     [
      [
       116.34771520143897,
       39.95812448410824
      ],
      [
       116.34715347964945,
       39.95812132207005
      ],
      [
       116.3470893034435,
       39.96486878806767
      ],
      [
       116.34765108044193,
       39.96487195085746
      ],
      [
       116.34771520143897,
       39.95812448410824
      ]
     ]
    ]
   }
  },
  {
   "type": "Feature",
   "id": "PUB-008",
   "properties": {
    "id": "PUB-008",
    "layer": "PUBLIC_SPACE",
    "source_type": "agent_generated_design",
    "confidence": "medium",
    "geometry_role": "design_proposal",
    "public_space_type": "heritage_promenade",
    "name_zh": "京张遗址公园连续漫步道（AI学习步径）",
    "area_sqm_declared": 34008.659
   },
   "geometry": {
    "type": "Polygon",
    "coordinates": [
     [
      [
       116.3471252317793,
       40.02012115980209
      ],
      [
       116.34656300201937,
       40.02011799085262
      ],
      [
       116.34650211190214,
       40.02650014434077
      ],
      [
       116.34706442416105,
       40.02650015509813
      ],
      [
       116.3471252317793,
       40.02012115980209
      ]
     ]
    ]
   }
  },
  {
   "type": "Feature",
   "id": "PUB-009",
   "properties": {
    "id": "PUB-009",
    "layer": "PUBLIC_SPACE",
    "source_type": "agent_generated_design",
    "confidence": "medium",
    "geometry_role": "design_proposal",
    "public_space_type": "heritage_promenade",
    "name_zh": "京张遗址公园连续漫步道（AI学习步径）",
    "area_sqm_declared": 33299.264
   },
   "geometry": {
    "type": "Polygon",
    "coordinates": [
     [
      [
       116.34724432493242,
       40.00762183129763
      ],
      [
       116.34668219771297,
       40.00761866374256
      ],
      [
       116.34662262989907,
       40.013866157392435
      ],
      [
       116.34718480836293,
       40.0138693256444
      ],
      [
       116.34724432493242,
       40.00762183129763
      ]
     ]
    ]
   }
  },
  {
   "type": "Feature",
   "id": "PUB-010",
   "properties": {
    "id": "PUB-010",
    "layer": "PUBLIC_SPACE",
    "source_type": "agent_generated_design",
    "confidence": "medium",
    "geometry_role": "design_proposal",
    "public_space_type": "heritage_promenade",
    "name_zh": "京张遗址公园连续漫步道（AI学习步径）",
    "area_sqm_declared": 33299.181
   },
   "geometry": {
    "type": "Polygon",
    "coordinates": [
     [
      [
       116.34737762067041,
       39.99362258260932
      ],
      [
       116.34681560822008,
       39.99361941661539
      ],
      [
       116.34675608221482,
       39.99986691002232
      ],
      [
       116.34731814587361,
       39.99987007671287
      ],
      [
       116.34737762067041,
       39.99362258260932
      ]
     ]
    ]
   }
  },
  {
   "type": "Feature",
   "id": "PUB-011",
   "properties": {
    "id": "PUB-011",
    "layer": "PUBLIC_SPACE",
    "source_type": "agent_generated_design",
    "confidence": "medium",
    "geometry_role": "design_proposal",
    "public_space_type": "heritage_promenade",
    "name_zh": "京张遗址公园连续漫步道（AI学习步径）",
    "area_sqm_declared": 33299.051
   },
   "geometry": {
    "type": "Polygon",
    "coordinates": [
     [
      [
       116.34758689644637,
       39.9716237616134
      ],
      [
       116.34702506418479,
       39.97162059807141
      ],
      [
       116.34696560381248,
       39.9778680910963
      ],
      [
       116.34752748722605,
       39.97787125533448
      ],
      [
       116.34758689644637,
       39.9716237616134
      ]
     ]
    ]
   }
  },
  {
   "type": "Feature",
   "id": "PUB-012",
   "properties": {
    "id": "PUB-012",
    "layer": "PUBLIC_SPACE",
    "source_type": "agent_generated_design",
    "confidence": "medium",
    "geometry_role": "design_proposal",
    "public_space_type": "heritage_promenade",
    "name_zh": "京张遗址公园连续漫步道（AI学习步径）",
    "area_sqm_declared": 33299.012
   },
   "geometry": {
    "type": "Polygon",
    "coordinates": [
     [
      [
       116.34764868376384,
       39.965124109574774
      ],
      [
       116.34708690470185,
       39.96512094675689
      ],
      [
       116.3470274637056,
       39.97136843966887
      ],
      [
       116.34758929390291,
       39.97137160318279
      ],
      [
       116.34764868376384,
       39.965124109574774
      ]
     ]
    ]
   }
  },
  {
   "type": "Feature",
   "id": "PUB-013",
   "properties": {
    "id": "PUB-013",
    "layer": "PUBLIC_SPACE",
    "source_type": "agent_generated_design",
    "confidence": "medium",
    "geometry_role": "design_proposal",
    "public_space_type": "heritage_promenade",
    "name_zh": "京张遗址公园连续漫步道（AI学习步径）",
    "area_sqm_declared": 30634.431
   },
   "geometry": {
    "type": "Polygon",
    "coordinates": [
     [
      [
       116.34718240580943,
       40.014121482200196
      ],
      [
       116.34662022527694,
       40.0141183139201
      ],
      [
       116.34656540736263,
       40.01986583458969
      ],
      [
       116.34712763505334,
       40.019869003511026
      ],
      [
       116.34718240580943,
       40.014121482200196
      ]
     ]
    ]
   }
  },
  {
   "type": "Feature",
   "id": "PUB-014",
   "properties": {
    "id": "PUB-014",
    "layer": "PUBLIC_SPACE",
    "source_type": "agent_generated_design",
    "confidence": "medium",
    "geometry_role": "design_proposal",
    "public_space_type": "heritage_promenade",
    "name_zh": "京张遗址公园连续漫步道（AI学习步径）",
    "area_sqm_declared": 29568.113
   },
   "geometry": {
    "type": "Polygon",
    "coordinates": [
     [
      [
       116.34784816678503,
       39.94412523257132
      ],
      [
       116.3472865594802,
       39.944122072092014
      ],
      [
       116.34723383465926,
       39.94966960210678
      ],
      [
       116.34779548732173,
       39.94967276320374
      ],
      [
       116.34784816678503,
       39.94412523257132
      ]
     ]
    ]
   }
  },
  {
   "type": "Feature",
   "id": "PUB-015",
   "properties": {
    "id": "PUB-015",
    "layer": "PUBLIC_SPACE",
    "source_type": "agent_generated_design",
    "confidence": "medium",
    "geometry_role": "design_proposal",
    "public_space_type": "heritage_promenade",
    "name_zh": "京张遗址公园连续漫步道（AI学习步径）",
    "area_sqm_declared": 27969.381
   },
   "geometry": {
    "type": "Polygon",
    "coordinates": [
     [
      [
       116.34752508899075,
       39.9781234134784
      ],
      [
       116.34696320351229,
       39.978120249212125
      ],
      [
       116.34691324507807,
       39.98336779601453
      ],
      [
       116.3474751735343,
       39.983370960865656
      ],
      [
       116.34752508899075,
       39.9781234134784
      ]
     ]
    ]
   }
  },
  {
   "type": "Feature",
   "id": "PUB-016",
   "properties": {
    "id": "PUB-016",
    "layer": "PUBLIC_SPACE",
    "source_type": "agent_generated_design",
    "confidence": "medium",
    "geometry_role": "design_proposal",
    "public_space_type": "heritage_promenade",
    "name_zh": "京张遗址公园连续漫步道（AI学习步径）",
    "area_sqm_declared": 25963.616
   },
   "geometry": {
    "type": "Polygon",
    "coordinates": [
     [
      [
       116.34789682089755,
       39.939000229781165
      ],
      [
       116.34733522548159,
       39.93900022792116
      ],
      [
       116.34728895570659,
       39.94386991247662
      ],
      [
       116.34785056095001,
       39.94387307292785
      ],
      [
       116.34789682089755,
       39.939000229781165
      ]
     ]
    ]
   }
  },
  {
   "type": "Feature",
   "id": "SN-01",
   "properties": {
    "id": "SN-01",
    "layer": "SCENARIO_NODE",
    "source_type": "agent_generated_design",
    "confidence": "medium",
    "geometry_role": "design_proposal",
    "name_zh": "众智园全栈自主创新展示馆 · AI治理对话节点",
    "scenario_id": "public-safety-operations-review",
    "note": "概念场景节点，供专业团队深化研究"
   },
   "geometry": {
    "type": "Point",
    "coordinates": [
     116.34682148134826,
     40.0224933630706
    ]
   }
  },
  {
   "type": "Feature",
   "id": "SN-02",
   "properties": {
    "id": "SN-02",
    "layer": "SCENARIO_NODE",
    "source_type": "agent_generated_design",
    "confidence": "medium",
    "geometry_role": "design_proposal",
    "name_zh": "众智园AI广场 · 全球开发者年会主场",
    "scenario_id": "enterprise-service-copilot",
    "note": "概念场景节点，供专业团队深化研究"
   },
   "geometry": {
    "type": "Point",
    "coordinates": [
     116.34687868680317,
     40.016493685732726
    ]
   }
  },
  {
   "type": "Feature",
   "id": "SN-03",
   "properties": {
    "id": "SN-03",
    "layer": "SCENARIO_NODE",
    "source_type": "agent_generated_design",
    "confidence": "medium",
    "geometry_role": "design_proposal",
    "name_zh": "算力与模型开放测试场（产业验证）",
    "scenario_id": "enterprise-service-copilot",
    "note": "概念场景节点，供专业团队深化研究"
   },
   "geometry": {
    "type": "Point",
    "coordinates": [
     116.34693587504826,
     40.010494008246646
    ]
   }
  },
  {
   "type": "Feature",
   "id": "SN-04",
   "properties": {
    "id": "SN-04",
    "layer": "SCENARIO_NODE",
    "source_type": "agent_generated_design",
    "confidence": "medium",
    "geometry_role": "design_proposal",
    "name_zh": "清华东AI健康服务导航节点",
    "scenario_id": "ai-health-service-navigation",
    "note": "概念场景节点，供专业团队深化研究"
   },
   "geometry": {
    "type": "Point",
    "coordinates": [
     116.34706924739235,
     39.99649476020277
    ]
   }
  },
  {
   "type": "Feature",
   "id": "SN-05",
   "properties": {
    "id": "SN-05",
    "layer": "SCENARIO_NODE",
    "source_type": "agent_generated_design",
    "confidence": "medium",
    "geometry_role": "design_proposal",
    "name_zh": "AI原点社区创业街区 · 企业服务Copilot前台",
    "scenario_id": "enterprise-service-copilot",
    "note": "概念场景节点，供专业团队深化研究"
   },
   "geometry": {
    "type": "Point",
    "coordinates": [
     116.34714541813449,
     39.98849518952987
    ]
   }
  },
  {
   "type": "Feature",
   "id": "SN-06",
   "properties": {
    "id": "SN-06",
    "layer": "SCENARIO_NODE",
    "source_type": "agent_generated_design",
    "confidence": "medium",
    "geometry_role": "design_proposal",
    "name_zh": "五道口青年AI文化秀场",
    "scenario_id": "ai-cultural-guide",
    "note": "概念场景节点，供专业团队深化研究"
   },
   "geometry": {
    "type": "Point",
    "coordinates": [
     116.34717397428662,
     39.985495350459665
    ]
   }
  },
  {
   "type": "Feature",
   "id": "SN-07",
   "properties": {
    "id": "SN-07",
    "layer": "SCENARIO_NODE",
    "source_type": "agent_generated_design",
    "confidence": "medium",
    "geometry_role": "design_proposal",
    "name_zh": "低速无人配送测试环（产业验证）",
    "scenario_id": "robot-delivery-low-speed",
    "note": "概念场景节点，供专业团队深化研究"
   },
   "geometry": {
    "type": "Point",
    "coordinates": [
     116.34722155832952,
     39.98049561859368
    ]
   }
  },
  {
   "type": "Feature",
   "id": "SN-08",
   "properties": {
    "id": "SN-08",
    "layer": "SCENARIO_NODE",
    "source_type": "agent_generated_design",
    "confidence": "medium",
    "geometry_role": "design_proposal",
    "name_zh": "中段AI+交通慢行体检节点",
    "scenario_id": "ai-traffic-walkability",
    "note": "概念场景节点，供专业团队深化研究"
   },
   "geometry": {
    "type": "Point",
    "coordinates": [
     116.34734046626286,
     39.967996288478986
    ]
   }
  },
  {
   "type": "Feature",
   "id": "SN-09",
   "properties": {
    "id": "SN-09",
    "layer": "SCENARIO_NODE",
    "source_type": "agent_generated_design",
    "confidence": "medium",
    "geometry_role": "design_proposal",
    "name_zh": "高校协同转化客厅 · AI导览起点",
    "scenario_id": "ai-cultural-guide",
    "note": "概念场景节点，供专业团队深化研究"
   },
   "geometry": {
    "type": "Point",
    "coordinates": [
     116.34740702216398,
     39.96099666333414
    ]
   }
  },
  {
   "type": "Feature",
   "id": "SN-10",
   "properties": {
    "id": "SN-10",
    "layer": "SCENARIO_NODE",
    "source_type": "agent_generated_design",
    "confidence": "medium",
    "geometry_role": "design_proposal",
    "name_zh": "社区AI生活服务驿站（适老无障碍样板）",
    "scenario_id": "ai-health-service-navigation",
    "note": "概念场景节点，供专业团队深化研究"
   },
   "geometry": {
    "type": "Point",
    "coordinates": [
     116.34748780865122,
     39.95249711824469
    ]
   }
  },
  {
   "type": "Feature",
   "id": "SN-11",
   "properties": {
    "id": "SN-11",
    "layer": "SCENARIO_NODE",
    "source_type": "agent_generated_design",
    "confidence": "medium",
    "geometry_role": "design_proposal",
    "name_zh": "大钟寺智能原生消费测试场（产业验证）",
    "scenario_id": "robot-delivery-low-speed",
    "note": "概念场景节点，供专业团队深化研究"
   },
   "geometry": {
    "type": "Point",
    "coordinates": [
     116.3475400639206,
     39.946997412440375
    ]
   }
  },
  {
   "type": "Feature",
   "id": "SN-12",
   "properties": {
    "id": "SN-12",
    "layer": "SCENARIO_NODE",
    "source_type": "agent_generated_design",
    "confidence": "medium",
    "geometry_role": "design_proposal",
    "name_zh": "大钟寺声音地标 · 京张记忆钟声馆",
    "scenario_id": "ai-cultural-guide",
    "note": "概念场景节点，供专业团队深化研究"
   },
   "geometry": {
    "type": "Point",
    "coordinates": [
     116.34759230478531,
     39.94149770651178
    ]
   }
  }
 ]
}
