{
 "type": "FeatureCollection",
 "features": [
  {
   "type": "Feature",
   "id": "ROAD-001",
   "properties": {
    "id": "ROAD-001",
    "layer": "ROAD_CENTERLINE",
    "source_type": "agent_generated_design",
    "confidence": "medium",
    "geometry_role": "design_proposal",
    "road_class": "branch",
    "name_zh": "遗址公园西侧慢行支路（公交微循环+低速接驳）"
   },
   "geometry": {
    "type": "LineString",
    "coordinates": [
     [
      116.3464928324272,
      39.93900022003042
     ],
     [
      116.34565864358366,
      40.02650012308821
     ]
    ]
   }
  },
  {
   "type": "Feature",
   "id": "ROAD-002",
   "properties": {
    "id": "ROAD-002",
    "layer": "ROAD_CENTERLINE",
    "source_type": "agent_generated_design",
    "confidence": "medium",
    "geometry_role": "design_proposal",
    "road_class": "branch",
    "name_zh": "遗址公园东侧慢行支路（公交微循环+低速接驳）"
   },
   "geometry": {
    "type": "LineString",
    "coordinates": [
     [
      116.34873921409076,
      39.93900022747041
     ],
     [
      116.34790789261909,
      40.026500166117714
     ]
    ]
   }
  },
  {
   "type": "Feature",
   "id": "ROAD-003",
   "properties": {
    "id": "ROAD-003",
    "layer": "ROAD_CENTERLINE",
    "source_type": "agent_generated_design",
    "confidence": "medium",
    "geometry_role": "design_proposal",
    "road_class": "secondary",
    "name_zh": "东西缝合次干路 S1（跨遗址公园慢行优先断面）"
   },
   "geometry": {
    "type": "LineString",
    "coordinates": [
     [
      116.34056235767126,
      39.943957933413756
     ],
     [
      116.35530001033246,
      39.944040824135875
     ]
    ]
   }
  },
  {
   "type": "Feature",
   "id": "ROAD-004",
   "properties": {
    "id": "ROAD-004",
    "layer": "ROAD_CENTERLINE",
    "source_type": "agent_generated_design",
    "confidence": "medium",
    "geometry_role": "design_proposal",
    "road_class": "secondary",
    "name_zh": "东西缝合次干路 S2（跨遗址公园慢行优先断面）"
   },
   "geometry": {
    "type": "LineString",
    "coordinates": [
     [
      116.34040133171682,
      39.94975701586681
     ],
     [
      116.35530001607275,
      39.94984082561368
     ]
    ]
   }
  },
  {
   "type": "Feature",
   "id": "ROAD-005",
   "properties": {
    "id": "ROAD-005",
    "layer": "ROAD_CENTERLINE",
    "source_type": "agent_generated_design",
    "confidence": "medium",
    "geometry_role": "design_proposal",
    "road_class": "secondary",
    "name_zh": "东西缝合次干路 S3（跨遗址公园慢行优先断面）"
   },
   "geometry": {
    "type": "LineString",
    "coordinates": [
     [
      116.340173616168,
      39.95795571782493
     ],
     [
      116.35530001296077,
      39.95804082763769
     ]
    ]
   }
  },
  {
   "type": "Feature",
   "id": "ROAD-006",
   "properties": {
    "id": "ROAD-006",
    "layer": "ROAD_CENTERLINE",
    "source_type": "agent_generated_design",
    "confidence": "medium",
    "geometry_role": "design_proposal",
    "road_class": "secondary",
    "name_zh": "东西缝合次干路 S4（跨遗址公园慢行优先断面）"
   },
   "geometry": {
    "type": "LineString",
    "coordinates": [
     [
      116.33997917091192,
      39.96495460897979
     ],
     [
      116.3552967364045,
      39.965040811154786
     ]
    ]
   }
  },
  {
   "type": "Feature",
   "id": "ROAD-007",
   "properties": {
    "id": "ROAD-007",
    "layer": "ROAD_CENTERLINE",
    "source_type": "agent_generated_design",
    "confidence": "medium",
    "geometry_role": "design_proposal",
    "road_class": "secondary",
    "name_zh": "东西缝合次干路 S5（跨遗址公园慢行优先断面）"
   },
   "geometry": {
    "type": "LineString",
    "coordinates": [
     [
      116.3397985701012,
      39.97145357871034
     ],
     [
      116.35477711997378,
      39.97153792159268
     ]
    ]
   }
  },
  {
   "type": "Feature",
   "id": "ROAD-008",
   "properties": {
    "id": "ROAD-008",
    "layer": "ROAD_CENTERLINE",
    "source_type": "agent_generated_design",
    "confidence": "medium",
    "geometry_role": "design_proposal",
    "road_class": "secondary",
    "name_zh": "东西缝合次干路 S6（跨遗址公园慢行优先断面）"
   },
   "geometry": {
    "type": "LineString",
    "coordinates": [
     [
      116.33989051695549,
      39.97795410054813
     ],
     [
      116.35425739632157,
      39.97803502887341
     ]
    ]
   }
  },
  {
   "type": "Feature",
   "id": "ROAD-009",
   "properties": {
    "id": "ROAD-009",
    "layer": "ROAD_CENTERLINE",
    "source_type": "agent_generated_design",
    "confidence": "medium",
    "geometry_role": "design_proposal",
    "road_class": "secondary",
    "name_zh": "东西缝合次干路 S7（跨遗址公园慢行优先断面）"
   },
   "geometry": {
    "type": "LineString",
    "coordinates": [
     [
      116.34024539460424,
      39.98345611955413
     ],
     [
      116.35381754637048,
      39.983532578720734
     ]
    ]
   }
  },
  {
   "type": "Feature",
   "id": "ROAD-010",
   "properties": {
    "id": "ROAD-010",
    "layer": "ROAD_CENTERLINE",
    "source_type": "agent_generated_design",
    "confidence": "medium",
    "geometry_role": "design_proposal",
    "road_class": "secondary",
    "name_zh": "东西缝合次干路 S8（跨遗址公园慢行优先断面）"
   },
   "geometry": {
    "type": "LineString",
    "coordinates": [
     [
      116.34089075795526,
      39.993459788785614
     ],
     [
      116.35349338475588,
      39.99353077293517
     ]
    ]
   }
  },
  {
   "type": "Feature",
   "id": "ROAD-011",
   "properties": {
    "id": "ROAD-011",
    "layer": "ROAD_CENTERLINE",
    "source_type": "agent_generated_design",
    "confidence": "medium",
    "geometry_role": "design_proposal",
    "road_class": "secondary",
    "name_zh": "东西缝合次干路 S9（跨遗址公园慢行优先断面）"
   },
   "geometry": {
    "type": "LineString",
    "coordinates": [
     [
      116.34131033501218,
      39.99996217261623
     ],
     [
      116.35384955263102,
      40.00003276042073
     ]
    ]
   }
  },
  {
   "type": "Feature",
   "id": "ROAD-012",
   "properties": {
    "id": "ROAD-012",
    "layer": "ROAD_CENTERLINE",
    "source_type": "agent_generated_design",
    "confidence": "medium",
    "geometry_role": "design_proposal",
    "road_class": "secondary",
    "name_zh": "东西缝合次干路 S10（跨遗址公园慢行优先断面）"
   },
   "geometry": {
    "type": "LineString",
    "coordinates": [
     [
      116.34177143601359,
      40.0074647907559
     ],
     [
      116.3542605897439,
      40.00753505291806
     ]
    ]
   }
  },
  {
   "type": "Feature",
   "id": "ROAD-013",
   "properties": {
    "id": "ROAD-013",
    "layer": "ROAD_CENTERLINE",
    "source_type": "agent_generated_design",
    "confidence": "medium",
    "geometry_role": "design_proposal",
    "road_class": "secondary",
    "name_zh": "东西缝合次干路 S11（跨遗址公园慢行优先断面）"
   },
   "geometry": {
    "type": "LineString",
    "coordinates": [
     [
      116.34208855257043,
      40.0139665901534
     ],
     [
      116.35461688623354,
      40.014037039093616
     ]
    ]
   }
  },
  {
   "type": "Feature",
   "id": "ROAD-014",
   "properties": {
    "id": "ROAD-014",
    "layer": "ROAD_CENTERLINE",
    "source_type": "agent_generated_design",
    "confidence": "medium",
    "geometry_role": "design_proposal",
    "road_class": "secondary",
    "name_zh": "东西缝合次干路 S12（跨遗址公园慢行优先断面）"
   },
   "geometry": {
    "type": "LineString",
    "coordinates": [
     [
      116.34238132180415,
      40.01996825075462
     ],
     [
      116.35494582834488,
      40.020038871945566
     ]
    ]
   }
  },
  {
   "type": "Feature",
   "id": "ROAD-015",
   "properties": {
    "id": "ROAD-015",
    "layer": "ROAD_CENTERLINE",
    "source_type": "agent_generated_design",
    "confidence": "medium",
    "geometry_role": "design_proposal",
    "road_class": "greenway",
    "name_zh": "京张遗址公园绿道主线（步行+骑行+无障碍）"
   },
   "geometry": {
    "type": "LineString",
    "coordinates": [
     [
      116.34761602318493,
      39.939000229191215
     ],
     [
      116.34678326802694,
      40.02650015006055
     ]
    ]
   }
  }
 ]
}
