{
 "type": "FeatureCollection",
 "crs": {
  "type": "name",
  "properties": {
   "name": "EPSG:4326"
  }
 },
 "features": [
  {
   "type": "Feature",
   "properties": {
    "id": "BLDG-1-1",
    "layer": "BUILDING_FOOTPRINT",
    "source_type": "agent_inferred_from_public_data",
    "confidence": "medium",
    "geometry_role": "provisional_constraint",
    "name_zh": "众智园AI自主创新加速区建筑1-1"
   },
   "geometry": {
    "type": "Polygon",
    "coordinates": [
     [
      [
       116.34329381788751,
       40.00793481000342
      ],
      [
       116.3432440095569,
       40.013131848049134
      ],
      [
       116.34637293554171,
       40.013149538140674
      ],
      [
       116.34642250661604,
       40.007952496858
      ],
      [
       116.34329381788751,
       40.00793481000342
      ]
     ]
    ]
   },
   "id": "BLDG-1-1"
  },
  {
   "type": "Feature",
   "properties": {
    "id": "BLDG-1-2",
    "layer": "BUILDING_FOOTPRINT",
    "source_type": "agent_inferred_from_public_data",
    "confidence": "medium",
    "geometry_role": "provisional_constraint",
    "name_zh": "众智园AI自主创新加速区建筑1-2"
   },
   "geometry": {
    "type": "Polygon",
    "coordinates": [
     [
      [
       116.34323452078894,
       40.01412175952194
      ],
      [
       116.34318469705443,
       40.01931879194067
      ],
      [
       116.34631390556751,
       40.019336485886356
      ],
      [
       116.34636349197241,
       40.014139450230104
      ],
      [
       116.34323452078894,
       40.01412175952194
      ]
     ]
    ]
   },
   "id": "BLDG-1-2"
  },
  {
   "type": "Feature",
   "properties": {
    "id": "BLDG-1-3",
    "layer": "BUILDING_FOOTPRINT",
    "source_type": "agent_inferred_from_public_data",
    "confidence": "medium",
    "geometry_role": "provisional_constraint",
    "name_zh": "众智园AI自主创新加速区建筑1-3"
   },
   "geometry": {
    "type": "Polygon",
    "coordinates": [
     [
      [
       116.34317520535188,
       40.02030870234166
      ],
      [
       116.34312536620808,
       40.02550572913314
      ],
      [
       116.34625485733685,
       40.025523426933674
      ],
      [
       116.3463044590776,
       40.02032639690408
      ],
      [
       116.34317520535188,
       40.02030870234166
      ]
     ]
    ]
   },
   "id": "BLDG-1-3"
  },
  {
   "type": "Feature",
   "properties": {
    "id": "BLDG-1-4",
    "layer": "BUILDING_FOOTPRINT",
    "source_type": "agent_inferred_from_public_data",
    "confidence": "medium",
    "geometry_role": "provisional_constraint",
    "name_zh": "众智园AI自主创新加速区建筑1-4"
   },
   "geometry": {
    "type": "Polygon",
    "coordinates": [
     [
      [
       116.34701844763946,
       40.00795585620727
      ],
      [
       116.3469689217569,
       40.013152898104764
      ],
      [
       116.35009785102564,
       40.01317048763602
      ],
      [
       116.35014713965099,
       40.00797344251997
      ],
      [
       116.34701844763946,
       40.00795585620727
      ]
     ]
    ]
   },
   "id": "BLDG-1-4"
  },
  {
   "type": "Feature",
   "properties": {
    "id": "BLDG-1-5",
    "layer": "BUILDING_FOOTPRINT",
    "source_type": "agent_inferred_from_public_data",
    "confidence": "medium",
    "geometry_role": "provisional_constraint",
    "name_zh": "众智园AI自主创新加速区建筑1-5"
   },
   "geometry": {
    "type": "Polygon",
    "coordinates": [
     [
      [
       116.34695948679688,
       40.014142810311306
      ],
      [
       116.34690994559772,
       40.01933984658248
      ],
      [
       116.35003915739587,
       40.01935743994598
      ],
      [
       116.35008846126445,
       40.01416040045567
      ],
      [
       116.34695948679688,
       40.014142810311306
      ]
     ]
    ]
   },
   "id": "BLDG-1-5"
  },
  {
   "type": "Feature",
   "properties": {
    "id": "BLDG-1-6",
    "layer": "BUILDING_FOOTPRINT",
    "source_type": "agent_inferred_from_public_data",
    "confidence": "medium",
    "geometry_role": "provisional_constraint",
    "name_zh": "众智园AI自主创新加速区建筑1-6"
   },
   "geometry": {
    "type": "Polygon",
    "coordinates": [
     [
      [
       116.34690050771975,
       40.020329757717334
      ],
      [
       116.34685095119869,
       40.02552678836196
      ],
      [
       116.34998044561367,
       40.02554438555839
      ],
      [
       116.35002976473073,
       40.020347351694056
      ],
      [
       116.34690050771975,
       40.020329757717334
      ]
     ]
    ]
   },
   "id": "BLDG-1-6"
  },
  {
   "type": "Feature",
   "properties": {
    "id": "BLDG-1-7",
    "layer": "BUILDING_FOOTPRINT",
    "source_type": "agent_inferred_from_public_data",
    "confidence": "medium",
    "geometry_role": "provisional_constraint",
    "name_zh": "众智园AI自主创新加速区建筑1-7"
   },
   "geometry": {
    "type": "Polygon",
    "coordinates": [
     [
      [
       116.35074308129795,
       40.00797678271837
      ],
      [
       116.35069383786454,
       40.01317382844572
      ],
      [
       116.35382277039852,
       40.01319131741638
      ],
      [
       116.35387177657375,
       40.00799426848886
      ],
      [
       116.35074308129795,
       40.00797678271837
      ]
     ]
    ]
   },
   "id": "BLDG-1-7"
  },
  {
   "type": "Feature",
   "properties": {
    "id": "BLDG-1-8",
    "layer": "BUILDING_FOOTPRINT",
    "source_type": "agent_inferred_from_public_data",
    "confidence": "medium",
    "geometry_role": "provisional_constraint",
    "name_zh": "众智园AI自主创新加速区建筑1-8"
   },
   "geometry": {
    "type": "Polygon",
    "coordinates": [
     [
      [
       116.35068445671268,
       40.014163741381836
      ],
      [
       116.35063519805001,
       40.019360781483556
      ],
      [
       116.35376441311455,
       40.019378274264554
      ],
      [
       116.35381343444568,
       40.0141812309621
      ],
      [
       116.35068445671268,
       40.014163741381836
      ]
     ]
    ]
   },
   "id": "BLDG-1-8"
  },
  {
   "type": "Feature",
   "properties": {
    "id": "BLDG-1-9",
    "layer": "BUILDING_FOOTPRINT",
    "source_type": "agent_inferred_from_public_data",
    "confidence": "medium",
    "geometry_role": "provisional_constraint",
    "name_zh": "众智园AI自主创新加速区建筑1-9"
   },
   "geometry": {
    "type": "Polygon",
    "coordinates": [
     [
      [
       116.35062581399686,
       40.02035069334811
      ],
      [
       116.35057654009967,
       40.02554772782397
      ],
      [
       116.3537060377821,
       40.02556522441598
      ],
      [
       116.35375507427437,
       40.020368186738814
      ],
      [
       116.35062581399686,
       40.02035069334811
      ]
     ]
    ]
   },
   "id": "BLDG-1-9"
  },
  {
   "type": "Feature",
   "properties": {
    "id": "BLDG-2-1",
    "layer": "BUILDING_FOOTPRINT",
    "source_type": "agent_inferred_from_public_data",
    "confidence": "medium",
    "geometry_role": "provisional_constraint",
    "name_zh": "北京AI原点社区建筑2-1"
   },
   "geometry": {
    "type": "Polygon",
    "coordinates": [
     [
      [
       116.34229385387229,
       39.983708061644336
      ],
      [
       116.34226683777814,
       39.9865252488083
      ],
      [
       116.34537322140723,
       39.9865428351231
      ],
      [
       116.34540010993034,
       39.98372564621442
      ],
      [
       116.34229385387229,
       39.983708061644336
      ]
     ]
    ]
   },
   "id": "BLDG-2-1"
  },
  {
   "type": "Feature",
   "properties": {
    "id": "BLDG-2-2",
    "layer": "BUILDING_FOOTPRINT",
    "source_type": "agent_inferred_from_public_data",
    "confidence": "medium",
    "geometry_role": "provisional_constraint",
    "name_zh": "北京AI原点社区建筑2-2"
   },
   "geometry": {
    "type": "Polygon",
    "coordinates": [
     [
      [
       116.34226169142424,
       39.98706185572969
      ],
      [
       116.34223467080203,
       39.98987904124043
      ],
      [
       116.34534120632483,
       39.989896629632476
      ],
      [
       116.34536809935459,
       39.987079442376846
      ],
      [
       116.34226169142424,
       39.98706185572969
      ]
     ]
    ]
   },
   "id": "BLDG-2-2"
  },
  {
   "type": "Feature",
   "properties": {
    "id": "BLDG-2-3",
    "layer": "BUILDING_FOOTPRINT",
    "source_type": "agent_inferred_from_public_data",
    "confidence": "medium",
    "geometry_role": "provisional_constraint",
    "name_zh": "北京AI原点社区建筑2-3"
   },
   "geometry": {
    "type": "Polygon",
    "coordinates": [
     [
      [
       116.34222952358556,
       39.990415647846895
      ],
      [
       116.34220249843446,
       39.993232831704354
      ],
      [
       116.34530918587642,
       39.99325042217386
      ],
      [
       116.3453360834137,
       39.990433236571334
      ],
      [
       116.34222952358556,
       39.990415647846895
      ]
     ]
    ]
   },
   "id": "BLDG-2-3"
  },
  {
   "type": "Feature",
   "properties": {
    "id": "BLDG-2-4",
    "layer": "BUILDING_FOOTPRINT",
    "source_type": "agent_inferred_from_public_data",
    "confidence": "medium",
    "geometry_role": "provisional_constraint",
    "name_zh": "北京AI原点社区建筑2-4"
   },
   "geometry": {
    "type": "Polygon",
    "coordinates": [
     [
      [
       116.34599177806005,
       39.98372898621913
      ],
      [
       116.34596491383624,
       39.98654617545922
      ],
      [
       116.34907130070603,
       39.98656366267345
      ],
      [
       116.34909803735827,
       39.98374647169846
      ],
      [
       116.34599177806005,
       39.98372898621913
      ]
     ]
    ]
   },
   "id": "BLDG-2-4"
  },
  {
   "type": "Feature",
   "properties": {
    "id": "BLDG-2-5",
    "layer": "BUILDING_FOOTPRINT",
    "source_type": "agent_inferred_from_public_data",
    "confidence": "medium",
    "geometry_role": "provisional_constraint",
    "name_zh": "北京AI原点社区建筑2-5"
   },
   "geometry": {
    "type": "Polygon",
    "coordinates": [
     [
      [
       116.34595979641243,
       39.987082782776085
      ],
      [
       116.34593292768604,
       39.98989997036313
      ],
      [
       116.34903946645015,
       39.98991745964291
      ],
      [
       116.34906620758362,
       39.98710027032079
      ],
      [
       116.34595979641243,
       39.987082782776085
      ]
     ]
    ]
   },
   "id": "BLDG-2-5"
  },
  {
   "type": "Feature",
   "properties": {
    "id": "BLDG-2-6",
    "layer": "BUILDING_FOOTPRINT",
    "source_type": "agent_inferred_from_public_data",
    "confidence": "medium",
    "geometry_role": "provisional_constraint",
    "name_zh": "北京AI原点社区建筑2-6"
   },
   "geometry": {
    "type": "Polygon",
    "coordinates": [
     [
      [
       116.34592780940449,
       39.99043657736512
      ],
      [
       116.34590093617466,
       39.9932537632991
      ],
      [
       116.34900762685855,
       39.99327125464462
      ],
      [
       116.34903437247408,
       39.990454066975396
      ],
      [
       116.34592780940449,
       39.99043657736512
      ]
     ]
    ]
   },
   "id": "BLDG-2-6"
  },
  {
   "type": "Feature",
   "properties": {
    "id": "BLDG-2-7",
    "layer": "BUILDING_FOOTPRINT",
    "source_type": "agent_inferred_from_public_data",
    "confidence": "medium",
    "geometry_role": "provisional_constraint",
    "name_zh": "北京AI原点社区建筑2-7"
   },
   "geometry": {
    "type": "Polygon",
    "coordinates": [
     [
      [
       116.34968970610342,
       39.98374979282872
      ],
      [
       116.34966299375057,
       39.986566984133226
      ],
      [
       116.35276938384277,
       39.98658437224657
      ],
      [
       116.35279596862355,
       39.98376717921699
      ],
      [
       116.34968970610342,
       39.98374979282872
      ]
     ]
    ]
   },
   "id": "BLDG-2-7"
  },
  {
   "type": "Feature",
   "properties": {
    "id": "BLDG-2-8",
    "layer": "BUILDING_FOOTPRINT",
    "source_type": "agent_inferred_from_public_data",
    "confidence": "medium",
    "geometry_role": "provisional_constraint",
    "name_zh": "北京AI原点社区建筑2-8"
   },
   "geometry": {
    "type": "Polygon",
    "coordinates": [
     [
      [
       116.34965790525699,
       39.987103591843336
      ],
      [
       116.34963118842698,
       39.98992078149501
      ],
      [
       116.35273773041412,
       39.98993817166219
      ],
      [
       116.35276431965066,
       39.98712098028527
      ],
      [
       116.34965790525699,
       39.987103591843336
      ]
     ]
    ]
   },
   "id": "BLDG-2-8"
  },
  {
   "type": "Feature",
   "properties": {
    "id": "BLDG-2-9",
    "layer": "BUILDING_FOOTPRINT",
    "source_type": "agent_inferred_from_public_data",
    "confidence": "medium",
    "geometry_role": "provisional_constraint",
    "name_zh": "北京AI原点社区建筑2-9"
   },
   "geometry": {
    "type": "Polygon",
    "coordinates": [
     [
      [
       116.34962609908055,
       39.99045738889028
      ],
      [
       116.34959937777255,
       39.99327457688908
      ],
      [
       116.35270607168006,
       39.993291969110295
      ],
      [
       116.35273266537321,
       39.99047477938609
      ],
      [
       116.34962609908055,
       39.99045738889028
      ]
     ]
    ]
   },
   "id": "BLDG-2-9"
  },
  {
   "type": "Feature",
   "properties": {
    "id": "BLDG-3-1",
    "layer": "BUILDING_FOOTPRINT",
    "source_type": "agent_inferred_from_public_data",
    "confidence": "medium",
    "geometry_role": "provisional_constraint",
    "name_zh": "大钟寺AI产业聚集区建筑3-1"
   },
   "geometry": {
    "type": "Polygon",
    "coordinates": [
     [
      [
       116.3423472999362,
       39.94408659848479
      ],
      [
       116.34233144759958,
       39.94574216415335
      ],
      [
       116.34598669919227,
       39.94576284197727
      ],
      [
       116.34600246343862,
       39.944107275102795
      ],
      [
       116.3423472999362,
       39.94408659848479
      ]
     ]
    ]
   },
   "id": "BLDG-3-1"
  },
  {
   "type": "Feature",
   "properties": {
    "id": "BLDG-3-2",
    "layer": "BUILDING_FOOTPRINT",
    "source_type": "agent_inferred_from_public_data",
    "confidence": "medium",
    "geometry_role": "provisional_constraint",
    "name_zh": "大钟寺AI产业聚集区建筑3-2"
   },
   "geometry": {
    "type": "Polygon",
    "coordinates": [
     [
      [
       116.34232842795825,
       39.94605750994063
      ],
      [
       116.34231257406067,
       39.947713075038415
      ],
      [
       116.34596793053221,
       39.947733754297985
      ],
      [
       116.34598369633086,
       39.94607818799424
      ],
      [
       116.34232842795825,
       39.94605750994063
      ]
     ]
    ]
   },
   "id": "BLDG-3-2"
  },
  {
   "type": "Feature",
   "properties": {
    "id": "BLDG-3-3",
    "layer": "BUILDING_FOOTPRINT",
    "source_type": "agent_inferred_from_public_data",
    "confidence": "medium",
    "geometry_role": "provisional_constraint",
    "name_zh": "大钟寺AI产业聚集区建筑3-3"
   },
   "geometry": {
    "type": "Polygon",
    "coordinates": [
     [
      [
       116.342309554122,
       39.94802842071696
      ],
      [
       116.34229369866331,
       39.94968398524394
      ],
      [
       116.345949160024,
       39.94970466593925
      ],
      [
       116.3459649273751,
       39.94804910020624
      ],
      [
       116.342309554122,
       39.94802842071696
      ]
     ]
    ]
   },
   "id": "BLDG-3-3"
  },
  {
   "type": "Feature",
   "properties": {
    "id": "BLDG-3-4",
    "layer": "BUILDING_FOOTPRINT",
    "source_type": "agent_inferred_from_public_data",
    "confidence": "medium",
    "geometry_role": "provisional_constraint",
    "name_zh": "大钟寺AI产业聚集区建筑3-4"
   },
   "geometry": {
    "type": "Polygon",
    "coordinates": [
     [
      [
       116.34669868548568,
       39.94411120044218
      ],
      [
       116.34668293801845,
       39.94576676754557
      ],
      [
       116.35033819409146,
       39.94578730818879
      ],
      [
       116.35035385346805,
       39.94413173988752
      ],
      [
       116.34669868548568,
       39.94411120044218
      ]
     ]
    ]
   },
   "id": "BLDG-3-4"
  },
  {
   "type": "Feature",
   "properties": {
    "id": "BLDG-3-5",
    "layer": "BUILDING_FOOTPRINT",
    "source_type": "agent_inferred_from_public_data",
    "confidence": "medium",
    "geometry_role": "provisional_constraint",
    "name_zh": "大钟寺AI产业聚集区建筑3-5"
   },
   "geometry": {
    "type": "Polygon",
    "coordinates": [
     [
      [
       116.3466799383532,
       39.94608211360616
      ],
      [
       116.34666418933537,
       39.947737680138836
      ],
      [
       116.35031955028772,
       39.94775822220821
      ],
      [
       116.35033521120623,
       39.94610265447757
      ],
      [
       116.3466799383532,
       39.94608211360616
      ]
     ]
    ]
   },
   "id": "BLDG-3-5"
  },
  {
   "type": "Feature",
   "properties": {
    "id": "BLDG-3-6",
    "layer": "BUILDING_FOOTPRINT",
    "source_type": "agent_inferred_from_public_data",
    "confidence": "medium",
    "geometry_role": "provisional_constraint",
    "name_zh": "大钟寺AI产业聚集区建筑3-6"
   },
   "geometry": {
    "type": "Polygon",
    "coordinates": [
     [
      [
       116.34666118937474,
       39.94805302609071
      ],
      [
       116.34664543880609,
       39.94970859205268
      ],
      [
       116.3503009046481,
       39.94972913554826
      ],
      [
       116.35031656710876,
       39.948073568388274
      ],
      [
       116.34666118937474,
       39.94805302609071
      ]
     ]
    ]
   },
   "id": "BLDG-3-6"
  },
  {
   "type": "Feature",
   "properties": {
    "id": "BLDG-3-7",
    "layer": "BUILDING_FOOTPRINT",
    "source_type": "agent_inferred_from_public_data",
    "confidence": "medium",
    "geometry_role": "provisional_constraint",
    "name_zh": "大钟寺AI产业聚集区建筑3-7"
   },
   "geometry": {
    "type": "Polygon",
    "coordinates": [
     [
      [
       116.35105007636554,
       39.944135639098725
      ],
      [
       116.3510344337682,
       39.945791207627416
      ],
      [
       116.35468969429176,
       39.94581161108947
      ],
      [
       116.35470524879801,
       39.94415604137089
      ],
      [
       116.35105007636554,
       39.944135639098725
      ]
     ]
    ]
   },
   "id": "BLDG-3-7"
  },
  {
   "type": "Feature",
   "properties": {
    "id": "BLDG-3-8",
    "layer": "BUILDING_FOOTPRINT",
    "source_type": "agent_inferred_from_public_data",
    "confidence": "medium",
    "geometry_role": "provisional_constraint",
    "name_zh": "大钟寺AI产业聚集区建筑3-8"
   },
   "geometry": {
    "type": "Polygon",
    "coordinates": [
     [
      [
       116.35103145407916,
       39.94610655395949
      ],
      [
       116.35101580994152,
       39.94776212191754
      ],
      [
       116.35467117534488,
       39.947782526796225
      ],
      [
       116.3546867313828,
       39.9461269576482
      ],
      [
       116.35103145407916,
       39.94610655395949
      ]
     ]
    ]
   },
   "id": "BLDG-3-8"
  },
  {
   "type": "Feature",
   "properties": {
    "id": "BLDG-3-9",
    "layer": "BUILDING_FOOTPRINT",
    "source_type": "agent_inferred_from_public_data",
    "confidence": "medium",
    "geometry_role": "provisional_constraint",
    "name_zh": "大钟寺AI产业聚集区建筑3-9"
   },
   "geometry": {
    "type": "Polygon",
    "coordinates": [
     [
      [
       116.35101282995907,
       39.94807746814093
      ],
      [
       116.35099718428094,
       39.94973303552836
      ],
      [
       116.35465265457442,
       39.94975344182372
      ],
      [
       116.35466821214415,
       39.94809787324626
      ],
      [
       116.35101282995907,
       39.94807746814093
      ]
     ]
    ]
   },
   "id": "BLDG-3-9"
  }
 ]
}