{
 "type": "FeatureCollection",
 "crs": {
  "type": "name",
  "properties": {
   "name": "EPSG:4326"
  }
 },
 "features": [
  {
   "type": "Feature",
   "properties": {
    "id": "GREEN-001",
    "layer": "GREEN_SPACE",
    "source_type": "agent_inferred_from_public_data",
    "confidence": "medium",
    "geometry_role": "provisional_constraint",
    "name_zh": "京张遗址公园活力带（蓝绿主轴）"
   },
   "geometry": {
    "type": "Polygon",
    "coordinates": [
     [
      [
       116.34760291550785,
       39.939000229147055
      ],
      [
       116.34599528532553,
       39.939000212494626
      ],
      [
       116.34725111484427,
       40.02650015806626
      ],
      [
       116.34886079740372,
       40.02650017118064
      ],
      [
       116.34760291550785,
       39.939000229147055
      ]
     ]
    ]
   },
   "id": "GREEN-001"
  },
  {
   "type": "Feature",
   "properties": {
    "id": "GREEN-002",
    "layer": "GREEN_SPACE",
    "source_type": "agent_inferred_from_public_data",
    "confidence": "medium",
    "geometry_role": "provisional_constraint",
    "name_zh": "清河蓝绿廊道（背景线索）"
   },
   "geometry": {
    "type": "Polygon",
    "coordinates": [
     [
      [
       116.35530001301402,
       39.946005711240495
      ],
      [
       116.3553,
       39.939
      ],
      [
       116.34070000000001,
       39.93899999999999
      ],
      [
       116.34050781015375,
       39.94592250922664
      ],
      [
       116.35530001301402,
       39.946005711240495
      ]
     ]
    ]
   },
   "id": "GREEN-002"
  },
  {
   "type": "Feature",
   "properties": {
    "id": "GREEN-003",
    "layer": "GREEN_SPACE",
    "source_type": "agent_inferred_from_public_data",
    "confidence": "medium",
    "geometry_role": "provisional_constraint",
    "name_zh": "北部生态缓冲绿地"
   },
   "geometry": {
    "type": "Polygon",
    "coordinates": [
     [
      [
       116.3423581098959,
       40.019492448501644
      ],
      [
       116.34270000000001,
       40.026500000000006
      ],
      [
       116.3553,
       40.02649999999999
      ],
      [
       116.35491974846965,
       40.019563056042415
      ],
      [
       116.3423581098959,
       40.019492448501644
      ]
     ]
    ]
   },
   "id": "GREEN-003"
  }
 ]
}