{
 "type": "FeatureCollection",
 "crs": {
  "type": "name",
  "properties": {
   "name": "EPSG:4326"
  }
 },
 "features": [
  {
   "type": "Feature",
   "properties": {
    "id": "ROAD-001",
    "layer": "ROAD_CENTERLINE",
    "source_type": "agent_inferred_from_public_data",
    "confidence": "medium",
    "geometry_role": "existing_condition",
    "name_zh": "循证主轴（京张遗址公园慢行+机动车复合）"
   },
   "geometry": {
    "type": "LineString",
    "coordinates": [
     [
      116.34679910037866,
      39.939000223607394
     ],
     [
      116.34805595608604,
      40.026500167418604
     ]
    ]
   },
   "id": "ROAD-001"
  },
  {
   "type": "Feature",
   "properties": {
    "id": "ROAD-002",
    "layer": "ROAD_CENTERLINE",
    "source_type": "agent_inferred_from_public_data",
    "confidence": "medium",
    "geometry_role": "existing_condition",
    "name_zh": "西侧联络干道"
   },
   "geometry": {
    "type": "LineString",
    "coordinates": [
     [
      116.34294003627811,
      39.939000119406465
     ],
     [
      116.34245298279276,
      40.021437135640674
     ]
    ]
   },
   "id": "ROAD-002"
  },
  {
   "type": "Feature",
   "properties": {
    "id": "ROAD-003",
    "layer": "ROAD_CENTERLINE",
    "source_type": "agent_inferred_from_public_data",
    "confidence": "medium",
    "geometry_role": "existing_condition",
    "name_zh": "东侧联络干道"
   },
   "geometry": {
    "type": "LineString",
    "coordinates": [
     [
      116.35290679501007,
      39.93900012599024
     ],
     [
      116.35240246892499,
      40.0265001213098
     ]
    ]
   },
   "id": "ROAD-003"
  },
  {
   "type": "Feature",
   "properties": {
    "id": "ROAD-4",
    "layer": "ROAD_CENTERLINE",
    "source_type": "agent_inferred_from_public_data",
    "confidence": "medium",
    "geometry_role": "existing_condition",
    "name_zh": "横向联络道"
   },
   "geometry": {
    "type": "LineString",
    "coordinates": [
     [
      116.34009439985525,
      39.96080725742202
     ],
     [
      116.35530000879518,
      39.96089281961003
     ]
    ]
   },
   "id": "ROAD-4"
  },
  {
   "type": "Feature",
   "properties": {
    "id": "ROAD-5",
    "layer": "ROAD_CENTERLINE",
    "source_type": "agent_inferred_from_public_data",
    "confidence": "medium",
    "geometry_role": "existing_condition",
    "name_zh": "横向联络道"
   },
   "geometry": {
    "type": "LineString",
    "coordinates": [
     [
      116.34019665870896,
      39.98270056586796
     ],
     [
      116.35387795243325,
      39.9827776388478
     ]
    ]
   },
   "id": "ROAD-5"
  },
  {
   "type": "Feature",
   "properties": {
    "id": "ROAD-6",
    "layer": "ROAD_CENTERLINE",
    "source_type": "agent_inferred_from_public_data",
    "confidence": "medium",
    "geometry_role": "existing_condition",
    "name_zh": "横向联络道"
   },
   "geometry": {
    "type": "LineString",
    "coordinates": [
     [
      116.34160972275413,
      40.00460124667962
     ],
     [
      116.35410369428702,
      40.0046715519075
     ]
    ]
   },
   "id": "ROAD-6"
  }
 ]
}