{
  "type": "FeatureCollection",
  "name": "buildings",
  "metadata": {
    "coordinate_reference_system": "EPSG:4326",
    "area_calculation_crs": "EPSG:4548",
    "boundary_status": "provisional_design_model",
    "official_boundary_available_in_repository": false,
    "generated_date": "2026-08-21"
  },
  "features": [
    {
      "type": "Feature",
      "id": "BLD-001",
      "properties": {
        "id": "BLD-001",
        "layer": "BUILDING_FOOTPRINT",
        "name_zh": "保留背景",
        "name_en": "Retain background",
        "source_type": "agent_generated_design",
        "confidence": "low",
        "geometry_role": "design_proposal",
        "official_boundary": false,
        "source_id": "SRC-PROVISIONAL-BOUNDARIES-2026",
        "source_date": "2026-08-21",
        "boundary_precision": "conceptual_design",
        "update_category": "保留背景",
        "statutory_status": "unknown"
      },
      "geometry": {
        "type": "Polygon",
        "coordinates": [
          [
            [
              116.3425,
              39.945
            ],
            [
              116.34549999999999,
              39.945
            ],
            [
              116.34549999999999,
              39.948
            ],
            [
              116.3425,
              39.948
            ],
            [
              116.3425,
              39.945
            ]
          ]
        ]
      }
    },
    {
      "type": "Feature",
      "id": "BLD-002",
      "properties": {
        "id": "BLD-002",
        "layer": "BUILDING_FOOTPRINT",
        "name_zh": "可改造供给",
        "name_en": "Renovation opportunity",
        "source_type": "agent_generated_design",
        "confidence": "low",
        "geometry_role": "design_proposal",
        "official_boundary": false,
        "source_id": "SRC-PROVISIONAL-BOUNDARIES-2026",
        "source_date": "2026-08-21",
        "boundary_precision": "conceptual_design",
        "update_category": "可改造供给",
        "statutory_status": "unknown"
      },
      "geometry": {
        "type": "Polygon",
        "coordinates": [
          [
            [
              116.3458,
              39.959
            ],
            [
              116.34819999999999,
              39.959
            ],
            [
              116.34819999999999,
              39.9628
            ],
            [
              116.3458,
              39.9628
            ],
            [
              116.3458,
              39.959
            ]
          ]
        ]
      }
    },
    {
      "type": "Feature",
      "id": "BLD-003",
      "properties": {
        "id": "BLD-003",
        "layer": "BUILDING_FOOTPRINT",
        "name_zh": "可插入供给",
        "name_en": "Possible insertion",
        "source_type": "agent_generated_design",
        "confidence": "low",
        "geometry_role": "design_proposal",
        "official_boundary": false,
        "source_id": "SRC-PROVISIONAL-BOUNDARIES-2026",
        "source_date": "2026-08-21",
        "boundary_precision": "conceptual_design",
        "update_category": "可插入供给",
        "statutory_status": "unknown"
      },
      "geometry": {
        "type": "Polygon",
        "coordinates": [
          [
            [
              116.3434,
              39.974
            ],
            [
              116.3466,
              39.974
            ],
            [
              116.3466,
              39.977199999999996
            ],
            [
              116.3434,
              39.977199999999996
            ],
            [
              116.3434,
              39.974
            ]
          ]
        ]
      }
    },
    {
      "type": "Feature",
      "id": "BLD-004",
      "properties": {
        "id": "BLD-004",
        "layer": "BUILDING_FOOTPRINT",
        "name_zh": "保留背景",
        "name_en": "Retain background",
        "source_type": "agent_generated_design",
        "confidence": "low",
        "geometry_role": "design_proposal",
        "official_boundary": false,
        "source_id": "SRC-PROVISIONAL-BOUNDARIES-2026",
        "source_date": "2026-08-21",
        "boundary_precision": "conceptual_design",
        "update_category": "保留背景",
        "statutory_status": "unknown"
      },
      "geometry": {
        "type": "Polygon",
        "coordinates": [
          [
            [
              116.34559999999999,
              39.989
            ],
            [
              116.3484,
              39.989
            ],
            [
              116.3484,
              39.992599999999996
            ],
            [
              116.34559999999999,
              39.992599999999996
            ],
            [
              116.34559999999999,
              39.989
            ]
          ]
        ]
      }
    }
  ]
}
