{
  "type": "FeatureCollection",
  "name": "constraints",
  "metadata": {
    "coordinate_reference_system": "EPSG:4326",
    "area_calculation_crs": "EPSG:4548",
    "boundary_status": "provisional_design_model",
    "official_boundary_available_in_repository": false,
    "generated_date": "2026-08-21"
  },
  "features": [
    {
      "type": "Feature",
      "id": "CO-001",
      "properties": {
        "id": "CO-001",
        "layer": "REGULATORY_CONTROL",
        "name_zh": "临时边界约束",
        "name_en": "Provisional boundary constraint",
        "source_type": "agent_generated_design",
        "confidence": "low",
        "geometry_role": "design_proposal",
        "official_boundary": false,
        "source_id": "SRC-PROVISIONAL-BOUNDARIES-2026",
        "source_date": "2026-08-21",
        "constraint_type": "provisional_boundary",
        "statutory_status": "unknown"
      },
      "geometry": {
        "type": "LineString",
        "coordinates": [
          [
            116.3407,
            39.939
          ],
          [
            116.3553,
            39.939
          ],
          [
            116.3553,
            39.965
          ],
          [
            116.3533,
            39.99
          ],
          [
            116.3553,
            40.0265
          ],
          [
            116.3427,
            40.0265
          ],
          [
            116.3417,
            40.006
          ],
          [
            116.3397,
            39.975
          ],
          [
            116.3407,
            39.939
          ]
        ]
      }
    },
    {
      "type": "Feature",
      "id": "CO-002",
      "properties": {
        "id": "CO-002",
        "layer": "HERITAGE_PROTECTION",
        "name_zh": "京张文化叙事线",
        "name_en": "Jing-Zhang cultural narrative line",
        "source_type": "agent_generated_design",
        "confidence": "low",
        "geometry_role": "design_proposal",
        "official_boundary": false,
        "source_id": "SRC-PROVISIONAL-BOUNDARIES-2026",
        "source_date": "2026-08-21",
        "constraint_type": "heritage_storyline",
        "heritage_status": "pending_official_review"
      },
      "geometry": {
        "type": "LineString",
        "coordinates": [
          [
            116.3437,
            39.942
          ],
          [
            116.34469999999999,
            39.958
          ],
          [
            116.3457,
            39.974
          ],
          [
            116.3467,
            40.0235
          ]
        ]
      }
    }
  ]
}
