{
  "type": "FeatureCollection",
  "name": "green_space",
  "metadata": {
    "coordinate_reference_system": "EPSG:4326",
    "area_calculation_crs": "EPSG:4548",
    "boundary_status": "provisional_design_model",
    "official_boundary_available_in_repository": false,
    "generated_date": "2026-08-21"
  },
  "features": [
    {
      "type": "Feature",
      "id": "GR-001",
      "properties": {
        "id": "GR-001",
        "layer": "GREEN_SPACE",
        "name_zh": "连续蓝绿空间 1",
        "name_en": "Blue-green segment 1",
        "source_type": "agent_generated_design",
        "confidence": "low",
        "geometry_role": "design_proposal",
        "official_boundary": false,
        "source_id": "SRC-PROVISIONAL-BOUNDARIES-2026",
        "source_date": "2026-08-21",
        "boundary_precision": "conceptual_design",
        "public_access": "conceptual",
        "ecology_status": "pending_professional_review"
      },
      "geometry": {
        "type": "Polygon",
        "coordinates": [
          [
            [
              116.34089999999999,
              39.9468
            ],
            [
              116.34089999999999,
              39.942
            ],
            [
              116.3541,
              39.942
            ],
            [
              116.3541,
              39.9468
            ],
            [
              116.34089999999999,
              39.9468
            ]
          ]
        ]
      }
    },
    {
      "type": "Feature",
      "id": "GR-002",
      "properties": {
        "id": "GR-002",
        "layer": "GREEN_SPACE",
        "name_zh": "连续蓝绿空间 2",
        "name_en": "Blue-green segment 2",
        "source_type": "agent_generated_design",
        "confidence": "low",
        "geometry_role": "design_proposal",
        "official_boundary": false,
        "source_id": "SRC-PROVISIONAL-BOUNDARIES-2026",
        "source_date": "2026-08-21",
        "boundary_precision": "conceptual_design",
        "public_access": "conceptual",
        "ecology_status": "pending_professional_review"
      },
      "geometry": {
        "type": "Polygon",
        "coordinates": [
          [
            [
              116.34089999999999,
              39.960800000000006
            ],
            [
              116.34089999999999,
              39.956
            ],
            [
              116.3541,
              39.956
            ],
            [
              116.3541,
              39.960800000000006
            ],
            [
              116.34089999999999,
              39.960800000000006
            ]
          ]
        ]
      }
    },
    {
      "type": "Feature",
      "id": "GR-003",
      "properties": {
        "id": "GR-003",
        "layer": "GREEN_SPACE",
        "name_zh": "连续蓝绿空间 3",
        "name_en": "Blue-green segment 3",
        "source_type": "agent_generated_design",
        "confidence": "low",
        "geometry_role": "design_proposal",
        "official_boundary": false,
        "source_id": "SRC-PROVISIONAL-BOUNDARIES-2026",
        "source_date": "2026-08-21",
        "boundary_precision": "conceptual_design",
        "public_access": "conceptual",
        "ecology_status": "pending_professional_review"
      },
      "geometry": {
        "type": "Polygon",
        "coordinates": [
          [
            [
              116.34089999999999,
              39.9748
            ],
            [
              116.34089999999999,
              39.97
            ],
            [
              116.3541,
              39.97
            ],
            [
              116.3541,
              39.9748
            ],
            [
              116.34089999999999,
              39.9748
            ]
          ]
        ]
      }
    },
    {
      "type": "Feature",
      "id": "GR-004",
      "properties": {
        "id": "GR-004",
        "layer": "GREEN_SPACE",
        "name_zh": "连续蓝绿空间 4",
        "name_en": "Blue-green segment 4",
        "source_type": "agent_generated_design",
        "confidence": "low",
        "geometry_role": "design_proposal",
        "official_boundary": false,
        "source_id": "SRC-PROVISIONAL-BOUNDARIES-2026",
        "source_date": "2026-08-21",
        "boundary_precision": "conceptual_design",
        "public_access": "conceptual",
        "ecology_status": "pending_professional_review"
      },
      "geometry": {
        "type": "Polygon",
        "coordinates": [
          [
            [
              116.34089999999999,
              39.9898
            ],
            [
              116.34089999999999,
              39.985
            ],
            [
              116.3537,
              39.985
            ],
            [
              116.353316,
              39.9898
            ],
            [
              116.34089999999999,
              39.9898
            ]
          ]
        ]
      }
    }
  ]
}
