{
  "type": "FeatureCollection",
  "name": "key_areas",
  "metadata": {
    "coordinate_reference_system": "EPSG:4326",
    "area_calculation_crs": "EPSG:4548",
    "boundary_status": "provisional_design_model",
    "official_boundary_available_in_repository": false,
    "generated_date": "2026-08-21"
  },
  "features": [
    {
      "type": "Feature",
      "id": "KEY-001",
      "properties": {
        "id": "KEY-001",
        "layer": "KEY_AREA",
        "name_zh": "众智园AI自主创新加速区",
        "name_en": "Zhongzhiyuan AI acceleration area",
        "source_type": "agent_inferred_from_public_data",
        "confidence": "medium",
        "geometry_role": "provisional_constraint",
        "official_boundary": false,
        "source_id": "SRC-PROVISIONAL-BOUNDARIES-2026",
        "source_date": "2026-08-21",
        "boundary_precision": "provisional_rough",
        "official_area_sqm": 1921000,
        "area_id": "zhongzhiyuan_ai_acceleration_area",
        "usage_note": "Conceptual reference area only; not a parcel, road redline or ownership boundary."
      },
      "geometry": {
        "type": "Polygon",
        "coordinates": [
          [
            [
              116.343,
              40.0075
            ],
            [
              116.354,
              40.0075
            ],
            [
              116.354,
              40.026
            ],
            [
              116.343,
              40.026
            ],
            [
              116.343,
              40.0075
            ]
          ]
        ]
      }
    },
    {
      "type": "Feature",
      "id": "KEY-002",
      "properties": {
        "id": "KEY-002",
        "layer": "KEY_AREA",
        "name_zh": "北京AI原点社区",
        "name_en": "Beijing AI Origin Community",
        "source_type": "agent_inferred_from_public_data",
        "confidence": "medium",
        "geometry_role": "provisional_constraint",
        "official_boundary": false,
        "source_id": "SRC-PROVISIONAL-BOUNDARIES-2026",
        "source_date": "2026-08-21",
        "boundary_precision": "provisional_rough",
        "official_area_sqm": 1043000,
        "area_id": "beijing_ai_origin_community",
        "usage_note": "Conceptual reference area only; not a parcel, road redline or ownership boundary."
      },
      "geometry": {
        "type": "Polygon",
        "coordinates": [
          [
            [
              116.342,
              39.9835
            ],
            [
              116.353,
              39.9835
            ],
            [
              116.353,
              39.9935
            ],
            [
              116.342,
              39.9935
            ],
            [
              116.342,
              39.9835
            ]
          ]
        ]
      }
    },
    {
      "type": "Feature",
      "id": "KEY-003",
      "properties": {
        "id": "KEY-003",
        "layer": "KEY_AREA",
        "name_zh": "大钟寺AI产业聚集区",
        "name_en": "Dazhongsi AI industry cluster",
        "source_type": "agent_inferred_from_public_data",
        "confidence": "medium",
        "geometry_role": "provisional_constraint",
        "official_boundary": false,
        "source_id": "SRC-PROVISIONAL-BOUNDARIES-2026",
        "source_date": "2026-08-21",
        "boundary_precision": "provisional_rough",
        "official_area_sqm": 720000,
        "area_id": "dazhongsi_ai_industry_cluster",
        "usage_note": "Conceptual reference area only; not a parcel, road redline or ownership boundary."
      },
      "geometry": {
        "type": "Polygon",
        "coordinates": [
          [
            [
              116.342,
              39.944
            ],
            [
              116.355,
              39.944
            ],
            [
              116.355,
              39.94984
            ],
            [
              116.342,
              39.94984
            ],
            [
              116.342,
              39.944
            ]
          ]
        ]
      }
    }
  ]
}
