{
  "type": "FeatureCollection",
  "name": "public_space",
  "metadata": {
    "coordinate_reference_system": "EPSG:4326",
    "area_calculation_crs": "EPSG:4548",
    "boundary_status": "provisional_design_model",
    "official_boundary_available_in_repository": false,
    "generated_date": "2026-08-21"
  },
  "features": [
    {
      "type": "Feature",
      "id": "PS-001",
      "properties": {
        "id": "PS-001",
        "layer": "PUBLIC_SPACE",
        "name_zh": "AI公共空间节点带 1",
        "name_en": "AI public-space segment 1",
        "source_type": "agent_generated_design",
        "confidence": "low",
        "geometry_role": "design_proposal",
        "official_boundary": false,
        "source_id": "SRC-PROVISIONAL-BOUNDARIES-2026",
        "source_date": "2026-08-21",
        "boundary_precision": "conceptual_design",
        "public_access": "conceptual",
        "human_review": "required"
      },
      "geometry": {
        "type": "Polygon",
        "coordinates": [
          [
            [
              116.34089999999999,
              39.9502
            ],
            [
              116.34089999999999,
              39.947
            ],
            [
              116.3541,
              39.947
            ],
            [
              116.3541,
              39.9502
            ],
            [
              116.34089999999999,
              39.9502
            ]
          ]
        ]
      }
    },
    {
      "type": "Feature",
      "id": "PS-002",
      "properties": {
        "id": "PS-002",
        "layer": "PUBLIC_SPACE",
        "name_zh": "AI公共空间节点带 2",
        "name_en": "AI public-space segment 2",
        "source_type": "agent_generated_design",
        "confidence": "low",
        "geometry_role": "design_proposal",
        "official_boundary": false,
        "source_id": "SRC-PROVISIONAL-BOUNDARIES-2026",
        "source_date": "2026-08-21",
        "boundary_precision": "conceptual_design",
        "public_access": "conceptual",
        "human_review": "required"
      },
      "geometry": {
        "type": "Polygon",
        "coordinates": [
          [
            [
              116.34089999999999,
              39.9662
            ],
            [
              116.34089999999999,
              39.963
            ],
            [
              116.3541,
              39.963
            ],
            [
              116.3541,
              39.9662
            ],
            [
              116.34089999999999,
              39.9662
            ]
          ]
        ]
      }
    },
    {
      "type": "Feature",
      "id": "PS-003",
      "properties": {
        "id": "PS-003",
        "layer": "PUBLIC_SPACE",
        "name_zh": "AI公共空间节点带 3",
        "name_en": "AI public-space segment 3",
        "source_type": "agent_generated_design",
        "confidence": "low",
        "geometry_role": "design_proposal",
        "official_boundary": false,
        "source_id": "SRC-PROVISIONAL-BOUNDARIES-2026",
        "source_date": "2026-08-21",
        "boundary_precision": "conceptual_design",
        "public_access": "conceptual",
        "human_review": "required"
      },
      "geometry": {
        "type": "Polygon",
        "coordinates": [
          [
            [
              116.34089999999999,
              39.9822
            ],
            [
              116.34089999999999,
              39.979
            ],
            [
              116.3541,
              39.979
            ],
            [
              116.3541,
              39.980000000000004
            ],
            [
              116.353924,
              39.9822
            ],
            [
              116.34089999999999,
              39.9822
            ]
          ]
        ]
      }
    },
    {
      "type": "Feature",
      "id": "PS-006",
      "properties": {
        "id": "PS-006",
        "layer": "SCENARIO_NODE",
        "name_zh": "京张记忆引擎",
        "name_en": "Jing-Zhang Memory Engine",
        "source_type": "agent_generated_design",
        "confidence": "low",
        "geometry_role": "design_proposal",
        "official_boundary": false,
        "source_id": "SRC-PROVISIONAL-BOUNDARIES-2026",
        "source_date": "2026-08-21",
        "scenario_ids": [
          "S01"
        ],
        "landmark_type": "ai_pilgrimage_landmark",
        "human_review": "required"
      },
      "geometry": {
        "type": "Point",
        "coordinates": [
          116.3457,
          39.947
        ]
      }
    },
    {
      "type": "Feature",
      "id": "PS-004",
      "properties": {
        "id": "PS-004",
        "layer": "SCENARIO_NODE",
        "name_zh": "Open Loop评议环",
        "name_en": "Open Loop Review Ring",
        "source_type": "agent_generated_design",
        "confidence": "low",
        "geometry_role": "design_proposal",
        "official_boundary": false,
        "source_id": "SRC-PROVISIONAL-BOUNDARIES-2026",
        "source_date": "2026-08-21",
        "scenario_ids": [
          "S07",
          "S10"
        ],
        "landmark_type": "ai_pilgrimage_landmark",
        "human_review": "required"
      },
      "geometry": {
        "type": "Point",
        "coordinates": [
          116.3467,
          39.966
        ]
      }
    },
    {
      "type": "Feature",
      "id": "PS-005",
      "properties": {
        "id": "PS-005",
        "layer": "SCENARIO_NODE",
        "name_zh": "AI原点光廊",
        "name_en": "AI Origin Light Walk",
        "source_type": "agent_generated_design",
        "confidence": "low",
        "geometry_role": "design_proposal",
        "official_boundary": false,
        "source_id": "SRC-PROVISIONAL-BOUNDARIES-2026",
        "source_date": "2026-08-21",
        "scenario_ids": [
          "S03",
          "S09"
        ],
        "landmark_type": "ai_pilgrimage_landmark",
        "human_review": "required"
      },
      "geometry": {
        "type": "Point",
        "coordinates": [
          116.34769999999999,
          39.987
        ]
      }
    }
  ]
}
