{
  "type": "FeatureCollection",
  "name": "roads",
  "metadata": {
    "coordinate_reference_system": "EPSG:4326",
    "area_calculation_crs": "EPSG:4548",
    "boundary_status": "provisional_design_model",
    "official_boundary_available_in_repository": false,
    "generated_date": "2026-08-21"
  },
  "features": [
    {
      "type": "Feature",
      "id": "RD-001",
      "properties": {
        "id": "RD-001",
        "layer": "ROAD_CENTERLINE",
        "name_zh": "Open Loop慢行主轴",
        "name_en": "Open Loop slow-mobility spine",
        "source_type": "agent_generated_design",
        "confidence": "low",
        "geometry_role": "design_proposal",
        "official_boundary": false,
        "source_id": "SRC-PROVISIONAL-BOUNDARIES-2026",
        "source_date": "2026-08-21",
        "movement_mode": "walk_bike",
        "alignment_status": "conceptual"
      },
      "geometry": {
        "type": "LineString",
        "coordinates": [
          [
            116.34469999999999,
            39.941
          ],
          [
            116.3467,
            39.957
          ],
          [
            116.3457,
            39.974
          ],
          [
            116.34769999999999,
            40.024499999999996
          ]
        ]
      }
    },
    {
      "type": "Feature",
      "id": "RD-002",
      "properties": {
        "id": "RD-002",
        "layer": "ROAD_CENTERLINE",
        "name_zh": "三区协同支线",
        "name_en": "Three-area connector",
        "source_type": "agent_generated_design",
        "confidence": "low",
        "geometry_role": "design_proposal",
        "official_boundary": false,
        "source_id": "SRC-PROVISIONAL-BOUNDARIES-2026",
        "source_date": "2026-08-21",
        "movement_mode": "local_access",
        "alignment_status": "conceptual"
      },
      "geometry": {
        "type": "LineString",
        "coordinates": [
          [
            116.3497,
            39.945
          ],
          [
            116.3497,
            39.961
          ],
          [
            116.3487,
            39.981
          ],
          [
            116.35069999999999,
            40.0225
          ]
        ]
      }
    }
  ]
}
