{
  "type": "FeatureCollection",
  "name": "site_boundary",
  "metadata": {
    "coordinate_reference_system": "EPSG:4326",
    "area_calculation_crs": "EPSG:4548",
    "boundary_status": "provisional_design_model",
    "official_boundary_available_in_repository": false,
    "generated_date": "2026-08-21"
  },
  "features": [
    {
      "type": "Feature",
      "id": "SITE-001",
      "properties": {
        "id": "SITE-001",
        "layer": "SITE_BOUNDARY",
        "name_zh": "总体设计范围临时边界",
        "name_en": "Overall design area provisional boundary",
        "source_type": "agent_inferred_from_public_data",
        "confidence": "medium",
        "geometry_role": "provisional_constraint",
        "official_boundary": false,
        "source_id": "SRC-PROVISIONAL-BOUNDARIES-2026",
        "source_date": "2026-08-21",
        "boundary_precision": "provisional_rough",
        "official_area_sqm": 11400000,
        "source_title": "Maintainer provisional boundary derived from public announcement text",
        "usage_note": "Temporary generation, display and intake self-check only. Replace with official polygon before final professional use."
      },
      "geometry": {
        "type": "Polygon",
        "coordinates": [
          [
            [
              116.3407,
              39.939
            ],
            [
              116.3553,
              39.939
            ],
            [
              116.3553,
              39.965
            ],
            [
              116.3533,
              39.99
            ],
            [
              116.3553,
              40.0265
            ],
            [
              116.3427,
              40.0265
            ],
            [
              116.3417,
              40.006
            ],
            [
              116.3397,
              39.975
            ],
            [
              116.3407,
              39.939
            ]
          ]
        ]
      }
    }
  ]
}
