{
  "type": "FeatureCollection",
  "features": [
    {
      "type": "Feature",
      "properties": {
        "name_zh": "育苗温室×3",
        "status": "concept-building",
        "id": "buildings_0",
        "layer": "BUILDING_FOOTPRINT",
        "source_type": "agent_generated_design",
        "confidence": "unknown",
        "geometry_role": "provisional_constraint",
        "official_boundary": false
      },
      "geometry": {
        "type": "Point",
        "coordinates": [
          116.3485,
          40.02075
        ]
      },
      "id": "feature_0"
    },
    {
      "type": "Feature",
      "properties": {
        "name_zh": "培育档案馆",
        "status": "concept-building",
        "id": "buildings_1",
        "layer": "BUILDING_FOOTPRINT",
        "source_type": "agent_generated_design",
        "confidence": "unknown",
        "geometry_role": "provisional_constraint",
        "official_boundary": false
      },
      "geometry": {
        "type": "Point",
        "coordinates": [
          116.3485,
          40.012750000000004
        ]
      },
      "id": "feature_1"
    },
    {
      "type": "Feature",
      "properties": {
        "name_zh": "数据泵站",
        "status": "concept-building",
        "id": "buildings_2",
        "layer": "BUILDING_FOOTPRINT",
        "source_type": "agent_generated_design",
        "confidence": "unknown",
        "geometry_role": "provisional_constraint",
        "official_boundary": false
      },
      "geometry": {
        "type": "Point",
        "coordinates": [
          116.3485,
          40.024750000000004
        ]
      },
      "id": "feature_2"
    },
    {
      "type": "Feature",
      "properties": {
        "name_zh": "苗圃夜校",
        "status": "concept-building",
        "id": "buildings_3",
        "layer": "BUILDING_FOOTPRINT",
        "source_type": "agent_generated_design",
        "confidence": "unknown",
        "geometry_role": "provisional_constraint",
        "official_boundary": false
      },
      "geometry": {
        "type": "Point",
        "coordinates": [
          116.3475,
          39.9925
        ]
      },
      "id": "feature_3"
    },
    {
      "type": "Feature",
      "properties": {
        "name_zh": "青年社区",
        "status": "concept-building",
        "id": "buildings_4",
        "layer": "BUILDING_FOOTPRINT",
        "source_type": "agent_generated_design",
        "confidence": "unknown",
        "geometry_role": "provisional_constraint",
        "official_boundary": false
      },
      "geometry": {
        "type": "Point",
        "coordinates": [
          116.3475,
          39.984500000000004
        ]
      },
      "id": "feature_4"
    },
    {
      "type": "Feature",
      "properties": {
        "name_zh": "审计工坊",
        "status": "concept-building",
        "id": "buildings_5",
        "layer": "BUILDING_FOOTPRINT",
        "source_type": "agent_generated_design",
        "confidence": "unknown",
        "geometry_role": "provisional_constraint",
        "official_boundary": false
      },
      "geometry": {
        "type": "Point",
        "coordinates": [
          116.3475,
          39.9915
        ]
      },
      "id": "feature_5"
    },
    {
      "type": "Feature",
      "properties": {
        "name_zh": "果园集市",
        "status": "concept-building",
        "id": "buildings_6",
        "layer": "BUILDING_FOOTPRINT",
        "source_type": "agent_generated_design",
        "confidence": "unknown",
        "geometry_role": "provisional_constraint",
        "official_boundary": false
      },
      "geometry": {
        "type": "Point",
        "coordinates": [
          116.3485,
          39.9495
        ]
      },
      "id": "feature_6"
    },
    {
      "type": "Feature",
      "properties": {
        "name_zh": "站城一体节点",
        "status": "concept-building",
        "id": "buildings_7",
        "layer": "BUILDING_FOOTPRINT",
        "source_type": "agent_generated_design",
        "confidence": "unknown",
        "geometry_role": "provisional_constraint",
        "official_boundary": false
      },
      "geometry": {
        "type": "Point",
        "coordinates": [
          116.3485,
          39.9445
        ]
      },
      "id": "feature_7"
    }
  ]
}