{
  "type": "FeatureCollection",
  "features": [
    {
      "id": "feature_0",
      "type": "Feature",
      "properties": {
        "constraint_type": "provisional_boundary",
        "note": "概念示意边界，待控规批复后替换",
        "status": "provisional",
        "id": "constraints_0",
        "layer": "REGULATORY_CONTROL",
        "source_type": "agent_generated_design",
        "confidence": "unknown",
        "geometry_role": "provisional_constraint"
      },
      "geometry": {
        "type": "Polygon",
        "coordinates": [
          [
            [
              116.32,
              39.96
            ],
            [
              116.36,
              39.96
            ],
            [
              116.36,
              39.98
            ],
            [
              116.32,
              39.98
            ],
            [
              116.32,
              39.96
            ]
          ]
        ]
      }
    }
  ]
}
