{
  "type": "FeatureCollection",
  "features": [
    {
      "type": "Feature",
      "properties": {
        "name_zh": "育苗温室群",
        "zone_of": "PROV-KEY-001",
        "status": "concept-land-use",
        "id": "land_use_0",
        "layer": "LAND_USE",
        "source_type": "agent_generated_design",
        "confidence": "unknown",
        "geometry_role": "provisional_constraint",
        "official_boundary": false
      },
      "geometry": {
        "type": "Polygon",
        "coordinates": [
          [
            [
              116.354,
              40.0075
            ],
            [
              116.354,
              40.01058333333334
            ],
            [
              116.343,
              40.01058333333334
            ],
            [
              116.343,
              40.0075
            ],
            [
              116.354,
              40.0075
            ]
          ]
        ]
      },
      "id": "feature_0"
    },
    {
      "type": "Feature",
      "properties": {
        "name_zh": "认养苗床带",
        "zone_of": "PROV-KEY-001",
        "status": "concept-land-use",
        "id": "land_use_1",
        "layer": "LAND_USE",
        "source_type": "agent_generated_design",
        "confidence": "unknown",
        "geometry_role": "provisional_constraint",
        "official_boundary": false
      },
      "geometry": {
        "type": "Polygon",
        "coordinates": [
          [
            [
              116.354,
              40.01058333333334
            ],
            [
              116.354,
              40.013666666666666
            ],
            [
              116.343,
              40.013666666666666
            ],
            [
              116.343,
              40.01058333333334
            ],
            [
              116.354,
              40.01058333333334
            ]
          ]
        ]
      },
      "id": "feature_1"
    },
    {
      "type": "Feature",
      "properties": {
        "name_zh": "灌溉渠廊段",
        "zone_of": "PROV-KEY-001",
        "status": "concept-land-use",
        "id": "land_use_2",
        "layer": "LAND_USE",
        "source_type": "agent_generated_design",
        "confidence": "unknown",
        "geometry_role": "provisional_constraint",
        "official_boundary": false
      },
      "geometry": {
        "type": "Polygon",
        "coordinates": [
          [
            [
              116.354,
              40.013666666666666
            ],
            [
              116.354,
              40.01675
            ],
            [
              116.343,
              40.01675
            ],
            [
              116.343,
              40.013666666666666
            ],
            [
              116.354,
              40.013666666666666
            ]
          ]
        ]
      },
      "id": "feature_2"
    },
    {
      "type": "Feature",
      "properties": {
        "name_zh": "年轮广场",
        "zone_of": "PROV-KEY-001",
        "status": "concept-land-use",
        "id": "land_use_3",
        "layer": "LAND_USE",
        "source_type": "agent_generated_design",
        "confidence": "unknown",
        "geometry_role": "provisional_constraint",
        "official_boundary": false
      },
      "geometry": {
        "type": "Polygon",
        "coordinates": [
          [
            [
              116.354,
              40.01675
            ],
            [
              116.354,
              40.01983333333334
            ],
            [
              116.343,
              40.01983333333334
            ],
            [
              116.343,
              40.01675
            ],
            [
              116.354,
              40.01675
            ]
          ]
        ]
      },
      "id": "feature_3"
    },
    {
      "type": "Feature",
      "properties": {
        "name_zh": "花园型街区",
        "zone_of": "PROV-KEY-001",
        "status": "concept-land-use",
        "id": "land_use_4",
        "layer": "LAND_USE",
        "source_type": "agent_generated_design",
        "confidence": "unknown",
        "geometry_role": "provisional_constraint",
        "official_boundary": false
      },
      "geometry": {
        "type": "Polygon",
        "coordinates": [
          [
            [
              116.354,
              40.01983333333334
            ],
            [
              116.354,
              40.02291666666667
            ],
            [
              116.343,
              40.02291666666667
            ],
            [
              116.343,
              40.01983333333334
            ],
            [
              116.354,
              40.01983333333334
            ]
          ]
        ]
      },
      "id": "feature_4"
    },
    {
      "type": "Feature",
      "properties": {
        "name_zh": "绿地缓冲",
        "zone_of": "PROV-KEY-001",
        "status": "concept-land-use",
        "id": "land_use_5",
        "layer": "LAND_USE",
        "source_type": "agent_generated_design",
        "confidence": "unknown",
        "geometry_role": "provisional_constraint",
        "official_boundary": false
      },
      "geometry": {
        "type": "Polygon",
        "coordinates": [
          [
            [
              116.354,
              40.02291666666667
            ],
            [
              116.354,
              40.026
            ],
            [
              116.343,
              40.026
            ],
            [
              116.343,
              40.02291666666667
            ],
            [
              116.354,
              40.02291666666667
            ]
          ]
        ]
      },
      "id": "feature_5"
    },
    {
      "type": "Feature",
      "properties": {
        "name_zh": "培育苗床",
        "zone_of": "PROV-KEY-002",
        "status": "concept-land-use",
        "id": "land_use_6",
        "layer": "LAND_USE",
        "source_type": "agent_generated_design",
        "confidence": "unknown",
        "geometry_role": "provisional_constraint",
        "official_boundary": false
      },
      "geometry": {
        "type": "Polygon",
        "coordinates": [
          [
            [
              116.353,
              39.9835
            ],
            [
              116.353,
              39.9855
            ],
            [
              116.342,
              39.9855
            ],
            [
              116.342,
              39.9835
            ],
            [
              116.353,
              39.9835
            ]
          ]
        ]
      },
      "id": "feature_6"
    },
    {
      "type": "Feature",
      "properties": {
        "name_zh": "种质资源库",
        "zone_of": "PROV-KEY-002",
        "status": "concept-land-use",
        "id": "land_use_7",
        "layer": "LAND_USE",
        "source_type": "agent_generated_design",
        "confidence": "unknown",
        "geometry_role": "provisional_constraint",
        "official_boundary": false
      },
      "geometry": {
        "type": "Polygon",
        "coordinates": [
          [
            [
              116.353,
              39.9855
            ],
            [
              116.353,
              39.9875
            ],
            [
              116.342,
              39.9875
            ],
            [
              116.342,
              39.9855
            ],
            [
              116.353,
              39.9855
            ]
          ]
        ]
      },
      "id": "feature_7"
    },
    {
      "type": "Feature",
      "properties": {
        "name_zh": "苗圃夜校",
        "zone_of": "PROV-KEY-002",
        "status": "concept-land-use",
        "id": "land_use_8",
        "layer": "LAND_USE",
        "source_type": "agent_generated_design",
        "confidence": "unknown",
        "geometry_role": "provisional_constraint",
        "official_boundary": false
      },
      "geometry": {
        "type": "Polygon",
        "coordinates": [
          [
            [
              116.353,
              39.9875
            ],
            [
              116.353,
              39.9895
            ],
            [
              116.342,
              39.9895
            ],
            [
              116.342,
              39.9875
            ],
            [
              116.353,
              39.9875
            ]
          ]
        ]
      },
      "id": "feature_8"
    },
    {
      "type": "Feature",
      "properties": {
        "name_zh": "青年社区",
        "zone_of": "PROV-KEY-002",
        "status": "concept-land-use",
        "id": "land_use_9",
        "layer": "LAND_USE",
        "source_type": "agent_generated_design",
        "confidence": "unknown",
        "geometry_role": "provisional_constraint",
        "official_boundary": false
      },
      "geometry": {
        "type": "Polygon",
        "coordinates": [
          [
            [
              116.353,
              39.9895
            ],
            [
              116.353,
              39.991499999999995
            ],
            [
              116.342,
              39.991499999999995
            ],
            [
              116.342,
              39.9895
            ],
            [
              116.353,
              39.9895
            ]
          ]
        ]
      },
      "id": "feature_9"
    },
    {
      "type": "Feature",
      "properties": {
        "name_zh": "低扰动更新区",
        "zone_of": "PROV-KEY-002",
        "status": "concept-land-use",
        "id": "land_use_10",
        "layer": "LAND_USE",
        "source_type": "agent_generated_design",
        "confidence": "unknown",
        "geometry_role": "provisional_constraint",
        "official_boundary": false
      },
      "geometry": {
        "type": "Polygon",
        "coordinates": [
          [
            [
              116.353,
              39.991499999999995
            ],
            [
              116.353,
              39.9935
            ],
            [
              116.342,
              39.9935
            ],
            [
              116.342,
              39.991499999999995
            ],
            [
              116.353,
              39.991499999999995
            ]
          ]
        ]
      },
      "id": "feature_10"
    },
    {
      "type": "Feature",
      "properties": {
        "name_zh": "果园集市",
        "zone_of": "PROV-KEY-003",
        "status": "concept-land-use",
        "id": "land_use_11",
        "layer": "LAND_USE",
        "source_type": "agent_generated_design",
        "confidence": "unknown",
        "geometry_role": "provisional_constraint",
        "official_boundary": false
      },
      "geometry": {
        "type": "Polygon",
        "coordinates": [
          [
            [
              116.355,
              39.944
            ],
            [
              116.355,
              39.945460000000004
            ],
            [
              116.342,
              39.945460000000004
            ],
            [
              116.342,
              39.944
            ],
            [
              116.355,
              39.944
            ]
          ]
        ]
      },
      "id": "feature_11"
    },
    {
      "type": "Feature",
      "properties": {
        "name_zh": "智能体街区",
        "zone_of": "PROV-KEY-003",
        "status": "concept-land-use",
        "id": "land_use_12",
        "layer": "LAND_USE",
        "source_type": "agent_generated_design",
        "confidence": "unknown",
        "geometry_role": "provisional_constraint",
        "official_boundary": false
      },
      "geometry": {
        "type": "Polygon",
        "coordinates": [
          [
            [
              116.355,
              39.945460000000004
            ],
            [
              116.355,
              39.946920000000006
            ],
            [
              116.342,
              39.946920000000006
            ],
            [
              116.342,
              39.945460000000004
            ],
            [
              116.355,
              39.945460000000004
            ]
          ]
        ]
      },
      "id": "feature_12"
    },
    {
      "type": "Feature",
      "properties": {
        "name_zh": "站城一体节点",
        "zone_of": "PROV-KEY-003",
        "status": "concept-land-use",
        "id": "land_use_13",
        "layer": "LAND_USE",
        "source_type": "agent_generated_design",
        "confidence": "unknown",
        "geometry_role": "provisional_constraint",
        "official_boundary": false
      },
      "geometry": {
        "type": "Polygon",
        "coordinates": [
          [
            [
              116.355,
              39.946920000000006
            ],
            [
              116.355,
              39.94838
            ],
            [
              116.342,
              39.94838
            ],
            [
              116.342,
              39.946920000000006
            ],
            [
              116.355,
              39.946920000000006
            ]
          ]
        ]
      },
      "id": "feature_13"
    },
    {
      "type": "Feature",
      "properties": {
        "name_zh": "静态交通区",
        "zone_of": "PROV-KEY-003",
        "status": "concept-land-use",
        "id": "land_use_14",
        "layer": "LAND_USE",
        "source_type": "agent_generated_design",
        "confidence": "unknown",
        "geometry_role": "provisional_constraint",
        "official_boundary": false
      },
      "geometry": {
        "type": "Polygon",
        "coordinates": [
          [
            [
              116.355,
              39.94838
            ],
            [
              116.355,
              39.94984
            ],
            [
              116.342,
              39.94984
            ],
            [
              116.342,
              39.94838
            ],
            [
              116.355,
              39.94838
            ]
          ]
        ]
      },
      "id": "feature_14"
    }
  ]
}