{
  "type": "FeatureCollection",
  "features": [
    {
      "type": "Feature",
      "id": "feature_0",
      "properties": {
        "id": "public_space_0",
        "layer": "PUBLIC_SPACE",
        "name_zh": "年轮广场",
        "source_type": "agent_generated_design",
        "confidence": "medium",
        "geometry_role": "provisional_constraint",
        "official_boundary": false
      },
      "geometry": {
        "type": "Polygon",
        "coordinates": [
          [
            [
              116.34685,
              40.019525
            ],
            [
              116.35015,
              40.019525
            ],
            [
              116.35015,
              40.013975
            ],
            [
              116.34685,
              40.013975
            ],
            [
              116.34685,
              40.019525
            ]
          ]
        ]
      }
    },
    {
      "type": "Feature",
      "id": "feature_1",
      "properties": {
        "id": "public_space_1",
        "layer": "PUBLIC_SPACE",
        "name_zh": "遮荫凉棚",
        "source_type": "agent_generated_design",
        "confidence": "medium",
        "geometry_role": "provisional_constraint",
        "official_boundary": false
      },
      "geometry": {
        "type": "Polygon",
        "coordinates": [
          [
            [
              116.34585,
              39.99
            ],
            [
              116.34915,
              39.99
            ],
            [
              116.34915,
              39.987
            ],
            [
              116.34585,
              39.987
            ],
            [
              116.34585,
              39.99
            ]
          ]
        ]
      }
    },
    {
      "type": "Feature",
      "id": "feature_2",
      "properties": {
        "id": "public_space_2",
        "layer": "PUBLIC_SPACE",
        "name_zh": "果篮广场",
        "source_type": "agent_generated_design",
        "confidence": "medium",
        "geometry_role": "provisional_constraint",
        "official_boundary": false
      },
      "geometry": {
        "type": "Polygon",
        "coordinates": [
          [
            [
              116.34655000000001,
              39.947796000000004
            ],
            [
              116.35045,
              39.947796000000004
            ],
            [
              116.35045,
              39.94604400000001
            ],
            [
              116.34655000000001,
              39.94604400000001
            ],
            [
              116.34655000000001,
              39.947796000000004
            ]
          ]
        ]
      }
    }
  ]
}