{
  "type": "FeatureCollection",
  "features": [
    {
      "type": "Feature",
      "properties": {
        "name_zh": "灌溉渠廊-南北主轴(连接三苗床)",
        "status": "concept",
        "id": "roads_0",
        "layer": "ROAD_CENTERLINE",
        "source_type": "agent_generated_design",
        "confidence": "unknown",
        "geometry_role": "provisional_constraint",
        "official_boundary": false
      },
      "geometry": {
        "type": "LineString",
        "coordinates": [
          [
            116.3485,
            40.01675
          ],
          [
            116.3485,
            39.946920000000006
          ]
        ]
      },
      "id": "feature_0"
    },
    {
      "type": "Feature",
      "properties": {
        "name_zh": "灌溉渠廊-东西横贯(连接两翼)",
        "status": "concept",
        "id": "roads_1",
        "layer": "ROAD_CENTERLINE",
        "source_type": "agent_generated_design",
        "confidence": "unknown",
        "geometry_role": "provisional_constraint",
        "official_boundary": false
      },
      "geometry": {
        "type": "LineString",
        "coordinates": [
          [
            116.33749999999999,
            39.992230000000006
          ],
          [
            116.3585,
            39.992230000000006
          ]
        ]
      },
      "id": "feature_1"
    }
  ]
}