{
  "type": "FeatureCollection",
  "features": [
    {
      "type": "Feature",
      "id": "feature_0",
      "properties": {
        "id": "site_boundary_0",
        "layer": "SITE_BOUNDARY",
        "name_zh": "总体设计范围",
        "boundary_type": "overall_design_scope",
        "area_ha": 369.3,
        "note": "总体设计范围概念边界（三重点区联合）",
        "status": "provisional",
        "source_type": "agent_inferred_from_public_data",
        "confidence": "medium",
        "geometry_role": "provisional_constraint",
        "official_boundary": false,
        "boundary_precision": "provisional_rough",
        "usage_note": "Not for official redline or precise area calculation"
      },
      "geometry": {
        "type": "MultiPolygon",
        "coordinates": [
          [
            [
              [
                116.343,
                40.0075
              ],
              [
                116.354,
                40.0075
              ],
              [
                116.354,
                40.026
              ],
              [
                116.343,
                40.026
              ],
              [
                116.343,
                40.0075
              ]
            ]
          ],
          [
            [
              [
                116.342,
                39.9835
              ],
              [
                116.353,
                39.9835
              ],
              [
                116.353,
                39.9935
              ],
              [
                116.342,
                39.9935
              ],
              [
                116.342,
                39.9835
              ]
            ]
          ],
          [
            [
              [
                116.342,
                39.944
              ],
              [
                116.355,
                39.944
              ],
              [
                116.355,
                39.94984
              ],
              [
                116.342,
                39.94984
              ],
              [
                116.342,
                39.944
              ]
            ]
          ]
        ]
      }
    }
  ]
}