{
  "type": "FeatureCollection",
  "features": [
    {
      "type": "Feature",
      "properties": {
        "layer": "BUILDING_FOOTPRINT",
        "building_id": "BLDG-001",
        "building_type": "ai_r_and_d",
        "height_m": 60,
        "function_zh": "AI研发中心",
        "footprint_area_sqm": 1200,
        "id": "BLDG-001",
        "source_type": "agent_inferred_from_public_data",
        "confidence": "low",
        "geometry_role": "design_proposal"
      },
      "geometry": {
        "type": "Polygon",
        "coordinates": [
          [
            [
              116.34576547842401,
              40.02286485999496
            ],
            [
              116.346234521576,
              40.02286485999496
            ],
            [
              116.346234521576,
              40.023135140005046
            ],
            [
              116.34576547842401,
              40.023135140005046
            ],
            [
              116.34576547842401,
              40.02286485999496
            ]
          ]
        ]
      },
      "id": "BLDG-001"
    },
    {
      "type": "Feature",
      "properties": {
        "layer": "BUILDING_FOOTPRINT",
        "building_id": "BLDG-002",
        "building_type": "incubator",
        "height_m": 45,
        "function_zh": "自主创新加速器",
        "footprint_area_sqm": 875,
        "id": "BLDG-002",
        "source_type": "agent_inferred_from_public_data",
        "confidence": "low",
        "geometry_role": "design_proposal"
      },
      "geometry": {
        "type": "Polygon",
        "coordinates": [
          [
            [
              116.350794793621,
              40.022887383329135
            ],
            [
              116.35120520637899,
              40.022887383329135
            ],
            [
              116.35120520637899,
              40.02311261667087
            ],
            [
              116.350794793621,
              40.02311261667087
            ],
            [
              116.350794793621,
              40.022887383329135
            ]
          ]
        ]
      },
      "id": "BLDG-002"
    },
    {
      "type": "Feature",
      "properties": {
        "layer": "BUILDING_FOOTPRINT",
        "building_id": "BLDG-003",
        "building_type": "retail",
        "height_m": 30,
        "function_zh": "产业展示中心",
        "footprint_area_sqm": 875,
        "id": "BLDG-003",
        "source_type": "agent_inferred_from_public_data",
        "confidence": "low",
        "geometry_role": "design_proposal"
      },
      "geometry": {
        "type": "Polygon",
        "coordinates": [
          [
            [
              116.34579479362101,
              40.016887383329134
            ],
            [
              116.346205206379,
              40.016887383329134
            ],
            [
              116.346205206379,
              40.01711261667087
            ],
            [
              116.34579479362101,
              40.01711261667087
            ],
            [
              116.34579479362101,
              40.016887383329134
            ]
          ]
        ]
      },
      "id": "BLDG-003"
    },
    {
      "type": "Feature",
      "properties": {
        "layer": "BUILDING_FOOTPRINT",
        "building_id": "BLDG-004",
        "building_type": "talent_apartment",
        "height_m": 80,
        "function_zh": "人才公寓",
        "footprint_area_sqm": 1200,
        "id": "BLDG-004",
        "source_type": "agent_inferred_from_public_data",
        "confidence": "low",
        "geometry_role": "design_proposal"
      },
      "geometry": {
        "type": "Polygon",
        "coordinates": [
          [
            [
              116.35076547842401,
              40.01686485999496
            ],
            [
              116.35123452157599,
              40.01686485999496
            ],
            [
              116.35123452157599,
              40.017135140005045
            ],
            [
              116.35076547842401,
              40.017135140005045
            ],
            [
              116.35076547842401,
              40.01686485999496
            ]
          ]
        ]
      },
      "id": "BLDG-004"
    },
    {
      "type": "Feature",
      "properties": {
        "layer": "BUILDING_FOOTPRINT",
        "building_id": "BLDG-005",
        "building_type": "ai_r_and_d",
        "height_m": 35,
        "function_zh": "标准治理实验室",
        "footprint_area_sqm": 875,
        "id": "BLDG-005",
        "source_type": "agent_inferred_from_public_data",
        "confidence": "low",
        "geometry_role": "design_proposal"
      },
      "geometry": {
        "type": "Polygon",
        "coordinates": [
          [
            [
              116.34579479362101,
              40.01188738332913
            ],
            [
              116.346205206379,
              40.01188738332913
            ],
            [
              116.346205206379,
              40.01211261667087
            ],
            [
              116.34579479362101,
              40.01211261667087
            ],
            [
              116.34579479362101,
              40.01188738332913
            ]
          ]
        ]
      },
      "id": "BLDG-005"
    },
    {
      "type": "Feature",
      "properties": {
        "layer": "BUILDING_FOOTPRINT",
        "building_id": "BLDG-006",
        "building_type": "incubator",
        "height_m": 40,
        "function_zh": "低碳创新中心",
        "footprint_area_sqm": 875,
        "id": "BLDG-006",
        "source_type": "agent_inferred_from_public_data",
        "confidence": "low",
        "geometry_role": "design_proposal"
      },
      "geometry": {
        "type": "Polygon",
        "coordinates": [
          [
            [
              116.350794793621,
              40.01188738332913
            ],
            [
              116.35120520637899,
              40.01188738332913
            ],
            [
              116.35120520637899,
              40.01211261667087
            ],
            [
              116.350794793621,
              40.01211261667087
            ],
            [
              116.350794793621,
              40.01188738332913
            ]
          ]
        ]
      },
      "id": "BLDG-006"
    },
    {
      "type": "Feature",
      "properties": {
        "layer": "BUILDING_FOOTPRINT",
        "building_id": "BLDG-007",
        "building_type": "community_service",
        "height_m": 25,
        "function_zh": "综合服务楼",
        "footprint_area_sqm": 600,
        "id": "BLDG-007",
        "source_type": "agent_inferred_from_public_data",
        "confidence": "low",
        "geometry_role": "design_proposal"
      },
      "geometry": {
        "type": "Polygon",
        "coordinates": [
          [
            [
              116.34882410881802,
              40.008909906663305
            ],
            [
              116.34917589118199,
              40.008909906663305
            ],
            [
              116.34917589118199,
              40.009090093336695
            ],
            [
              116.34882410881802,
              40.009090093336695
            ],
            [
              116.34882410881802,
              40.008909906663305
            ]
          ]
        ]
      },
      "id": "BLDG-007"
    },
    {
      "type": "Feature",
      "properties": {
        "layer": "BUILDING_FOOTPRINT",
        "building_id": "BLDG-008",
        "building_type": "ai_r_and_d",
        "height_m": 30,
        "function_zh": "开源发布厅",
        "footprint_area_sqm": 875,
        "id": "BLDG-008",
        "source_type": "agent_inferred_from_public_data",
        "confidence": "low",
        "geometry_role": "design_proposal"
      },
      "geometry": {
        "type": "Polygon",
        "coordinates": [
          [
            [
              116.344794793621,
              39.99188738332913
            ],
            [
              116.34520520637899,
              39.99188738332913
            ],
            [
              116.34520520637899,
              39.992112616670866
            ],
            [
              116.344794793621,
              39.992112616670866
            ],
            [
              116.344794793621,
              39.99188738332913
            ]
          ]
        ]
      },
      "id": "BLDG-008"
    },
    {
      "type": "Feature",
      "properties": {
        "layer": "BUILDING_FOOTPRINT",
        "building_id": "BLDG-009",
        "building_type": "incubator",
        "height_m": 35,
        "function_zh": "成果转化中心",
        "footprint_area_sqm": 875,
        "id": "BLDG-009",
        "source_type": "agent_inferred_from_public_data",
        "confidence": "low",
        "geometry_role": "design_proposal"
      },
      "geometry": {
        "type": "Polygon",
        "coordinates": [
          [
            [
              116.349794793621,
              39.99188738332913
            ],
            [
              116.35020520637899,
              39.99188738332913
            ],
            [
              116.35020520637899,
              39.992112616670866
            ],
            [
              116.349794793621,
              39.992112616670866
            ],
            [
              116.349794793621,
              39.99188738332913
            ]
          ]
        ]
      },
      "id": "BLDG-009"
    },
    {
      "type": "Feature",
      "properties": {
        "layer": "BUILDING_FOOTPRINT",
        "building_id": "BLDG-010",
        "building_type": "residential",
        "height_m": 60,
        "function_zh": "人才社区",
        "footprint_area_sqm": 1200,
        "id": "BLDG-010",
        "source_type": "agent_inferred_from_public_data",
        "confidence": "low",
        "geometry_role": "design_proposal"
      },
      "geometry": {
        "type": "Polygon",
        "coordinates": [
          [
            [
              116.34476547842401,
              39.988864859994955
            ],
            [
              116.34523452157599,
              39.988864859994955
            ],
            [
              116.34523452157599,
              39.98913514000504
            ],
            [
              116.34476547842401,
              39.98913514000504
            ],
            [
              116.34476547842401,
              39.988864859994955
            ]
          ]
        ]
      },
      "id": "BLDG-010"
    },
    {
      "type": "Feature",
      "properties": {
        "layer": "BUILDING_FOOTPRINT",
        "building_id": "BLDG-011",
        "building_type": "community_service",
        "height_m": 20,
        "function_zh": "社区服务中心",
        "footprint_area_sqm": 600,
        "id": "BLDG-011",
        "source_type": "agent_inferred_from_public_data",
        "confidence": "low",
        "geometry_role": "design_proposal"
      },
      "geometry": {
        "type": "Polygon",
        "coordinates": [
          [
            [
              116.34982410881801,
              39.9889099066633
            ],
            [
              116.35017589118198,
              39.9889099066633
            ],
            [
              116.35017589118198,
              39.98909009333669
            ],
            [
              116.34982410881801,
              39.98909009333669
            ],
            [
              116.34982410881801,
              39.9889099066633
            ]
          ]
        ]
      },
      "id": "BLDG-011"
    },
    {
      "type": "Feature",
      "properties": {
        "layer": "BUILDING_FOOTPRINT",
        "building_id": "BLDG-012",
        "building_type": "incubator",
        "height_m": 30,
        "function_zh": "近校孵化器",
        "footprint_area_sqm": 875,
        "id": "BLDG-012",
        "source_type": "agent_inferred_from_public_data",
        "confidence": "low",
        "geometry_role": "design_proposal"
      },
      "geometry": {
        "type": "Polygon",
        "coordinates": [
          [
            [
              116.344794793621,
              39.98588738332913
            ],
            [
              116.34520520637899,
              39.98588738332913
            ],
            [
              116.34520520637899,
              39.986112616670866
            ],
            [
              116.344794793621,
              39.986112616670866
            ],
            [
              116.344794793621,
              39.98588738332913
            ]
          ]
        ]
      },
      "id": "BLDG-012"
    },
    {
      "type": "Feature",
      "properties": {
        "layer": "BUILDING_FOOTPRINT",
        "building_id": "BLDG-013",
        "building_type": "retail",
        "height_m": 25,
        "function_zh": "商业配套楼",
        "footprint_area_sqm": 600,
        "id": "BLDG-013",
        "source_type": "agent_inferred_from_public_data",
        "confidence": "low",
        "geometry_role": "design_proposal"
      },
      "geometry": {
        "type": "Polygon",
        "coordinates": [
          [
            [
              116.34982410881801,
              39.9859099066633
            ],
            [
              116.35017589118198,
              39.9859099066633
            ],
            [
              116.35017589118198,
              39.98609009333669
            ],
            [
              116.34982410881801,
              39.98609009333669
            ],
            [
              116.34982410881801,
              39.9859099066633
            ]
          ]
        ]
      },
      "id": "BLDG-013"
    },
    {
      "type": "Feature",
      "properties": {
        "layer": "BUILDING_FOOTPRINT",
        "building_id": "BLDG-014",
        "building_type": "ai_r_and_d",
        "height_m": 28,
        "function_zh": "开源协作空间",
        "footprint_area_sqm": 600,
        "id": "BLDG-014",
        "source_type": "agent_inferred_from_public_data",
        "confidence": "low",
        "geometry_role": "design_proposal"
      },
      "geometry": {
        "type": "Polygon",
        "coordinates": [
          [
            [
              116.34782410881802,
              39.984909906663304
            ],
            [
              116.34817589118198,
              39.984909906663304
            ],
            [
              116.34817589118198,
              39.985090093336694
            ],
            [
              116.34782410881802,
              39.985090093336694
            ],
            [
              116.34782410881802,
              39.984909906663304
            ]
          ]
        ]
      },
      "id": "BLDG-014"
    },
    {
      "type": "Feature",
      "properties": {
        "layer": "BUILDING_FOOTPRINT",
        "building_id": "BLDG-015",
        "building_type": "ai_r_and_d",
        "height_m": 50,
        "function_zh": "智能体企业总部",
        "footprint_area_sqm": 1200,
        "id": "BLDG-015",
        "source_type": "agent_inferred_from_public_data",
        "confidence": "low",
        "geometry_role": "design_proposal"
      },
      "geometry": {
        "type": "Polygon",
        "coordinates": [
          [
            [
              116.34476547842401,
              39.94786485999496
            ],
            [
              116.34523452157599,
              39.94786485999496
            ],
            [
              116.34523452157599,
              39.94813514000504
            ],
            [
              116.34476547842401,
              39.94813514000504
            ],
            [
              116.34476547842401,
              39.94786485999496
            ]
          ]
        ]
      },
      "id": "BLDG-015"
    },
    {
      "type": "Feature",
      "properties": {
        "layer": "BUILDING_FOOTPRINT",
        "building_id": "BLDG-016",
        "building_type": "retail",
        "height_m": 35,
        "function_zh": "智能终端展示中心",
        "footprint_area_sqm": 875,
        "id": "BLDG-016",
        "source_type": "agent_inferred_from_public_data",
        "confidence": "low",
        "geometry_role": "design_proposal"
      },
      "geometry": {
        "type": "Polygon",
        "coordinates": [
          [
            [
              116.350794793621,
              39.94788738332913
            ],
            [
              116.35120520637899,
              39.94788738332913
            ],
            [
              116.35120520637899,
              39.94811261667087
            ],
            [
              116.350794793621,
              39.94811261667087
            ],
            [
              116.350794793621,
              39.94788738332913
            ]
          ]
        ]
      },
      "id": "BLDG-016"
    },
    {
      "type": "Feature",
      "properties": {
        "layer": "BUILDING_FOOTPRINT",
        "building_id": "BLDG-017",
        "building_type": "retail",
        "height_m": 30,
        "function_zh": "国际路演中心",
        "footprint_area_sqm": 875,
        "id": "BLDG-017",
        "source_type": "agent_inferred_from_public_data",
        "confidence": "low",
        "geometry_role": "design_proposal"
      },
      "geometry": {
        "type": "Polygon",
        "coordinates": [
          [
            [
              116.344794793621,
              39.94588738332913
            ],
            [
              116.34520520637899,
              39.94588738332913
            ],
            [
              116.34520520637899,
              39.94611261667087
            ],
            [
              116.344794793621,
              39.94611261667087
            ],
            [
              116.344794793621,
              39.94588738332913
            ]
          ]
        ]
      },
      "id": "BLDG-017"
    },
    {
      "type": "Feature",
      "properties": {
        "layer": "BUILDING_FOOTPRINT",
        "building_id": "BLDG-018",
        "building_type": "ai_r_and_d",
        "height_m": 40,
        "function_zh": "数据要素中心",
        "footprint_area_sqm": 875,
        "id": "BLDG-018",
        "source_type": "agent_inferred_from_public_data",
        "confidence": "low",
        "geometry_role": "design_proposal"
      },
      "geometry": {
        "type": "Polygon",
        "coordinates": [
          [
            [
              116.350794793621,
              39.94588738332913
            ],
            [
              116.35120520637899,
              39.94588738332913
            ],
            [
              116.35120520637899,
              39.94611261667087
            ],
            [
              116.350794793621,
              39.94611261667087
            ],
            [
              116.350794793621,
              39.94588738332913
            ]
          ]
        ]
      },
      "id": "BLDG-018"
    },
    {
      "type": "Feature",
      "properties": {
        "layer": "BUILDING_FOOTPRINT",
        "building_id": "BLDG-019",
        "building_type": "incubator",
        "height_m": 30,
        "function_zh": "产业服务楼",
        "footprint_area_sqm": 875,
        "id": "BLDG-019",
        "source_type": "agent_inferred_from_public_data",
        "confidence": "low",
        "geometry_role": "design_proposal"
      },
      "geometry": {
        "type": "Polygon",
        "coordinates": [
          [
            [
              116.347794793621,
              39.94488738332913
            ],
            [
              116.34820520637899,
              39.94488738332913
            ],
            [
              116.34820520637899,
              39.94511261667087
            ],
            [
              116.347794793621,
              39.94511261667087
            ],
            [
              116.347794793621,
              39.94488738332913
            ]
          ]
        ]
      },
      "id": "BLDG-019"
    },
    {
      "type": "Feature",
      "properties": {
        "layer": "BUILDING_FOOTPRINT",
        "building_id": "BLDG-020",
        "building_type": "mixed_use",
        "height_m": 45,
        "function_zh": "综合商务楼",
        "footprint_area_sqm": 875,
        "id": "BLDG-020",
        "source_type": "agent_inferred_from_public_data",
        "confidence": "low",
        "geometry_role": "design_proposal"
      },
      "geometry": {
        "type": "Polygon",
        "coordinates": [
          [
            [
              116.352794793621,
              39.94588738332913
            ],
            [
              116.35320520637899,
              39.94588738332913
            ],
            [
              116.35320520637899,
              39.94611261667087
            ],
            [
              116.352794793621,
              39.94611261667087
            ],
            [
              116.352794793621,
              39.94588738332913
            ]
          ]
        ]
      },
      "id": "BLDG-020"
    },
    {
      "type": "Feature",
      "properties": {
        "layer": "BUILDING_FOOTPRINT",
        "building_id": "BLDG-021",
        "building_type": "community_service",
        "height_m": 20,
        "function_zh": "配套服务楼",
        "footprint_area_sqm": 600,
        "id": "BLDG-021",
        "source_type": "agent_inferred_from_public_data",
        "confidence": "low",
        "geometry_role": "design_proposal"
      },
      "geometry": {
        "type": "Polygon",
        "coordinates": [
          [
            [
              116.34482410881802,
              39.944909906663305
            ],
            [
              116.34517589118198,
              39.944909906663305
            ],
            [
              116.34517589118198,
              39.945090093336695
            ],
            [
              116.34482410881802,
              39.945090093336695
            ],
            [
              116.34482410881802,
              39.944909906663305
            ]
          ]
        ]
      },
      "id": "BLDG-021"
    }
  ],
  "name": "buildings"
}
