{
  "type": "FeatureCollection",
  "features": [
    {
      "type": "Feature",
      "properties": {
        "layer": "GREEN_SPACE",
        "green_type": "heritage_park",
        "name_zh": "京张遗址公园绿地",
        "area_sqm": 3313009,
        "id": "GREEN-001",
        "source_type": "agent_inferred_from_public_data",
        "confidence": "low",
        "geometry_role": "design_proposal"
      },
      "geometry": {
        "type": "Polygon",
        "coordinates": [
          [
            [
              116.346,
              39.939
            ],
            [
              116.35,
              39.939
            ],
            [
              116.35,
              40.0265
            ],
            [
              116.346,
              40.0265
            ],
            [
              116.346,
              39.939
            ]
          ]
        ]
      },
      "id": "GREEN-001"
    },
    {
      "type": "Feature",
      "properties": {
        "layer": "GREEN_SPACE",
        "green_type": "riverside_belt",
        "name_zh": "清河绿带",
        "area_sqm": 208246,
        "id": "GREEN-002",
        "source_type": "agent_inferred_from_public_data",
        "confidence": "low",
        "geometry_role": "design_proposal"
      },
      "geometry": {
        "type": "Polygon",
        "coordinates": [
          [
            [
              116.343,
              40.024
            ],
            [
              116.354,
              40.024
            ],
            [
              116.354,
              40.026
            ],
            [
              116.343,
              40.026
            ],
            [
              116.343,
              40.024
            ]
          ]
        ]
      },
      "id": "GREEN-002"
    },
    {
      "type": "Feature",
      "properties": {
        "layer": "GREEN_SPACE",
        "green_type": "riverside_belt",
        "name_zh": "小月河绿带",
        "area_sqm": 276400,
        "id": "GREEN-003",
        "source_type": "agent_inferred_from_public_data",
        "confidence": "low",
        "geometry_role": "design_proposal"
      },
      "geometry": {
        "type": "Polygon",
        "coordinates": [
          [
            [
              116.3407,
              39.94
            ],
            [
              116.3553,
              39.94
            ],
            [
              116.3553,
              39.942
            ],
            [
              116.3407,
              39.942
            ],
            [
              116.3407,
              39.94
            ]
          ]
        ]
      },
      "id": "GREEN-003"
    },
    {
      "type": "Feature",
      "properties": {
        "layer": "GREEN_SPACE",
        "green_type": "community_park",
        "name_zh": "众智园社区公园",
        "area_sqm": 70993,
        "id": "GREEN-004",
        "source_type": "agent_inferred_from_public_data",
        "confidence": "low",
        "geometry_role": "design_proposal"
      },
      "geometry": {
        "type": "Polygon",
        "coordinates": [
          [
            [
              116.343,
              40.0075
            ],
            [
              116.346,
              40.0075
            ],
            [
              116.346,
              40.01
            ],
            [
              116.343,
              40.01
            ],
            [
              116.343,
              40.0075
            ]
          ]
        ]
      },
      "id": "GREEN-004"
    },
    {
      "type": "Feature",
      "properties": {
        "layer": "GREEN_SPACE",
        "green_type": "community_park",
        "name_zh": "AI原点社区公园",
        "area_sqm": 70993,
        "id": "GREEN-005",
        "source_type": "agent_inferred_from_public_data",
        "confidence": "low",
        "geometry_role": "design_proposal"
      },
      "geometry": {
        "type": "Polygon",
        "coordinates": [
          [
            [
              116.35,
              39.9835
            ],
            [
              116.353,
              39.9835
            ],
            [
              116.353,
              39.986
            ],
            [
              116.35,
              39.986
            ],
            [
              116.35,
              39.9835
            ]
          ]
        ]
      },
      "id": "GREEN-005"
    },
    {
      "type": "Feature",
      "properties": {
        "layer": "GREEN_SPACE",
        "green_type": "pocket_green",
        "name_zh": "大钟寺街头绿地",
        "area_sqm": 56794,
        "id": "GREEN-006",
        "source_type": "agent_inferred_from_public_data",
        "confidence": "low",
        "geometry_role": "design_proposal"
      },
      "geometry": {
        "type": "Polygon",
        "coordinates": [
          [
            [
              116.342,
              39.944
            ],
            [
              116.345,
              39.944
            ],
            [
              116.345,
              39.946
            ],
            [
              116.342,
              39.946
            ],
            [
              116.342,
              39.944
            ]
          ]
        ]
      },
      "id": "GREEN-006"
    },
    {
      "type": "Feature",
      "properties": {
        "layer": "GREEN_SPACE",
        "green_type": "pocket_green",
        "name_zh": "五道口口袋公园",
        "area_sqm": 56794,
        "id": "GREEN-007",
        "source_type": "agent_inferred_from_public_data",
        "confidence": "low",
        "geometry_role": "design_proposal"
      },
      "geometry": {
        "type": "Polygon",
        "coordinates": [
          [
            [
              116.35,
              39.989
            ],
            [
              116.353,
              39.989
            ],
            [
              116.353,
              39.991
            ],
            [
              116.35,
              39.991
            ],
            [
              116.35,
              39.989
            ]
          ]
        ]
      },
      "id": "GREEN-007"
    },
    {
      "type": "Feature",
      "properties": {
        "layer": "GREEN_SPACE",
        "green_type": "pocket_green",
        "name_zh": "清河桥头绿地",
        "area_sqm": 85192,
        "id": "GREEN-008",
        "source_type": "agent_inferred_from_public_data",
        "confidence": "low",
        "geometry_role": "design_proposal"
      },
      "geometry": {
        "type": "Polygon",
        "coordinates": [
          [
            [
              116.347,
              40.023
            ],
            [
              116.35,
              40.023
            ],
            [
              116.35,
              40.026
            ],
            [
              116.347,
              40.026
            ],
            [
              116.347,
              40.023
            ]
          ]
        ]
      },
      "id": "GREEN-008"
    }
  ],
  "name": "green_space"
}
