{
  "type": "FeatureCollection",
  "features": [
    {
      "type": "Feature",
      "properties": {
        "layer": "PHASE",
        "phase_id": "phase_near",
        "phase_name_zh": "近期（2026-2028）",
        "area_sqm": 1145354,
        "description_zh": "众智园启动区及京张遗址公园慢行缝合试点，以轻量设施和运营活动启动创新生态",
        "id": "PHASE-001",
        "source_type": "agent_inferred_from_public_data",
        "confidence": "low",
        "geometry_role": "design_proposal"
      },
      "geometry": {
        "type": "Polygon",
        "coordinates": [
          [
            [
              116.343,
              40.015
            ],
            [
              116.354,
              40.015
            ],
            [
              116.354,
              40.026
            ],
            [
              116.343,
              40.026
            ],
            [
              116.343,
              40.015
            ]
          ]
        ]
      },
      "id": "PHASE-001"
    },
    {
      "type": "Feature",
      "properties": {
        "layer": "PHASE",
        "phase_id": "phase_mid",
        "phase_name_zh": "中期（2028-2031）",
        "area_sqm": 3279879,
        "description_zh": "AI原点社区全面更新与近校成果转化街建设，补足人才服务、居住生活和开源协作空间",
        "id": "PHASE-002",
        "source_type": "agent_inferred_from_public_data",
        "confidence": "low",
        "geometry_role": "design_proposal"
      },
      "geometry": {
        "type": "Polygon",
        "coordinates": [
          [
            [
              116.342,
              39.9835
            ],
            [
              116.353,
              39.9835
            ],
            [
              116.353,
              40.015
            ],
            [
              116.342,
              40.015
            ],
            [
              116.342,
              39.9835
            ]
          ]
        ]
      },
      "id": "PHASE-002"
    },
    {
      "type": "Feature",
      "properties": {
        "layer": "PHASE",
        "phase_id": "phase_far",
        "phase_name_zh": "远期（2031-2036）",
        "area_sqm": 5475930,
        "description_zh": "大钟寺产业聚集区建设与全球AI活动周路线形成，持续治理与国际传播",
        "id": "PHASE-003",
        "source_type": "agent_inferred_from_public_data",
        "confidence": "low",
        "geometry_role": "design_proposal"
      },
      "geometry": {
        "type": "Polygon",
        "coordinates": [
          [
            [
              116.342,
              39.939
            ],
            [
              116.355,
              39.939
            ],
            [
              116.355,
              39.9835
            ],
            [
              116.342,
              39.9835
            ],
            [
              116.342,
              39.939
            ]
          ]
        ]
      },
      "id": "PHASE-003"
    }
  ],
  "name": "phasing"
}
