{
  "type": "FeatureCollection",
  "features": [
    {
      "type": "Feature",
      "properties": {
        "layer": "PUBLIC_SPACE",
        "space_type": "landmark_plaza",
        "name_zh": "众智园AI地标广场",
        "area_sqm": 56794,
        "id": "PUBLIC-001",
        "source_type": "agent_inferred_from_public_data",
        "confidence": "low",
        "geometry_role": "design_proposal"
      },
      "geometry": {
        "type": "Polygon",
        "coordinates": [
          [
            [
              116.348,
              40.014
            ],
            [
              116.351,
              40.014
            ],
            [
              116.351,
              40.016
            ],
            [
              116.348,
              40.016
            ],
            [
              116.348,
              40.014
            ]
          ]
        ]
      },
      "id": "PUBLIC-001"
    },
    {
      "type": "Feature",
      "properties": {
        "layer": "PUBLIC_SPACE",
        "space_type": "promenade",
        "name_zh": "AI原点社区开发者散步道",
        "area_sqm": 56794,
        "id": "PUBLIC-002",
        "source_type": "agent_inferred_from_public_data",
        "confidence": "low",
        "geometry_role": "design_proposal"
      },
      "geometry": {
        "type": "Polygon",
        "coordinates": [
          [
            [
              116.344,
              39.991
            ],
            [
              116.35,
              39.991
            ],
            [
              116.35,
              39.992
            ],
            [
              116.344,
              39.992
            ],
            [
              116.344,
              39.991
            ]
          ]
        ]
      },
      "id": "PUBLIC-002"
    },
    {
      "type": "Feature",
      "properties": {
        "layer": "PUBLIC_SPACE",
        "space_type": "station_plaza",
        "name_zh": "大钟寺站前广场",
        "area_sqm": 56794,
        "id": "PUBLIC-003",
        "source_type": "agent_inferred_from_public_data",
        "confidence": "low",
        "geometry_role": "design_proposal"
      },
      "geometry": {
        "type": "Polygon",
        "coordinates": [
          [
            [
              116.349,
              39.946
            ],
            [
              116.352,
              39.946
            ],
            [
              116.352,
              39.948
            ],
            [
              116.349,
              39.948
            ],
            [
              116.349,
              39.946
            ]
          ]
        ]
      },
      "id": "PUBLIC-003"
    },
    {
      "type": "Feature",
      "properties": {
        "layer": "PUBLIC_SPACE",
        "space_type": "activity_plaza",
        "name_zh": "京张遗址公园活动广场",
        "area_sqm": 56794,
        "id": "PUBLIC-004",
        "source_type": "agent_inferred_from_public_data",
        "confidence": "low",
        "geometry_role": "design_proposal"
      },
      "geometry": {
        "type": "Polygon",
        "coordinates": [
          [
            [
              116.347,
              39.978
            ],
            [
              116.35,
              39.978
            ],
            [
              116.35,
              39.98
            ],
            [
              116.347,
              39.98
            ],
            [
              116.347,
              39.978
            ]
          ]
        ]
      },
      "id": "PUBLIC-004"
    },
    {
      "type": "Feature",
      "properties": {
        "layer": "PUBLIC_SPACE",
        "space_type": "innovation_plaza",
        "name_zh": "众智园创新交往广场",
        "area_sqm": 56794,
        "id": "PUBLIC-005",
        "source_type": "agent_inferred_from_public_data",
        "confidence": "low",
        "geometry_role": "design_proposal"
      },
      "geometry": {
        "type": "Polygon",
        "coordinates": [
          [
            [
              116.346,
              40.02
            ],
            [
              116.349,
              40.02
            ],
            [
              116.349,
              40.022
            ],
            [
              116.346,
              40.022
            ],
            [
              116.346,
              40.02
            ]
          ]
        ]
      },
      "id": "PUBLIC-005"
    },
    {
      "type": "Feature",
      "properties": {
        "layer": "PUBLIC_SPACE",
        "space_type": "community_space",
        "name_zh": "AI原点社区活动空间",
        "area_sqm": 56794,
        "id": "PUBLIC-006",
        "source_type": "agent_inferred_from_public_data",
        "confidence": "low",
        "geometry_role": "design_proposal"
      },
      "geometry": {
        "type": "Polygon",
        "coordinates": [
          [
            [
              116.345,
              39.987
            ],
            [
              116.348,
              39.987
            ],
            [
              116.348,
              39.989
            ],
            [
              116.345,
              39.989
            ],
            [
              116.345,
              39.987
            ]
          ]
        ]
      },
      "id": "PUBLIC-006"
    },
    {
      "type": "Feature",
      "properties": {
        "layer": "PUBLIC_SPACE",
        "space_type": "community_space",
        "name_zh": "大钟寺社区活动空间",
        "area_sqm": 56794,
        "id": "PUBLIC-007",
        "source_type": "agent_inferred_from_public_data",
        "confidence": "low",
        "geometry_role": "design_proposal"
      },
      "geometry": {
        "type": "Polygon",
        "coordinates": [
          [
            [
              116.343,
              39.945
            ],
            [
              116.346,
              39.945
            ],
            [
              116.346,
              39.947
            ],
            [
              116.343,
              39.947
            ],
            [
              116.343,
              39.945
            ]
          ]
        ]
      },
      "id": "PUBLIC-007"
    },
    {
      "type": "Feature",
      "properties": {
        "layer": "PUBLIC_SPACE",
        "space_type": "waterfront_plaza",
        "name_zh": "清河滨水步道广场",
        "area_sqm": 56794,
        "id": "PUBLIC-008",
        "source_type": "agent_inferred_from_public_data",
        "confidence": "low",
        "geometry_role": "design_proposal"
      },
      "geometry": {
        "type": "Polygon",
        "coordinates": [
          [
            [
              116.348,
              40.022
            ],
            [
              116.351,
              40.022
            ],
            [
              116.351,
              40.024
            ],
            [
              116.348,
              40.024
            ],
            [
              116.348,
              40.022
            ]
          ]
        ]
      },
      "id": "PUBLIC-008"
    }
  ],
  "name": "public_space"
}
