{
  "type": "FeatureCollection",
  "features": [
    {
      "type": "Feature",
      "properties": {
        "layer": "ROAD_CENTERLINE",
        "road_class": "arterial",
        "name_zh": "学院路",
        "length_m": 9712,
        "id": "ROAD-001",
        "source_type": "agent_inferred_from_public_data",
        "confidence": "low",
        "geometry_role": "design_proposal"
      },
      "geometry": {
        "type": "LineString",
        "coordinates": [
          [
            116.35,
            39.939
          ],
          [
            116.35,
            40.0265
          ]
        ]
      },
      "id": "ROAD-001"
    },
    {
      "type": "Feature",
      "properties": {
        "layer": "ROAD_CENTERLINE",
        "road_class": "expressway",
        "name_zh": "北五环路",
        "length_m": 1245,
        "id": "ROAD-002",
        "source_type": "agent_inferred_from_public_data",
        "confidence": "low",
        "geometry_role": "design_proposal"
      },
      "geometry": {
        "type": "LineString",
        "coordinates": [
          [
            116.3407,
            40.005
          ],
          [
            116.3553,
            40.005
          ]
        ]
      },
      "id": "ROAD-002"
    },
    {
      "type": "Feature",
      "properties": {
        "layer": "ROAD_CENTERLINE",
        "road_class": "secondary",
        "name_zh": "知春路",
        "length_m": 1245,
        "id": "ROAD-003",
        "source_type": "agent_inferred_from_public_data",
        "confidence": "low",
        "geometry_role": "design_proposal"
      },
      "geometry": {
        "type": "LineString",
        "coordinates": [
          [
            116.3407,
            39.97
          ],
          [
            116.3553,
            39.97
          ]
        ]
      },
      "id": "ROAD-003"
    },
    {
      "type": "Feature",
      "properties": {
        "layer": "ROAD_CENTERLINE",
        "road_class": "secondary",
        "name_zh": "清华东路",
        "length_m": 1245,
        "id": "ROAD-004",
        "source_type": "agent_inferred_from_public_data",
        "confidence": "low",
        "geometry_role": "design_proposal"
      },
      "geometry": {
        "type": "LineString",
        "coordinates": [
          [
            116.3407,
            39.988
          ],
          [
            116.3553,
            39.988
          ]
        ]
      },
      "id": "ROAD-004"
    },
    {
      "type": "Feature",
      "properties": {
        "layer": "ROAD_CENTERLINE",
        "road_class": "secondary",
        "name_zh": "大钟寺东路",
        "length_m": 1776,
        "id": "ROAD-005",
        "source_type": "agent_inferred_from_public_data",
        "confidence": "low",
        "geometry_role": "design_proposal"
      },
      "geometry": {
        "type": "LineString",
        "coordinates": [
          [
            116.352,
            39.944
          ],
          [
            116.352,
            39.96
          ]
        ]
      },
      "id": "ROAD-005"
    },
    {
      "type": "Feature",
      "properties": {
        "layer": "ROAD_CENTERLINE",
        "road_class": "branch",
        "name_zh": "众智园一路",
        "length_m": 938,
        "id": "ROAD-006",
        "source_type": "agent_inferred_from_public_data",
        "confidence": "low",
        "geometry_role": "design_proposal"
      },
      "geometry": {
        "type": "LineString",
        "coordinates": [
          [
            116.343,
            40.015
          ],
          [
            116.354,
            40.015
          ]
        ]
      },
      "id": "ROAD-006"
    },
    {
      "type": "Feature",
      "properties": {
        "layer": "ROAD_CENTERLINE",
        "road_class": "branch",
        "name_zh": "众智园二路",
        "length_m": 938,
        "id": "ROAD-007",
        "source_type": "agent_inferred_from_public_data",
        "confidence": "low",
        "geometry_role": "design_proposal"
      },
      "geometry": {
        "type": "LineString",
        "coordinates": [
          [
            116.343,
            40.01
          ],
          [
            116.354,
            40.01
          ]
        ]
      },
      "id": "ROAD-007"
    },
    {
      "type": "Feature",
      "properties": {
        "layer": "ROAD_CENTERLINE",
        "road_class": "branch",
        "name_zh": "原点社区路",
        "length_m": 938,
        "id": "ROAD-008",
        "source_type": "agent_inferred_from_public_data",
        "confidence": "low",
        "geometry_role": "design_proposal"
      },
      "geometry": {
        "type": "LineString",
        "coordinates": [
          [
            116.342,
            39.989
          ],
          [
            116.353,
            39.989
          ]
        ]
      },
      "id": "ROAD-008"
    },
    {
      "type": "Feature",
      "properties": {
        "layer": "ROAD_CENTERLINE",
        "road_class": "greenway",
        "name_zh": "京张遗址公园绿道",
        "length_m": 9712,
        "id": "ROAD-009",
        "source_type": "agent_inferred_from_public_data",
        "confidence": "low",
        "geometry_role": "design_proposal"
      },
      "geometry": {
        "type": "LineString",
        "coordinates": [
          [
            116.348,
            39.939
          ],
          [
            116.348,
            40.0265
          ]
        ]
      },
      "id": "ROAD-009"
    },
    {
      "type": "Feature",
      "properties": {
        "layer": "ROAD_CENTERLINE",
        "road_class": "pedestrian",
        "name_zh": "原点社区步行道",
        "length_m": 938,
        "id": "ROAD-010",
        "source_type": "agent_inferred_from_public_data",
        "confidence": "low",
        "geometry_role": "design_proposal"
      },
      "geometry": {
        "type": "LineString",
        "coordinates": [
          [
            116.342,
            39.985
          ],
          [
            116.353,
            39.985
          ]
        ]
      },
      "id": "ROAD-010"
    },
    {
      "type": "Feature",
      "properties": {
        "layer": "ROAD_CENTERLINE",
        "road_class": "transit_connection",
        "name_zh": "大钟寺站慢行道",
        "length_m": 1109,
        "id": "ROAD-011",
        "source_type": "agent_inferred_from_public_data",
        "confidence": "low",
        "geometry_role": "design_proposal"
      },
      "geometry": {
        "type": "LineString",
        "coordinates": [
          [
            116.342,
            39.947
          ],
          [
            116.355,
            39.947
          ]
        ]
      },
      "id": "ROAD-011"
    },
    {
      "type": "Feature",
      "properties": {
        "layer": "ROAD_CENTERLINE",
        "road_class": "greenway",
        "name_zh": "清河滨河慢行道",
        "length_m": 938,
        "id": "ROAD-012",
        "source_type": "agent_inferred_from_public_data",
        "confidence": "low",
        "geometry_role": "design_proposal"
      },
      "geometry": {
        "type": "LineString",
        "coordinates": [
          [
            116.343,
            40.025
          ],
          [
            116.354,
            40.025
          ]
        ]
      },
      "id": "ROAD-012"
    },
    {
      "type": "Feature",
      "properties": {
        "layer": "ROAD_CENTERLINE",
        "road_class": "greenway",
        "name_zh": "小月河滨河慢行道",
        "length_m": 1245,
        "id": "ROAD-013",
        "source_type": "agent_inferred_from_public_data",
        "confidence": "low",
        "geometry_role": "design_proposal"
      },
      "geometry": {
        "type": "LineString",
        "coordinates": [
          [
            116.3407,
            39.941
          ],
          [
            116.3553,
            39.941
          ]
        ]
      },
      "id": "ROAD-013"
    }
  ],
  "name": "roads"
}
