{
  "type": "FeatureCollection",
  "features": [
    {
      "type": "Feature",
      "properties": {
        "layer": "SITE_BOUNDARY",
        "scope_id": "overall_design_area",
        "boundary_status": "provisional",
        "source_id": "DATA-SRC-PROVISIONAL-BOUNDARIES-20260605",
        "name_zh": "京张智脉总体设计范围",
        "area_sqm": 11389650,
        "id": "SITE-001",
        "source_type": "agent_inferred_from_public_data",
        "confidence": "medium",
        "geometry_role": "provisional_constraint",
        "official_boundary": false
      },
      "geometry": {
        "type": "Polygon",
        "coordinates": [
          [
            [
              116.3407,
              39.939
            ],
            [
              116.3553,
              39.939
            ],
            [
              116.3553,
              39.965
            ],
            [
              116.3533,
              39.99
            ],
            [
              116.3553,
              40.0265
            ],
            [
              116.3427,
              40.0265
            ],
            [
              116.3417,
              40.006
            ],
            [
              116.3397,
              39.975
            ],
            [
              116.3407,
              39.939
            ]
          ]
        ]
      },
      "id": "SITE-001"
    }
  ],
  "name": "site_boundary"
}
