{
  "type": "FeatureCollection",
  "name": "jingzhang_for_life_concept_carriers",
  "features": [
    {
      "type": "Feature",
      "id": "BLDG-001",
      "properties": {
        "id": "BLDG-001",
        "layer": "BUILDING_FOOTPRINT",
        "source_type": "agent_generated_design",
        "confidence": "medium",
        "geometry_role": "design_proposal",
        "name_zh": "公共叙事与内容工坊A",
        "label_en": "Culture and public storytelling A",
        "life_support_domain": "文",
        "building_type": "cultural",
        "renewal_action": "pending_survey_typology_reference",
        "design_status": "concept_carrier_not_existing_building_claim",
        "area_sqm_declared": 26736.576
      },
      "geometry": {
        "type": "Polygon",
        "coordinates": [
          [
            [
              116.34386520000001,
              39.9438125
            ],
            [
              116.34386520000001,
              39.9459125
            ],
            [
              116.3452068,
              39.9459125
            ],
            [
              116.3452068,
              39.9438125
            ],
            [
              116.34386520000001,
              39.9438125
            ]
          ]
        ]
      }
    },
    {
      "type": "Feature",
      "id": "BLDG-002",
      "properties": {
        "id": "BLDG-002",
        "layer": "BUILDING_FOOTPRINT",
        "source_type": "agent_generated_design",
        "confidence": "medium",
        "geometry_role": "design_proposal",
        "name_zh": "公共叙事与内容工坊B",
        "label_en": "Culture and public storytelling B",
        "life_support_domain": "文",
        "building_type": "cultural",
        "renewal_action": "pending_survey_typology_reference",
        "design_status": "concept_carrier_not_existing_building_claim",
        "area_sqm_declared": 26735.668
      },
      "geometry": {
        "type": "Polygon",
        "coordinates": [
          [
            [
              116.3491692,
              39.9460875
            ],
            [
              116.3491692,
              39.948187499999996
            ],
            [
              116.3505108,
              39.948187499999996
            ],
            [
              116.3505108,
              39.9460875
            ],
            [
              116.3491692,
              39.9460875
            ]
          ]
        ]
      }
    },
    {
      "type": "Feature",
      "id": "BLDG-003",
      "properties": {
        "id": "BLDG-003",
        "layer": "BUILDING_FOOTPRINT",
        "source_type": "agent_generated_design",
        "confidence": "medium",
        "geometry_role": "design_proposal",
        "name_zh": "稳定居住与家庭转换站A",
        "label_en": "Stable housing and family transition A",
        "life_support_domain": "住",
        "building_type": "residential",
        "renewal_action": "pending_survey_typology_reference",
        "design_status": "concept_carrier_not_existing_building_claim",
        "area_sqm_declared": 26731.858
      },
      "geometry": {
        "type": "Polygon",
        "coordinates": [
          [
            [
              116.3446452,
              39.9560625
            ],
            [
              116.3446452,
              39.9581625
            ],
            [
              116.34598679999999,
              39.9581625
            ],
            [
              116.34598679999999,
              39.9560625
            ],
            [
              116.3446452,
              39.9560625
            ]
          ]
        ]
      }
    },
    {
      "type": "Feature",
      "id": "BLDG-004",
      "properties": {
        "id": "BLDG-004",
        "layer": "BUILDING_FOOTPRINT",
        "source_type": "agent_generated_design",
        "confidence": "medium",
        "geometry_role": "design_proposal",
        "name_zh": "稳定居住与家庭转换站B",
        "label_en": "Stable housing and family transition B",
        "life_support_domain": "住",
        "building_type": "residential",
        "renewal_action": "pending_survey_typology_reference",
        "design_status": "concept_carrier_not_existing_building_claim",
        "area_sqm_declared": 26730.95
      },
      "geometry": {
        "type": "Polygon",
        "coordinates": [
          [
            [
              116.3499492,
              39.9583375
            ],
            [
              116.3499492,
              39.9604375
            ],
            [
              116.35129079999999,
              39.9604375
            ],
            [
              116.35129079999999,
              39.9583375
            ],
            [
              116.3499492,
              39.9583375
            ]
          ]
        ]
      }
    },
    {
      "type": "Feature",
      "id": "BLDG-005",
      "properties": {
        "id": "BLDG-005",
        "layer": "BUILDING_FOOTPRINT",
        "source_type": "agent_generated_design",
        "confidence": "medium",
        "geometry_role": "design_proposal",
        "name_zh": "全龄学习与作业支持院A",
        "label_en": "Lifelong learning and study support A",
        "life_support_domain": "学",
        "building_type": "education",
        "renewal_action": "pending_survey_typology_reference",
        "design_status": "concept_carrier_not_existing_building_claim",
        "area_sqm_declared": 26727.149
      },
      "geometry": {
        "type": "Polygon",
        "coordinates": [
          [
            [
              116.34386520000001,
              39.9683125
            ],
            [
              116.34386520000001,
              39.9704125
            ],
            [
              116.3452068,
              39.9704125
            ],
            [
              116.3452068,
              39.9683125
            ],
            [
              116.34386520000001,
              39.9683125
            ]
          ]
        ]
      }
    },
    {
      "type": "Feature",
      "id": "BLDG-006",
      "properties": {
        "id": "BLDG-006",
        "layer": "BUILDING_FOOTPRINT",
        "source_type": "agent_generated_design",
        "confidence": "medium",
        "geometry_role": "design_proposal",
        "name_zh": "全龄学习与作业支持院B",
        "label_en": "Lifelong learning and study support B",
        "life_support_domain": "学",
        "building_type": "education",
        "renewal_action": "pending_survey_typology_reference",
        "design_status": "concept_carrier_not_existing_building_claim",
        "area_sqm_declared": 26726.24
      },
      "geometry": {
        "type": "Polygon",
        "coordinates": [
          [
            [
              116.3491692,
              39.9705875
            ],
            [
              116.3491692,
              39.9726875
            ],
            [
              116.3505108,
              39.9726875
            ],
            [
              116.3505108,
              39.9705875
            ],
            [
              116.3491692,
              39.9705875
            ]
          ]
        ]
      }
    },
    {
      "type": "Feature",
      "id": "BLDG-007",
      "properties": {
        "id": "BLDG-007",
        "layer": "BUILDING_FOOTPRINT",
        "source_type": "agent_generated_design",
        "confidence": "medium",
        "geometry_role": "design_proposal",
        "name_zh": "托育照护与喘息服务站A",
        "label_en": "Childcare, eldercare and respite A",
        "life_support_domain": "养",
        "building_type": "community_service",
        "renewal_action": "pending_survey_typology_reference",
        "design_status": "concept_carrier_not_existing_building_claim",
        "area_sqm_declared": 26722.429
      },
      "geometry": {
        "type": "Polygon",
        "coordinates": [
          [
            [
              116.3446452,
              39.9805625
            ],
            [
              116.3446452,
              39.982662499999996
            ],
            [
              116.34598679999999,
              39.982662499999996
            ],
            [
              116.34598679999999,
              39.9805625
            ],
            [
              116.3446452,
              39.9805625
            ]
          ]
        ]
      }
    },
    {
      "type": "Feature",
      "id": "BLDG-008",
      "properties": {
        "id": "BLDG-008",
        "layer": "BUILDING_FOOTPRINT",
        "source_type": "agent_generated_design",
        "confidence": "medium",
        "geometry_role": "design_proposal",
        "name_zh": "托育照护与喘息服务站B",
        "label_en": "Childcare, eldercare and respite B",
        "life_support_domain": "养",
        "building_type": "community_service",
        "renewal_action": "pending_survey_typology_reference",
        "design_status": "concept_carrier_not_existing_building_claim",
        "area_sqm_declared": 26721.52
      },
      "geometry": {
        "type": "Polygon",
        "coordinates": [
          [
            [
              116.3499492,
              39.982837499999995
            ],
            [
              116.3499492,
              39.984937499999994
            ],
            [
              116.35129079999999,
              39.984937499999994
            ],
            [
              116.35129079999999,
              39.982837499999995
            ],
            [
              116.3499492,
              39.982837499999995
            ]
          ]
        ]
      }
    },
    {
      "type": "Feature",
      "id": "BLDG-009",
      "properties": {
        "id": "BLDG-009",
        "layer": "BUILDING_FOOTPRINT",
        "source_type": "agent_generated_design",
        "confidence": "medium",
        "geometry_role": "design_proposal",
        "name_zh": "基层健康与康复协作点A",
        "label_en": "Primary health and rehabilitation A",
        "life_support_domain": "医",
        "building_type": "community_service",
        "renewal_action": "pending_survey_typology_reference",
        "design_status": "concept_carrier_not_existing_building_claim",
        "area_sqm_declared": 26717.717
      },
      "geometry": {
        "type": "Polygon",
        "coordinates": [
          [
            [
              116.34386520000001,
              39.9928125
            ],
            [
              116.34386520000001,
              39.9949125
            ],
            [
              116.3452068,
              39.9949125
            ],
            [
              116.3452068,
              39.9928125
            ],
            [
              116.34386520000001,
              39.9928125
            ]
          ]
        ]
      }
    },
    {
      "type": "Feature",
      "id": "BLDG-010",
      "properties": {
        "id": "BLDG-010",
        "layer": "BUILDING_FOOTPRINT",
        "source_type": "agent_generated_design",
        "confidence": "medium",
        "geometry_role": "design_proposal",
        "name_zh": "基层健康与康复协作点B",
        "label_en": "Primary health and rehabilitation B",
        "life_support_domain": "医",
        "building_type": "community_service",
        "renewal_action": "pending_survey_typology_reference",
        "design_status": "concept_carrier_not_existing_building_claim",
        "area_sqm_declared": 26716.807
      },
      "geometry": {
        "type": "Polygon",
        "coordinates": [
          [
            [
              116.3491692,
              39.9950875
            ],
            [
              116.3491692,
              39.997187499999995
            ],
            [
              116.3505108,
              39.997187499999995
            ],
            [
              116.3505108,
              39.9950875
            ],
            [
              116.3491692,
              39.9950875
            ]
          ]
        ]
      }
    },
    {
      "type": "Feature",
      "id": "BLDG-011",
      "properties": {
        "id": "BLDG-011",
        "layer": "BUILDING_FOOTPRINT",
        "source_type": "agent_generated_design",
        "confidence": "medium",
        "geometry_role": "design_proposal",
        "name_zh": "无门槛运动与自然客厅A",
        "label_en": "Inclusive recreation and nature room A",
        "life_support_domain": "游",
        "building_type": "mixed_use",
        "renewal_action": "pending_survey_typology_reference",
        "design_status": "concept_carrier_not_existing_building_claim",
        "area_sqm_declared": 26712.994
      },
      "geometry": {
        "type": "Polygon",
        "coordinates": [
          [
            [
              116.3446452,
              40.0050625
            ],
            [
              116.3446452,
              40.0071625
            ],
            [
              116.34598679999999,
              40.0071625
            ],
            [
              116.34598679999999,
              40.0050625
            ],
            [
              116.3446452,
              40.0050625
            ]
          ]
        ]
      }
    },
    {
      "type": "Feature",
      "id": "BLDG-012",
      "properties": {
        "id": "BLDG-012",
        "layer": "BUILDING_FOOTPRINT",
        "source_type": "agent_generated_design",
        "confidence": "medium",
        "geometry_role": "design_proposal",
        "name_zh": "无门槛运动与自然客厅B",
        "label_en": "Inclusive recreation and nature room B",
        "life_support_domain": "游",
        "building_type": "mixed_use",
        "renewal_action": "pending_survey_typology_reference",
        "design_status": "concept_carrier_not_existing_building_claim",
        "area_sqm_declared": 26712.084
      },
      "geometry": {
        "type": "Polygon",
        "coordinates": [
          [
            [
              116.3499492,
              40.0073375
            ],
            [
              116.3499492,
              40.0094375
            ],
            [
              116.35129079999999,
              40.0094375
            ],
            [
              116.35129079999999,
              40.0073375
            ],
            [
              116.3499492,
              40.0073375
            ]
          ]
        ]
      }
    },
    {
      "type": "Feature",
      "id": "BLDG-013",
      "properties": {
        "id": "BLDG-013",
        "layer": "BUILDING_FOOTPRINT",
        "source_type": "agent_generated_design",
        "confidence": "medium",
        "geometry_role": "design_proposal",
        "name_zh": "再学习与开放造物坊A",
        "label_en": "Reskilling and open making A",
        "life_support_domain": "业",
        "building_type": "incubator",
        "renewal_action": "pending_survey_typology_reference",
        "design_status": "concept_carrier_not_existing_building_claim",
        "area_sqm_declared": 26708.28
      },
      "geometry": {
        "type": "Polygon",
        "coordinates": [
          [
            [
              116.34386520000001,
              40.0173125
            ],
            [
              116.34386520000001,
              40.0194125
            ],
            [
              116.3452068,
              40.0194125
            ],
            [
              116.3452068,
              40.0173125
            ],
            [
              116.34386520000001,
              40.0173125
            ]
          ]
        ]
      }
    },
    {
      "type": "Feature",
      "id": "BLDG-014",
      "properties": {
        "id": "BLDG-014",
        "layer": "BUILDING_FOOTPRINT",
        "source_type": "agent_generated_design",
        "confidence": "medium",
        "geometry_role": "design_proposal",
        "name_zh": "再学习与开放造物坊B",
        "label_en": "Reskilling and open making B",
        "life_support_domain": "业",
        "building_type": "incubator",
        "renewal_action": "pending_survey_typology_reference",
        "design_status": "concept_carrier_not_existing_building_claim",
        "area_sqm_declared": 26707.37
      },
      "geometry": {
        "type": "Polygon",
        "coordinates": [
          [
            [
              116.3491692,
              40.0195875
            ],
            [
              116.3491692,
              40.0216875
            ],
            [
              116.3505108,
              40.0216875
            ],
            [
              116.3505108,
              40.0195875
            ],
            [
              116.3491692,
              40.0195875
            ]
          ]
        ]
      }
    }
  ]
}
