{
  "type": "FeatureCollection",
  "name": "jingzhang_for_life_concept_phasing",
  "features": [
    {
      "type": "Feature",
      "id": "PHASE-001",
      "properties": {
        "id": "PHASE-001",
        "layer": "PHASE",
        "source_type": "agent_generated_design",
        "confidence": "medium",
        "geometry_role": "design_proposal",
        "phase": "phase_1",
        "name_zh": "先补生活底线与连续步行",
        "label_en": "Life baseline and continuous access first",
        "implementation_status": "concept_sequence_pending_approval_operator_and_10y_budget",
        "area_sqm_declared": 4232697.16
      },
      "geometry": {
        "type": "Polygon",
        "coordinates": [
          [
            [
              116.3407,
              39.939
            ],
            [
              116.3398736111111,
              39.96875
            ],
            [
              116.355,
              39.96875
            ],
            [
              116.3553,
              39.965
            ],
            [
              116.3553,
              39.939
            ],
            [
              116.3407,
              39.939
            ]
          ]
        ]
      }
    },
    {
      "type": "Feature",
      "id": "PHASE-002",
      "properties": {
        "id": "PHASE-002",
        "layer": "PHASE",
        "source_type": "agent_generated_design",
        "confidence": "medium",
        "geometry_role": "design_proposal",
        "phase": "phase_2",
        "name_zh": "再建运营制度与三座公共地标",
        "label_en": "Operating institutions and three civic landmarks",
        "implementation_status": "concept_sequence_pending_approval_operator_and_10y_budget",
        "area_sqm_declared": 3853523.42
      },
      "geometry": {
        "type": "Polygon",
        "coordinates": [
          [
            [
              116.3533,
              39.99
            ],
            [
              116.355,
              39.96875
            ],
            [
              116.3398736111111,
              39.96875
            ],
            [
              116.3397,
              39.975
            ],
            [
              116.34121612903226,
              39.9985
            ],
            [
              116.35376575342467,
              39.9985
            ],
            [
              116.3533,
              39.99
            ]
          ]
        ]
      }
    },
    {
      "type": "Feature",
      "id": "PHASE-003",
      "properties": {
        "id": "PHASE-003",
        "layer": "PHASE",
        "source_type": "agent_generated_design",
        "confidence": "medium",
        "geometry_role": "design_proposal",
        "phase": "phase_3",
        "name_zh": "验证后扩展，不成熟则退出",
        "label_en": "Scale after validation; retire what fails",
        "implementation_status": "concept_sequence_pending_approval_operator_and_10y_budget",
        "area_sqm_declared": 3326616.036
      },
      "geometry": {
        "type": "Polygon",
        "coordinates": [
          [
            [
              116.35376575342467,
              39.9985
            ],
            [
              116.34121612903226,
              39.9985
            ],
            [
              116.3417,
              40.006
            ],
            [
              116.3427,
              40.0265
            ],
            [
              116.3553,
              40.0265
            ],
            [
              116.35376575342467,
              39.9985
            ]
          ]
        ]
      }
    }
  ]
}
