{
 "type": "FeatureCollection",
 "name": "public_space",
 "features": [
  {
   "type": "Feature",
   "id": "PS-LM00",
   "properties": {
    "id": "PS-LM00",
    "layer": "PUBLIC_SPACE",
    "scenario_type": "ai_landmark",
    "label_zh": "智算中枢",
    "landmark_id": "CMP-CORE",
    "official_boundary": false,
    "geometry_role": "design_proposal",
    "confidence": "low",
    "source_type": "agent_generated_design"
   },
   "geometry": {
    "type": "Polygon",
    "coordinates": [
     [
      [
       116.34809984813648,
       40.016589897769215
      ],
      [
       116.34809684948519,
       40.016905027726004
      ],
      [
       116.34890016476604,
       40.016909543972076
      ],
      [
       116.34890315972285,
       40.01659441396517
      ],
      [
       116.34809984813648,
       40.016589897769215
      ]
     ]
    ]
   }
  },
  {
   "type": "Feature",
   "id": "PS-LM01",
   "properties": {
    "id": "PS-LM01",
    "layer": "PUBLIC_SPACE",
    "scenario_type": "ai_landmark",
    "label_zh": "边缘智能站",
    "landmark_id": "EDGE-STATION",
    "official_boundary": false,
    "geometry_role": "design_proposal",
    "confidence": "low",
    "source_type": "agent_generated_design"
   },
   "geometry": {
    "type": "Polygon",
    "coordinates": [
     [
      [
       116.34710000852613,
       39.98834018445467
      ],
      [
       116.34709700827665,
       39.98865531588942
      ],
      [
       116.34789999239575,
       39.98865983643263
      ],
      [
       116.34790298895597,
       39.98834470494772
      ],
      [
       116.34710000852613,
       39.98834018445467
      ]
     ]
    ]
   }
  },
  {
   "type": "Feature",
   "id": "PS-LM02",
   "properties": {
    "id": "PS-LM02",
    "layer": "PUBLIC_SPACE",
    "scenario_type": "ai_landmark",
    "label_zh": "算电协同园",
    "landmark_id": "SYNERGY-PARK",
    "official_boundary": false,
    "geometry_role": "design_proposal",
    "confidence": "low",
    "source_type": "agent_generated_design"
   },
   "geometry": {
    "type": "Polygon",
    "coordinates": [
     [
      [
       116.34810024431096,
       39.94676031913452
      ],
      [
       116.34809725306309,
       39.947075452899306
      ],
      [
       116.34889975100282,
       39.94707996264082
      ],
      [
       116.34890273856907,
       39.94676482882597
      ],
      [
       116.34810024431096,
       39.94676031913452
      ]
     ]
    ]
   }
  },
  {
   "type": "Feature",
   "id": "PS-SN00",
   "properties": {
    "id": "PS-SN00",
    "layer": "PUBLIC_SPACE",
    "scenario_type": "scenario_node",
    "label_zh": "AI场景节点",
    "official_boundary": false,
    "geometry_role": "design_proposal",
    "confidence": "low",
    "source_type": "agent_generated_design"
   },
   "geometry": {
    "type": "Polygon",
    "coordinates": [
     [
      [
       116.34725585608051,
       40.00469979813456
      ],
      [
       116.34725070994484,
       40.00524013446282
      ],
      [
       116.34795334467769,
       40.00524408983991
      ],
      [
       116.34795848527489,
       40.00470375343639
      ],
      [
       116.34725585608051,
       40.00469979813456
      ]
     ]
    ]
   }
  },
  {
   "type": "Feature",
   "id": "PS-SN01",
   "properties": {
    "id": "PS-SN01",
    "layer": "PUBLIC_SPACE",
    "scenario_type": "scenario_node",
    "label_zh": "AI场景节点",
    "official_boundary": false,
    "geometry_role": "design_proposal",
    "confidence": "low",
    "source_type": "agent_generated_design"
   },
   "geometry": {
    "type": "Polygon",
    "coordinates": [
     [
      [
       116.34748269949533,
       39.99295082703987
      ],
      [
       116.34747541465836,
       39.99371630508088
      ],
      [
       116.34847064663688,
       39.993721904014386
      ],
      [
       116.34847792036494,
       39.992956425822456
      ],
      [
       116.34748269949533,
       39.99295082703987
      ]
     ]
    ]
   }
  },
  {
   "type": "Feature",
   "id": "PS-SN02",
   "properties": {
    "id": "PS-SN02",
    "layer": "PUBLIC_SPACE",
    "scenario_type": "scenario_node",
    "label_zh": "AI场景节点",
    "official_boundary": false,
    "geometry_role": "design_proposal",
    "confidence": "low",
    "source_type": "agent_generated_design"
   },
   "geometry": {
    "type": "Polygon",
    "coordinates": [
     [
      [
       116.3476614158697,
       39.981201025056606
      ],
      [
       116.34765199488085,
       39.982191645727944
      ],
      [
       116.34893972583369,
       39.9821988860973
      ],
      [
       116.34894912822875,
       39.981208265173365
      ],
      [
       116.3476614158697,
       39.981201025056606
      ]
     ]
    ]
   }
  },
  {
   "type": "Feature",
   "id": "PS-SN03",
   "properties": {
    "id": "PS-SN03",
    "layer": "PUBLIC_SPACE",
    "scenario_type": "scenario_node",
    "label_zh": "AI场景节点",
    "official_boundary": false,
    "geometry_role": "design_proposal",
    "confidence": "low",
    "source_type": "agent_generated_design"
   },
   "geometry": {
    "type": "Polygon",
    "coordinates": [
     [
      [
       116.34823998063582,
       39.969790779101814
      ],
      [
       116.34823484860273,
       39.97033111880019
      ],
      [
       116.34893712591627,
       39.970335065367905
      ],
      [
       116.34894225242053,
       39.969794725594404
      ],
      [
       116.34823998063582,
       39.969790779101814
      ]
     ]
    ]
   }
  },
  {
   "type": "Feature",
   "id": "PS-SN04",
   "properties": {
    "id": "PS-SN04",
    "layer": "PUBLIC_SPACE",
    "scenario_type": "scenario_node",
    "label_zh": "AI场景节点",
    "official_boundary": false,
    "geometry_role": "design_proposal",
    "confidence": "low",
    "source_type": "agent_generated_design"
   },
   "geometry": {
    "type": "Polygon",
    "coordinates": [
     [
      [
       116.3483826859043,
       39.95804032737105
      ],
      [
       116.34837542009757,
       39.95880581017343
      ],
      [
       116.34937014598638,
       39.95881139735294
      ],
      [
       116.34937740070352,
       39.958045914399925
      ],
      [
       116.3483826859043,
       39.95804032737105
      ]
     ]
    ]
   }
  }
 ]
}