{
  "type": "FeatureCollection",
  "name": "jingzhang_everyday_building_prototypes",
  "metadata": {
    "status": "provisional_concept_only",
    "official_boundary": false,
    "coordinate_reference_system": "EPSG:4326",
    "usage_note": "Conceptual / provisional; not an official redline."
  },
  "features": [
    {
      "type": "Feature",
      "id": "BLDG-001",
      "properties": {
        "id": "BLDG-001",
        "layer": "BUILDING_FOOTPRINT",
        "source_type": "agent_inferred_from_public_data",
        "confidence": "medium",
        "geometry_role": "design_proposal",
        "official_boundary": false,
        "source_id": "DATA-SRC-PROVISIONAL-BOUNDARIES-20260605",
        "name_zh": "共生客厅原型",
        "update_type": "retain_first"
      },
      "geometry": {
        "type": "Polygon",
        "coordinates": [
          [
            [
              116.346,
              39.987
            ],
            [
              116.349,
              39.987
            ],
            [
              116.349,
              39.989
            ],
            [
              116.346,
              39.989
            ],
            [
              116.346,
              39.987
            ]
          ]
        ]
      }
    },
    {
      "type": "Feature",
      "id": "BLDG-002",
      "properties": {
        "id": "BLDG-002",
        "layer": "BUILDING_FOOTPRINT",
        "source_type": "agent_inferred_from_public_data",
        "confidence": "medium",
        "geometry_role": "design_proposal",
        "official_boundary": false,
        "source_id": "DATA-SRC-PROVISIONAL-BOUNDARIES-20260605",
        "name_zh": "证据工坊原型",
        "update_type": "low_impact_renovation"
      },
      "geometry": {
        "type": "Polygon",
        "coordinates": [
          [
            [
              116.347,
              40.014
            ],
            [
              116.35,
              40.014
            ],
            [
              116.35,
              40.016
            ],
            [
              116.347,
              40.016
            ],
            [
              116.347,
              40.014
            ]
          ]
        ]
      }
    },
    {
      "type": "Feature",
      "id": "BLDG-003",
      "properties": {
        "id": "BLDG-003",
        "layer": "BUILDING_FOOTPRINT",
        "source_type": "agent_inferred_from_public_data",
        "confidence": "medium",
        "geometry_role": "design_proposal",
        "official_boundary": false,
        "source_id": "DATA-SRC-PROVISIONAL-BOUNDARIES-20260605",
        "name_zh": "首程驿站原型",
        "update_type": "reversible_test"
      },
      "geometry": {
        "type": "Polygon",
        "coordinates": [
          [
            [
              116.346,
              39.946
            ],
            [
              116.35,
              39.946
            ],
            [
              116.35,
              39.948
            ],
            [
              116.346,
              39.948
            ],
            [
              116.346,
              39.946
            ]
          ]
        ]
      }
    }
  ]
}
