{
  "type": "FeatureCollection",
  "name": "jingzhang_everyday_constraints",
  "metadata": {
    "status": "provisional_concept_only",
    "official_boundary": false,
    "coordinate_reference_system": "EPSG:4326",
    "usage_note": "Conceptual / provisional; not an official redline."
  },
  "features": [
    {
      "type": "Feature",
      "id": "CON-001",
      "properties": {
        "id": "CON-001",
        "layer": "REGULATORY_CONTROL",
        "source_type": "agent_inferred_from_public_data",
        "confidence": "medium",
        "geometry_role": "analysis_helper",
        "official_boundary": false,
        "source_id": "DATA-SRC-PROVISIONAL-BOUNDARIES-20260605",
        "name_zh": "临时边界约束",
        "constraint_type": "provisional_boundary"
      },
      "geometry": {
        "type": "Polygon",
        "coordinates": [
          [
            [
              116.3407,
              39.939
            ],
            [
              116.3553,
              39.939
            ],
            [
              116.3553,
              39.965
            ],
            [
              116.3533,
              39.99
            ],
            [
              116.3553,
              40.0265
            ],
            [
              116.3427,
              40.0265
            ],
            [
              116.3417,
              40.006
            ],
            [
              116.3397,
              39.975
            ],
            [
              116.3407,
              39.939
            ]
          ]
        ]
      }
    }
  ]
}
