{
  "type": "FeatureCollection",
  "name": "jingzhang_everyday_blue_green",
  "metadata": {
    "status": "provisional_concept_only",
    "official_boundary": false,
    "coordinate_reference_system": "EPSG:4326",
    "usage_note": "Conceptual / provisional; not an official redline."
  },
  "features": [
    {
      "type": "Feature",
      "id": "GREEN-001",
      "properties": {
        "id": "GREEN-001",
        "layer": "GREEN_SPACE",
        "source_type": "agent_inferred_from_public_data",
        "confidence": "medium",
        "geometry_role": "design_proposal",
        "official_boundary": false,
        "source_id": "DATA-SRC-PROVISIONAL-BOUNDARIES-20260605",
        "name_zh": "遗址公园—社区—园区蓝绿联系",
        "design_status": "conceptual"
      },
      "geometry": {
        "type": "Polygon",
        "coordinates": [
          [
            [
              116.345,
              39.948
            ],
            [
              116.346,
              39.948
            ],
            [
              116.348,
              40.016
            ],
            [
              116.347,
              40.016
            ],
            [
              116.345,
              39.948
            ]
          ]
        ]
      }
    }
  ]
}
