{
  "type": "FeatureCollection",
  "name": "jingzhang_everyday_public_route",
  "metadata": {
    "status": "provisional_concept_only",
    "official_boundary": false,
    "coordinate_reference_system": "EPSG:4326",
    "usage_note": "Conceptual / provisional; not an official redline."
  },
  "features": [
    {
      "type": "Feature",
      "id": "JZ-ROUTE-001",
      "properties": {
        "id": "JZ-ROUTE-001",
        "layer": "ROAD_CENTERLINE",
        "source_type": "agent_inferred_from_public_data",
        "confidence": "medium",
        "geometry_role": "design_proposal",
        "official_boundary": false,
        "source_id": "DATA-SRC-PROVISIONAL-BOUNDARIES-20260605",
        "name_zh": "三站五段公共体验回路",
        "route_type": "schematic_connection"
      },
      "geometry": {
        "type": "LineString",
        "coordinates": [
          [
            116.3485,
            39.94692
          ],
          [
            116.3478,
            39.9665
          ],
          [
            116.3475,
            39.9885
          ],
          [
            116.3485,
            40.01675
          ]
        ]
      }
    }
  ]
}
