{
  "type": "FeatureCollection",
  "name": "jingzhang_everyday_site_boundary",
  "metadata": {
    "status": "provisional_concept_only",
    "official_boundary": false,
    "coordinate_reference_system": "EPSG:4326",
    "usage_note": "Conceptual / provisional; not an official redline."
  },
  "features": [
    {
      "type": "Feature",
      "id": "SITE-001",
      "properties": {
        "id": "SITE-001",
        "layer": "SITE_BOUNDARY",
        "source_type": "agent_inferred_from_public_data",
        "confidence": "medium",
        "geometry_role": "provisional_constraint",
        "official_boundary": false,
        "source_id": "DATA-SRC-PROVISIONAL-BOUNDARIES-20260605",
        "name_zh": "总体设计范围粗略替代边界",
        "boundary_precision": "provisional_rough",
        "usage_note": "不得作为 official redline、审批依据或精确面积依据。"
      },
      "geometry": {
        "type": "Polygon",
        "coordinates": [
          [
            [
              116.3407,
              39.939
            ],
            [
              116.3553,
              39.939
            ],
            [
              116.3553,
              39.965
            ],
            [
              116.3533,
              39.99
            ],
            [
              116.3553,
              40.0265
            ],
            [
              116.3427,
              40.0265
            ],
            [
              116.3417,
              40.006
            ],
            [
              116.3397,
              39.975
            ],
            [
              116.3407,
              39.939
            ]
          ]
        ]
      }
    }
  ]
}
