{
  "type": "FeatureCollection",
  "name": "phasing_open_rail",
  "features": [
    {
      "type": "Feature",
      "id": "PHASE-001",
      "properties": {
        "id": "PHASE-001",
        "layer": "PHASE",
        "source_type": "agent_generated_design",
        "confidence": "medium",
        "geometry_role": "design_proposal",
        "phase": "phase_1",
        "name_zh": "近期(2026-2029): 开源主线南段+AI原点社区+大钟寺",
        "period_zh": "2026-2029",
        "delivery_note_zh": "概念建议, 供专业团队深化",
        "area_sqm_declared": 7489837.522
      },
      "geometry": {
        "type": "Polygon",
        "coordinates": [
          [
            [
              116.3533,
              39.99
            ],
            [
              116.3553,
              39.965
            ],
            [
              116.3553,
              39.9390107
            ],
            [
              116.3406997,
              39.9390104
            ],
            [
              116.3397,
              39.975
            ],
            [
              116.340894,
              39.9935104
            ],
            [
              116.3534923,
              39.9935107
            ],
            [
              116.3533,
              39.99
            ]
          ]
        ]
      }
    },
    {
      "type": "Feature",
      "id": "PHASE-002",
      "properties": {
        "id": "PHASE-002",
        "layer": "PHASE",
        "source_type": "agent_generated_design",
        "confidence": "medium",
        "geometry_role": "design_proposal",
        "phase": "phase_2",
        "name_zh": "中期(2029-2032): 廊道北段+众智园南片",
        "period_zh": "2029-2032",
        "delivery_note_zh": "概念建议, 供专业团队深化",
        "area_sqm_declared": 2256161.857
      },
      "geometry": {
        "type": "Polygon",
        "coordinates": [
          [
            [
              116.3534923,
              39.9935107
            ],
            [
              116.340894,
              39.9935104
            ],
            [
              116.3417,
              40.006
            ],
            [
              116.3420175,
              40.0125105
            ],
            [
              116.3545332,
              40.0125107
            ],
            [
              116.3534923,
              39.9935107
            ]
          ]
        ]
      }
    },
    {
      "type": "Feature",
      "id": "PHASE-003",
      "properties": {
        "id": "PHASE-003",
        "layer": "PHASE",
        "source_type": "agent_generated_design",
        "confidence": "medium",
        "geometry_role": "design_proposal",
        "phase": "phase_3",
        "name_zh": "远期(2032-2035): 众智园北片+清河滨水门户",
        "period_zh": "2032-2035",
        "delivery_note_zh": "概念建议, 供专业团队深化",
        "area_sqm_declared": 1665367.599
      },
      "geometry": {
        "type": "Polygon",
        "coordinates": [
          [
            [
              116.3427,
              40.0265
            ],
            [
              116.3553,
              40.0265
            ],
            [
              116.3545332,
              40.0125107
            ],
            [
              116.3420175,
              40.0125105
            ],
            [
              116.3427,
              40.0265
            ]
          ]
        ]
      }
    }
  ]
}