{
  "type": "FeatureCollection",
  "name": "roads_open_rail",
  "features": [
    {
      "type": "Feature",
      "id": "ROAD-001",
      "properties": {
        "id": "ROAD-001",
        "layer": "ROAD_CENTERLINE",
        "source_type": "agent_generated_design",
        "confidence": "medium",
        "geometry_role": "design_proposal",
        "road_class": "arterial",
        "name_zh": "西直门外大街(界面)"
      },
      "geometry": {
        "type": "LineString",
        "coordinates": [
          [
            116.3406722,
            39.9400002
          ],
          [
            116.3553,
            39.9400001
          ]
        ]
      }
    },
    {
      "type": "Feature",
      "id": "ROAD-002",
      "properties": {
        "id": "ROAD-002",
        "layer": "ROAD_CENTERLINE",
        "source_type": "agent_generated_design",
        "confidence": "medium",
        "geometry_role": "design_proposal",
        "road_class": "arterial",
        "name_zh": "北三环路(大钟寺界面)"
      },
      "geometry": {
        "type": "LineString",
        "coordinates": [
          [
            116.3404112,
            39.9494002
          ],
          [
            116.3553,
            39.9494001
          ]
        ]
      }
    },
    {
      "type": "Feature",
      "id": "ROAD-003",
      "properties": {
        "id": "ROAD-003",
        "layer": "ROAD_CENTERLINE",
        "source_type": "agent_generated_design",
        "confidence": "medium",
        "geometry_role": "design_proposal",
        "road_class": "arterial",
        "name_zh": "知春路"
      },
      "geometry": {
        "type": "LineString",
        "coordinates": [
          [
            116.3397,
            39.9750001
          ],
          [
            116.3545002,
            39.9750002
          ]
        ]
      }
    },
    {
      "type": "Feature",
      "id": "ROAD-004",
      "properties": {
        "id": "ROAD-004",
        "layer": "ROAD_CENTERLINE",
        "source_type": "agent_generated_design",
        "confidence": "medium",
        "geometry_role": "design_proposal",
        "road_class": "arterial",
        "name_zh": "北四环路"
      },
      "geometry": {
        "type": "LineString",
        "coordinates": [
          [
            116.340345,
            39.9850002
          ],
          [
            116.3537001,
            39.9850002
          ]
        ]
      }
    },
    {
      "type": "Feature",
      "id": "ROAD-005",
      "properties": {
        "id": "ROAD-005",
        "layer": "ROAD_CENTERLINE",
        "source_type": "agent_generated_design",
        "confidence": "medium",
        "geometry_role": "design_proposal",
        "road_class": "secondary",
        "name_zh": "成府路"
      },
      "geometry": {
        "type": "LineString",
        "coordinates": [
          [
            116.3407966,
            39.9920002
          ],
          [
            116.3534096,
            39.9920002
          ]
        ]
      }
    },
    {
      "type": "Feature",
      "id": "ROAD-006",
      "properties": {
        "id": "ROAD-006",
        "layer": "ROAD_CENTERLINE",
        "source_type": "agent_generated_design",
        "confidence": "medium",
        "geometry_role": "design_proposal",
        "road_class": "secondary",
        "name_zh": "清华东路"
      },
      "geometry": {
        "type": "LineString",
        "coordinates": [
          [
            116.3411837,
            39.9980002
          ],
          [
            116.3537382,
            39.9980002
          ]
        ]
      }
    },
    {
      "type": "Feature",
      "id": "ROAD-007",
      "properties": {
        "id": "ROAD-007",
        "layer": "ROAD_CENTERLINE",
        "source_type": "agent_generated_design",
        "confidence": "medium",
        "geometry_role": "design_proposal",
        "road_class": "arterial",
        "name_zh": "北五环路(界面)"
      },
      "geometry": {
        "type": "LineString",
        "coordinates": [
          [
            116.3426756,
            40.0260003
          ],
          [
            116.3552726,
            40.0260001
          ]
        ]
      }
    },
    {
      "type": "Feature",
      "id": "ROAD-008",
      "properties": {
        "id": "ROAD-008",
        "layer": "ROAD_CENTERLINE",
        "source_type": "agent_generated_design",
        "confidence": "medium",
        "geometry_role": "design_proposal",
        "road_class": "arterial",
        "name_zh": "荷清路-大钟寺东路(西界面)"
      },
      "geometry": {
        "type": "LineString",
        "coordinates": [
          [
            116.3415,
            39.9395
          ],
          [
            116.341,
            39.975
          ],
          [
            116.3418,
            40.006
          ],
          [
            116.343,
            40.026
          ]
        ]
      }
    },
    {
      "type": "Feature",
      "id": "ROAD-009",
      "properties": {
        "id": "ROAD-009",
        "layer": "ROAD_CENTERLINE",
        "source_type": "agent_generated_design",
        "confidence": "medium",
        "geometry_role": "design_proposal",
        "road_class": "arterial",
        "name_zh": "西土城路-学院路(东界面)"
      },
      "geometry": {
        "type": "LineString",
        "coordinates": [
          [
            116.3548,
            39.9395
          ],
          [
            116.3548,
            39.965
          ],
          [
            116.3528,
            39.99
          ],
          [
            116.3548,
            40.026
          ]
        ]
      }
    },
    {
      "type": "Feature",
      "id": "ROAD-010",
      "properties": {
        "id": "ROAD-010",
        "layer": "ROAD_CENTERLINE",
        "source_type": "agent_generated_design",
        "confidence": "medium",
        "geometry_role": "design_proposal",
        "road_class": "greenway",
        "name_zh": "开源步道·京张遗址慢行主线",
        "design_note_zh": "百年铁轨转化为步行+骑行主线, 串联六站厅"
      },
      "geometry": {
        "type": "LineString",
        "coordinates": [
          [
            116.347,
            39.9390002
          ],
          [
            116.34745,
            39.952
          ],
          [
            116.3479,
            39.965
          ],
          [
            116.3483,
            39.978
          ],
          [
            116.3486,
            39.992
          ],
          [
            116.3488,
            40.006
          ],
          [
            116.349,
            40.02
          ],
          [
            116.3492,
            40.0265
          ]
        ]
      }
    },
    {
      "type": "Feature",
      "id": "ROAD-011",
      "properties": {
        "id": "ROAD-011",
        "layer": "ROAD_CENTERLINE",
        "source_type": "agent_generated_design",
        "confidence": "medium",
        "geometry_role": "design_proposal",
        "road_class": "greenway",
        "name_zh": "清河滨水慢行线"
      },
      "geometry": {
        "type": "LineString",
        "coordinates": [
          [
            116.343,
            40.0222
          ],
          [
            116.3545,
            40.0222
          ]
        ]
      }
    },
    {
      "type": "Feature",
      "id": "ROAD-012",
      "properties": {
        "id": "ROAD-012",
        "layer": "ROAD_CENTERLINE",
        "source_type": "agent_generated_design",
        "confidence": "medium",
        "geometry_role": "design_proposal",
        "road_class": "greenway",
        "name_zh": "小月河滨水慢行线"
      },
      "geometry": {
        "type": "MultiLineString",
        "coordinates": [
          [
            [
              116.3539,
              39.9445
            ],
            [
              116.3539001,
              39.9825009
            ]
          ],
          [
            [
              116.3539,
              40.0009543
            ],
            [
              116.3539,
              40.0075
            ]
          ]
        ]
      }
    }
  ]
}