{
  "type": "FeatureCollection",
  "name": "jingzhang_concept_public_building_nodes",
  "features": [
    {
      "type": "Feature",
      "id": "BLDG-001",
      "properties": {
        "id": "BLDG-001",
        "layer": "BUILDING_FOOTPRINT",
        "source_type": "agent_generated_design",
        "confidence": "medium",
        "geometry_role": "design_proposal",
        "design_status": "conceptual_suggestion",
        "name_zh": "众智园共享技术节点",
        "name_en": "Zhongzhiyuan Shared Technology Node",
        "intervention": "adaptive_reuse_or_infill_subject_to_review",
        "usage_note": "公共贡献节点概念测试，不构成具体建筑拆改留结论。"
      },
      "geometry": {
        "type": "Polygon",
        "coordinates": [
          [
            [
              116.3482,
              40.011
            ],
            [
              116.3482,
              40.013
            ],
            [
              116.3494,
              40.013
            ],
            [
              116.3494,
              40.011
            ],
            [
              116.3482,
              40.011
            ]
          ]
        ]
      }
    },
    {
      "type": "Feature",
      "id": "BLDG-002",
      "properties": {
        "id": "BLDG-002",
        "layer": "BUILDING_FOOTPRINT",
        "source_type": "agent_generated_design",
        "confidence": "medium",
        "geometry_role": "design_proposal",
        "design_status": "conceptual_suggestion",
        "name_zh": "AI原点公共学习节点",
        "name_en": "AI Origin Public Learning Node",
        "intervention": "adaptive_reuse_or_infill_subject_to_review",
        "usage_note": "公共贡献节点概念测试，不构成具体建筑拆改留结论。"
      },
      "geometry": {
        "type": "Polygon",
        "coordinates": [
          [
            [
              116.347,
              39.986
            ],
            [
              116.347,
              39.988
            ],
            [
              116.3482,
              39.988
            ],
            [
              116.3482,
              39.986
            ],
            [
              116.347,
              39.986
            ]
          ]
        ]
      }
    },
    {
      "type": "Feature",
      "id": "BLDG-003",
      "properties": {
        "id": "BLDG-003",
        "layer": "BUILDING_FOOTPRINT",
        "source_type": "agent_generated_design",
        "confidence": "medium",
        "geometry_role": "design_proposal",
        "design_status": "conceptual_suggestion",
        "name_zh": "大钟寺AI生活公共服务节点",
        "name_en": "Dazhongsi AI Life Service Node",
        "intervention": "adaptive_reuse_or_infill_subject_to_review",
        "usage_note": "公共贡献节点概念测试，不构成具体建筑拆改留结论。"
      },
      "geometry": {
        "type": "Polygon",
        "coordinates": [
          [
            [
              116.349,
              39.948
            ],
            [
              116.349,
              39.95
            ],
            [
              116.3504,
              39.95
            ],
            [
              116.3504,
              39.948
            ],
            [
              116.349,
              39.948
            ]
          ]
        ]
      }
    }
  ]
}
