{
  "type": "FeatureCollection",
  "name": "jingzhang_concept_green_corridor",
  "features": [
    {
      "type": "Feature",
      "id": "GREEN-001",
      "properties": {
        "id": "GREEN-001",
        "layer": "GREEN_SPACE",
        "source_type": "agent_generated_design",
        "confidence": "medium",
        "geometry_role": "design_proposal",
        "design_status": "conceptual_suggestion",
        "name_zh": "京张连续蓝绿生活廊道概念范围",
        "name_en": "Conceptual continuous Jing-Zhang blue-green living corridor",
        "usage_note": "用于检验遮荫、雨洪、休憩和慢行连续性，不代表法定绿地边界。"
      },
      "geometry": {
        "type": "Polygon",
        "coordinates": [
          [
            [
              116.344,
              39.94
            ],
            [
              116.344,
              40.026
            ],
            [
              116.3474,
              40.026
            ],
            [
              116.3474,
              39.94
            ],
            [
              116.344,
              39.94
            ]
          ]
        ]
      }
    }
  ]
}
