{
  "type": "FeatureCollection",
  "name": "jingzhang_concept_land_use",
  "features": [
    {
      "type": "Feature",
      "id": "LU-001",
      "properties": {
        "id": "LU-001",
        "layer": "LAND_USE",
        "source_type": "agent_generated_design",
        "confidence": "medium",
        "geometry_role": "design_proposal",
        "design_status": "conceptual_suggestion",
        "name_zh": "AI创新、公共服务、生活与蓝绿空间综合用地概念分区",
        "name_en": "Conceptual mixed AI innovation, civic, living and blue-green district",
        "land_use_code": "08",
        "usage_note": "覆盖当前临时总体设计范围，仅表达概念性功能统筹，不构成法定用地分类。"
      },
      "geometry": {
        "type": "Polygon",
        "coordinates": [
          [
            [
              116.3407,
              39.939
            ],
            [
              116.3553,
              39.939
            ],
            [
              116.3553,
              39.965
            ],
            [
              116.3533,
              39.99
            ],
            [
              116.3553,
              40.0265
            ],
            [
              116.3427,
              40.0265
            ],
            [
              116.3417,
              40.006
            ],
            [
              116.3397,
              39.975
            ],
            [
              116.3407,
              39.939
            ]
          ]
        ]
      }
    }
  ]
}
