{
  "type": "FeatureCollection",
  "name": "jingzhang_concept_mobility_links",
  "features": [
    {
      "type": "Feature",
      "id": "ROAD-001",
      "properties": {
        "id": "ROAD-001",
        "layer": "ROAD_CENTERLINE",
        "source_type": "agent_generated_design",
        "confidence": "medium",
        "geometry_role": "design_proposal",
        "design_status": "conceptual_suggestion",
        "name_zh": "纵向公共交通与慢行复合联系概念线",
        "name_en": "Conceptual longitudinal public-transport and active-mobility link",
        "mode": "walk_cycle_transit",
        "usage_note": "概念走向，不构成道路、桥隧或市政工程线位。"
      },
      "geometry": {
        "type": "LineString",
        "coordinates": [
          [
            116.346,
            39.943
          ],
          [
            116.347,
            39.972
          ],
          [
            116.348,
            40.001
          ],
          [
            116.3485,
            40.023
          ]
        ]
      }
    }
  ]
}
