{
 "type": "FeatureCollection",
 "features": [
  {
   "type": "Feature",
   "id": "BLD-K1-01",
   "geometry": {
    "type": "Polygon",
    "coordinates": [
     [
      [
       116.34430888736931,
       40.01026903601465
      ],
      [
       116.34430371698235,
       40.010809371503996
      ],
      [
       116.34535775416545,
       40.01081533045578
      ],
      [
       116.34536291624241,
       40.010274994853056
      ],
      [
       116.34430888736931,
       40.01026903601465
      ]
     ]
    ]
   },
   "properties": {
    "id": "BLD-K1-01",
    "layer": "BUILDING_FOOTPRINT",
    "source_type": "agent_generated_design",
    "confidence": "low",
    "geometry_role": "design_proposal",
    "building_type": "ai_r_and_d",
    "drr_category": "new_build",
    "floors_concept": 12,
    "name_zh": "众智园AI全栈研发楼",
    "note_zh": "概念建议体量与层数，非审定指标；拆改留须以现状建筑普查为准（待正式数据补齐）",
    "area_sqm_declared": 5400.0,
    "official_boundary": false,
    "boundary_precision": "provisional_rough"
   }
  },
  {
   "type": "Feature",
   "id": "BLD-K1-02",
   "geometry": {
    "type": "Polygon",
    "coordinates": [
     [
      [
       116.34424967703164,
       40.016455984292044
      ],
      [
       116.34424450504565,
       40.016996319196366
      ],
      [
       116.34529863739586,
       40.017002279446444
      ],
      [
       116.34530380106928,
       40.01646194442873
      ],
      [
       116.34424967703164,
       40.016455984292044
      ]
     ]
    ]
   },
   "properties": {
    "id": "BLD-K1-02",
    "layer": "BUILDING_FOOTPRINT",
    "source_type": "agent_generated_design",
    "confidence": "low",
    "geometry_role": "design_proposal",
    "building_type": "lab",
    "drr_category": "new_build",
    "floors_concept": 8,
    "name_zh": "国家级平台实验楼",
    "note_zh": "概念建议体量与层数，非审定指标；拆改留须以现状建筑普查为准（待正式数据补齐）",
    "area_sqm_declared": 5400.0,
    "official_boundary": false,
    "boundary_precision": "provisional_rough"
   }
  },
  {
   "type": "Feature",
   "id": "BLD-K1-03",
   "geometry": {
    "type": "Polygon",
    "coordinates": [
     [
      [
       116.34419044838202,
       40.02264292587074
      ],
      [
       116.34418527479649,
       40.02318326019002
      ],
      [
       116.34523950234319,
       40.02318922173863
      ],
      [
       116.3452446676136,
       40.02264888730593
      ],
      [
       116.34419044838202,
       40.02264292587074
      ]
     ]
    ]
   },
   "properties": {
    "id": "BLD-K1-03",
    "layer": "BUILDING_FOOTPRINT",
    "source_type": "agent_generated_design",
    "confidence": "low",
    "geometry_role": "design_proposal",
    "building_type": "incubator",
    "drr_category": "new_build",
    "floors_concept": 6,
    "name_zh": "加速器组团",
    "note_zh": "概念建议体量与层数，非审定指标；拆改留须以现状建筑普查为准（待正式数据补齐）",
    "area_sqm_declared": 5400.0,
    "official_boundary": false,
    "boundary_precision": "provisional_rough"
   }
  },
  {
   "type": "Feature",
   "id": "BLD-K1-04",
   "geometry": {
    "type": "Polygon",
    "coordinates": [
     [
      [
       116.34803364474357,
       40.01029005060571
      ],
      [
       116.34802850372272,
       40.01083038649488
      ],
      [
       116.34908254201196,
       40.01083631157268
      ],
      [
       116.34908767472278,
       40.01029597557078
      ],
      [
       116.34803364474357,
       40.01029005060571
      ]
     ]
    ]
   },
   "properties": {
    "id": "BLD-K1-04",
    "layer": "BUILDING_FOOTPRINT",
    "source_type": "agent_generated_design",
    "confidence": "low",
    "geometry_role": "design_proposal",
    "building_type": "mixed_use",
    "drr_category": "new_build",
    "floors_concept": 10,
    "name_zh": "创新服务综合体",
    "note_zh": "概念建议体量与层数，非审定指标；拆改留须以现状建筑普查为准（待正式数据补齐）",
    "area_sqm_declared": 5400.0,
    "official_boundary": false,
    "boundary_precision": "provisional_rough"
   }
  },
  {
   "type": "Feature",
   "id": "BLD-K1-05",
   "geometry": {
    "type": "Polygon",
    "coordinates": [
     [
      [
       116.34797477070137,
       40.01647700346167
      ],
      [
       116.34796962809057,
       40.01701733876589
      ],
      [
       116.3490237615473,
       40.017023265134604
      ],
      [
       116.34902889584548,
       40.016482929717625
      ],
      [
       116.34797477070137,
       40.01647700346167
      ]
     ]
    ]
   },
   "properties": {
    "id": "BLD-K1-05",
    "layer": "BUILDING_FOOTPRINT",
    "source_type": "agent_generated_design",
    "confidence": "low",
    "geometry_role": "design_proposal",
    "building_type": "ai_r_and_d",
    "drr_category": "new_build",
    "floors_concept": 12,
    "name_zh": "众智园AI全栈研发楼",
    "note_zh": "概念建议体量与层数，非审定指标；拆改留须以现状建筑普查为准（待正式数据补齐）",
    "area_sqm_declared": 5400.0,
    "official_boundary": false,
    "boundary_precision": "provisional_rough"
   }
  },
  {
   "type": "Feature",
   "id": "BLD-K1-06",
   "geometry": {
    "type": "Polygon",
    "coordinates": [
     [
      [
       116.3479158784512,
       40.02266394961972
      ],
      [
       116.34791073424995,
       40.02320428433897
      ],
      [
       116.34896496290355,
       40.023210211998844
      ],
      [
       116.34897009878966,
       40.022669877166805
      ],
      [
       116.3479158784512,
       40.02266394961972
      ]
     ]
    ]
   },
   "properties": {
    "id": "BLD-K1-06",
    "layer": "BUILDING_FOOTPRINT",
    "source_type": "agent_generated_design",
    "confidence": "low",
    "geometry_role": "design_proposal",
    "building_type": "lab",
    "drr_category": "new_build",
    "floors_concept": 8,
    "name_zh": "国家级平台实验楼",
    "note_zh": "概念建议体量与层数，非审定指标；拆改留须以现状建筑普查为准（待正式数据补齐）",
    "area_sqm_declared": 5400.0,
    "official_boundary": false,
    "boundary_precision": "provisional_rough"
   }
  },
  {
   "type": "Feature",
   "id": "BLD-K1-07",
   "geometry": {
    "type": "Polygon",
    "coordinates": [
     [
      [
       116.35175840601863,
       40.01031094549412
      ],
      [
       116.35175329436403,
       40.01085128178084
      ],
      [
       116.35280733375313,
       40.010857172984544
      ],
      [
       116.35281243709767,
       40.01031683658573
      ],
      [
       116.35175840601863,
       40.01031094549412
      ]
     ]
    ]
   },
   "properties": {
    "id": "BLD-K1-07",
    "layer": "BUILDING_FOOTPRINT",
    "source_type": "agent_generated_design",
    "confidence": "low",
    "geometry_role": "design_proposal",
    "building_type": "incubator",
    "drr_category": "new_build",
    "floors_concept": 6,
    "name_zh": "加速器组团",
    "note_zh": "概念建议体量与层数，非审定指标；拆改留须以现状建筑普查为准（待正式数据补齐）",
    "area_sqm_declared": 5400.0,
    "official_boundary": false,
    "boundary_precision": "provisional_rough"
   }
  },
  {
   "type": "Feature",
   "id": "BLD-K1-08",
   "geometry": {
    "type": "Polygon",
    "coordinates": [
     [
      [
       116.35169986827327,
       40.01649790290252
      ],
      [
       116.3516947550378,
       40.017038238604385
      ],
      [
       116.35274888959475,
       40.01704413109163
      ],
      [
       116.35275399451757,
       40.01650379527767
      ],
      [
       116.35169986827327,
       40.01649790290252
      ]
     ]
    ]
   },
   "properties": {
    "id": "BLD-K1-08",
    "layer": "BUILDING_FOOTPRINT",
    "source_type": "agent_generated_design",
    "confidence": "low",
    "geometry_role": "design_proposal",
    "building_type": "mixed_use",
    "drr_category": "new_build",
    "floors_concept": 10,
    "name_zh": "创新服务综合体",
    "note_zh": "概念建议体量与层数，非审定指标；拆改留须以现状建筑普查为准（待正式数据补齐）",
    "area_sqm_declared": 5400.0,
    "official_boundary": false,
    "boundary_precision": "provisional_rough"
   }
  },
  {
   "type": "Feature",
   "id": "BLD-K1-09",
   "geometry": {
    "type": "Polygon",
    "coordinates": [
     [
      [
       116.35164131242392,
       40.02268485361387
      ],
      [
       116.35163619760706,
       40.02322518873082
      ],
      [
       116.35269042736128,
       40.02323108250184
      ],
      [
       116.35269553386296,
       40.02269074727276
      ],
      [
       116.35164131242392,
       40.02268485361387
      ]
     ]
    ]
   },
   "properties": {
    "id": "BLD-K1-09",
    "layer": "BUILDING_FOOTPRINT",
    "source_type": "agent_generated_design",
    "confidence": "low",
    "geometry_role": "design_proposal",
    "building_type": "ai_r_and_d",
    "drr_category": "new_build",
    "floors_concept": 12,
    "name_zh": "众智园AI全栈研发楼",
    "note_zh": "概念建议体量与层数，非审定指标；拆改留须以现状建筑普查为准（待正式数据补齐）",
    "area_sqm_declared": 5400.0,
    "official_boundary": false,
    "boundary_precision": "provisional_rough"
   }
  },
  {
   "type": "Feature",
   "id": "BLD-K2-01",
   "geometry": {
    "type": "Polygon",
    "coordinates": [
     [
      [
       116.34330927164707,
       39.9848523060137
      ],
      [
       116.34330409803357,
       39.98539264377161
      ],
      [
       116.34435774430641,
       39.98539860868833
      ],
      [
       116.34436290962049,
       39.984858270816936
      ],
      [
       116.34330927164707,
       39.9848523060137
      ]
     ]
    ]
   },
   "properties": {
    "id": "BLD-K2-01",
    "layer": "BUILDING_FOOTPRINT",
    "source_type": "agent_generated_design",
    "confidence": "low",
    "geometry_role": "design_proposal",
    "building_type": "incubator",
    "drr_category": "new_build",
    "floors_concept": 8,
    "name_zh": "成果孵化楼",
    "note_zh": "概念建议体量与层数，非审定指标；拆改留须以现状建筑普查为准（待正式数据补齐）",
    "area_sqm_declared": 5400.0,
    "official_boundary": false,
    "boundary_precision": "provisional_rough"
   }
  },
  {
   "type": "Feature",
   "id": "BLD-K2-02",
   "geometry": {
    "type": "Polygon",
    "coordinates": [
     [
      [
       116.34327715755127,
       39.988206100118376
      ],
      [
       116.34327198307062,
       39.988746437559186
      ],
      [
       116.34432568086181,
       39.988752403180484
      ],
      [
       116.34433084704162,
       39.98821206562615
      ],
      [
       116.34327715755127,
       39.988206100118376
      ]
     ]
    ]
   },
   "properties": {
    "id": "BLD-K2-02",
    "layer": "BUILDING_FOOTPRINT",
    "source_type": "agent_generated_design",
    "confidence": "low",
    "geometry_role": "design_proposal",
    "building_type": "ai_r_and_d",
    "drr_category": "new_build",
    "floors_concept": 10,
    "name_zh": "高校联合研发楼",
    "note_zh": "概念建议体量与层数，非审定指标；拆改留须以现状建筑普查为准（待正式数据补齐）",
    "area_sqm_declared": 5400.0,
    "official_boundary": false,
    "boundary_precision": "provisional_rough"
   }
  },
  {
   "type": "Feature",
   "id": "BLD-K2-03",
   "geometry": {
    "type": "Polygon",
    "coordinates": [
     [
      [
       116.3432450380729,
       39.99155989225495
      ],
      [
       116.34323986272497,
       39.99210022937869
      ],
      [
       116.34429361204316,
       39.99210619570462
      ],
      [
       116.34429877908886,
       39.991565858467354
      ],
      [
       116.3432450380729,
       39.99155989225495
      ]
     ]
    ]
   },
   "properties": {
    "id": "BLD-K2-03",
    "layer": "BUILDING_FOOTPRINT",
    "source_type": "agent_generated_design",
    "confidence": "low",
    "geometry_role": "design_proposal",
    "building_type": "talent_apartment",
    "drr_category": "new_build",
    "floors_concept": 16,
    "name_zh": "人才公寓",
    "note_zh": "概念建议体量与层数，非审定指标；拆改留须以现状建筑普查为准（待正式数据补齐）",
    "area_sqm_declared": 5400.0,
    "official_boundary": false,
    "boundary_precision": "provisional_rough"
   }
  },
  {
   "type": "Feature",
   "id": "BLD-K2-04",
   "geometry": {
    "type": "Polygon",
    "coordinates": [
     [
      [
       116.34700725827538,
       39.984873198686216
      ],
      [
       116.34700211379067,
       39.985413536841705
      ],
      [
       116.34805576116267,
       39.98541946814556
      ],
      [
       116.34806089734788,
       39.984879129877214
      ],
      [
       116.34700725827538,
       39.984873198686216
      ]
     ]
    ]
   },
   "properties": {
    "id": "BLD-K2-04",
    "layer": "BUILDING_FOOTPRINT",
    "source_type": "agent_generated_design",
    "confidence": "low",
    "geometry_role": "design_proposal",
    "building_type": "mixed_use",
    "drr_category": "new_build",
    "floors_concept": 8,
    "name_zh": "五道口混合功能体",
    "note_zh": "概念建议体量与层数，非审定指标；拆改留须以现状建筑普查为准（待正式数据补齐）",
    "area_sqm_declared": 5400.0,
    "official_boundary": false,
    "boundary_precision": "provisional_rough"
   }
  },
  {
   "type": "Feature",
   "id": "BLD-K2-05",
   "geometry": {
    "type": "Polygon",
    "coordinates": [
     [
      [
       116.3469753249905,
       39.9882269952587
      ],
      [
       116.34697017964355,
       39.98876733309714
      ],
      [
       116.34802387853412,
       39.98877326510158
      ],
      [
       116.3480290155802,
       39.98823292715028
      ],
      [
       116.3469753249905,
       39.9882269952587
      ]
     ]
    ]
   },
   "properties": {
    "id": "BLD-K2-05",
    "layer": "BUILDING_FOOTPRINT",
    "source_type": "agent_generated_design",
    "confidence": "low",
    "geometry_role": "design_proposal",
    "building_type": "incubator",
    "drr_category": "new_build",
    "floors_concept": 8,
    "name_zh": "成果孵化楼",
    "note_zh": "概念建议体量与层数，非审定指标；拆改留须以现状建筑普查为准（待正式数据补齐）",
    "area_sqm_declared": 5400.0,
    "official_boundary": false,
    "boundary_precision": "provisional_rough"
   }
  },
  {
   "type": "Feature",
   "id": "BLD-K2-06",
   "geometry": {
    "type": "Polygon",
    "coordinates": [
     [
      [
       116.34694338635336,
       39.991580789863335
      ],
      [
       116.34693824014404,
       39.99212112738472
      ],
      [
       116.34799199056178,
       39.992127060089835
      ],
      [
       116.34799712846888,
       39.99158672245555
      ],
      [
       116.34694338635336,
       39.991580789863335
      ]
     ]
    ]
   },
   "properties": {
    "id": "BLD-K2-06",
    "layer": "BUILDING_FOOTPRINT",
    "source_type": "agent_generated_design",
    "confidence": "low",
    "geometry_role": "design_proposal",
    "building_type": "ai_r_and_d",
    "drr_category": "new_build",
    "floors_concept": 10,
    "name_zh": "高校联合研发楼",
    "note_zh": "概念建议体量与层数，非审定指标；拆改留须以现状建筑普查为准（待正式数据补齐）",
    "area_sqm_declared": 5400.0,
    "official_boundary": false,
    "boundary_precision": "provisional_rough"
   }
  },
  {
   "type": "Feature",
   "id": "BLD-K2-07",
   "geometry": {
    "type": "Polygon",
    "coordinates": [
     [
      [
       116.35070524875347,
       39.984893973388715
      ],
      [
       116.35070013339774,
       39.98543431193952
      ],
      [
       116.35175378186268,
       39.9854402096304
      ],
      [
       116.35175888891892,
       39.984899870967354
      ],
      [
       116.35070524875347,
       39.984893973388715
      ]
     ]
    ]
   },
   "properties": {
    "id": "BLD-K2-07",
    "layer": "BUILDING_FOOTPRINT",
    "source_type": "agent_generated_design",
    "confidence": "low",
    "geometry_role": "design_proposal",
    "building_type": "talent_apartment",
    "drr_category": "new_build",
    "floors_concept": 16,
    "name_zh": "人才公寓",
    "note_zh": "概念建议体量与层数，非审定指标；拆改留须以现状建筑普查为准（待正式数据补齐）",
    "area_sqm_declared": 5400.0,
    "official_boundary": false,
    "boundary_precision": "provisional_rough"
   }
  },
  {
   "type": "Feature",
   "id": "BLD-K2-08",
   "geometry": {
    "type": "Polygon",
    "coordinates": [
     [
      [
       116.35067349628027,
       39.98824777241507
      ],
      [
       116.35066838006716,
       39.98878811064888
      ],
      [
       116.35172208005088,
       39.98879400903637
      ],
      [
       116.35172718796309,
       39.98825367069032
      ],
      [
       116.35067349628027,
       39.98824777241507
      ]
     ]
    ]
   },
   "properties": {
    "id": "BLD-K2-08",
    "layer": "BUILDING_FOOTPRINT",
    "source_type": "agent_generated_design",
    "confidence": "low",
    "geometry_role": "design_proposal",
    "building_type": "mixed_use",
    "drr_category": "new_build",
    "floors_concept": 8,
    "name_zh": "五道口混合功能体",
    "note_zh": "概念建议体量与层数，非审定指标；拆改留须以现状建筑普查为准（待正式数据补齐）",
    "area_sqm_declared": 5400.0,
    "official_boundary": false,
    "boundary_precision": "provisional_rough"
   }
  },
  {
   "type": "Feature",
   "id": "BLD-K2-09",
   "geometry": {
    "type": "Polygon",
    "coordinates": [
     [
      [
       116.35064173848511,
       39.99160156947382
      ],
      [
       116.35063662141447,
       39.992141907390625
      ],
      [
       116.35169037292559,
       39.9921478064748
      ],
      [
       116.35169548169394,
       39.99160746844575
      ],
      [
       116.35064173848511,
       39.99160156947382
      ]
     ]
    ]
   },
   "properties": {
    "id": "BLD-K2-09",
    "layer": "BUILDING_FOOTPRINT",
    "source_type": "agent_generated_design",
    "confidence": "low",
    "geometry_role": "design_proposal",
    "building_type": "incubator",
    "drr_category": "new_build",
    "floors_concept": 8,
    "name_zh": "成果孵化楼",
    "note_zh": "概念建议体量与层数，非审定指标；拆改留须以现状建筑普查为准（待正式数据补齐）",
    "area_sqm_declared": 5400.0,
    "official_boundary": false,
    "boundary_precision": "provisional_rough"
   }
  },
  {
   "type": "Feature",
   "id": "BLD-K3-01",
   "geometry": {
    "type": "Polygon",
    "coordinates": [
     [
      [
       116.3436430464394,
       39.944651583974476
      ],
      [
       116.34363788280795,
       39.945191925527034
      ],
      [
       116.34469091221177,
       39.94519788246463
      ],
      [
       116.3446960675604,
       39.94465754079869
      ],
      [
       116.3436430464394,
       39.944651583974476
      ]
     ]
    ]
   },
   "properties": {
    "id": "BLD-K3-01",
    "layer": "BUILDING_FOOTPRINT",
    "source_type": "agent_generated_design",
    "confidence": "low",
    "geometry_role": "design_proposal",
    "building_type": "mixed_use",
    "drr_category": "new_build",
    "floors_concept": 14,
    "name_zh": "智能原生消费综合体",
    "note_zh": "概念建议体量与层数，非审定指标；拆改留须以现状建筑普查为准（待正式数据补齐）",
    "area_sqm_declared": 5400.0,
    "official_boundary": false,
    "boundary_precision": "provisional_rough"
   }
  },
  {
   "type": "Feature",
   "id": "BLD-K3-02",
   "geometry": {
    "type": "Polygon",
    "coordinates": [
     [
      [
       116.34362421126582,
       39.94662249575
      ],
      [
       116.34361904712594,
       39.94716283711628
      ],
      [
       116.34467210674335,
       39.94716879446746
      ],
      [
       116.34467726259963,
       39.94662845298779
      ],
      [
       116.34362421126582,
       39.94662249575
      ]
     ]
    ]
   },
   "properties": {
    "id": "BLD-K3-02",
    "layer": "BUILDING_FOOTPRINT",
    "source_type": "agent_generated_design",
    "confidence": "low",
    "geometry_role": "design_proposal",
    "building_type": "office",
    "drr_category": "new_build",
    "floors_concept": 18,
    "name_zh": "领军企业总部办公",
    "note_zh": "概念建议体量与层数，非审定指标；拆改留须以现状建筑普查为准（待正式数据补齐）",
    "area_sqm_declared": 5400.0,
    "official_boundary": false,
    "boundary_precision": "provisional_rough"
   }
  },
  {
   "type": "Feature",
   "id": "BLD-K3-03",
   "geometry": {
    "type": "Polygon",
    "coordinates": [
     [
      [
       116.34360537423757,
       39.94859340684603
      ],
      [
       116.34360020958918,
       39.94913374802603
      ],
      [
       116.34465329942319,
       39.94913970579083
      ],
      [
       116.34465845578714,
       39.94859936449743
      ],
      [
       116.34360537423757,
       39.94859340684603
      ]
     ]
    ]
   },
   "properties": {
    "id": "BLD-K3-03",
    "layer": "BUILDING_FOOTPRINT",
    "source_type": "agent_generated_design",
    "confidence": "low",
    "geometry_role": "design_proposal",
    "building_type": "cultural",
    "drr_category": "new_build",
    "floors_concept": 5,
    "name_zh": "大钟寺文化展示馆",
    "note_zh": "概念建议体量与层数，非审定指标；拆改留须以现状建筑普查为准（待正式数据补齐）",
    "area_sqm_declared": 5400.0,
    "official_boundary": false,
    "boundary_precision": "provisional_rough"
   }
  },
  {
   "type": "Feature",
   "id": "BLD-K3-04",
   "geometry": {
    "type": "Polygon",
    "coordinates": [
     [
      [
       116.3479944689066,
       39.94467613758685
      ],
      [
       116.34798933950236,
       39.94521647960679
      ],
      [
       116.34904237019687,
       39.94522239702489
      ],
      [
       116.34904749131829,
       39.94468205489234
      ],
      [
       116.3479944689066,
       39.94467613758685
      ]
     ]
    ]
   },
   "properties": {
    "id": "BLD-K3-04",
    "layer": "BUILDING_FOOTPRINT",
    "source_type": "agent_generated_design",
    "confidence": "low",
    "geometry_role": "design_proposal",
    "building_type": "retail",
    "drr_category": "new_build",
    "floors_concept": 6,
    "name_zh": "AI体验商业",
    "note_zh": "概念建议体量与层数，非审定指标；拆改留须以现状建筑普查为准（待正式数据补齐）",
    "area_sqm_declared": 5400.0,
    "official_boundary": false,
    "boundary_precision": "provisional_rough"
   }
  },
  {
   "type": "Feature",
   "id": "BLD-K3-05",
   "geometry": {
    "type": "Polygon",
    "coordinates": [
     [
      [
       116.34797575858218,
       39.94664705106714
      ],
      [
       116.34797062867284,
       39.947187392900815
      ],
      [
       116.34902368958109,
       39.94719331072977
      ],
      [
       116.34902881120676,
       39.94665296878347
      ],
      [
       116.34797575858218,
       39.94664705106714
      ]
     ]
    ]
   },
   "properties": {
    "id": "BLD-K3-05",
    "layer": "BUILDING_FOOTPRINT",
    "source_type": "agent_generated_design",
    "confidence": "low",
    "geometry_role": "design_proposal",
    "building_type": "mixed_use",
    "drr_category": "new_build",
    "floors_concept": 14,
    "name_zh": "智能原生消费综合体",
    "note_zh": "概念建议体量与层数，非审定指标；拆改留须以现状建筑普查为准（待正式数据补齐）",
    "area_sqm_declared": 5400.0,
    "official_boundary": false,
    "boundary_precision": "provisional_rough"
   }
  },
  {
   "type": "Feature",
   "id": "BLD-K3-06",
   "geometry": {
    "type": "Polygon",
    "coordinates": [
     [
      [
       116.34795704641536,
       39.948617963868045
      ],
      [
       116.3479519160009,
       39.94915830551545
      ],
      [
       116.34900500712584,
       39.9491642237553
      ],
      [
       116.34901012925586,
       39.94862388199523
      ],
      [
       116.34795704641536,
       39.948617963868045
      ]
     ]
    ]
   },
   "properties": {
    "id": "BLD-K3-06",
    "layer": "BUILDING_FOOTPRINT",
    "source_type": "agent_generated_design",
    "confidence": "low",
    "geometry_role": "design_proposal",
    "building_type": "office",
    "drr_category": "new_build",
    "floors_concept": 18,
    "name_zh": "领军企业总部办公",
    "note_zh": "概念建议体量与层数，非审定指标；拆改留须以现状建筑普查为准（待正式数据补齐）",
    "area_sqm_declared": 5400.0,
    "official_boundary": false,
    "boundary_precision": "provisional_rough"
   }
  },
  {
   "type": "Feature",
   "id": "BLD-K3-07",
   "geometry": {
    "type": "Polygon",
    "coordinates": [
     [
      [
       116.35234589669378,
       39.94470052789499
      ],
      [
       116.35234080151689,
       39.94524087037917
      ],
      [
       116.35339383349348,
       39.94524674827767
      ],
      [
       116.3533989203875,
       39.944706405681615
      ],
      [
       116.35234589669378,
       39.94470052789499
      ]
     ]
    ]
   },
   "properties": {
    "id": "BLD-K3-07",
    "layer": "BUILDING_FOOTPRINT",
    "source_type": "agent_generated_design",
    "confidence": "low",
    "geometry_role": "design_proposal",
    "building_type": "cultural",
    "drr_category": "new_build",
    "floors_concept": 5,
    "name_zh": "大钟寺文化展示馆",
    "note_zh": "概念建议体量与层数，非审定指标；拆改留须以现状建筑普查为准（待正式数据补齐）",
    "area_sqm_declared": 5400.0,
    "official_boundary": false,
    "boundary_precision": "provisional_rough"
   }
  },
  {
   "type": "Feature",
   "id": "BLD-K3-08",
   "geometry": {
    "type": "Polygon",
    "coordinates": [
     [
      [
       116.35232731121906,
       39.94667144306869
      ],
      [
       116.35232221554045,
       39.947211785366655
      ],
      [
       116.35337527773095,
       39.94721766367327
      ],
      [
       116.35338036512587,
       39.94667732126342
      ],
      [
       116.35232731121906,
       39.94667144306869
      ]
     ]
    ]
   },
   "properties": {
    "id": "BLD-K3-08",
    "layer": "BUILDING_FOOTPRINT",
    "source_type": "agent_generated_design",
    "confidence": "low",
    "geometry_role": "design_proposal",
    "building_type": "retail",
    "drr_category": "new_build",
    "floors_concept": 6,
    "name_zh": "AI体验商业",
    "note_zh": "概念建议体量与层数，非审定指标；拆改留须以现状建筑普查为准（待正式数据补齐）",
    "area_sqm_declared": 5400.0,
    "official_boundary": false,
    "boundary_precision": "provisional_rough"
   }
  },
  {
   "type": "Feature",
   "id": "BLD-K3-09",
   "geometry": {
    "type": "Polygon",
    "coordinates": [
     [
      [
       116.35230872391425,
       39.94864235756313
      ],
      [
       116.35230362773387,
       39.94918269967486
      ],
      [
       116.35335672014122,
       39.94918857838958
      ],
      [
       116.3533618080371,
       39.948648236165965
      ],
      [
       116.35230872391425,
       39.94864235756313
      ]
     ]
    ]
   },
   "properties": {
    "id": "BLD-K3-09",
    "layer": "BUILDING_FOOTPRINT",
    "source_type": "agent_generated_design",
    "confidence": "low",
    "geometry_role": "design_proposal",
    "building_type": "mixed_use",
    "drr_category": "new_build",
    "floors_concept": 14,
    "name_zh": "智能原生消费综合体",
    "note_zh": "概念建议体量与层数，非审定指标；拆改留须以现状建筑普查为准（待正式数据补齐）",
    "area_sqm_declared": 5400.0,
    "official_boundary": false,
    "boundary_precision": "provisional_rough"
   }
  }
 ]
}