{
 "type": "FeatureCollection",
 "features": [
  {
   "type": "Feature",
   "id": "GS-001",
   "geometry": {
    "type": "Polygon",
    "coordinates": [
     [
      [
       116.34169999999999,
       40.00600000000001
      ],
      [
       116.34183961447519,
       40.00886273504503
      ],
      [
       116.34184537949292,
       40.008980939812
      ],
      [
       116.34185015915936,
       40.009078940866466
      ],
      [
       116.34300000267272,
       40.00908546525801
      ],
      [
       116.34300000233786,
       40.00886931931105
      ],
      [
       116.34299999999999,
       40.0075
      ],
      [
       116.3456093994342,
       40.00750009446473
      ],
      [
       116.34588273773092,
       39.999901772708
      ],
      [
       116.34130476405758,
       39.99987584417926
      ],
      [
       116.34169999999999,
       40.00600000000001
      ]
     ]
    ]
   },
   "properties": {
    "id": "GS-001",
    "layer": "GREEN_SPACE",
    "source_type": "agent_generated_design",
    "confidence": "medium",
    "geometry_role": "design_proposal",
    "green_type": "park",
    "name_zh": "八家郊野公园东缘衔接绿带",
    "area_sqm_declared": 320750.0,
    "official_boundary": false,
    "boundary_precision": "provisional_rough"
   }
  },
  {
   "type": "Feature",
   "id": "GS-002",
   "geometry": {
    "type": "Polygon",
    "coordinates": [
     [
      [
       116.3453903884536,
       40.013586759537965
      ],
      [
       116.34481233342639,
       40.02146250006396
      ],
      [
       116.34563325391544,
       40.02146713862094
      ],
      [
       116.34620928026581,
       40.01361775629715
      ],
      [
       116.34620977442513,
       40.01360871627959
      ],
      [
       116.34629818024388,
       40.01115111662302
      ],
      [
       116.34631770653758,
       40.00910422647442
      ],
      [
       116.34631976823256,
       40.00888809213402
      ],
      [
       116.34555961482013,
       40.0088838019654
      ],
      [
       116.34555183943576,
       40.00909990402064
      ],
      [
       116.3453903884536,
       40.013586759537965
      ]
     ]
    ]
   },
   "properties": {
    "id": "GS-002",
    "layer": "GREEN_SPACE",
    "source_type": "agent_generated_design",
    "confidence": "medium",
    "geometry_role": "design_proposal",
    "green_type": "linear_park",
    "name_zh": "智脊线性公园（遗址铁路廊道复合绿廊）",
    "area_sqm_declared": 97240.7,
    "official_boundary": false,
    "boundary_precision": "provisional_rough"
   }
  },
  {
   "type": "Feature",
   "id": "GS-003",
   "geometry": {
    "type": "Polygon",
    "coordinates": [
     [
      [
       116.34325324246433,
       39.98350005269488
      ],
      [
       116.34193335194738,
       39.97522895353047
      ],
      [
       116.34190820546004,
       39.97507135418785
      ],
      [
       116.34189592757376,
       39.97491352640776
      ],
      [
       116.34107469924689,
       39.974908860934555
      ],
      [
       116.34098939439541,
       39.9749083759763
      ],
      [
       116.34098636687597,
       39.97522357340344
      ],
      [
       116.34110704936846,
       39.97522425946972
      ],
      [
       116.34242758246798,
       39.98350001950147
      ],
      [
       116.34325324246433,
       39.98350005269488
      ]
     ]
    ]
   },
   "properties": {
    "id": "GS-003",
    "layer": "GREEN_SPACE",
    "source_type": "agent_generated_design",
    "confidence": "medium",
    "geometry_role": "design_proposal",
    "green_type": "linear_park",
    "name_zh": "智脊线性公园（遗址铁路廊道复合绿廊）",
    "area_sqm_declared": 67551.0,
    "official_boundary": false,
    "boundary_precision": "provisional_rough"
   }
  },
  {
   "type": "Feature",
   "id": "GS-004",
   "geometry": {
    "type": "Polygon",
    "coordinates": [
     [
      [
       116.34540678618787,
       39.9914618496078
      ],
      [
       116.34540024550134,
       39.99143233670433
      ],
      [
       116.34340435059184,
       39.98444684896019
      ],
      [
       116.34325324246433,
       39.98350005269488
      ],
      [
       116.34242758246798,
       39.98350001950147
      ],
      [
       116.34259329624842,
       39.98453840838016
      ],
      [
       116.34259979279561,
       39.98456765539547
      ],
      [
       116.34459557141733,
       39.99155302502264
      ],
      [
       116.3446154556218,
       39.99167846743893
      ],
      [
       116.34464974848454,
       39.99189480794058
      ],
      [
       116.34547616125523,
       39.991899477838494
      ],
      [
       116.34544186577958,
       39.991683137560514
      ],
      [
       116.34540678618787,
       39.9914618496078
      ]
     ]
    ]
   },
   "properties": {
    "id": "GS-004",
    "layer": "GREEN_SPACE",
    "source_type": "agent_generated_design",
    "confidence": "medium",
    "geometry_role": "design_proposal",
    "green_type": "linear_park",
    "name_zh": "智脊线性公园（遗址铁路廊道复合绿廊）",
    "area_sqm_declared": 66647.7,
    "official_boundary": false,
    "boundary_precision": "provisional_rough"
   }
  },
  {
   "type": "Feature",
   "id": "GS-005",
   "geometry": {
    "type": "Polygon",
    "coordinates": [
     [
      [
       116.3553,
       40.0265
      ],
      [
       116.3550516917834,
       40.02197024400194
      ],
      [
       116.35400000572098,
       40.02196438593949
      ],
      [
       116.354,
       40.02600000000001
      ],
      [
       116.35195790423052,
       40.0260000789345
      ],
      [
       116.351372166214,
       40.02600009493362
      ],
      [
       116.3513674301975,
       40.02650014707957
      ],
      [
       116.35168293044723,
       40.026500140204014
      ],
      [
       116.35195317246708,
       40.026500133631714
      ],
      [
       116.3553,
       40.0265
      ]
     ]
    ]
   },
   "properties": {
    "id": "GS-005",
    "layer": "GREEN_SPACE",
    "source_type": "agent_generated_design",
    "confidence": "medium",
    "geometry_role": "design_proposal",
    "green_type": "protective",
    "name_zh": "京藏高速-北五环防护绿带",
    "area_sqm_declared": 62984.7,
    "official_boundary": false,
    "boundary_precision": "provisional_rough"
   }
  },
  {
   "type": "Feature",
   "id": "GS-006",
   "geometry": {
    "type": "Polygon",
    "coordinates": [
     [
      [
       116.34240379427399,
       39.95606314237335
      ],
      [
       116.344991701201,
       39.949840129140576
      ],
      [
       116.34413168728828,
       39.94984009992402
      ],
      [
       116.34160990822632,
       39.95590391248107
      ],
      [
       116.3415986160615,
       39.95593723303051
      ],
      [
       116.34159211427878,
       39.955971302691935
      ],
      [
       116.3415220652244,
       39.956560940042735
      ],
      [
       116.34149640380286,
       39.956776942143904
      ],
      [
       116.34231844856724,
       39.95678160874682
      ],
      [
       116.34234410740682,
       39.95656560644288
      ],
      [
       116.34240379427399,
       39.95606314237335
      ]
     ]
    ]
   },
   "properties": {
    "id": "GS-006",
    "layer": "GREEN_SPACE",
    "source_type": "agent_generated_design",
    "confidence": "medium",
    "geometry_role": "design_proposal",
    "green_type": "linear_park",
    "name_zh": "智脊线性公园（遗址铁路廊道复合绿廊）",
    "area_sqm_declared": 56352.7,
    "official_boundary": false,
    "boundary_precision": "provisional_rough"
   }
  },
  {
   "type": "Feature",
   "id": "GS-007",
   "geometry": {
    "type": "Polygon",
    "coordinates": [
     [
      [
       116.34231844856724,
       39.95678160874682
      ],
      [
       116.34149640380286,
       39.956776942143904
      ],
      [
       116.34113421184117,
       39.95982549696864
      ],
      [
       116.34107358423208,
       39.9661413100379
      ],
      [
       116.34121365466937,
       39.96614210616138
      ],
      [
       116.34121076596216,
       39.96610496405192
      ],
      [
       116.34231844856724,
       39.95678160874682
      ]
     ]
    ]
   },
   "properties": {
    "id": "GS-007",
    "layer": "GREEN_SPACE",
    "source_type": "agent_generated_design",
    "confidence": "medium",
    "geometry_role": "design_proposal",
    "green_type": "linear_park",
    "name_zh": "智脊线性公园（遗址铁路廊道复合绿廊）",
    "area_sqm_declared": 52406.0,
    "official_boundary": false,
    "boundary_precision": "provisional_rough"
   }
  },
  {
   "type": "Feature",
   "id": "GS-008",
   "geometry": {
    "type": "Polygon",
    "coordinates": [
     [
      [
       116.344991701201,
       39.949840129140576
      ],
      [
       116.34659004177057,
       39.94599607183159
      ],
      [
       116.346600419742,
       39.9459661053453
      ],
      [
       116.34660692152084,
       39.94593549894558
      ],
      [
       116.34660948417297,
       39.9459045489121
      ],
      [
       116.3466080828965,
       39.94587355485059
      ],
      [
       116.34640315676711,
       39.94400016325702
      ],
      [
       116.34558122640262,
       39.94400014547718
      ],
      [
       116.34578506497796,
       39.94586380046703
      ],
      [
       116.34413168728828,
       39.94984009992402
      ],
      [
       116.344991701201,
       39.949840129140576
      ]
     ]
    ]
   },
   "properties": {
    "id": "GS-008",
    "layer": "GREEN_SPACE",
    "source_type": "agent_generated_design",
    "confidence": "medium",
    "geometry_role": "design_proposal",
    "green_type": "linear_park",
    "name_zh": "智脊线性公园（遗址铁路廊道复合绿廊）",
    "area_sqm_declared": 46970.7,
    "official_boundary": false,
    "boundary_precision": "provisional_rough"
   }
  },
  {
   "type": "Feature",
   "id": "GS-009",
   "geometry": {
    "type": "Polygon",
    "coordinates": [
     [
      [
       116.3456093994342,
       40.00750009446473
      ],
      [
       116.3463330075917,
       40.00750011025477
      ],
      [
       116.34640544040207,
       39.999904721665665
      ],
      [
       116.34640750114937,
       39.99968858697736
      ],
      [
       116.34588483915233,
       39.999685638262406
      ],
      [
       116.34588946285072,
       39.99971480087044
      ],
      [
       116.34588273773092,
       39.999901772708
      ],
      [
       116.3456093994342,
       40.00750009446473
      ]
     ]
    ]
   },
   "properties": {
    "id": "GS-009",
    "layer": "GREEN_SPACE",
    "source_type": "agent_generated_design",
    "confidence": "medium",
    "geometry_role": "design_proposal",
    "green_type": "linear_park",
    "name_zh": "智脊线性公园（遗址铁路廊道复合绿廊）",
    "area_sqm_declared": 45955.8,
    "official_boundary": false,
    "boundary_precision": "provisional_rough"
   }
  },
  {
   "type": "Feature",
   "id": "GS-010",
   "geometry": {
    "type": "Polygon",
    "coordinates": [
     [
      [
       116.34588483915233,
       39.999685638262406
      ],
      [
       116.34640750114937,
       39.99968858697736
      ],
      [
       116.3464247197222,
       39.9978825821604
      ],
      [
       116.3457299100817,
       39.993500116986986
      ],
      [
       116.34490421552725,
       39.993500101434854
      ],
      [
       116.34588483915233,
       39.999685638262406
      ]
     ]
    ]
   },
   "properties": {
    "id": "GS-010",
    "layer": "GREEN_SPACE",
    "source_type": "agent_generated_design",
    "confidence": "medium",
    "geometry_role": "design_proposal",
    "green_type": "linear_park",
    "name_zh": "智脊线性公园（遗址铁路廊道复合绿廊）",
    "area_sqm_declared": 45850.9,
    "official_boundary": false,
    "boundary_precision": "provisional_rough"
   }
  },
  {
   "type": "Feature",
   "id": "GS-011",
   "geometry": {
    "type": "Polygon",
    "coordinates": [
     [
      [
       116.34106926108389,
       39.96659159276207
      ],
      [
       116.34099876649901,
       39.973932607331925
      ],
      [
       116.34098939439541,
       39.9749083759763
      ],
      [
       116.34107469924689,
       39.974908860934555
      ],
      [
       116.34189592757376,
       39.97491352640776
      ],
      [
       116.34124869278833,
       39.96659261258364
      ],
      [
       116.34106926108389,
       39.96659159276207
      ]
     ]
    ]
   },
   "properties": {
    "id": "GS-011",
    "layer": "GREEN_SPACE",
    "source_type": "agent_generated_design",
    "confidence": "medium",
    "geometry_role": "design_proposal",
    "green_type": "linear_park",
    "name_zh": "智脊线性公园（遗址铁路廊道复合绿廊）",
    "area_sqm_declared": 42840.0,
    "official_boundary": false,
    "boundary_precision": "provisional_rough"
   }
  },
  {
   "type": "Feature",
   "id": "GS-012",
   "geometry": {
    "type": "Polygon",
    "coordinates": [
     [
      [
       116.34247554353105,
       40.02189956741385
      ],
      [
       116.34270000000001,
       40.0265
      ],
      [
       116.34615169448982,
       40.02650013625696
      ],
      [
       116.34615646837564,
       40.02600010683106
      ],
      [
       116.34299999999999,
       40.025999999999996
      ],
      [
       116.34300000588229,
       40.0219025421094
      ],
      [
       116.34247554353105,
       40.02189956741385
      ]
     ]
    ]
   },
   "properties": {
    "id": "GS-012",
    "layer": "GREEN_SPACE",
    "source_type": "agent_generated_design",
    "confidence": "medium",
    "geometry_role": "design_proposal",
    "green_type": "park",
    "name_zh": "清河滨水绿带（南岸）",
    "area_sqm_declared": 32918.5,
    "official_boundary": false,
    "boundary_precision": "provisional_rough"
   }
  },
  {
   "type": "Feature",
   "id": "GS-013",
   "geometry": {
    "type": "Polygon",
    "coordinates": [
     [
      [
       116.34545906870426,
       39.94288323639132
      ],
      [
       116.3462814912202,
       39.94288787662882
      ],
      [
       116.345908045077,
       39.939473556980616
      ],
      [
       116.34509195462834,
       39.93952644158056
      ],
      [
       116.34545906870426,
       39.94288323639132
      ]
     ]
    ]
   },
   "properties": {
    "id": "GS-013",
    "layer": "GREEN_SPACE",
    "source_type": "agent_generated_design",
    "confidence": "medium",
    "geometry_role": "design_proposal",
    "green_type": "linear_park",
    "name_zh": "智脊线性公园（遗址铁路廊道复合绿廊）",
    "area_sqm_declared": 26407.8,
    "official_boundary": false,
    "boundary_precision": "provisional_rough"
   }
  },
  {
   "type": "Feature",
   "id": "GS-014",
   "geometry": {
    "type": "Polygon",
    "coordinates": [
     [
      [
       116.3513674301975,
       40.02650014707957
      ],
      [
       116.351372166214,
       40.02600009493362
      ],
      [
       116.34656648473363,
       40.026000114398165
      ],
      [
       116.34615646837564,
       40.02600010683106
      ],
      [
       116.34615169448982,
       40.02650013625696
      ],
      [
       116.34628870236457,
       40.02650013954377
      ],
      [
       116.34656171382468,
       40.02650014561027
      ],
      [
       116.3513674301975,
       40.02650014707957
      ]
     ]
    ]
   },
   "properties": {
    "id": "GS-014",
    "layer": "GREEN_SPACE",
    "source_type": "agent_generated_design",
    "confidence": "medium",
    "geometry_role": "design_proposal",
    "green_type": "protective",
    "name_zh": "京藏高速-北五环防护绿带",
    "area_sqm_declared": 24721.4,
    "official_boundary": false,
    "boundary_precision": "provisional_rough"
   }
  },
  {
   "type": "Feature",
   "id": "GS-015",
   "geometry": {
    "type": "Polygon",
    "coordinates": [
     [
      [
       116.34459065511956,
       40.024482238944046
      ],
      [
       116.34540934511234,
       40.024517759611555
      ],
      [
       116.34560021774038,
       40.02191725517964
      ],
      [
       116.34563325391544,
       40.02146713862094
      ],
      [
       116.34481233342639,
       40.02146250006396
      ],
      [
       116.34477929186241,
       40.021912616345574
      ],
      [
       116.34459065511956,
       40.024482238944046
      ]
     ]
    ]
   },
   "properties": {
    "id": "GS-015",
    "layer": "GREEN_SPACE",
    "source_type": "agent_generated_design",
    "confidence": "medium",
    "geometry_role": "design_proposal",
    "green_type": "linear_park",
    "name_zh": "智脊线性公园（遗址铁路廊道复合绿廊）",
    "area_sqm_declared": 23629.2,
    "official_boundary": false,
    "boundary_precision": "provisional_rough"
   }
  },
  {
   "type": "Feature",
   "id": "GS-016",
   "geometry": {
    "type": "Polygon",
    "coordinates": [
     [
      [
       116.34547616125523,
       39.991899477838494
      ],
      [
       116.34464974848454,
       39.99189480794058
      ],
      [
       116.34490421552725,
       39.993500101434854
      ],
      [
       116.3457299100817,
       39.993500116986986
      ],
      [
       116.34547616125523,
       39.991899477838494
      ]
     ]
    ]
   },
   "properties": {
    "id": "GS-016",
    "layer": "GREEN_SPACE",
    "source_type": "agent_generated_design",
    "confidence": "medium",
    "geometry_role": "design_proposal",
    "green_type": "linear_park",
    "name_zh": "智脊线性公园（遗址铁路廊道复合绿廊）",
    "area_sqm_declared": 12551.7,
    "official_boundary": false,
    "boundary_precision": "provisional_rough"
   }
  },
  {
   "type": "Feature",
   "id": "GS-017",
   "geometry": {
    "type": "Polygon",
    "coordinates": [
     [
      [
       116.34555961482013,
       40.0088838019654
      ],
      [
       116.34631976823256,
       40.00888809213402
      ],
      [
       116.3463330075917,
       40.00750011025477
      ],
      [
       116.3456093994342,
       40.00750009446473
      ],
      [
       116.34555961482013,
       40.0088838019654
      ]
     ]
    ]
   },
   "properties": {
    "id": "GS-017",
    "layer": "GREEN_SPACE",
    "source_type": "agent_generated_design",
    "confidence": "medium",
    "geometry_role": "design_proposal",
    "green_type": "linear_park",
    "name_zh": "智脊线性公园（遗址铁路廊道复合绿廊）",
    "area_sqm_declared": 9748.6,
    "official_boundary": false,
    "boundary_precision": "provisional_rough"
   }
  },
  {
   "type": "Feature",
   "id": "GS-018",
   "geometry": {
    "type": "Polygon",
    "coordinates": [
     [
      [
       116.34558122640262,
       39.94400014547718
      ],
      [
       116.34640315676711,
       39.94400016325702
      ],
      [
       116.34630514853802,
       39.943104158426834
      ],
      [
       116.3462814912202,
       39.94288787662882
      ],
      [
       116.34545906870426,
       39.94288323639132
      ],
      [
       116.3454827234287,
       39.943099518336396
      ],
      [
       116.34558122640262,
       39.94400014547718
      ]
     ]
    ]
   },
   "properties": {
    "id": "GS-018",
    "layer": "GREEN_SPACE",
    "source_type": "agent_generated_design",
    "confidence": "medium",
    "geometry_role": "design_proposal",
    "green_type": "linear_park",
    "name_zh": "智脊线性公园（遗址铁路廊道复合绿廊）",
    "area_sqm_declared": 8694.0,
    "official_boundary": false,
    "boundary_precision": "provisional_rough"
   }
  },
  {
   "type": "Feature",
   "id": "GS-019",
   "geometry": {
    "type": "Polygon",
    "coordinates": [
     [
      [
       116.34039253141617,
       39.96613743670076
      ],
      [
       116.34079269089698,
       39.96613971300408
      ],
      [
       116.34082863305305,
       39.96239731608079
      ],
      [
       116.34039205487578,
       39.96607129803532
      ],
      [
       116.34039040352049,
       39.966095048631225
      ],
      [
       116.34039108431298,
       39.9661188274231
      ],
      [
       116.34039253141617,
       39.96613743670076
      ]
     ]
    ]
   },
   "properties": {
    "id": "GS-019",
    "layer": "GREEN_SPACE",
    "source_type": "agent_generated_design",
    "confidence": "medium",
    "geometry_role": "design_proposal",
    "green_type": "linear_park",
    "name_zh": "智脊线性公园（遗址铁路廊道复合绿廊）",
    "area_sqm_declared": 7250.0,
    "official_boundary": false,
    "boundary_precision": "provisional_rough"
   }
  },
  {
   "type": "Feature",
   "id": "GS-020",
   "geometry": {
    "type": "Polygon",
    "coordinates": [
     [
      [
       116.3407883659062,
       39.966589995702925
      ],
      [
       116.34042756413962,
       39.96658794332775
      ],
      [
       116.34074871577263,
       39.97071756986433
      ],
      [
       116.3407883659062,
       39.966589995702925
      ]
     ]
    ]
   },
   "properties": {
    "id": "GS-020",
    "layer": "GREEN_SPACE",
    "source_type": "agent_generated_design",
    "confidence": "medium",
    "geometry_role": "design_proposal",
    "green_type": "linear_park",
    "name_zh": "智脊线性公园（遗址铁路廊道复合绿廊）",
    "area_sqm_declared": 7064.6,
    "official_boundary": false,
    "boundary_precision": "provisional_rough"
   }
  },
  {
   "type": "Feature",
   "id": "GS-021",
   "geometry": {
    "type": "Polygon",
    "coordinates": [
     [
      [
       116.3406285,
       39.9833072
      ],
      [
       116.3414316,
       39.9833301
      ],
      [
       116.3414356,
       39.98329009999999
      ],
      [
       116.34130150000001,
       39.98328800000001
      ],
      [
       116.3413095,
       39.98312459999999
      ],
      [
       116.3415201,
       39.98312979999999
      ],
      [
       116.34151879999999,
       39.983212
      ],
      [
       116.3415919,
       39.9832117
      ],
      [
       116.3416335,
       39.982099800000015
      ],
      [
       116.34150349999999,
       39.9819487
      ],
      [
       116.34086409999999,
       39.981914999999994
      ],
      [
       116.34014539640286,
       39.98190582900326
      ],
      [
       116.34023504071756,
       39.983295604269095
      ],
      [
       116.3406285,
       39.9833072
      ]
     ]
    ]
   },
   "properties": {
    "id": "GS-021",
    "layer": "GREEN_SPACE",
    "source_type": "osm",
    "confidence": "medium",
    "geometry_role": "existing_condition",
    "green_type": "existing_park",
    "name_zh": "绿园",
    "area_sqm_declared": 18243.8,
    "official_boundary": false,
    "boundary_precision": "provisional_rough",
    "attribution": "© OpenStreetMap contributors, ODbL 1.0"
   }
  },
  {
   "type": "Feature",
   "id": "GS-022",
   "geometry": {
    "type": "Polygon",
    "coordinates": [
     [
      [
       116.34110390000001,
       39.9426413
      ],
      [
       116.34184760000001,
       39.9424641
      ],
      [
       116.3436602,
       39.941966799999996
      ],
      [
       116.34405150000002,
       39.9418747
      ],
      [
       116.3444546,
       39.94197309999999
      ],
      [
       116.3447922,
       39.942134700000004
      ],
      [
       116.3449446,
       39.9419463
      ],
      [
       116.34513259999999,
       39.941578
      ],
      [
       116.3442384,
       39.94142909999999
      ],
      [
       116.343909,
       39.9414293
      ],
      [
       116.3435373,
       39.9414889
      ],
      [
       116.34334479999998,
       39.941528500000004
      ],
      [
       116.34313680000001,
       39.94158159999999
      ],
      [
       116.34177130000002,
       39.94184930000001
      ],
      [
       116.3409881,
       39.94185749999999
      ],
      [
       116.34088150000001,
       39.9418542
      ],
      [
       116.34085280000001,
       39.94174420000001
      ],
      [
       116.34062393899393,
       39.9417398597125
      ],
      [
       116.34060083956572,
       39.94257189007919
      ],
      [
       116.34110390000001,
       39.9426413
      ]
     ]
    ]
   },
   "properties": {
    "id": "GS-022",
    "layer": "GREEN_SPACE",
    "source_type": "osm",
    "confidence": "medium",
    "geometry_role": "existing_condition",
    "green_type": "existing_park",
    "name_zh": "既有公园绿地",
    "area_sqm_declared": 24909.8,
    "official_boundary": false,
    "boundary_precision": "provisional_rough",
    "attribution": "© OpenStreetMap contributors, ODbL 1.0"
   }
  },
  {
   "type": "Feature",
   "id": "GS-023",
   "geometry": {
    "type": "Polygon",
    "coordinates": [
     [
      [
       116.3539268,
       39.943868499999994
      ],
      [
       116.3536747,
       39.9438397
      ],
      [
       116.35272649999999,
       39.94361409999999
      ],
      [
       116.3526729,
       39.943519499999994
      ],
      [
       116.351026,
       39.9430794
      ],
      [
       116.35083690000002,
       39.943078799999995
      ],
      [
       116.35067730000002,
       39.9431288
      ],
      [
       116.35058610000002,
       39.9432316
      ],
      [
       116.35047750000001,
       39.9433667
      ],
      [
       116.35047209999999,
       39.943420200000006
      ],
      [
       116.35049370000002,
       39.94357019999999
      ],
      [
       116.35047710000002,
       39.9447369
      ],
      [
       116.3504803,
       39.9453069
      ],
      [
       116.35054710000001,
       39.945505
      ],
      [
       116.3505382,
       39.94615730000001
      ],
      [
       116.3504999,
       39.9462323
      ],
      [
       116.3504882,
       39.946554
      ],
      [
       116.35065449999999,
       39.946554
      ],
      [
       116.3508507,
       39.94662509999999
      ],
      [
       116.35343730000001,
       39.94649619999999
      ],
      [
       116.35387430000002,
       39.9464519
      ],
      [
       116.3540821,
       39.94630419999999
      ],
      [
       116.3542508,
       39.94618139999999
      ],
      [
       116.35345010000002,
       39.946065899999994
      ],
      [
       116.3513862,
       39.946180700000006
      ],
      [
       116.3507891,
       39.9462139
      ],
      [
       116.35073340000001,
       39.943991399999994
      ],
      [
       116.35099380000001,
       39.943564699999996
      ],
      [
       116.35127139999999,
       39.9434407
      ],
      [
       116.35329,
       39.944045100000004
      ],
      [
       116.35530001117922,
       39.94460467752315
      ],
      [
       116.35530001062922,
       39.94423377962694
      ],
      [
       116.3539268,
       39.943868499999994
      ]
     ]
    ]
   },
   "properties": {
    "id": "GS-023",
    "layer": "GREEN_SPACE",
    "source_type": "osm",
    "confidence": "medium",
    "geometry_role": "existing_condition",
    "green_type": "existing_park",
    "name_zh": "既有公园绿地",
    "area_sqm_declared": 36262.2,
    "official_boundary": false,
    "boundary_precision": "provisional_rough",
    "attribution": "© OpenStreetMap contributors, ODbL 1.0"
   }
  },
  {
   "type": "Feature",
   "id": "GS-024",
   "geometry": {
    "type": "Polygon",
    "coordinates": [
     [
      [
       116.3501288,
       39.949765899999996
      ],
      [
       116.3505848,
       39.9484499
      ],
      [
       116.35065590000002,
       39.9482531
      ],
      [
       116.35063980000001,
       39.94818320000001
      ],
      [
       116.3507028,
       39.9481415
      ],
      [
       116.3506827,
       39.9480598
      ],
      [
       116.35063980000001,
       39.948039299999984
      ],
      [
       116.35066659999998,
       39.9479077
      ],
      [
       116.3505164,
       39.9473607
      ],
      [
       116.3504668,
       39.94680489999999
      ],
      [
       116.3503984,
       39.9468055
      ],
      [
       116.35034340000001,
       39.9481086
      ],
      [
       116.3503166,
       39.9484417
      ],
      [
       116.35020929999999,
       39.94881999999999
      ],
      [
       116.34983510000002,
       39.94988990000001
      ],
      [
       116.3498083,
       39.9499392
      ],
      [
       116.34988739999999,
       39.94999210000002
      ],
      [
       116.3501288,
       39.949765899999996
      ]
     ]
    ]
   },
   "properties": {
    "id": "GS-024",
    "layer": "GREEN_SPACE",
    "source_type": "osm",
    "confidence": "medium",
    "geometry_role": "existing_condition",
    "green_type": "existing_park",
    "name_zh": "既有公园绿地",
    "area_sqm_declared": 6830.0,
    "official_boundary": false,
    "boundary_precision": "provisional_rough",
    "attribution": "© OpenStreetMap contributors, ODbL 1.0"
   }
  },
  {
   "type": "Feature",
   "id": "GS-025",
   "geometry": {
    "type": "Polygon",
    "coordinates": [
     [
      [
       116.34840169999998,
       39.973618000000016
      ],
      [
       116.348376,
       39.97467489999998
      ],
      [
       116.3487072,
       39.97466609999999
      ],
      [
       116.3486979,
       39.9750313
      ],
      [
       116.3492217,
       39.9750356
      ],
      [
       116.3493255,
       39.9750418
      ],
      [
       116.3497521,
       39.9750675
      ],
      [
       116.35134600000002,
       39.975081
      ],
      [
       116.35449158687649,
       39.97510756020575
      ],
      [
       116.35460951828878,
       39.97363327057903
      ],
      [
       116.34840169999998,
       39.973618000000016
      ]
     ]
    ]
   },
   "properties": {
    "id": "GS-025",
    "layer": "GREEN_SPACE",
    "source_type": "osm",
    "confidence": "medium",
    "geometry_role": "existing_condition",
    "green_type": "existing_park",
    "name_zh": "元大都城垣遗址公园",
    "area_sqm_declared": 83773.7,
    "official_boundary": false,
    "boundary_precision": "provisional_rough",
    "attribution": "© OpenStreetMap contributors, ODbL 1.0"
   }
  },
  {
   "type": "Feature",
   "id": "GS-026",
   "geometry": {
    "type": "Polygon",
    "coordinates": [
     [
      [
       116.3487682,
       39.9568931
      ],
      [
       116.348532,
       39.95689660000001
      ],
      [
       116.34788169999999,
       39.95807129999999
      ],
      [
       116.34762129999999,
       39.9585902
      ],
      [
       116.3474963,
       39.9589893
      ],
      [
       116.34748900000001,
       39.9593731
      ],
      [
       116.34743529999999,
       39.960106
      ],
      [
       116.3475097,
       39.9601156
      ],
      [
       116.3474756,
       39.96059170000001
      ],
      [
       116.3474006,
       39.9606226
      ],
      [
       116.3472743,
       39.9636296
      ],
      [
       116.34729819999998,
       39.963770700000005
      ],
      [
       116.3474255,
       39.9637803
      ],
      [
       116.34767730000002,
       39.96388639999999
      ],
      [
       116.34766650000002,
       39.96435929999999
      ],
      [
       116.3477363,
       39.964902
      ],
      [
       116.34770409999999,
       39.96567490000001
      ],
      [
       116.34762360000002,
       39.9660655
      ],
      [
       116.34757530000002,
       39.96688779999999
      ],
      [
       116.3476142,
       39.967250199999995
      ],
      [
       116.347664,
       39.96756769999999
      ],
      [
       116.3476535,
       39.9678822
      ],
      [
       116.3475248,
       39.9685862
      ],
      [
       116.3474064,
       39.9705874
      ],
      [
       116.34737979999998,
       39.970909899999995
      ],
      [
       116.3472803,
       39.9721173
      ],
      [
       116.34719040000002,
       39.972993499999994
      ],
      [
       116.3471408,
       39.97398779999999
      ],
      [
       116.3471825,
       39.97409939999999
      ],
      [
       116.34725439999998,
       39.9741881
      ],
      [
       116.3473358,
       39.9742804
      ],
      [
       116.34743460000001,
       39.9743624
      ],
      [
       116.34759750000002,
       39.9744087
      ],
      [
       116.34789190000001,
       39.9744297
      ],
      [
       116.34796249999998,
       39.9727521
      ],
      [
       116.34802639999998,
       39.971377600000004
      ],
      [
       116.34797539999998,
       39.971272299999995
      ],
      [
       116.34798739999998,
       39.97083150000001
      ],
      [
       116.34806089999998,
       39.970803100000005
      ],
      [
       116.3482491,
       39.9677953
      ],
      [
       116.34819850000001,
       39.9677607
      ],
      [
       116.34820620000002,
       39.96748650000001
      ],
      [
       116.3482452,
       39.967460900000006
      ],
      [
       116.3483138,
       39.966077999999996
      ],
      [
       116.3483847,
       39.96521529999999
      ],
      [
       116.3483478,
       39.96518809999999
      ],
      [
       116.3483625,
       39.96489379999999
      ],
      [
       116.3483987,
       39.96486780000001
      ],
      [
       116.34844120000001,
       39.96376519999999
      ],
      [
       116.3487798,
       39.95721669999999
      ],
      [
       116.3487682,
       39.9568931
      ]
     ]
    ]
   },
   "properties": {
    "id": "GS-026",
    "layer": "GREEN_SPACE",
    "source_type": "osm",
    "confidence": "medium",
    "geometry_role": "existing_condition",
    "green_type": "existing_park",
    "name_zh": "元大都城垣遗址公园",
    "area_sqm_declared": 137687.5,
    "official_boundary": false,
    "boundary_precision": "provisional_rough",
    "attribution": "© OpenStreetMap contributors, ODbL 1.0"
   }
  },
  {
   "type": "Feature",
   "id": "GS-027",
   "geometry": {
    "type": "Polygon",
    "coordinates": [
     [
      [
       116.3444309,
       39.98401019999999
      ],
      [
       116.3437101,
       39.98398749999999
      ],
      [
       116.3436792,
       39.9845628
      ],
      [
       116.34367770000001,
       39.9845919
      ],
      [
       116.3443985,
       39.98461459999999
      ],
      [
       116.3444309,
       39.98401019999999
      ]
     ]
    ]
   },
   "properties": {
    "id": "GS-027",
    "layer": "GREEN_SPACE",
    "source_type": "osm",
    "confidence": "medium",
    "geometry_role": "existing_condition",
    "green_type": "existing_park",
    "name_zh": "既有公园绿地",
    "area_sqm_declared": 4139.1,
    "official_boundary": false,
    "boundary_precision": "provisional_rough",
    "attribution": "© OpenStreetMap contributors, ODbL 1.0"
   }
  },
  {
   "type": "Feature",
   "id": "GS-028",
   "geometry": {
    "type": "Polygon",
    "coordinates": [
     [
      [
       116.3484485,
       39.95657709999999
      ],
      [
       116.3485442,
       39.95645539999999
      ],
      [
       116.3485839,
       39.9562334
      ],
      [
       116.34856520000001,
       39.9560491
      ],
      [
       116.3485442,
       39.9560085
      ],
      [
       116.34837370000001,
       39.9559667
      ],
      [
       116.34805849999998,
       39.9559291
      ],
      [
       116.34786940000001,
       39.95597029999999
      ],
      [
       116.3476849,
       39.9560652
      ],
      [
       116.34761950000001,
       39.9561994
      ],
      [
       116.34754480000001,
       39.95645180000001
      ],
      [
       116.3475191,
       39.9566093
      ],
      [
       116.3484485,
       39.95657709999999
      ]
     ]
    ]
   },
   "properties": {
    "id": "GS-028",
    "layer": "GREEN_SPACE",
    "source_type": "osm",
    "confidence": "medium",
    "geometry_role": "existing_condition",
    "green_type": "existing_park",
    "name_zh": "元大都公园明光村小区处",
    "area_sqm_declared": 5591.6,
    "official_boundary": false,
    "boundary_precision": "provisional_rough",
    "attribution": "© OpenStreetMap contributors, ODbL 1.0"
   }
  },
  {
   "type": "Feature",
   "id": "GS-029",
   "geometry": {
    "type": "Polygon",
    "coordinates": [
     [
      [
       116.34161599999999,
       39.98968579999998
      ],
      [
       116.34163150000002,
       39.989198800000004
      ],
      [
       116.3416377,
       39.98900460000001
      ],
      [
       116.3410924,
       39.988994399999996
      ],
      [
       116.3410709,
       39.98967559999999
      ],
      [
       116.34161599999999,
       39.98968579999998
      ]
     ]
    ]
   },
   "properties": {
    "id": "GS-029",
    "layer": "GREEN_SPACE",
    "source_type": "osm",
    "confidence": "medium",
    "geometry_role": "existing_condition",
    "green_type": "existing_park",
    "name_zh": "冬日广场",
    "area_sqm_declared": 3524.3,
    "official_boundary": false,
    "boundary_precision": "provisional_rough",
    "attribution": "© OpenStreetMap contributors, ODbL 1.0"
   }
  },
  {
   "type": "Feature",
   "id": "GS-030",
   "geometry": {
    "type": "Polygon",
    "coordinates": [
     [
      [
       116.34462820000002,
       39.990648499999985
      ],
      [
       116.34463930000001,
       39.9902261
      ],
      [
       116.3441525,
       39.99021869999999
      ],
      [
       116.34414150000002,
       39.990641000000004
      ],
      [
       116.34462820000002,
       39.990648499999985
      ]
     ]
    ]
   },
   "properties": {
    "id": "GS-030",
    "layer": "GREEN_SPACE",
    "source_type": "osm",
    "confidence": "medium",
    "geometry_role": "existing_condition",
    "green_type": "existing_park",
    "name_zh": "小花园",
    "area_sqm_declared": 1950.4,
    "official_boundary": false,
    "boundary_precision": "provisional_rough",
    "attribution": "© OpenStreetMap contributors, ODbL 1.0"
   }
  },
  {
   "type": "Feature",
   "id": "GS-031",
   "geometry": {
    "type": "Polygon",
    "coordinates": [
     [
      [
       116.3458437,
       39.9911695
      ],
      [
       116.3458633,
       39.9907026
      ],
      [
       116.34482590000002,
       39.9906771
      ],
      [
       116.3448064,
       39.9911441
      ],
      [
       116.3458437,
       39.9911695
      ]
     ]
    ]
   },
   "properties": {
    "id": "GS-031",
    "layer": "GREEN_SPACE",
    "source_type": "osm",
    "confidence": "medium",
    "geometry_role": "existing_condition",
    "green_type": "existing_park",
    "name_zh": "花园",
    "area_sqm_declared": 4598.5,
    "official_boundary": false,
    "boundary_precision": "provisional_rough",
    "attribution": "© OpenStreetMap contributors, ODbL 1.0"
   }
  },
  {
   "type": "Feature",
   "id": "GS-032",
   "geometry": {
    "type": "Polygon",
    "coordinates": [
     [
      [
       116.34984180000001,
       39.9826499
      ],
      [
       116.3498361,
       39.98279939999998
      ],
      [
       116.34981509999999,
       39.983286899999996
      ],
      [
       116.35058859999998,
       39.9833065
      ],
      [
       116.3505725,
       39.9836819
      ],
      [
       116.3506888,
       39.9836848
      ],
      [
       116.3508908,
       39.98368809999999
      ],
      [
       116.35090230000002,
       39.9832672
      ],
      [
       116.3509559,
       39.98326629999999
      ],
      [
       116.35095869999999,
       39.983021099999995
      ],
      [
       116.35117320000002,
       39.98301720000002
      ],
      [
       116.3511762,
       39.98285859999999
      ],
      [
       116.35098060000001,
       39.98285359999999
      ],
      [
       116.3509799,
       39.982633099999994
      ],
      [
       116.3507876,
       39.98262009999999
      ],
      [
       116.3508033,
       39.98220099999999
      ],
      [
       116.35069200000001,
       39.9821985
      ],
      [
       116.35068389999999,
       39.982415200000005
      ],
      [
       116.3506829,
       39.9824417
      ],
      [
       116.35052450000002,
       39.98243829999999
      ],
      [
       116.3505194,
       39.98257480000001
      ],
      [
       116.3499107,
       39.9825614
      ],
      [
       116.34984180000001,
       39.9826499
      ]
     ]
    ]
   },
   "properties": {
    "id": "GS-032",
    "layer": "GREEN_SPACE",
    "source_type": "osm",
    "confidence": "medium",
    "geometry_role": "existing_condition",
    "green_type": "existing_park",
    "name_zh": "既有公园绿地",
    "area_sqm_declared": 9787.0,
    "official_boundary": false,
    "boundary_precision": "provisional_rough",
    "attribution": "© OpenStreetMap contributors, ODbL 1.0"
   }
  },
  {
   "type": "Feature",
   "id": "GS-033",
   "geometry": {
    "type": "Polygon",
    "coordinates": [
     [
      [
       116.35039619999999,
       39.9846366
      ],
      [
       116.351559,
       39.9846575
      ],
      [
       116.35155690000002,
       39.98472529999999
      ],
      [
       116.351694,
       39.9847277
      ],
      [
       116.351783,
       39.98472529999999
      ],
      [
       116.3517951,
       39.9842889
      ],
      [
       116.35160649999999,
       39.9842862
      ],
      [
       116.35041699999998,
       39.984254799999995
      ],
      [
       116.35037039999999,
       39.984277199999994
      ],
      [
       116.35035879999998,
       39.984627599999996
      ],
      [
       116.35039619999999,
       39.9846366
      ]
     ]
    ]
   },
   "properties": {
    "id": "GS-033",
    "layer": "GREEN_SPACE",
    "source_type": "osm",
    "confidence": "medium",
    "geometry_role": "existing_condition",
    "green_type": "existing_park",
    "name_zh": "既有公园绿地",
    "area_sqm_declared": 5229.2,
    "official_boundary": false,
    "boundary_precision": "provisional_rough",
    "attribution": "© OpenStreetMap contributors, ODbL 1.0"
   }
  },
  {
   "type": "Feature",
   "id": "GS-034",
   "geometry": {
    "type": "Polygon",
    "coordinates": [
     [
      [
       116.34812700000002,
       39.98301919999999
      ],
      [
       116.3486428,
       39.98303769999999
      ],
      [
       116.3487065,
       39.9829797
      ],
      [
       116.3487278,
       39.9828695
      ],
      [
       116.34871279999999,
       39.9827311
      ],
      [
       116.34865609999999,
       39.98267879999999
      ],
      [
       116.3484507,
       39.9826608
      ],
      [
       116.3482262,
       39.98265899999999
      ],
      [
       116.34813169999998,
       39.982664299999996
      ],
      [
       116.3480624,
       39.9827612
      ],
      [
       116.3480532,
       39.9828875
      ],
      [
       116.34812700000002,
       39.98301919999999
      ]
     ]
    ]
   },
   "properties": {
    "id": "GS-034",
    "layer": "GREEN_SPACE",
    "source_type": "osm",
    "confidence": "medium",
    "geometry_role": "existing_condition",
    "green_type": "existing_park",
    "name_zh": "既有公园绿地",
    "area_sqm_declared": 2158.5,
    "official_boundary": false,
    "boundary_precision": "provisional_rough",
    "attribution": "© OpenStreetMap contributors, ODbL 1.0"
   }
  },
  {
   "type": "Feature",
   "id": "GS-035",
   "geometry": {
    "type": "Polygon",
    "coordinates": [
     [
      [
       116.3439119,
       39.99322790000001
      ],
      [
       116.34395740000001,
       39.99278040000001
      ],
      [
       116.3430471,
       39.9927513
      ],
      [
       116.3430319,
       39.993204699999986
      ],
      [
       116.3439119,
       39.99322790000001
      ]
     ]
    ]
   },
   "properties": {
    "id": "GS-035",
    "layer": "GREEN_SPACE",
    "source_type": "osm",
    "confidence": "medium",
    "geometry_role": "existing_condition",
    "green_type": "existing_park",
    "name_zh": "来园",
    "area_sqm_declared": 3831.4,
    "official_boundary": false,
    "boundary_precision": "provisional_rough",
    "attribution": "© OpenStreetMap contributors, ODbL 1.0"
   }
  },
  {
   "type": "Feature",
   "id": "GS-036",
   "geometry": {
    "type": "Polygon",
    "coordinates": [
     [
      [
       116.3434947,
       39.9949657
      ],
      [
       116.343563,
       39.99372189999998
      ],
      [
       116.34297120000001,
       39.993710300000004
      ],
      [
       116.34289530000001,
       39.99494249999999
      ],
      [
       116.3434947,
       39.9949657
      ]
     ]
    ]
   },
   "properties": {
    "id": "GS-036",
    "layer": "GREEN_SPACE",
    "source_type": "osm",
    "confidence": "medium",
    "geometry_role": "existing_condition",
    "green_type": "existing_park",
    "name_zh": "北语苗圃园",
    "area_sqm_declared": 7004.3,
    "official_boundary": false,
    "boundary_precision": "provisional_rough",
    "attribution": "© OpenStreetMap contributors, ODbL 1.0"
   }
  },
  {
   "type": "Feature",
   "id": "GS-037",
   "geometry": {
    "type": "Polygon",
    "coordinates": [
     [
      [
       116.3437754,
       39.99466300000001
      ],
      [
       116.34394170000002,
       39.99466300000001
      ],
      [
       116.34393090000002,
       39.9948479
      ],
      [
       116.3445639,
       39.9948767
      ],
      [
       116.34462829999998,
       39.99400949999998
      ],
      [
       116.34400600000001,
       39.9939849
      ],
      [
       116.34400600000001,
       39.99411230000002
      ],
      [
       116.34366120000001,
       39.994102500000004
      ],
      [
       116.34363880000001,
       39.9946577
      ],
      [
       116.3437754,
       39.99466300000001
      ]
     ]
    ]
   },
   "properties": {
    "id": "GS-037",
    "layer": "GREEN_SPACE",
    "source_type": "osm",
    "confidence": "medium",
    "geometry_role": "existing_condition",
    "green_type": "existing_park",
    "name_zh": "既有公园绿地",
    "area_sqm_declared": 6855.1,
    "official_boundary": false,
    "boundary_precision": "provisional_rough",
    "attribution": "© OpenStreetMap contributors, ODbL 1.0"
   }
  },
  {
   "type": "Feature",
   "id": "GS-038",
   "geometry": {
    "type": "Polygon",
    "coordinates": [
     [
      [
       116.3460193,
       39.9941834
      ],
      [
       116.3460301,
       39.9940436
      ],
      [
       116.34569750000001,
       39.9937888
      ],
      [
       116.34501080000001,
       39.99377239999999
      ],
      [
       116.3450055,
       39.99416279999999
      ],
      [
       116.3460193,
       39.9941834
      ]
     ]
    ]
   },
   "properties": {
    "id": "GS-038",
    "layer": "GREEN_SPACE",
    "source_type": "osm",
    "confidence": "medium",
    "geometry_role": "existing_condition",
    "green_type": "existing_park",
    "name_zh": "凌霜园",
    "area_sqm_declared": 3370.5,
    "official_boundary": false,
    "boundary_precision": "provisional_rough",
    "attribution": "© OpenStreetMap contributors, ODbL 1.0"
   }
  },
  {
   "type": "Feature",
   "id": "GS-039",
   "geometry": {
    "type": "Polygon",
    "coordinates": [
     [
      [
       116.34349269999998,
       39.9927038
      ],
      [
       116.34350340000002,
       39.9923751
      ],
      [
       116.343439,
       39.99230930000001
      ],
      [
       116.343439,
       39.992181899999984
      ],
      [
       116.34313859999999,
       39.9921696
      ],
      [
       116.34314400000001,
       39.99224770000001
      ],
      [
       116.3432084,
       39.99232159999999
      ],
      [
       116.34324060000002,
       39.992358599999996
      ],
      [
       116.34296160000001,
       39.9925148
      ],
      [
       116.3427685,
       39.992396299999996
      ],
      [
       116.34236699999998,
       39.9923929
      ],
      [
       116.342146,
       39.992385899999995
      ],
      [
       116.34213010000002,
       39.992687399999994
      ],
      [
       116.34349269999998,
       39.9927038
      ]
     ]
    ]
   },
   "properties": {
    "id": "GS-039",
    "layer": "GREEN_SPACE",
    "source_type": "osm",
    "confidence": "medium",
    "geometry_role": "existing_condition",
    "green_type": "existing_park",
    "name_zh": "既有公园绿地",
    "area_sqm_declared": 4232.9,
    "official_boundary": false,
    "boundary_precision": "provisional_rough",
    "attribution": "© OpenStreetMap contributors, ODbL 1.0"
   }
  },
  {
   "type": "Feature",
   "id": "GS-040",
   "geometry": {
    "type": "Polygon",
    "coordinates": [
     [
      [
       116.3458879,
       39.99370659999999
      ],
      [
       116.34590450000002,
       39.9935297
      ],
      [
       116.3454646,
       39.993521499999986
      ],
      [
       116.3454807,
       39.99331599999999
      ],
      [
       116.3447795,
       39.99329869999999
      ],
      [
       116.34477259999998,
       39.9934927
      ],
      [
       116.34438639999999,
       39.9934845
      ],
      [
       116.34437500000001,
       39.9936767
      ],
      [
       116.3458879,
       39.99370659999999
      ]
     ]
    ]
   },
   "properties": {
    "id": "GS-040",
    "layer": "GREEN_SPACE",
    "source_type": "osm",
    "confidence": "medium",
    "geometry_role": "existing_condition",
    "green_type": "existing_park",
    "name_zh": "既有公园绿地",
    "area_sqm_declared": 3970.0,
    "official_boundary": false,
    "boundary_precision": "provisional_rough",
    "attribution": "© OpenStreetMap contributors, ODbL 1.0"
   }
  },
  {
   "type": "Feature",
   "id": "GS-041",
   "geometry": {
    "type": "Polygon",
    "coordinates": [
     [
      [
       116.34114130000002,
       39.9935542
      ],
      [
       116.34186020000001,
       39.9935892
      ],
      [
       116.341887,
       39.993241899999994
      ],
      [
       116.3408752820098,
       39.99321992950441
      ],
      [
       116.34089321299048,
       39.99349783885711
      ],
      [
       116.34114130000002,
       39.9935542
      ]
     ]
    ]
   },
   "properties": {
    "id": "GS-041",
    "layer": "GREEN_SPACE",
    "source_type": "osm",
    "confidence": "medium",
    "geometry_role": "existing_condition",
    "green_type": "existing_park",
    "name_zh": "既有公园绿地",
    "area_sqm_declared": 3086.3,
    "official_boundary": false,
    "boundary_precision": "provisional_rough",
    "attribution": "© OpenStreetMap contributors, ODbL 1.0"
   }
  },
  {
   "type": "Feature",
   "id": "GS-042",
   "geometry": {
    "type": "Polygon",
    "coordinates": [
     [
      [
       116.3458012,
       39.977582999999996
      ],
      [
       116.34580670000001,
       39.97747019999999
      ],
      [
       116.3459581,
       39.977474499999985
      ],
      [
       116.34600749999998,
       39.9766026
      ],
      [
       116.3443187,
       39.9765548
      ],
      [
       116.34421630000001,
       39.9765513
      ],
      [
       116.34415350000002,
       39.97793
      ],
      [
       116.3457799,
       39.9779666
      ],
      [
       116.3458012,
       39.977582999999996
      ]
     ]
    ]
   },
   "properties": {
    "id": "GS-042",
    "layer": "GREEN_SPACE",
    "source_type": "osm",
    "confidence": "medium",
    "geometry_role": "existing_condition",
    "green_type": "existing_park",
    "name_zh": "唯实园",
    "area_sqm_declared": 22549.7,
    "official_boundary": false,
    "boundary_precision": "provisional_rough",
    "attribution": "© OpenStreetMap contributors, ODbL 1.0"
   }
  },
  {
   "type": "Feature",
   "id": "GS-043",
   "geometry": {
    "type": "Polygon",
    "coordinates": [
     [
      [
       116.35189240000001,
       40.0028997
      ],
      [
       116.35195249999998,
       40.002146
      ],
      [
       116.35011590000002,
       40.00206719999999
      ],
      [
       116.3500675,
       40.00284320000001
      ],
      [
       116.35189240000001,
       40.0028997
      ]
     ]
    ]
   },
   "properties": {
    "id": "GS-043",
    "layer": "GREEN_SPACE",
    "source_type": "osm",
    "confidence": "medium",
    "geometry_role": "existing_condition",
    "green_type": "existing_park",
    "name_zh": "既有公园绿地",
    "area_sqm_declared": 13312.0,
    "official_boundary": false,
    "boundary_precision": "provisional_rough",
    "attribution": "© OpenStreetMap contributors, ODbL 1.0"
   }
  },
  {
   "type": "Feature",
   "id": "GS-044",
   "geometry": {
    "type": "Polygon",
    "coordinates": [
     [
      [
       116.3507414,
       40.00463930000001
      ],
      [
       116.35075059999998,
       40.004298899999995
      ],
      [
       116.3500089,
       40.00428709999999
      ],
      [
       116.3499996,
       40.0046275
      ],
      [
       116.3507414,
       40.00463930000001
      ]
     ]
    ]
   },
   "properties": {
    "id": "GS-044",
    "layer": "GREEN_SPACE",
    "source_type": "osm",
    "confidence": "medium",
    "geometry_role": "existing_condition",
    "green_type": "existing_park",
    "name_zh": "既有公园绿地",
    "area_sqm_declared": 2395.1,
    "official_boundary": false,
    "boundary_precision": "provisional_rough",
    "attribution": "© OpenStreetMap contributors, ODbL 1.0"
   }
  },
  {
   "type": "Feature",
   "id": "GS-045",
   "geometry": {
    "type": "Polygon",
    "coordinates": [
     [
      [
       116.3519466,
       40.00208449999999
      ],
      [
       116.35197490000002,
       40.001691400000006
      ],
      [
       116.3510087,
       40.0016182
      ],
      [
       116.3501346,
       40.0015775
      ],
      [
       116.3501133,
       40.0020005
      ],
      [
       116.3519466,
       40.00208449999999
      ]
     ]
    ]
   },
   "properties": {
    "id": "GS-045",
    "layer": "GREEN_SPACE",
    "source_type": "osm",
    "confidence": "medium",
    "geometry_role": "existing_condition",
    "green_type": "existing_park",
    "name_zh": "既有公园绿地",
    "area_sqm_declared": 7247.1,
    "official_boundary": false,
    "boundary_precision": "provisional_rough",
    "attribution": "© OpenStreetMap contributors, ODbL 1.0"
   }
  },
  {
   "type": "Feature",
   "id": "GS-046",
   "geometry": {
    "type": "Polygon",
    "coordinates": [
     [
      [
       116.3542121,
       39.97544539999999
      ],
      [
       116.3541896,
       39.9770912
      ],
      [
       116.35433280988339,
       39.977092361206516
      ],
      [
       116.35446444160168,
       39.97544690017439
      ],
      [
       116.3542121,
       39.97544539999999
      ]
     ]
    ]
   },
   "properties": {
    "id": "GS-046",
    "layer": "GREEN_SPACE",
    "source_type": "osm",
    "confidence": "medium",
    "geometry_role": "existing_condition",
    "green_type": "existing_park",
    "name_zh": "既有公园绿地",
    "area_sqm_declared": 3088.2,
    "official_boundary": false,
    "boundary_precision": "provisional_rough",
    "attribution": "© OpenStreetMap contributors, ODbL 1.0"
   }
  },
  {
   "type": "Feature",
   "id": "GS-047",
   "geometry": {
    "type": "Polygon",
    "coordinates": [
     [
      [
       116.34258560000002,
       40.020612600000014
      ],
      [
       116.3432131,
       40.02082219999999
      ],
      [
       116.3438866,
       40.02095729999999
      ],
      [
       116.3441042,
       40.02049600000001
      ],
      [
       116.34420550000002,
       40.020262599999995
      ],
      [
       116.3442902,
       40.020085599999994
      ],
      [
       116.34433179999999,
       40.01991319999999
      ],
      [
       116.34434640000002,
       40.01964929999999
      ],
      [
       116.34428469999999,
       40.01938749999999
      ],
      [
       116.3423535596756,
       40.01939917652127
      ],
      [
       116.34240619666012,
       40.020478134079525
      ],
      [
       116.34258560000002,
       40.020612600000014
      ]
     ]
    ]
   },
   "properties": {
    "id": "GS-047",
    "layer": "GREEN_SPACE",
    "source_type": "osm",
    "confidence": "medium",
    "geometry_role": "existing_condition",
    "green_type": "existing_park",
    "name_zh": "小月河公园",
    "area_sqm_declared": 24205.0,
    "official_boundary": false,
    "boundary_precision": "provisional_rough",
    "attribution": "© OpenStreetMap contributors, ODbL 1.0"
   }
  },
  {
   "type": "Feature",
   "id": "GS-048",
   "geometry": {
    "type": "Polygon",
    "coordinates": [
     [
      [
       116.3535906,
       40.0133575
      ],
      [
       116.35402590000001,
       40.0127888
      ],
      [
       116.3542372,
       40.01203379999998
      ],
      [
       116.35448136730412,
       40.01156410874956
      ],
      [
       116.35444314844216,
       40.01086666780668
      ],
      [
       116.35394270000002,
       40.01092080000001
      ],
      [
       116.3528673,
       40.01267599999999
      ],
      [
       116.352432,
       40.0127545
      ],
      [
       116.35218230000001,
       40.0133477
      ],
      [
       116.35259200000002,
       40.0134164
      ],
      [
       116.3535906,
       40.0133575
      ]
     ]
    ]
   },
   "properties": {
    "id": "GS-048",
    "layer": "GREEN_SPACE",
    "source_type": "osm",
    "confidence": "medium",
    "geometry_role": "existing_condition",
    "green_type": "existing_park",
    "name_zh": "既有公园绿地",
    "area_sqm_declared": 25434.8,
    "official_boundary": false,
    "boundary_precision": "provisional_rough",
    "attribution": "© OpenStreetMap contributors, ODbL 1.0"
   }
  },
  {
   "type": "Feature",
   "id": "GS-049",
   "geometry": {
    "type": "Polygon",
    "coordinates": [
     [
      [
       116.3527653,
       40.02026050000001
      ],
      [
       116.35182810000002,
       40.02026839999999
      ],
      [
       116.3510615,
       40.01943279999999
      ],
      [
       116.350974,
       40.0197737
      ],
      [
       116.3501925,
       40.02005059999999
      ],
      [
       116.3506472,
       40.020555
      ],
      [
       116.3511622,
       40.02087350000001
      ],
      [
       116.3515683,
       40.020987299999994
      ],
      [
       116.3519307,
       40.02106549999999
      ],
      [
       116.3527575,
       40.021116
      ],
      [
       116.35466829999999,
       40.021146599999994
      ],
      [
       116.3550089227971,
       40.02118997841941
      ],
      [
       116.35495622614899,
       40.020228573698105
      ],
      [
       116.3527653,
       40.02026050000001
      ]
     ]
    ]
   },
   "properties": {
    "id": "GS-049",
    "layer": "GREEN_SPACE",
    "source_type": "osm",
    "confidence": "medium",
    "geometry_role": "existing_condition",
    "green_type": "existing_park",
    "name_zh": "既有公园绿地",
    "area_sqm_declared": 38996.2,
    "official_boundary": false,
    "boundary_precision": "provisional_rough",
    "attribution": "© OpenStreetMap contributors, ODbL 1.0"
   }
  },
  {
   "type": "Feature",
   "id": "GS-050",
   "geometry": {
    "type": "Polygon",
    "coordinates": [
     [
      [
       116.341326,
       39.984435799999986
      ],
      [
       116.34067449999999,
       39.98441880000001
      ],
      [
       116.3404196,
       39.984412699999986
      ],
      [
       116.34030687413268,
       39.98440921669385
      ],
      [
       116.34033300690632,
       39.98481433736247
      ],
      [
       116.34075820000001,
       39.9848145
      ],
      [
       116.3407752,
       39.98463189999998
      ],
      [
       116.3413068,
       39.98464390000001
      ],
      [
       116.341326,
       39.984435799999986
      ]
     ]
    ]
   },
   "properties": {
    "id": "GS-050",
    "layer": "GREEN_SPACE",
    "source_type": "osm",
    "confidence": "medium",
    "geometry_role": "existing_condition",
    "green_type": "existing_park",
    "name_zh": "既有公园绿地",
    "area_sqm_declared": 2782.3,
    "official_boundary": false,
    "boundary_precision": "provisional_rough",
    "attribution": "© OpenStreetMap contributors, ODbL 1.0"
   }
  },
  {
   "type": "Feature",
   "id": "GS-051",
   "geometry": {
    "type": "Polygon",
    "coordinates": [
     [
      [
       116.3427148,
       40.0216039
      ],
      [
       116.34309239999999,
       40.02156119999999
      ],
      [
       116.3437576,
       40.02153160000001
      ],
      [
       116.344028,
       40.021117499999995
      ],
      [
       116.3429422,
       40.020897299999994
      ],
      [
       116.3425774,
       40.02074609999999
      ],
      [
       116.34241409185218,
       40.02063996788437
      ],
      [
       116.34246111873038,
       40.02160390013574
      ],
      [
       116.3427148,
       40.0216039
      ]
     ]
    ]
   },
   "properties": {
    "id": "GS-051",
    "layer": "GREEN_SPACE",
    "source_type": "osm",
    "confidence": "medium",
    "geometry_role": "existing_condition",
    "green_type": "existing_park",
    "name_zh": "东升清河培黎公园",
    "area_sqm_declared": 8884.8,
    "official_boundary": false,
    "boundary_precision": "provisional_rough",
    "attribution": "© OpenStreetMap contributors, ODbL 1.0"
   }
  },
  {
   "type": "Feature",
   "id": "GS-052",
   "geometry": {
    "type": "Polygon",
    "coordinates": [
     [
      [
       116.34574240000002,
       40.0061968
      ],
      [
       116.3459458,
       40.006087199999996
      ],
      [
       116.3459607,
       40.005905899999995
      ],
      [
       116.345338,
       40.0059178
      ],
      [
       116.34534110000001,
       40.006181099999985
      ],
      [
       116.34574240000002,
       40.0061968
      ]
     ]
    ]
   },
   "properties": {
    "id": "GS-052",
    "layer": "GREEN_SPACE",
    "source_type": "osm",
    "confidence": "medium",
    "geometry_role": "existing_condition",
    "green_type": "existing_park",
    "name_zh": "既有公园绿地",
    "area_sqm_declared": 1514.2,
    "official_boundary": false,
    "boundary_precision": "provisional_rough",
    "attribution": "© OpenStreetMap contributors, ODbL 1.0"
   }
  },
  {
   "type": "Feature",
   "id": "GS-053",
   "geometry": {
    "type": "Polygon",
    "coordinates": [
     [
      [
       116.3474135,
       40.01046259999999
      ],
      [
       116.347435,
       40.0101339
      ],
      [
       116.3467108,
       40.0101215
      ],
      [
       116.34670010000002,
       40.0102941
      ],
      [
       116.3474135,
       40.01046259999999
      ]
     ]
    ]
   },
   "properties": {
    "id": "GS-053",
    "layer": "GREEN_SPACE",
    "source_type": "osm",
    "confidence": "medium",
    "geometry_role": "existing_condition",
    "green_type": "existing_park",
    "name_zh": "既有公园绿地",
    "area_sqm_declared": 1722.0,
    "official_boundary": false,
    "boundary_precision": "provisional_rough",
    "attribution": "© OpenStreetMap contributors, ODbL 1.0"
   }
  },
  {
   "type": "Feature",
   "id": "GS-054",
   "geometry": {
    "type": "Polygon",
    "coordinates": [
     [
      [
       116.345196,
       40.0074921
      ],
      [
       116.3452053,
       40.00707359999999
      ],
      [
       116.34321330000002,
       40.007064299999996
      ],
      [
       116.3432159,
       40.007484999999996
      ],
      [
       116.345196,
       40.0074921
      ]
     ]
    ]
   },
   "properties": {
    "id": "GS-054",
    "layer": "GREEN_SPACE",
    "source_type": "osm",
    "confidence": "medium",
    "geometry_role": "existing_condition",
    "green_type": "existing_park",
    "name_zh": "既有公园绿地",
    "area_sqm_declared": 7901.6,
    "official_boundary": false,
    "boundary_precision": "provisional_rough",
    "attribution": "© OpenStreetMap contributors, ODbL 1.0"
   }
  },
  {
   "type": "Feature",
   "id": "GS-055",
   "geometry": {
    "type": "Polygon",
    "coordinates": [
     [
      [
       116.3425621,
       39.9993375
      ],
      [
       116.3425746,
       39.9991427
      ],
      [
       116.342521,
       39.9991411
      ],
      [
       116.3425222,
       39.999094899999996
      ],
      [
       116.34125235433758,
       39.99906368486928
      ],
      [
       116.34126793690649,
       39.99930515960568
      ],
      [
       116.3425621,
       39.9993375
      ]
     ]
    ]
   },
   "properties": {
    "id": "GS-055",
    "layer": "GREEN_SPACE",
    "source_type": "osm",
    "confidence": "medium",
    "geometry_role": "existing_condition",
    "green_type": "existing_park",
    "name_zh": "王庄公园（东区）",
    "area_sqm_declared": 2973.5,
    "official_boundary": false,
    "boundary_precision": "provisional_rough",
    "attribution": "© OpenStreetMap contributors, ODbL 1.0"
   }
  },
  {
   "type": "Feature",
   "id": "GS-056",
   "geometry": {
    "type": "Polygon",
    "coordinates": [
     [
      [
       116.3475473,
       39.9569561
      ],
      [
       116.3474747,
       39.957006499999984
      ],
      [
       116.34746290000001,
       39.95723480000001
      ],
      [
       116.34744009999999,
       39.9580105
      ],
      [
       116.34806560000001,
       39.956965999999994
      ],
      [
       116.3475473,
       39.9569561
      ]
     ]
    ]
   },
   "properties": {
    "id": "GS-056",
    "layer": "GREEN_SPACE",
    "source_type": "osm",
    "confidence": "medium",
    "geometry_role": "existing_condition",
    "green_type": "existing_park",
    "name_zh": "元大都城垣遗址公园",
    "area_sqm_declared": 2953.9,
    "official_boundary": false,
    "boundary_precision": "provisional_rough",
    "attribution": "© OpenStreetMap contributors, ODbL 1.0"
   }
  },
  {
   "type": "Feature",
   "id": "GS-057",
   "geometry": {
    "type": "Polygon",
    "coordinates": [
     [
      [
       116.3500192,
       40.01377879999998
      ],
      [
       116.3500715,
       40.0136592
      ],
      [
       116.35015850000002,
       40.0135367
      ],
      [
       116.35018590000001,
       40.0134624
      ],
      [
       116.3503309,
       40.01331359999999
      ],
      [
       116.35034589999998,
       40.013141499999996
      ],
      [
       116.3504291,
       40.0130241
      ],
      [
       116.3505121,
       40.01299099999999
      ],
      [
       116.350664,
       40.012726799999996
      ],
      [
       116.35011959999999,
       40.01259659999999
      ],
      [
       116.34944590000002,
       40.0135841
      ],
      [
       116.3494255,
       40.0138651
      ],
      [
       116.3501003,
       40.0138739
      ],
      [
       116.3500192,
       40.01377879999998
      ]
     ]
    ]
   },
   "properties": {
    "id": "GS-057",
    "layer": "GREEN_SPACE",
    "source_type": "osm",
    "confidence": "medium",
    "geometry_role": "existing_condition",
    "green_type": "existing_park",
    "name_zh": "既有公园绿地",
    "area_sqm_declared": 7369.3,
    "official_boundary": false,
    "boundary_precision": "provisional_rough",
    "attribution": "© OpenStreetMap contributors, ODbL 1.0"
   }
  },
  {
   "type": "Feature",
   "id": "GS-058",
   "geometry": {
    "type": "Polygon",
    "coordinates": [
     [
      [
       116.34847369999999,
       39.985171300000005
      ],
      [
       116.3499832,
       39.9852182
      ],
      [
       116.3500084,
       39.9846409
      ],
      [
       116.3484957,
       39.984604999999995
      ],
      [
       116.34847369999999,
       39.985171300000005
      ]
     ]
    ]
   },
   "properties": {
    "id": "GS-058",
    "layer": "GREEN_SPACE",
    "source_type": "osm",
    "confidence": "medium",
    "geometry_role": "existing_condition",
    "green_type": "existing_park",
    "name_zh": "既有公园绿地",
    "area_sqm_declared": 8204.3,
    "official_boundary": false,
    "boundary_precision": "provisional_rough",
    "attribution": "© OpenStreetMap contributors, ODbL 1.0"
   }
  },
  {
   "type": "Feature",
   "id": "GS-059",
   "geometry": {
    "type": "Polygon",
    "coordinates": [
     [
      [
       116.3528403,
       39.986834400000006
      ],
      [
       116.35237849999999,
       39.9868207
      ],
      [
       116.3523178,
       39.986874199999995
      ],
      [
       116.3523178,
       39.987343799999984
      ],
      [
       116.3523664,
       39.9873857
      ],
      [
       116.35284280000002,
       39.9873903
      ],
      [
       116.3528403,
       39.986834400000006
      ]
     ]
    ]
   },
   "properties": {
    "id": "GS-059",
    "layer": "GREEN_SPACE",
    "source_type": "osm",
    "confidence": "medium",
    "geometry_role": "existing_condition",
    "green_type": "existing_park",
    "name_zh": "既有公园绿地",
    "area_sqm_declared": 2761.7,
    "official_boundary": false,
    "boundary_precision": "provisional_rough",
    "attribution": "© OpenStreetMap contributors, ODbL 1.0"
   }
  },
  {
   "type": "Feature",
   "id": "GS-060",
   "geometry": {
    "type": "Polygon",
    "coordinates": [
     [
      [
       116.35324969999999,
       40.00725819999999
      ],
      [
       116.3528826,
       40.00804380000001
      ],
      [
       116.35430731858565,
       40.00838786072821
      ],
      [
       116.35425743750059,
       40.00747752336706
      ],
      [
       116.35324969999999,
       40.00725819999999
      ]
     ]
    ]
   },
   "properties": {
    "id": "GS-060",
    "layer": "GREEN_SPACE",
    "source_type": "osm",
    "confidence": "medium",
    "geometry_role": "existing_condition",
    "green_type": "existing_park",
    "name_zh": "既有公园绿地",
    "area_sqm_declared": 10201.9,
    "official_boundary": false,
    "boundary_precision": "provisional_rough",
    "attribution": "© OpenStreetMap contributors, ODbL 1.0"
   }
  },
  {
   "type": "Feature",
   "id": "GS-061",
   "geometry": {
    "type": "Polygon",
    "coordinates": [
     [
      [
       116.3438249,
       39.9833141
      ],
      [
       116.3438808,
       39.982050499999986
      ],
      [
       116.34331829999999,
       39.9820358
      ],
      [
       116.34326199999998,
       39.98329939999999
      ],
      [
       116.3438249,
       39.9833141
      ]
     ]
    ]
   },
   "properties": {
    "id": "GS-061",
    "layer": "GREEN_SPACE",
    "source_type": "osm",
    "confidence": "medium",
    "geometry_role": "existing_condition",
    "green_type": "existing_park",
    "name_zh": "晨读园",
    "area_sqm_declared": 6751.8,
    "official_boundary": false,
    "boundary_precision": "provisional_rough",
    "attribution": "© OpenStreetMap contributors, ODbL 1.0"
   }
  },
  {
   "type": "Feature",
   "id": "GS-062",
   "geometry": {
    "type": "Polygon",
    "coordinates": [
     [
      [
       116.3511764,
       40.00826610000001
      ],
      [
       116.35139950000001,
       40.0078725
      ],
      [
       116.351012,
       40.00774369999999
      ],
      [
       116.3507888,
       40.0081372
      ],
      [
       116.3511764,
       40.00826610000001
      ]
     ]
    ]
   },
   "properties": {
    "id": "GS-062",
    "layer": "GREEN_SPACE",
    "source_type": "osm",
    "confidence": "medium",
    "geometry_role": "existing_condition",
    "green_type": "existing_park",
    "name_zh": "既有公园绿地",
    "area_sqm_declared": 1718.7,
    "official_boundary": false,
    "boundary_precision": "provisional_rough",
    "attribution": "© OpenStreetMap contributors, ODbL 1.0"
   }
  }
 ]
}