{
 "type": "FeatureCollection",
 "features": [
  {
   "type": "Feature",
   "id": "PH-1",
   "geometry": {
    "type": "Polygon",
    "coordinates": [
     [
      [
       116.35530000658007,
       39.96208610022062
      ],
      [
       116.3553,
       39.939
      ],
      [
       116.34070000000001,
       39.93899999999999
      ],
      [
       116.34006125310349,
       39.962000348725894
      ],
      [
       116.35530000658007,
       39.96208610022062
      ]
     ]
    ]
   },
   "properties": {
    "id": "PH-1",
    "layer": "PHASE",
    "source_type": "agent_generated_design",
    "confidence": "medium",
    "geometry_role": "design_proposal",
    "phase_note_zh": "近期（概念分期）：大钟寺-西直门段，成熟建成区微更新+四象限步行环",
    "area_sqm_declared": 3262404.5,
    "official_boundary": false,
    "boundary_precision": "provisional_rough"
   }
  },
  {
   "type": "Feature",
   "id": "PH-2",
   "geometry": {
    "type": "Polygon",
    "coordinates": [
     [
      [
       116.35374243744263,
       39.998077444293955
      ],
      [
       116.3533,
       39.989999999999995
      ],
      [
       116.3553,
       39.965
      ],
      [
       116.35530000658007,
       39.96208610022062
      ],
      [
       116.34006125310349,
       39.962000348725894
      ],
      [
       116.3397,
       39.975
      ],
      [
       116.34118414978282,
       39.998006737331345
      ],
      [
       116.35374243744263,
       39.998077444293955
      ]
     ]
    ]
   },
   "properties": {
    "id": "PH-2",
    "layer": "PHASE",
    "source_type": "agent_generated_design",
    "confidence": "medium",
    "geometry_role": "design_proposal",
    "phase_note_zh": "中期（概念分期）：五道口-AI原点社区段，廊道贯通+轨道站一体化",
    "area_sqm_declared": 4769319.6,
    "official_boundary": false,
    "boundary_precision": "provisional_rough"
   }
  },
  {
   "type": "Feature",
   "id": "PH-3",
   "geometry": {
    "type": "Polygon",
    "coordinates": [
     [
      [
       116.34118414978282,
       39.998006737331345
      ],
      [
       116.34169999999999,
       40.00600000000001
      ],
      [
       116.34270000000001,
       40.0265
      ],
      [
       116.3553,
       40.0265
      ],
      [
       116.35374243744263,
       39.998077444293955
      ],
      [
       116.34118414978282,
       39.998006737331345
      ]
     ]
    ]
   },
   "properties": {
    "id": "PH-3",
    "layer": "PHASE",
    "source_type": "agent_generated_design",
    "confidence": "medium",
    "geometry_role": "design_proposal",
    "phase_note_zh": "远期（概念分期）：众智园-清河段，规模化产业空间供给",
    "area_sqm_declared": 3381101.4,
    "official_boundary": false,
    "boundary_precision": "provisional_rough"
   }
  }
 ]
}