{
 "type": "FeatureCollection",
 "features": [
  {
   "type": "Feature",
   "id": "PS-001",
   "geometry": {
    "type": "Polygon",
    "coordinates": [
     [
      [
       116.34433349048241,
       39.93983316138109
      ],
      [
       116.34432661402471,
       39.94055361747338
      ],
      [
       116.34666652210977,
       39.940566826959135
      ],
      [
       116.34667337403167,
       39.93984637053159
      ],
      [
       116.34433349048241,
       39.93983316138109
      ]
     ]
    ]
   },
   "properties": {
    "id": "PS-001",
    "layer": "PUBLIC_SPACE",
    "source_type": "agent_generated_design",
    "confidence": "medium",
    "geometry_role": "design_proposal",
    "space_type": "gateway",
    "name_zh": "西直门南门户广场（京张记忆序厅接口）",
    "design_note_zh": "衔接北京北站与西直门枢纽，智脊南端起点",
    "area_sqm_declared": 16000.0,
    "official_boundary": false,
    "boundary_precision": "provisional_rough"
   }
  },
  {
   "type": "Feature",
   "id": "PS-002",
   "geometry": {
    "type": "Polygon",
    "coordinates": [
     [
      [
       116.34239971825768,
       39.96650328696724
      ],
      [
       116.3424092098231,
       39.96551266464723
      ],
      [
       116.33996405084376,
       39.965498767968676
      ],
      [
       116.33993652738023,
       39.966489287329544
      ],
      [
       116.34239971825768,
       39.96650328696724
      ]
     ]
    ]
   },
   "properties": {
    "id": "PS-002",
    "layer": "PUBLIC_SPACE",
    "source_type": "agent_generated_design",
    "confidence": "medium",
    "geometry_role": "design_proposal",
    "space_type": "transit_plaza",
    "name_zh": "大钟寺站四象限步行环（概念建议）",
    "design_note_zh": "回应公告大钟寺站四象限步行连通任务",
    "area_sqm_declared": 23065.8,
    "official_boundary": false,
    "boundary_precision": "provisional_rough"
   }
  },
  {
   "type": "Feature",
   "id": "PS-003",
   "geometry": {
    "type": "Polygon",
    "coordinates": [
     [
      [
       116.34044975738502,
       39.97485629887301
      ],
      [
       116.3404432644847,
       39.97553172184259
      ],
      [
       116.34255025324444,
       39.97554369167582
      ],
      [
       116.34255672540648,
       39.97486826842149
      ],
      [
       116.34044975738502,
       39.97485629887301
      ]
     ]
    ]
   },
   "properties": {
    "id": "PS-003",
    "layer": "PUBLIC_SPACE",
    "source_type": "agent_generated_design",
    "confidence": "medium",
    "geometry_role": "design_proposal",
    "space_type": "street_node",
    "name_zh": "知春路AI生活实验街节点",
    "design_note_zh": "知春路站接驳+沿街AI场景界面",
    "area_sqm_declared": 13500.0,
    "official_boundary": false,
    "boundary_precision": "provisional_rough"
   }
  },
  {
   "type": "Feature",
   "id": "PS-004",
   "geometry": {
    "type": "Polygon",
    "coordinates": [
     [
      [
       116.34121623373444,
       39.98956492004374
      ],
      [
       116.34120801463695,
       39.990420453746154
      ],
      [
       116.34378378271292,
       39.9904350658356
      ],
      [
       116.34379196968074,
       39.98957953169295
      ],
      [
       116.34121623373444,
       39.98956492004374
      ]
     ]
    ]
   },
   "properties": {
    "id": "PS-004",
    "layer": "PUBLIC_SPACE",
    "source_type": "agent_generated_design",
    "confidence": "medium",
    "geometry_role": "design_proposal",
    "space_type": "transit_plaza",
    "name_zh": "五道口东青年创新广场",
    "design_note_zh": "衔接五道口站（站点位于临时边界西侧），朝圣地标「源点钟塔」落位",
    "area_sqm_declared": 20900.0,
    "official_boundary": false,
    "boundary_precision": "provisional_rough"
   }
  },
  {
   "type": "Feature",
   "id": "PS-005",
   "geometry": {
    "type": "Polygon",
    "coordinates": [
     [
      [
       116.34124185136132,
       39.98450299468516
      ],
      [
       116.34123622903222,
       39.98508836037958
      ],
      [
       116.34275815525532,
       39.98509700039358
      ],
      [
       116.34276376459758,
       39.98451163452104
      ],
      [
       116.34124185136132,
       39.98450299468516
      ]
     ]
    ]
   },
   "properties": {
    "id": "PS-005",
    "layer": "PUBLIC_SPACE",
    "source_type": "agent_generated_design",
    "confidence": "medium",
    "geometry_role": "design_proposal",
    "space_type": "heritage_gateway",
    "name_zh": "清华园车站遗址接口节点",
    "design_note_zh": "遗址公园位于临时边界西侧，此处为缝合接口（概念建议）",
    "area_sqm_declared": 8450.0,
    "official_boundary": false,
    "boundary_precision": "provisional_rough"
   }
  },
  {
   "type": "Feature",
   "id": "PS-006",
   "geometry": {
    "type": "Polygon",
    "coordinates": [
     [
      [
       116.3453912386403,
       39.9994109836615
      ],
      [
       116.34538392878387,
       40.000176460527236
      ],
      [
       116.34760877405851,
       40.00018900580578
      ],
      [
       116.3476160590752,
       39.999423528601895
      ],
      [
       116.3453912386403,
       39.9994109836615
      ]
     ]
    ]
   },
   "properties": {
    "id": "PS-006",
    "layer": "PUBLIC_SPACE",
    "source_type": "agent_generated_design",
    "confidence": "medium",
    "geometry_role": "design_proposal",
    "space_type": "civic_square",
    "name_zh": "六道口科学客厅",
    "design_note_zh": "六道口站接驳+高校成果展示界面",
    "area_sqm_declared": 16150.0,
    "official_boundary": false,
    "boundary_precision": "provisional_rough"
   }
  },
  {
   "type": "Feature",
   "id": "PS-007",
   "geometry": {
    "type": "Polygon",
    "coordinates": [
     [
      [
       116.34463246250826,
       40.01311064497322
      ],
      [
       116.3446251406305,
       40.0138761199078
      ],
      [
       116.34696755089134,
       40.01388934334413
      ],
      [
       116.3469748466041,
       40.01312386805313
      ],
      [
       116.34463246250826,
       40.01311064497322
      ]
     ]
    ]
   },
   "properties": {
    "id": "PS-007",
    "layer": "PUBLIC_SPACE",
    "source_type": "agent_generated_design",
    "confidence": "medium",
    "geometry_role": "design_proposal",
    "space_type": "transit_plaza",
    "name_zh": "学知园站产城融合节点",
    "design_note_zh": "学知园站一体化开发节点",
    "area_sqm_declared": 17000.0,
    "official_boundary": false,
    "boundary_precision": "provisional_rough"
   }
  },
  {
   "type": "Feature",
   "id": "PS-008",
   "geometry": {
    "type": "Polygon",
    "coordinates": [
     [
      [
       116.34566782135983,
       40.01540612645975
      ],
      [
       116.34564717808493,
       40.01756746677627
      ],
      [
       116.35033225351647,
       40.01759382699291
      ],
      [
       116.35035274901381,
       40.01543248467038
      ],
      [
       116.34566782135983,
       40.01540612645975
      ]
     ]
    ]
   },
   "properties": {
    "id": "PS-008",
    "layer": "PUBLIC_SPACE",
    "source_type": "agent_generated_design",
    "confidence": "medium",
    "geometry_role": "design_proposal",
    "space_type": "central_park",
    "name_zh": "众智园中央创新公园",
    "design_note_zh": "众智园旗舰公共空间，AI朝圣地标「智源环廊」落位",
    "area_sqm_declared": 96000.0,
    "official_boundary": false,
    "boundary_precision": "provisional_rough"
   }
  },
  {
   "type": "Feature",
   "id": "PS-009",
   "geometry": {
    "type": "Polygon",
    "coordinates": [
     [
      [
       116.34316395058853,
       40.023885465330245
      ],
      [
       116.3431561776697,
       40.02469596644896
      ],
      [
       116.34643606949633,
       40.02471451169976
      ],
      [
       116.34644380360854,
       40.02390401005183
      ],
      [
       116.34316395058853,
       40.023885465330245
      ]
     ]
    ]
   },
   "properties": {
    "id": "PS-009",
    "layer": "PUBLIC_SPACE",
    "source_type": "agent_generated_design",
    "confidence": "medium",
    "geometry_role": "design_proposal",
    "space_type": "waterfront",
    "name_zh": "清河滨水创新客厅",
    "design_note_zh": "清河南岸滨水公共空间，绿廊北端收束",
    "area_sqm_declared": 25200.0,
    "official_boundary": false,
    "boundary_precision": "provisional_rough"
   }
  }
 ]
}