{
  "type": "FeatureCollection",
  "name": "curiosity_line_public_learning_network",
  "features": [
    {
      "type": "Feature",
      "id": "PUBLIC-001",
      "properties": {
        "id": "PUBLIC-001",
        "layer": "PUBLIC_SPACE",
        "source_type": "agent_generated_design",
        "confidence": "medium",
        "geometry_role": "design_proposal",
        "name_zh": "京张公共学习脊与好奇门网络",
        "area_sqm_declared": 836345.643,
        "design_intent": "public_learning_accessibility_and_reversible_ai_trials_rev_0_3"
      },
      "geometry": {
        "type": "Polygon",
        "coordinates": [
          [
            [
              116.34734399999999,
              39.967
            ],
            [
              116.34734399999999,
              40.00025
            ],
            [
              116.349996,
              40.00025
            ],
            [
              116.349996,
              39.967
            ],
            [
              116.34734399999999,
              39.967
            ]
          ]
        ]
      }
    },
    {
      "type": "Feature",
      "id": "CLASS-01",
      "properties": {
        "id": "CLASS-01",
        "layer": "PUBLIC_SPACE",
        "source_type": "agent_generated_design",
        "confidence": "medium",
        "geometry_role": "design_proposal",
        "name_zh": "铁路遗产 AI 导览",
        "scenario_role": "controlled_public_learning_scenario",
        "human_fallback_required": true
      },
      "geometry": {
        "type": "Point",
        "coordinates": [
          116.34204,
          39.952125
        ]
      }
    },
    {
      "type": "Feature",
      "id": "CLASS-02",
      "properties": {
        "id": "CLASS-02",
        "layer": "PUBLIC_SPACE",
        "source_type": "agent_generated_design",
        "confidence": "medium",
        "geometry_role": "design_proposal",
        "name_zh": "模型说明卡亭",
        "scenario_role": "controlled_public_learning_scenario",
        "human_fallback_required": true
      },
      "geometry": {
        "type": "Point",
        "coordinates": [
          116.34568,
          39.952125
        ]
      }
    },
    {
      "type": "Feature",
      "id": "CLASS-03",
      "properties": {
        "id": "CLASS-03",
        "layer": "PUBLIC_SPACE",
        "source_type": "agent_generated_design",
        "confidence": "medium",
        "geometry_role": "design_proposal",
        "name_zh": "儿童创作沙盒",
        "scenario_role": "controlled_public_learning_scenario",
        "human_fallback_required": true
      },
      "geometry": {
        "type": "Point",
        "coordinates": [
          116.34932,
          39.952125
        ]
      }
    },
    {
      "type": "Feature",
      "id": "CLASS-04",
      "properties": {
        "id": "CLASS-04",
        "layer": "PUBLIC_SPACE",
        "source_type": "agent_generated_design",
        "confidence": "medium",
        "geometry_role": "design_proposal",
        "name_zh": "青少年机器人修造课",
        "scenario_role": "controlled_public_learning_scenario",
        "human_fallback_required": true
      },
      "geometry": {
        "type": "Point",
        "coordinates": [
          116.35296,
          39.952125
        ]
      }
    },
    {
      "type": "Feature",
      "id": "CLASS-05",
      "properties": {
        "id": "CLASS-05",
        "layer": "PUBLIC_SPACE",
        "source_type": "agent_generated_design",
        "confidence": "medium",
        "geometry_role": "design_proposal",
        "name_zh": "无障碍导航共测",
        "scenario_role": "controlled_public_learning_scenario",
        "human_fallback_required": true
      },
      "geometry": {
        "type": "Point",
        "coordinates": [
          116.34204,
          39.98275
        ]
      }
    },
    {
      "type": "Feature",
      "id": "CLASS-06",
      "properties": {
        "id": "CLASS-06",
        "layer": "PUBLIC_SPACE",
        "source_type": "agent_generated_design",
        "confidence": "medium",
        "geometry_role": "design_proposal",
        "name_zh": "多语种学习助手",
        "scenario_role": "controlled_public_learning_scenario",
        "human_fallback_required": true
      },
      "geometry": {
        "type": "Point",
        "coordinates": [
          116.34568,
          39.98275
        ]
      }
    },
    {
      "type": "Feature",
      "id": "CLASS-07",
      "properties": {
        "id": "CLASS-07",
        "layer": "PUBLIC_SPACE",
        "source_type": "agent_generated_design",
        "confidence": "medium",
        "geometry_role": "design_proposal",
        "name_zh": "公共服务导航",
        "scenario_role": "controlled_public_learning_scenario",
        "human_fallback_required": true
      },
      "geometry": {
        "type": "Point",
        "coordinates": [
          116.34932,
          39.98275
        ]
      }
    },
    {
      "type": "Feature",
      "id": "CLASS-08",
      "properties": {
        "id": "CLASS-08",
        "layer": "PUBLIC_SPACE",
        "source_type": "agent_generated_design",
        "confidence": "medium",
        "geometry_role": "design_proposal",
        "name_zh": "社区模型诊所",
        "scenario_role": "controlled_public_learning_scenario",
        "human_fallback_required": true
      },
      "geometry": {
        "type": "Point",
        "coordinates": [
          116.35296,
          39.98275
        ]
      }
    },
    {
      "type": "Feature",
      "id": "CLASS-09",
      "properties": {
        "id": "CLASS-09",
        "layer": "PUBLIC_SPACE",
        "source_type": "agent_generated_design",
        "confidence": "medium",
        "geometry_role": "design_proposal",
        "name_zh": "企业开放挑战",
        "scenario_role": "controlled_public_learning_scenario",
        "human_fallback_required": true
      },
      "geometry": {
        "type": "Point",
        "coordinates": [
          116.34204,
          40.013375
        ]
      }
    },
    {
      "type": "Feature",
      "id": "CLASS-10",
      "properties": {
        "id": "CLASS-10",
        "layer": "PUBLIC_SPACE",
        "source_type": "agent_generated_design",
        "confidence": "medium",
        "geometry_role": "design_proposal",
        "name_zh": "低速配送机器人测试",
        "scenario_role": "controlled_public_learning_scenario",
        "human_fallback_required": true
      },
      "geometry": {
        "type": "Point",
        "coordinates": [
          116.34568,
          40.013375
        ]
      }
    },
    {
      "type": "Feature",
      "id": "CLASS-11",
      "properties": {
        "id": "CLASS-11",
        "layer": "PUBLIC_SPACE",
        "source_type": "agent_generated_design",
        "confidence": "medium",
        "geometry_role": "design_proposal",
        "name_zh": "公共安全运营复核",
        "scenario_role": "controlled_public_learning_scenario",
        "human_fallback_required": true
      },
      "geometry": {
        "type": "Point",
        "coordinates": [
          116.34932,
          40.013375
        ]
      }
    },
    {
      "type": "Feature",
      "id": "CLASS-12",
      "properties": {
        "id": "CLASS-12",
        "layer": "PUBLIC_SPACE",
        "source_type": "agent_generated_design",
        "confidence": "medium",
        "geometry_role": "design_proposal",
        "name_zh": "年度 AI 城市公开答辩",
        "scenario_role": "controlled_public_learning_scenario",
        "human_fallback_required": true
      },
      "geometry": {
        "type": "Point",
        "coordinates": [
          116.35296,
          40.013375
        ]
      }
    }
  ]
}
