{
  "type": "FeatureCollection",
  "name": "conceptual_intervention_envelopes",
  "features": [
    {
      "type": "Feature",
      "id": "BLDG-001",
      "properties": {
        "id": "BLDG-001",
        "layer": "BUILDING_FOOTPRINT",
        "source_type": "agent_generated_design",
        "confidence": "low",
        "geometry_role": "design_proposal",
        "building_type": "ai_r_and_d",
        "name_zh": "概念介入包络（非现状建筑基底）",
        "design_status": "conceptual_suggestion_pending_survey_and_controls",
        "usage_note": "仅用于验证空间证据链；不是现状建筑普查、拆改留结论或已批准建设范围。",
        "area_sqm_declared": 310807.184
      },
      "geometry": {
        "type": "Polygon",
        "coordinates": [
          [
            [
              116.341572,
              39.95475
            ],
            [
              116.341572,
              39.97225
            ],
            [
              116.34344399999999,
              39.97225
            ],
            [
              116.34344399999999,
              39.95475
            ],
            [
              116.341572,
              39.95475
            ]
          ]
        ]
      }
    }
  ]
}
