{
  "type": "FeatureCollection",
  "name": "civic_studio_typology_footprints",
  "features": [
    {
      "type": "Feature",
      "id": "BLDG-001",
      "properties": {
        "id": "BLDG-001",
        "layer": "BUILDING_FOOTPRINT",
        "source_type": "agent_generated_design",
        "confidence": "medium",
        "geometry_role": "design_proposal",
        "building_type": "lab",
        "name_zh": "可信媒体测试棚",
        "name_en": "Trusted Media Test Studio",
        "renewal_strategy": "adaptive_reuse_or_new_build_pending_survey",
        "status": "concept_only",
        "usage_note_zh": "仅表达所需空间类型；具体建筑拆改留须以现状测绘、权属和结构鉴定为准。",
        "area_sqm_declared": 8823.35
      },
      "geometry": {
        "type": "Polygon",
        "coordinates": [
          [
            [
              116.34204,
              40.010093749999996
            ],
            [
              116.34204,
              40.00615625
            ],
            [
              116.34170762195122,
              40.00615625
            ],
            [
              116.34189969512195,
              40.010093749999996
            ],
            [
              116.34204,
              40.010093749999996
            ]
          ]
        ]
      }
    },
    {
      "type": "Feature",
      "id": "BLDG-002",
      "properties": {
        "id": "BLDG-002",
        "layer": "BUILDING_FOOTPRINT",
        "source_type": "agent_generated_design",
        "confidence": "medium",
        "geometry_role": "design_proposal",
        "building_type": "lab",
        "name_zh": "内容凭证工坊",
        "name_en": "Content Credentials Workshop",
        "renewal_strategy": "adaptive_reuse_or_new_build_pending_survey",
        "status": "concept_only",
        "usage_note_zh": "仅表达所需空间类型；具体建筑拆改留须以现状测绘、权属和结构鉴定为准。",
        "area_sqm_declared": 46593.453
      },
      "geometry": {
        "type": "Polygon",
        "coordinates": [
          [
            [
              116.342586,
              40.002874999999996
            ],
            [
              116.342586,
              40.006375
            ],
            [
              116.34398999999999,
              40.006375
            ],
            [
              116.34398999999999,
              40.002874999999996
            ],
            [
              116.342586,
              40.002874999999996
            ]
          ]
        ]
      }
    },
    {
      "type": "Feature",
      "id": "BLDG-003",
      "properties": {
        "id": "BLDG-003",
        "layer": "BUILDING_FOOTPRINT",
        "source_type": "agent_generated_design",
        "confidence": "medium",
        "geometry_role": "design_proposal",
        "building_type": "community_service",
        "name_zh": "创作者权利诊所",
        "name_en": "Creator Rights Clinic",
        "renewal_strategy": "adaptive_reuse_or_new_build_pending_survey",
        "status": "concept_only",
        "usage_note_zh": "仅表达所需空间类型；具体建筑拆改留须以现状测绘、权属和结构鉴定为准。",
        "area_sqm_declared": 58243.916
      },
      "geometry": {
        "type": "Polygon",
        "coordinates": [
          [
            [
              116.350152,
              40.00003125
            ],
            [
              116.350152,
              40.00396875
            ],
            [
              116.35171199999999,
              40.00396875
            ],
            [
              116.35171199999999,
              40.00003125
            ],
            [
              116.350152,
              40.00003125
            ]
          ]
        ]
      }
    },
    {
      "type": "Feature",
      "id": "BLDG-004",
      "properties": {
        "id": "BLDG-004",
        "layer": "BUILDING_FOOTPRINT",
        "source_type": "agent_generated_design",
        "confidence": "medium",
        "geometry_role": "design_proposal",
        "building_type": "education",
        "name_zh": "共同创作教室",
        "name_en": "Co-creation Classroom",
        "renewal_strategy": "adaptive_reuse_or_new_build_pending_survey",
        "status": "concept_only",
        "usage_note_zh": "仅表达所需空间类型；具体建筑拆改留须以现状测绘、权属和结构鉴定为准。",
        "area_sqm_declared": 51784.891
      },
      "geometry": {
        "type": "Polygon",
        "coordinates": [
          [
            [
              116.340792,
              39.983624999999996
            ],
            [
              116.340792,
              39.987125
            ],
            [
              116.34235199999999,
              39.987125
            ],
            [
              116.34235199999999,
              39.983624999999996
            ],
            [
              116.340792,
              39.983624999999996
            ]
          ]
        ]
      }
    },
    {
      "type": "Feature",
      "id": "BLDG-005",
      "properties": {
        "id": "BLDG-005",
        "layer": "BUILDING_FOOTPRINT",
        "source_type": "agent_generated_design",
        "confidence": "medium",
        "geometry_role": "design_proposal",
        "building_type": "education",
        "name_zh": "青年影像实验室",
        "name_en": "Youth Imaging Lab",
        "renewal_strategy": "adaptive_reuse_or_new_build_pending_survey",
        "status": "concept_only",
        "usage_note_zh": "仅表达所需空间类型；具体建筑拆改留须以现状测绘、权属和结构鉴定为准。",
        "area_sqm_declared": 46608.73
      },
      "geometry": {
        "type": "Polygon",
        "coordinates": [
          [
            [
              116.34289799999999,
              39.980125
            ],
            [
              116.34289799999999,
              39.983624999999996
            ],
            [
              116.344302,
              39.983624999999996
            ],
            [
              116.344302,
              39.980125
            ],
            [
              116.34289799999999,
              39.980125
            ]
          ]
        ]
      }
    },
    {
      "type": "Feature",
      "id": "BLDG-006",
      "properties": {
        "id": "BLDG-006",
        "layer": "BUILDING_FOOTPRINT",
        "source_type": "agent_generated_design",
        "confidence": "medium",
        "geometry_role": "design_proposal",
        "building_type": "cultural",
        "name_zh": "公共服务说明工坊",
        "name_en": "Public Explainer Workshop",
        "renewal_strategy": "adaptive_reuse_or_new_build_pending_survey",
        "status": "concept_only",
        "usage_note_zh": "仅表达所需空间类型；具体建筑拆改留须以现状测绘、权属和结构鉴定为准。",
        "area_sqm_declared": 64088.514
      },
      "geometry": {
        "type": "Polygon",
        "coordinates": [
          [
            [
              116.349762,
              39.97815625
            ],
            [
              116.349762,
              39.98209375
            ],
            [
              116.351478,
              39.98209375
            ],
            [
              116.351478,
              39.97815625
            ],
            [
              116.349762,
              39.97815625
            ]
          ]
        ]
      }
    },
    {
      "type": "Feature",
      "id": "BLDG-007",
      "properties": {
        "id": "BLDG-007",
        "layer": "BUILDING_FOOTPRINT",
        "source_type": "agent_generated_design",
        "confidence": "medium",
        "geometry_role": "design_proposal",
        "building_type": "community_service",
        "name_zh": "无障碍媒介工坊",
        "name_en": "Accessible Media Workshop",
        "renewal_strategy": "adaptive_reuse_or_new_build_pending_survey",
        "status": "concept_only",
        "usage_note_zh": "仅表达所需空间类型；具体建筑拆改留须以现状测绘、权属和结构鉴定为准。",
        "area_sqm_declared": 51801.864
      },
      "geometry": {
        "type": "Polygon",
        "coordinates": [
          [
            [
              116.34063599999999,
              39.960875
            ],
            [
              116.34063599999999,
              39.964375
            ],
            [
              116.342196,
              39.964375
            ],
            [
              116.342196,
              39.960875
            ],
            [
              116.34063599999999,
              39.960875
            ]
          ]
        ]
      }
    },
    {
      "type": "Feature",
      "id": "BLDG-008",
      "properties": {
        "id": "BLDG-008",
        "layer": "BUILDING_FOOTPRINT",
        "source_type": "agent_generated_design",
        "confidence": "medium",
        "geometry_role": "design_proposal",
        "building_type": "cultural",
        "name_zh": "城市首映与复核厅",
        "name_en": "Civic Premiere and Review Hall",
        "renewal_strategy": "adaptive_reuse_or_new_build_pending_survey",
        "status": "concept_only",
        "usage_note_zh": "仅表达所需空间类型；具体建筑拆改留须以现状测绘、权属和结构鉴定为准。",
        "area_sqm_declared": 71229.203
      },
      "geometry": {
        "type": "Polygon",
        "coordinates": [
          [
            [
              116.349762,
              39.958687499999996
            ],
            [
              116.349762,
              39.9630625
            ],
            [
              116.351478,
              39.9630625
            ],
            [
              116.351478,
              39.958687499999996
            ],
            [
              116.349762,
              39.958687499999996
            ]
          ]
        ]
      }
    },
    {
      "type": "Feature",
      "id": "BLDG-009",
      "properties": {
        "id": "BLDG-009",
        "layer": "BUILDING_FOOTPRINT",
        "source_type": "agent_generated_design",
        "confidence": "medium",
        "geometry_role": "design_proposal",
        "building_type": "incubator",
        "name_zh": "独立创作者孵化器",
        "name_en": "Independent Creator Incubator",
        "renewal_strategy": "adaptive_reuse_or_new_build_pending_survey",
        "status": "concept_only",
        "usage_note_zh": "仅表达所需空间类型；具体建筑拆改留须以现状测绘、权属和结构鉴定为准。",
        "area_sqm_declared": 51807.712
      },
      "geometry": {
        "type": "Polygon",
        "coordinates": [
          [
            [
              116.342664,
              39.953
            ],
            [
              116.342664,
              39.9565
            ],
            [
              116.344224,
              39.9565
            ],
            [
              116.344224,
              39.953
            ],
            [
              116.342664,
              39.953
            ]
          ]
        ]
      }
    }
  ]
}
