{
  "type": "FeatureCollection",
  "name": "civic_studio_three_gate_phasing",
  "features": [
    {
      "type": "Feature",
      "id": "PHASE-001",
      "properties": {
        "id": "PHASE-001",
        "layer": "PHASE",
        "source_type": "agent_generated_design",
        "confidence": "medium",
        "geometry_role": "design_proposal",
        "phase": "phase_1",
        "name_zh": "先做规则与公共原型",
        "name_en": "Rules and public prototypes first",
        "status": "concept_only",
        "area_sqm_declared": 4483054.633
      },
      "geometry": {
        "type": "Polygon",
        "coordinates": [
          [
            [
              116.3407,
              39.939
            ],
            [
              116.33982499999999,
              39.9705
            ],
            [
              116.35486,
              39.9705
            ],
            [
              116.3553,
              39.965
            ],
            [
              116.3553,
              39.939
            ],
            [
              116.3407,
              39.939
            ]
          ]
        ]
      }
    },
    {
      "type": "Feature",
      "id": "PHASE-002",
      "properties": {
        "id": "PHASE-002",
        "layer": "PHASE",
        "source_type": "agent_generated_design",
        "confidence": "medium",
        "geometry_role": "design_proposal",
        "phase": "phase_2",
        "name_zh": "再做片区联动与空间适配",
        "name_en": "District linkage and spatial adaptation",
        "status": "concept_only",
        "area_sqm_declared": 3707251.503
      },
      "geometry": {
        "type": "Polygon",
        "coordinates": [
          [
            [
              116.3533,
              39.99
            ],
            [
              116.35486,
              39.9705
            ],
            [
              116.33982499999999,
              39.9705
            ],
            [
              116.3397,
              39.975
            ],
            [
              116.34127258064517,
              39.999375
            ],
            [
              116.35381369863013,
              39.999375
            ],
            [
              116.3533,
              39.99
            ]
          ]
        ]
      }
    },
    {
      "type": "Feature",
      "id": "PHASE-003",
      "properties": {
        "id": "PHASE-003",
        "layer": "PHASE",
        "source_type": "agent_generated_design",
        "confidence": "medium",
        "geometry_role": "design_proposal",
        "phase": "phase_3",
        "name_zh": "最后扩展国际协作与长期运营",
        "name_en": "Scale international collaboration and stewardship",
        "status": "concept_only",
        "area_sqm_declared": 3222526.322
      },
      "geometry": {
        "type": "Polygon",
        "coordinates": [
          [
            [
              116.35381369863013,
              39.999375
            ],
            [
              116.34127258064517,
              39.999375
            ],
            [
              116.3417,
              40.006
            ],
            [
              116.3427,
              40.0265
            ],
            [
              116.3553,
              40.0265
            ],
            [
              116.35381369863013,
              39.999375
            ]
          ]
        ]
      }
    }
  ]
}
