{
  "type": "FeatureCollection",
  "name": "twelve_civic_scenario_frames",
  "features": [
    {
      "type": "Feature",
      "id": "PUBLIC-001",
      "properties": {
        "id": "PUBLIC-001",
        "layer": "PUBLIC_SPACE",
        "source_type": "agent_generated_design",
        "confidence": "medium",
        "geometry_role": "design_proposal",
        "scenario_id": "FRAME-01",
        "scenario_kind": "industry_test",
        "name_zh": "媒体来源压力测试",
        "name_en": "Media provenance stress test",
        "status": "concept_only",
        "human_review_required": true,
        "non_digital_fallback": true,
        "area_sqm_declared": 11181.156
      },
      "geometry": {
        "type": "Polygon",
        "coordinates": [
          [
            [
              116.34425519999999,
              40.011449999999996
            ],
            [
              116.34425519999999,
              40.01355
            ],
            [
              116.34481679999999,
              40.01355
            ],
            [
              116.34481679999999,
              40.011449999999996
            ],
            [
              116.34425519999999,
              40.011449999999996
            ]
          ]
        ]
      }
    },
    {
      "type": "Feature",
      "id": "PUBLIC-002",
      "properties": {
        "id": "PUBLIC-002",
        "layer": "PUBLIC_SPACE",
        "source_type": "agent_generated_design",
        "confidence": "medium",
        "geometry_role": "design_proposal",
        "scenario_id": "FRAME-02",
        "scenario_kind": "industry_test",
        "name_zh": "多语种与无障碍基准",
        "name_en": "Multilingual and accessibility benchmark",
        "status": "concept_only",
        "human_review_required": true,
        "non_digital_fallback": true,
        "area_sqm_declared": 11181.854
      },
      "geometry": {
        "type": "Polygon",
        "coordinates": [
          [
            [
              116.3467512,
              40.007075
            ],
            [
              116.3467512,
              40.009175
            ],
            [
              116.3473128,
              40.009175
            ],
            [
              116.3473128,
              40.007075
            ],
            [
              116.3467512,
              40.007075
            ]
          ]
        ]
      }
    },
    {
      "type": "Feature",
      "id": "PUBLIC-003",
      "properties": {
        "id": "PUBLIC-003",
        "layer": "PUBLIC_SPACE",
        "source_type": "agent_generated_design",
        "confidence": "medium",
        "geometry_role": "design_proposal",
        "scenario_id": "FRAME-03",
        "scenario_kind": "industry_test",
        "name_zh": "生成式媒体安全红队",
        "name_en": "Synthetic media safety red team",
        "status": "concept_only",
        "human_review_required": true,
        "non_digital_fallback": true,
        "area_sqm_declared": 11182.554
      },
      "geometry": {
        "type": "Polygon",
        "coordinates": [
          [
            [
              116.3490912,
              40.0027
            ],
            [
              116.3490912,
              40.004799999999996
            ],
            [
              116.3496528,
              40.004799999999996
            ],
            [
              116.3496528,
              40.0027
            ],
            [
              116.3490912,
              40.0027
            ]
          ]
        ]
      }
    },
    {
      "type": "Feature",
      "id": "PUBLIC-004",
      "properties": {
        "id": "PUBLIC-004",
        "layer": "PUBLIC_SPACE",
        "source_type": "agent_generated_design",
        "confidence": "medium",
        "geometry_role": "design_proposal",
        "scenario_id": "FRAME-04",
        "scenario_kind": "public_service",
        "name_zh": "可追溯遗产导览",
        "name_en": "Source-linked heritage guide",
        "status": "concept_only",
        "human_review_required": true,
        "non_digital_fallback": true,
        "area_sqm_declared": 11183.549
      },
      "geometry": {
        "type": "Polygon",
        "coordinates": [
          [
            [
              116.3459712,
              39.996575
            ],
            [
              116.3459712,
              39.998675
            ],
            [
              116.34653279999999,
              39.998675
            ],
            [
              116.34653279999999,
              39.996575
            ],
            [
              116.3459712,
              39.996575
            ]
          ]
        ]
      }
    },
    {
      "type": "Feature",
      "id": "PUBLIC-005",
      "properties": {
        "id": "PUBLIC-005",
        "layer": "PUBLIC_SPACE",
        "source_type": "agent_generated_design",
        "confidence": "medium",
        "geometry_role": "design_proposal",
        "scenario_id": "FRAME-05",
        "scenario_kind": "community_co_creation",
        "name_zh": "可撤回社区记忆棚",
        "name_en": "Withdrawable community memory studio",
        "status": "concept_only",
        "human_review_required": true,
        "non_digital_fallback": true,
        "area_sqm_declared": 11184.532
      },
      "geometry": {
        "type": "Polygon",
        "coordinates": [
          [
            [
              116.3479992,
              39.99045
            ],
            [
              116.3479992,
              39.99255
            ],
            [
              116.3485608,
              39.99255
            ],
            [
              116.3485608,
              39.99045
            ],
            [
              116.3479992,
              39.99045
            ]
          ]
        ]
      }
    },
    {
      "type": "Feature",
      "id": "PUBLIC-006",
      "properties": {
        "id": "PUBLIC-006",
        "layer": "PUBLIC_SPACE",
        "source_type": "agent_generated_design",
        "confidence": "medium",
        "geometry_role": "design_proposal",
        "scenario_id": "FRAME-06",
        "scenario_kind": "education",
        "name_zh": "青年AI影像素养课",
        "name_en": "Youth AI media literacy lab",
        "status": "concept_only",
        "human_review_required": true,
        "non_digital_fallback": true,
        "area_sqm_declared": 11185.527
      },
      "geometry": {
        "type": "Polygon",
        "coordinates": [
          [
            [
              116.3448792,
              39.984325
            ],
            [
              116.3448792,
              39.986425
            ],
            [
              116.34544079999999,
              39.986425
            ],
            [
              116.34544079999999,
              39.984325
            ],
            [
              116.3448792,
              39.984325
            ]
          ]
        ]
      }
    },
    {
      "type": "Feature",
      "id": "PUBLIC-007",
      "properties": {
        "id": "PUBLIC-007",
        "layer": "PUBLIC_SPACE",
        "source_type": "agent_generated_design",
        "confidence": "medium",
        "geometry_role": "design_proposal",
        "scenario_id": "FRAME-07",
        "scenario_kind": "talent_service",
        "name_zh": "多语种人才入城台",
        "name_en": "Multilingual talent onboarding desk",
        "status": "concept_only",
        "human_review_required": true,
        "non_digital_fallback": true,
        "area_sqm_declared": 11186.22
      },
      "geometry": {
        "type": "Polygon",
        "coordinates": [
          [
            [
              116.3494032,
              39.97995
            ],
            [
              116.3494032,
              39.98205
            ],
            [
              116.3499648,
              39.98205
            ],
            [
              116.3499648,
              39.97995
            ],
            [
              116.3494032,
              39.97995
            ]
          ]
        ]
      }
    },
    {
      "type": "Feature",
      "id": "PUBLIC-008",
      "properties": {
        "id": "PUBLIC-008",
        "layer": "PUBLIC_SPACE",
        "source_type": "agent_generated_design",
        "confidence": "medium",
        "geometry_role": "design_proposal",
        "scenario_id": "FRAME-08",
        "scenario_kind": "public_culture",
        "name_zh": "无障碍公共首映",
        "name_en": "Accessible civic premiere",
        "status": "concept_only",
        "human_review_required": true,
        "non_digital_fallback": true,
        "area_sqm_declared": 11187.356
      },
      "geometry": {
        "type": "Polygon",
        "coordinates": [
          [
            [
              116.34643919999999,
              39.97295
            ],
            [
              116.34643919999999,
              39.975049999999996
            ],
            [
              116.34700079999999,
              39.975049999999996
            ],
            [
              116.34700079999999,
              39.97295
            ],
            [
              116.34643919999999,
              39.97295
            ]
          ]
        ]
      }
    },
    {
      "type": "Feature",
      "id": "PUBLIC-009",
      "properties": {
        "id": "PUBLIC-009",
        "layer": "PUBLIC_SPACE",
        "source_type": "agent_generated_design",
        "confidence": "medium",
        "geometry_role": "design_proposal",
        "scenario_id": "FRAME-09",
        "scenario_kind": "creator_service",
        "name_zh": "独立创作者权利门诊",
        "name_en": "Independent creator rights clinic",
        "status": "concept_only",
        "human_review_required": true,
        "non_digital_fallback": true,
        "area_sqm_declared": 11188.194
      },
      "geometry": {
        "type": "Polygon",
        "coordinates": [
          [
            [
              116.3492472,
              39.9677
            ],
            [
              116.3492472,
              39.9698
            ],
            [
              116.34980879999999,
              39.9698
            ],
            [
              116.34980879999999,
              39.9677
            ],
            [
              116.3492472,
              39.9677
            ]
          ]
        ]
      }
    },
    {
      "type": "Feature",
      "id": "PUBLIC-010",
      "properties": {
        "id": "PUBLIC-010",
        "layer": "PUBLIC_SPACE",
        "source_type": "agent_generated_design",
        "confidence": "medium",
        "geometry_role": "design_proposal",
        "scenario_id": "FRAME-10",
        "scenario_kind": "public_service",
        "name_zh": "公共服务说明工坊",
        "name_en": "Public-service explainer studio",
        "status": "concept_only",
        "human_review_required": true,
        "non_digital_fallback": true,
        "area_sqm_declared": 11189.051
      },
      "geometry": {
        "type": "Polygon",
        "coordinates": [
          [
            [
              116.3451912,
              39.96245
            ],
            [
              116.3451912,
              39.96455
            ],
            [
              116.3457528,
              39.96455
            ],
            [
              116.3457528,
              39.96245
            ],
            [
              116.3451912,
              39.96245
            ]
          ]
        ]
      }
    },
    {
      "type": "Feature",
      "id": "PUBLIC-011",
      "properties": {
        "id": "PUBLIC-011",
        "layer": "PUBLIC_SPACE",
        "source_type": "agent_generated_design",
        "confidence": "medium",
        "geometry_role": "design_proposal",
        "scenario_id": "FRAME-11",
        "scenario_kind": "community_service",
        "name_zh": "小店文化故事工具箱",
        "name_en": "Local business story kit",
        "status": "concept_only",
        "human_review_required": true,
        "non_digital_fallback": true,
        "area_sqm_declared": 11189.89
      },
      "geometry": {
        "type": "Polygon",
        "coordinates": [
          [
            [
              116.3478432,
              39.9572
            ],
            [
              116.3478432,
              39.9593
            ],
            [
              116.3484048,
              39.9593
            ],
            [
              116.3484048,
              39.9572
            ],
            [
              116.3478432,
              39.9572
            ]
          ]
        ]
      }
    },
    {
      "type": "Feature",
      "id": "PUBLIC-012",
      "properties": {
        "id": "PUBLIC-012",
        "layer": "PUBLIC_SPACE",
        "source_type": "agent_generated_design",
        "confidence": "medium",
        "geometry_role": "design_proposal",
        "scenario_id": "FRAME-12",
        "scenario_kind": "industry_test_public_space",
        "name_zh": "低速设备公共空间测试",
        "name_en": "Low-speed device public-space test",
        "status": "concept_only",
        "human_review_required": true,
        "non_digital_fallback": true,
        "area_sqm_declared": 11191.021
      },
      "geometry": {
        "type": "Polygon",
        "coordinates": [
          [
            [
              116.3462832,
              39.9502
            ],
            [
              116.3462832,
              39.9523
            ],
            [
              116.3468448,
              39.9523
            ],
            [
              116.3468448,
              39.9502
            ],
            [
              116.3462832,
              39.9502
            ]
          ]
        ]
      }
    }
  ]
}
