{
  "type": "FeatureCollection",
  "name": "never_off_constraints_and_data_gaps",
  "features": [
    {
      "type": "Feature",
      "properties": {
        "id": "GAP-HERITAGE-001",
        "layer": "REGULATORY_CONTROL",
        "source_type": "agent_inferred_from_public_data",
        "confidence": "low",
        "geometry_role": "analysis_helper",
        "label": "文保边界与控制条件待核",
        "constraint_type": "heritage_data_gap",
        "assumption_id": "A-PROVISIONAL-GEOMETRY"
      },
      "geometry": {
        "type": "Point",
        "coordinates": [
          116.327,
          39.97
        ]
      },
      "id": "GAP-HERITAGE-001"
    },
    {
      "type": "Feature",
      "properties": {
        "id": "GAP-TRANSPORT-001",
        "layer": "REGULATORY_CONTROL",
        "source_type": "agent_inferred_from_public_data",
        "confidence": "low",
        "geometry_role": "analysis_helper",
        "label": "站点接口、道路与无障碍底图待核",
        "constraint_type": "transport_data_gap",
        "assumption_id": "A-TRANSPORT-CONCEPT"
      },
      "geometry": {
        "type": "Point",
        "coordinates": [
          116.35,
          39.968
        ]
      },
      "id": "GAP-TRANSPORT-001"
    },
    {
      "type": "Feature",
      "properties": {
        "id": "GAP-MUNICIPAL-001",
        "layer": "REGULATORY_CONTROL",
        "source_type": "agent_inferred_from_public_data",
        "confidence": "low",
        "geometry_role": "analysis_helper",
        "label": "排水、供电、通信与运营责任待核",
        "constraint_type": "municipal_operation_data_gap",
        "assumption_id": "A-PROVISIONAL-GEOMETRY"
      },
      "geometry": {
        "type": "Point",
        "coordinates": [
          116.33,
          40.015
        ]
      },
      "id": "GAP-MUNICIPAL-001"
    }
  ]
}
