{
  "type": "FeatureCollection",
  "name": "never_off_key_areas_conceptual",
  "features": [
    {
      "type": "Feature",
      "properties": {
        "id": "KEY-ORIGIN-001",
        "layer": "KEY_AREA",
        "source_type": "agent_inferred_from_public_data",
        "confidence": "low",
        "geometry_role": "provisional_constraint",
        "official_boundary": false,
        "boundary_precision": "provisional_rough",
        "area_id": "beijing_ai_origin_community",
        "label": "北京 AI 原点社区：日常服务样板",
        "role": "care_and_everyday_service",
        "assumption_id": "A-KEY-AREA-ROLES"
      },
      "geometry": {
        "type": "Polygon",
        "coordinates": [
          [
            [
              116.325,
              39.965
            ],
            [
              116.345,
              39.965
            ],
            [
              116.345,
              39.985
            ],
            [
              116.325,
              39.985
            ],
            [
              116.325,
              39.965
            ]
          ]
        ]
      },
      "id": "KEY-ORIGIN-001"
    },
    {
      "type": "Feature",
      "properties": {
        "id": "KEY-DAZHONGSI-001",
        "layer": "KEY_AREA",
        "source_type": "agent_inferred_from_public_data",
        "confidence": "low",
        "geometry_role": "provisional_constraint",
        "official_boundary": false,
        "boundary_precision": "provisional_rough",
        "area_id": "dazhongsi_ai_industry_cluster",
        "label": "大钟寺：换乘与夜间公共界面样板",
        "role": "transfer_and_night_interface",
        "assumption_id": "A-KEY-AREA-ROLES"
      },
      "geometry": {
        "type": "Polygon",
        "coordinates": [
          [
            [
              116.345,
              39.955
            ],
            [
              116.365,
              39.955
            ],
            [
              116.365,
              39.975
            ],
            [
              116.345,
              39.975
            ],
            [
              116.345,
              39.955
            ]
          ]
        ]
      },
      "id": "KEY-DAZHONGSI-001"
    },
    {
      "type": "Feature",
      "properties": {
        "id": "KEY-ZHONGZHI-001",
        "layer": "KEY_AREA",
        "source_type": "agent_inferred_from_public_data",
        "confidence": "low",
        "geometry_role": "provisional_constraint",
        "official_boundary": false,
        "boundary_precision": "provisional_rough",
        "area_id": "zhongzhiyuan_ai_acceleration_area",
        "label": "众智园：安全测试与恢复样板",
        "role": "controlled_testing_and_recovery",
        "assumption_id": "A-KEY-AREA-ROLES"
      },
      "geometry": {
        "type": "Polygon",
        "coordinates": [
          [
            [
              116.315,
              40.015
            ],
            [
              116.345,
              40.015
            ],
            [
              116.345,
              40.045
            ],
            [
              116.315,
              40.045
            ],
            [
              116.315,
              40.015
            ]
          ]
        ]
      },
      "id": "KEY-ZHONGZHI-001"
    }
  ]
}
