{
  "type": "FeatureCollection",
  "name": "never_off_phasing_conceptual",
  "features": [
    {
      "type": "Feature",
      "properties": {
        "id": "PHASE-01",
        "layer": "PHASE",
        "source_type": "agent_generated_design",
        "confidence": "low",
        "geometry_role": "design_proposal",
        "label": "阶段一：基础服务先行",
        "phase": 1,
        "actions": [
          "audit",
          "signage",
          "shade",
          "water",
          "paper_service"
        ],
        "assumption_id": "A-PROVISIONAL-GEOMETRY"
      },
      "geometry": {
        "type": "LineString",
        "coordinates": [
          [
            116.326,
            39.97
          ],
          [
            116.335,
            39.99
          ]
        ]
      },
      "id": "PHASE-01"
    },
    {
      "type": "Feature",
      "properties": {
        "id": "PHASE-02",
        "layer": "PHASE",
        "source_type": "agent_generated_design",
        "confidence": "low",
        "geometry_role": "design_proposal",
        "label": "阶段二：可暂停 AI 服务",
        "phase": 2,
        "actions": [
          "weather_alert",
          "accessible_route",
          "incident_log",
          "human_handover"
        ],
        "assumption_id": "A-KEY-AREA-ROLES"
      },
      "geometry": {
        "type": "LineString",
        "coordinates": [
          [
            116.335,
            39.99
          ],
          [
            116.34,
            40.015
          ]
        ]
      },
      "id": "PHASE-02"
    },
    {
      "type": "Feature",
      "properties": {
        "id": "PHASE-03",
        "layer": "PHASE",
        "source_type": "agent_generated_design",
        "confidence": "low",
        "geometry_role": "design_proposal",
        "label": "阶段三：受控测试与区域连接",
        "phase": 3,
        "actions": [
          "robot_test",
          "public_service_ai",
          "recovery_review",
          "scaling_gate"
        ],
        "assumption_id": "A-KEY-AREA-ROLES"
      },
      "geometry": {
        "type": "LineString",
        "coordinates": [
          [
            116.34,
            40.015
          ],
          [
            116.334,
            40.035
          ]
        ]
      },
      "id": "PHASE-03"
    }
  ]
}
