{
  "type": "FeatureCollection",
  "name": "never_off_roads_and_routes_conceptual",
  "features": [
    {
      "type": "Feature",
      "properties": {
        "id": "ROUTE-SPINE-001",
        "layer": "ROAD_CENTERLINE",
        "source_type": "agent_generated_design",
        "confidence": "low",
        "geometry_role": "design_proposal",
        "label": "京张公共服务脊概念慢行线",
        "route_type": "public_spine",
        "assumption_id": "A-TRANSPORT-CONCEPT",
        "road_class": "greenway"
      },
      "geometry": {
        "type": "LineString",
        "coordinates": [
          [
            116.329,
            39.948
          ],
          [
            116.331,
            39.968
          ],
          [
            116.335,
            39.988
          ],
          [
            116.337,
            40.012
          ],
          [
            116.339,
            40.04
          ]
        ]
      },
      "id": "ROUTE-SPINE-001"
    },
    {
      "type": "Feature",
      "properties": {
        "id": "ROUTE-EW-001",
        "layer": "ROAD_CENTERLINE",
        "source_type": "agent_generated_design",
        "confidence": "low",
        "geometry_role": "design_proposal",
        "label": "东西向社区—公园缝合线",
        "route_type": "community_connector",
        "assumption_id": "A-TRANSPORT-CONCEPT",
        "road_class": "local_access"
      },
      "geometry": {
        "type": "LineString",
        "coordinates": [
          [
            116.305,
            39.977
          ],
          [
            116.329,
            39.977
          ],
          [
            116.355,
            39.977
          ]
        ]
      },
      "id": "ROUTE-EW-001"
    },
    {
      "type": "Feature",
      "properties": {
        "id": "ROUTE-DETOUR-001",
        "layer": "ROAD_CENTERLINE",
        "source_type": "agent_generated_design",
        "confidence": "low",
        "geometry_role": "design_proposal",
        "label": "暴雨状态概念安全绕行线",
        "route_type": "emergency_detour",
        "assumption_id": "A-TRANSPORT-CONCEPT",
        "road_class": "pedestrian"
      },
      "geometry": {
        "type": "LineString",
        "coordinates": [
          [
            116.315,
            39.966
          ],
          [
            116.322,
            39.986
          ],
          [
            116.33,
            40.005
          ],
          [
            116.326,
            40.026
          ]
        ]
      },
      "id": "ROUTE-DETOUR-001"
    }
  ]
}
