{
  "type": "FeatureCollection",
  "name": "never_off_site_boundary_provisional",
  "features": [
    {
      "type": "Feature",
      "properties": {
        "id": "SITE-001",
        "layer": "SITE_BOUNDARY",
        "source_type": "agent_inferred_from_public_data",
        "confidence": "low",
        "geometry_role": "provisional_constraint",
        "official_boundary": false,
        "boundary_precision": "provisional_rough",
        "label": "概念研究范围，不是官方边界",
        "assumption_id": "A-PROVISIONAL-GEOMETRY"
      },
      "geometry": {
        "type": "Polygon",
        "coordinates": [
          [
            [
              116.29,
              39.94
            ],
            [
              116.38,
              39.94
            ],
            [
              116.38,
              40.05
            ],
            [
              116.29,
              40.05
            ],
            [
              116.29,
              39.94
            ]
          ]
        ]
      },
      "id": "SITE-001"
    }
  ]
}
