{
  "type": "FeatureCollection",
  "name": "buildings_design",
  "features": [
    {
      "type": "Feature",
      "id": "BLDG-001",
      "properties": {
        "id": "BLDG-001",
        "layer": "BUILDING_FOOTPRINT",
        "source_type": "agent_generated_design",
        "confidence": "medium",
        "geometry_role": "design_proposal",
        "building_type": "ai_r_and_d",
        "name_zh": "AI全栈研发中心",
        "area_sqm_declared": 9589.398
      },
      "geometry": {
        "type": "Polygon",
        "coordinates": [
          [
            [
              116.34479619663885,
              40.019640675530006
            ],
            [
              116.34620380336115,
              40.019640675530006
            ],
            [
              116.34620380336115,
              40.02035932447
            ],
            [
              116.34479619663885,
              40.02035932447
            ],
            [
              116.34479619663885,
              40.019640675530006
            ]
          ]
        ]
      }
    },
    {
      "type": "Feature",
      "id": "BLDG-002",
      "properties": {
        "id": "BLDG-002",
        "layer": "BUILDING_FOOTPRINT",
        "source_type": "agent_generated_design",
        "confidence": "medium",
        "geometry_role": "design_proposal",
        "building_type": "ai_r_and_d",
        "name_zh": "自主算力实验楼",
        "area_sqm_declared": 6992.262
      },
      "geometry": {
        "type": "Polygon",
        "coordinates": [
          [
            [
              116.34741351438909,
              40.01768559108876
            ],
            [
              116.34858648561091,
              40.01768559108876
            ],
            [
              116.34858648561091,
              40.018314408911245
            ],
            [
              116.34741351438909,
              40.018314408911245
            ],
            [
              116.34741351438909,
              40.01768559108876
            ]
          ]
        ]
      }
    },
    {
      "type": "Feature",
      "id": "BLDG-003",
      "properties": {
        "id": "BLDG-003",
        "layer": "BUILDING_FOOTPRINT",
        "source_type": "agent_generated_design",
        "confidence": "medium",
        "geometry_role": "design_proposal",
        "building_type": "incubator",
        "name_zh": "AI创业孵化器A座",
        "area_sqm_declared": 5394.029
      },
      "geometry": {
        "type": "Polygon",
        "coordinates": [
          [
            [
              116.34997215521484,
              40.0187305066475
            ],
            [
              116.35102784478515,
              40.0187305066475
            ],
            [
              116.35102784478515,
              40.019269493352496
            ],
            [
              116.34997215521484,
              40.019269493352496
            ],
            [
              116.34997215521484,
              40.0187305066475
            ]
          ]
        ]
      }
    },
    {
      "type": "Feature",
      "id": "BLDG-004",
      "properties": {
        "id": "BLDG-004",
        "layer": "BUILDING_FOOTPRINT",
        "source_type": "agent_generated_design",
        "confidence": "medium",
        "geometry_role": "design_proposal",
        "building_type": "incubator",
        "name_zh": "AI创业孵化器B座",
        "area_sqm_declared": 5518.893
      },
      "geometry": {
        "type": "Polygon",
        "coordinates": [
          [
            [
              116.34450150914529,
              40.01470804886813
            ],
            [
              116.34549849085471,
              40.01470804886813
            ],
            [
              116.34549849085471,
              40.01529195113187
            ],
            [
              116.34450150914529,
              40.01529195113187
            ],
            [
              116.34450150914529,
              40.01470804886813
            ]
          ]
        ]
      }
    },
    {
      "type": "Feature",
      "id": "BLDG-005",
      "properties": {
        "id": "BLDG-005",
        "layer": "BUILDING_FOOTPRINT",
        "source_type": "agent_generated_design",
        "confidence": "medium",
        "geometry_role": "design_proposal",
        "building_type": "community_service",
        "name_zh": "AI社区服务中心",
        "area_sqm_declared": 3496.127
      },
      "geometry": {
        "type": "Polygon",
        "coordinates": [
          [
            [
              116.34858948413482,
              40.01377542220626
            ],
            [
              116.34941051586519,
              40.01377542220626
            ],
            [
              116.34941051586519,
              40.01422457779375
            ],
            [
              116.34858948413482,
              40.01422457779375
            ],
            [
              116.34858948413482,
              40.01377542220626
            ]
          ]
        ]
      }
    },
    {
      "type": "Feature",
      "id": "BLDG-006",
      "properties": {
        "id": "BLDG-006",
        "layer": "BUILDING_FOOTPRINT",
        "source_type": "agent_generated_design",
        "confidence": "medium",
        "geometry_role": "design_proposal",
        "building_type": "ai_r_and_d",
        "name_zh": "AI原点创新实验室",
        "area_sqm_declared": 8240.829
      },
      "geometry": {
        "type": "Polygon",
        "coordinates": [
          [
            [
              116.34535513979648,
              39.98866313330937
            ],
            [
              116.34664486020353,
              39.98866313330937
            ],
            [
              116.34664486020353,
              39.98933686669062
            ],
            [
              116.34535513979648,
              39.98933686669062
            ],
            [
              116.34535513979648,
              39.98866313330937
            ]
          ]
        ]
      }
    },
    {
      "type": "Feature",
      "id": "BLDG-007",
      "properties": {
        "id": "BLDG-007",
        "layer": "BUILDING_FOOTPRINT",
        "source_type": "agent_generated_design",
        "confidence": "medium",
        "geometry_role": "design_proposal",
        "building_type": "retail",
        "name_zh": "AI体验商业综合体",
        "area_sqm_declared": 8066.016
      },
      "geometry": {
        "type": "Polygon",
        "coordinates": [
          [
            [
              116.34844308343159,
              39.98761821775063
            ],
            [
              116.34955691656842,
              39.98761821775063
            ],
            [
              116.34955691656842,
              39.98838178224937
            ],
            [
              116.34844308343159,
              39.98838178224937
            ],
            [
              116.34844308343159,
              39.98761821775063
            ]
          ]
        ]
      }
    },
    {
      "type": "Feature",
      "id": "BLDG-008",
      "properties": {
        "id": "BLDG-008",
        "layer": "BUILDING_FOOTPRINT",
        "source_type": "agent_generated_design",
        "confidence": "medium",
        "geometry_role": "design_proposal",
        "building_type": "community_service",
        "name_zh": "原点社区会客厅",
        "area_sqm_declared": 4395.108
      },
      "geometry": {
        "type": "Polygon",
        "coordinates": [
          [
            [
              116.34403103135661,
              39.98575296442687
            ],
            [
              116.34496896864339,
              39.98575296442687
            ],
            [
              116.34496896864339,
              39.98624703557312
            ],
            [
              116.34403103135661,
              39.98624703557312
            ],
            [
              116.34403103135661,
              39.98575296442687
            ]
          ]
        ]
      }
    },
    {
      "type": "Feature",
      "id": "BLDG-009",
      "properties": {
        "id": "BLDG-009",
        "layer": "BUILDING_FOOTPRINT",
        "source_type": "agent_generated_design",
        "confidence": "medium",
        "geometry_role": "design_proposal",
        "building_type": "residential",
        "name_zh": "人才公寓A区",
        "area_sqm_declared": 5993.321
      },
      "geometry": {
        "type": "Polygon",
        "coordinates": [
          [
            [
              116.35041378061472,
              39.986730506647504
            ],
            [
              116.35158621938528,
              39.986730506647504
            ],
            [
              116.35158621938528,
              39.9872694933525
            ],
            [
              116.35041378061472,
              39.9872694933525
            ],
            [
              116.35041378061472,
              39.986730506647504
            ]
          ]
        ]
      }
    },
    {
      "type": "Feature",
      "id": "BLDG-010",
      "properties": {
        "id": "BLDG-010",
        "layer": "BUILDING_FOOTPRINT",
        "source_type": "agent_generated_design",
        "confidence": "medium",
        "geometry_role": "design_proposal",
        "building_type": "retail",
        "name_zh": "智能原生商业体",
        "area_sqm_declared": 6292.934
      },
      "geometry": {
        "type": "Polygon",
        "coordinates": [
          [
            [
              116.3474727111693,
              39.94668559108876
            ],
            [
              116.3485272888307,
              39.94668559108876
            ],
            [
              116.3485272888307,
              39.94731440891125
            ],
            [
              116.3474727111693,
              39.94731440891125
            ],
            [
              116.3474727111693,
              39.94668559108876
            ]
          ]
        ]
      }
    },
    {
      "type": "Feature",
      "id": "BLDG-011",
      "properties": {
        "id": "BLDG-011",
        "layer": "BUILDING_FOOTPRINT",
        "source_type": "agent_generated_design",
        "confidence": "medium",
        "geometry_role": "design_proposal",
        "building_type": "ai_r_and_d",
        "name_zh": "AI产业加速器",
        "area_sqm_declared": 5094.282
      },
      "geometry": {
        "type": "Polygon",
        "coordinates": [
          [
            [
              116.34450201227251,
              39.9457305066475
            ],
            [
              116.34549798772748,
              39.9457305066475
            ],
            [
              116.34549798772748,
              39.946269493352496
            ],
            [
              116.34450201227251,
              39.946269493352496
            ],
            [
              116.34450201227251,
              39.9457305066475
            ]
          ]
        ]
      }
    },
    {
      "type": "Feature",
      "id": "BLDG-012",
      "properties": {
        "id": "BLDG-012",
        "layer": "BUILDING_FOOTPRINT",
        "source_type": "agent_generated_design",
        "confidence": "medium",
        "geometry_role": "design_proposal",
        "building_type": "incubator",
        "name_zh": "场景测试孵化空间",
        "area_sqm_declared": 4120.371
      },
      "geometry": {
        "type": "Polygon",
        "coordinates": [
          [
            [
              116.35056058621785,
              39.947752964426876
            ],
            [
              116.35143941378215,
              39.947752964426876
            ],
            [
              116.35143941378215,
              39.948247035573125
            ],
            [
              116.35056058621785,
              39.948247035573125
            ],
            [
              116.35056058621785,
              39.947752964426876
            ]
          ]
        ]
      }
    },
    {
      "type": "Feature",
      "id": "BLDG-013",
      "properties": {
        "id": "BLDG-013",
        "layer": "BUILDING_FOOTPRINT",
        "source_type": "agent_generated_design",
        "confidence": "medium",
        "geometry_role": "design_proposal",
        "building_type": "community_service",
        "name_zh": "京张记忆驿站",
        "area_sqm_declared": 2397.34
      },
      "geometry": {
        "type": "Polygon",
        "coordinates": [
          [
            [
              116.34714817564945,
              40.004820337765004
            ],
            [
              116.34785182435054,
              40.004820337765004
            ],
            [
              116.34785182435054,
              40.005179662235
            ],
            [
              116.34714817564945,
              40.005179662235
            ],
            [
              116.34714817564945,
              40.004820337765004
            ]
          ]
        ]
      }
    },
    {
      "type": "Feature",
      "id": "BLDG-014",
      "properties": {
        "id": "BLDG-014",
        "layer": "BUILDING_FOOTPRINT",
        "source_type": "agent_generated_design",
        "confidence": "medium",
        "geometry_role": "design_proposal",
        "building_type": "community_service",
        "name_zh": "慢行服务驿站",
        "area_sqm_declared": 2087.667
      },
      "geometry": {
        "type": "Polygon",
        "coordinates": [
          [
            [
              116.3471776595387,
              39.96982932087675
            ],
            [
              116.34782234046129,
              39.96982932087675
            ],
            [
              116.34782234046129,
              39.97017067912325
            ],
            [
              116.3471776595387,
              39.97017067912325
            ],
            [
              116.3471776595387,
              39.96982932087675
            ]
          ]
        ]
      }
    },
    {
      "type": "Feature",
      "id": "BLDG-015",
      "properties": {
        "id": "BLDG-015",
        "layer": "BUILDING_FOOTPRINT",
        "source_type": "agent_generated_design",
        "confidence": "medium",
        "geometry_role": "design_proposal",
        "building_type": "retail",
        "name_zh": "AI生活服务站",
        "area_sqm_declared": 1748.043
      },
      "geometry": {
        "type": "Polygon",
        "coordinates": [
          [
            [
              116.34720700607605,
              39.959842795544375
            ],
            [
              116.34779299392395,
              39.959842795544375
            ],
            [
              116.34779299392395,
              39.960157204455626
            ],
            [
              116.34720700607605,
              39.960157204455626
            ],
            [
              116.34720700607605,
              39.959842795544375
            ]
          ]
        ]
      }
    }
  ]
}