{
  "type": "FeatureCollection",
  "name": "constraints_layer",
  "features": [
    {
      "type": "Feature",
      "id": "CONST-001",
      "properties": {
        "id": "CONST-001",
        "layer": "HERITAGE_PROTECTION",
        "source_type": "agent_inferred_from_public_data",
        "confidence": "medium",
        "geometry_role": "provisional_constraint",
        "name_zh": "京张铁路遗址保护廊道",
        "constraint_type": "heritage_corridor",
        "official_boundary": false,
        "boundary_precision": "provisional_rough",
        "usage_note": "基于京张铁路遗址公园公开信息推断的临时保护廊道范围，待官方文保范围确认后替换。"
      },
      "geometry": {
        "type": "Polygon",
        "coordinates": [
          [
            [
              116.3468,
              39.939
            ],
            [
              116.3468,
              40.0265
            ],
            [
              116.3492,
              40.0265
            ],
            [
              116.3492,
              39.939
            ],
            [
              116.3468,
              39.939
            ]
          ]
        ]
      }
    },
    {
      "type": "Feature",
      "id": "CONST-002",
      "properties": {
        "id": "CONST-002",
        "layer": "REGULATORY_CONTROL",
        "source_type": "agent_inferred_from_public_data",
        "confidence": "medium",
        "geometry_role": "provisional_constraint",
        "name_zh": "待确认控规条件范围",
        "constraint_type": "pending_regulatory_control",
        "official_boundary": false,
        "boundary_precision": "provisional_rough",
        "usage_note": "容积率、建筑高度、建筑密度、绿地率等控规指标待正式数据补齐。"
      },
      "geometry": {
        "type": "Polygon",
        "coordinates": [
          [
            [
              116.3407,
              39.939
            ],
            [
              116.3553,
              39.939
            ],
            [
              116.3553,
              39.965
            ],
            [
              116.3533,
              39.99
            ],
            [
              116.3553,
              40.0265
            ],
            [
              116.3427,
              40.0265
            ],
            [
              116.3417,
              40.006
            ],
            [
              116.3397,
              39.975
            ],
            [
              116.3407,
              39.939
            ]
          ]
        ]
      }
    }
  ]
}