{
  "type": "FeatureCollection",
  "name": "green_space_network",
  "features": [
    {
      "type": "Feature",
      "id": "GREEN-001",
      "properties": {
        "id": "GREEN-001",
        "layer": "GREEN_SPACE",
        "source_type": "agent_generated_design",
        "confidence": "medium",
        "geometry_role": "design_proposal",
        "land_use_code": "1401",
        "name_zh": "京张遗址公园中央绿带",
        "area_sqm_declared": 2489747.883
      },
      "geometry": {
        "type": "Polygon",
        "coordinates": [
          [
            [
              116.3465,
              39.939
            ],
            [
              116.3465,
              40.0265
            ],
            [
              116.3495,
              40.0265
            ],
            [
              116.3495,
              39.939
            ],
            [
              116.3465,
              39.939
            ]
          ]
        ]
      }
    },
    {
      "type": "Feature",
      "id": "GREEN-002",
      "properties": {
        "id": "GREEN-002",
        "layer": "GREEN_SPACE",
        "source_type": "agent_generated_design",
        "confidence": "medium",
        "geometry_role": "design_proposal",
        "land_use_code": "1401",
        "name_zh": "清河滨水绿地",
        "area_sqm_declared": 236973.628
      },
      "geometry": {
        "type": "Polygon",
        "coordinates": [
          [
            [
              116.3535,
              40.024
            ],
            [
              116.3435,
              40.024
            ],
            [
              116.3435,
              40.0265
            ],
            [
              116.3535,
              40.0265
            ],
            [
              116.3535,
              40.024
            ]
          ]
        ]
      }
    },
    {
      "type": "Feature",
      "id": "GREEN-003",
      "properties": {
        "id": "GREEN-003",
        "layer": "GREEN_SPACE",
        "source_type": "agent_generated_design",
        "confidence": "medium",
        "geometry_role": "design_proposal",
        "land_use_code": "1401",
        "name_zh": "小月河滨水绿地",
        "area_sqm_declared": 616666.544
      },
      "geometry": {
        "type": "Polygon",
        "coordinates": [
          [
            [
              116.3485,
              39.978
            ],
            [
              116.351,
              39.978
            ],
            [
              116.351,
              39.952
            ],
            [
              116.3485,
              39.952
            ],
            [
              116.3485,
              39.978
            ]
          ]
        ]
      }
    },
    {
      "type": "Feature",
      "id": "GREEN-004",
      "properties": {
        "id": "GREEN-004",
        "layer": "GREEN_SPACE",
        "source_type": "agent_generated_design",
        "confidence": "medium",
        "geometry_role": "design_proposal",
        "land_use_code": "1402",
        "name_zh": "AI口袋公园-众智园",
        "area_sqm_declared": 42660.055
      },
      "geometry": {
        "type": "Polygon",
        "coordinates": [
          [
            [
              116.3445,
              40.019
            ],
            [
              116.346,
              40.019
            ],
            [
              116.346,
              40.016
            ],
            [
              116.3445,
              40.016
            ],
            [
              116.3445,
              40.019
            ]
          ]
        ]
      }
    },
    {
      "type": "Feature",
      "id": "GREEN-005",
      "properties": {
        "id": "GREEN-005",
        "layer": "GREEN_SPACE",
        "source_type": "agent_generated_design",
        "confidence": "medium",
        "geometry_role": "design_proposal",
        "land_use_code": "1402",
        "name_zh": "AI口袋公园-原点社区",
        "area_sqm_declared": 85356.407
      },
      "geometry": {
        "type": "Polygon",
        "coordinates": [
          [
            [
              116.3445,
              39.991
            ],
            [
              116.346,
              39.991
            ],
            [
              116.346,
              39.985
            ],
            [
              116.3445,
              39.985
            ],
            [
              116.3445,
              39.991
            ]
          ]
        ]
      }
    },
    {
      "type": "Feature",
      "id": "GREEN-006",
      "properties": {
        "id": "GREEN-006",
        "layer": "GREEN_SPACE",
        "source_type": "agent_generated_design",
        "confidence": "medium",
        "geometry_role": "design_proposal",
        "land_use_code": "1402",
        "name_zh": "AI口袋公园-大钟寺",
        "area_sqm_declared": 56937.877
      },
      "geometry": {
        "type": "Polygon",
        "coordinates": [
          [
            [
              116.3445,
              39.949
            ],
            [
              116.346,
              39.949
            ],
            [
              116.346,
              39.945
            ],
            [
              116.3445,
              39.945
            ],
            [
              116.3445,
              39.949
            ]
          ]
        ]
      }
    }
  ]
}