{
  "type": "FeatureCollection",
  "name": "phasing_plan",
  "features": [
    {
      "type": "Feature",
      "id": "PHASE-001",
      "properties": {
        "id": "PHASE-001",
        "layer": "PHASE",
        "source_type": "agent_generated_design",
        "confidence": "medium",
        "geometry_role": "design_proposal",
        "phase": "phase_1",
        "name_zh": "一期：大钟寺AI产业集聚区+基础设施",
        "area_sqm_declared": 2250518.97
      },
      "geometry": {
        "type": "Polygon",
        "coordinates": [
          [
            [
              116.3407,
              39.939
            ],
            [
              116.34025555555556,
              39.955
            ],
            [
              116.3553,
              39.955
            ],
            [
              116.3553,
              39.939
            ],
            [
              116.3407,
              39.939
            ]
          ]
        ]
      }
    },
    {
      "type": "Feature",
      "id": "PHASE-002",
      "properties": {
        "id": "PHASE-002",
        "layer": "PHASE",
        "source_type": "agent_generated_design",
        "confidence": "medium",
        "geometry_role": "design_proposal",
        "phase": "phase_2",
        "name_zh": "二期：AI原点社区+遗址公园核心段",
        "area_sqm_declared": 5992136.953
      },
      "geometry": {
        "type": "Polygon",
        "coordinates": [
          [
            [
              116.34025555555556,
              39.955
            ],
            [
              116.34,
              39.96419999999969
            ],
            [
              116.34,
              39.979650000000134
            ],
            [
              116.34131290322581,
              40.0
            ],
            [
              116.35384794520549,
              40.0
            ],
            [
              116.3533,
              39.99
            ],
            [
              116.3553,
              39.965
            ],
            [
              116.3553,
              39.955
            ],
            [
              116.34025555555556,
              39.955
            ]
          ]
        ]
      }
    },
    {
      "type": "Feature",
      "id": "PHASE-003",
      "properties": {
        "id": "PHASE-003",
        "layer": "PHASE",
        "source_type": "agent_generated_design",
        "confidence": "medium",
        "geometry_role": "design_proposal",
        "phase": "phase_3",
        "name_zh": "三期：众智园AI加速区+生态完善",
        "area_sqm_declared": 3148220.482
      },
      "geometry": {
        "type": "Polygon",
        "coordinates": [
          [
            [
              116.34131290322581,
              40.0
            ],
            [
              116.3417,
              40.006
            ],
            [
              116.3427,
              40.0265
            ],
            [
              116.3553,
              40.0265
            ],
            [
              116.35384794520549,
              40.0
            ],
            [
              116.34131290322581,
              40.0
            ]
          ]
        ]
      }
    }
  ]
}