{
  "type": "FeatureCollection",
  "name": "public_space_network",
  "features": [
    {
      "type": "Feature",
      "id": "PUB-001",
      "properties": {
        "id": "PUB-001",
        "layer": "PUBLIC_SPACE",
        "source_type": "agent_generated_design",
        "confidence": "medium",
        "geometry_role": "design_proposal",
        "name_zh": "AI朝圣广场-智脉原点",
        "area_sqm_declared": 7991.104
      },
      "geometry": {
        "type": "Polygon",
        "coordinates": [
          [
            [
              116.34697565409051,
              39.98859826302955
            ],
            [
              116.34802434590948,
              39.98859826302955
            ],
            [
              116.34802434590948,
              39.98940173697044
            ],
            [
              116.34697565409051,
              39.98940173697044
            ],
            [
              116.34697565409051,
              39.98859826302955
            ]
          ]
        ]
      }
    },
    {
      "type": "Feature",
      "id": "PUB-002",
      "properties": {
        "id": "PUB-002",
        "layer": "PUBLIC_SPACE",
        "source_type": "agent_generated_design",
        "confidence": "medium",
        "geometry_role": "design_proposal",
        "name_zh": "AI创新展示广场",
        "area_sqm_declared": 5993.365
      },
      "geometry": {
        "type": "Polygon",
        "coordinates": [
          [
            [
              116.34704572351325,
              40.015652085577955
            ],
            [
              116.34795427648675,
              40.015652085577955
            ],
            [
              116.34795427648675,
              40.01634791442204
            ],
            [
              116.34704572351325,
              40.01634791442204
            ],
            [
              116.34704572351325,
              40.015652085577955
            ]
          ]
        ]
      }
    },
    {
      "type": "Feature",
      "id": "PUB-003",
      "properties": {
        "id": "PUB-003",
        "layer": "PUBLIC_SPACE",
        "source_type": "agent_generated_design",
        "confidence": "medium",
        "geometry_role": "design_proposal",
        "name_zh": "智能原生体验广场",
        "area_sqm_declared": 4994.392
      },
      "geometry": {
        "type": "Polygon",
        "coordinates": [
          [
            [
              116.34758572276907,
              39.946682399038274
            ],
            [
              116.34841427723093,
              39.946682399038274
            ],
            [
              116.34841427723093,
              39.94731760096173
            ],
            [
              116.34758572276907,
              39.94731760096173
            ],
            [
              116.34758572276907,
              39.946682399038274
            ]
          ]
        ]
      }
    },
    {
      "type": "Feature",
      "id": "PUB-004",
      "properties": {
        "id": "PUB-004",
        "layer": "PUBLIC_SPACE",
        "source_type": "agent_generated_design",
        "confidence": "medium",
        "geometry_role": "design_proposal",
        "name_zh": "京张记忆文化广场",
        "area_sqm_declared": 3995.567
      },
      "geometry": {
        "type": "Polygon",
        "coordinates": [
          [
            [
              116.34712914457198,
              40.00471592906395
            ],
            [
              116.34787085542801,
              40.00471592906395
            ],
            [
              116.34787085542801,
              40.00528407093606
            ],
            [
              116.34712914457198,
              40.00528407093606
            ],
            [
              116.34712914457198,
              40.00471592906395
            ]
          ]
        ]
      }
    },
    {
      "type": "Feature",
      "id": "PUB-005",
      "properties": {
        "id": "PUB-005",
        "layer": "PUBLIC_SPACE",
        "source_type": "agent_generated_design",
        "confidence": "medium",
        "geometry_role": "design_proposal",
        "name_zh": "AI社区交往广场",
        "area_sqm_declared": 3496.093
      },
      "geometry": {
        "type": "Polygon",
        "coordinates": [
          [
            [
              116.34715327420248,
              39.969734275970936
            ],
            [
              116.34784672579751,
              39.969734275970936
            ],
            [
              116.34784672579751,
              39.97026572402906
            ],
            [
              116.34715327420248,
              39.97026572402906
            ],
            [
              116.34715327420248,
              39.969734275970936
            ]
          ]
        ]
      }
    },
    {
      "type": "Feature",
      "id": "PUB-006",
      "properties": {
        "id": "PUB-006",
        "layer": "PUBLIC_SPACE",
        "source_type": "agent_generated_design",
        "confidence": "medium",
        "geometry_role": "design_proposal",
        "name_zh": "开发者露营草坪",
        "area_sqm_declared": 2996.644
      },
      "geometry": {
        "type": "Polygon",
        "coordinates": [
          [
            [
              116.34717904123727,
              39.9597539873529
            ],
            [
              116.34782095876272,
              39.9597539873529
            ],
            [
              116.34782095876272,
              39.960246012647104
            ],
            [
              116.34717904123727,
              39.960246012647104
            ],
            [
              116.34717904123727,
              39.9597539873529
            ]
          ]
        ]
      }
    }
  ]
}