{
  "type": "FeatureCollection",
  "name": "roads_network",
  "features": [
    {
      "type": "Feature",
      "id": "ROAD-001",
      "properties": {
        "id": "ROAD-001",
        "layer": "ROAD_CENTERLINE",
        "source_type": "agent_generated_design",
        "confidence": "medium",
        "geometry_role": "design_proposal",
        "road_class": "arterial",
        "name_zh": "京张创新主路"
      },
      "geometry": {
        "type": "LineString",
        "coordinates": [
          [
            116.352,
            39.942
          ],
          [
            116.353,
            39.965
          ],
          [
            116.3535,
            39.99
          ],
          [
            116.354,
            40.02
          ]
        ]
      }
    },
    {
      "type": "Feature",
      "id": "ROAD-002",
      "properties": {
        "id": "ROAD-002",
        "layer": "ROAD_CENTERLINE",
        "source_type": "agent_generated_design",
        "confidence": "medium",
        "geometry_role": "design_proposal",
        "road_class": "secondary",
        "name_zh": "遗址公园慢行主廊道"
      },
      "geometry": {
        "type": "LineString",
        "coordinates": [
          [
            116.3475,
            39.942
          ],
          [
            116.3475,
            39.965
          ],
          [
            116.3475,
            39.99
          ],
          [
            116.3475,
            40.02
          ]
        ]
      }
    },
    {
      "type": "Feature",
      "id": "ROAD-003",
      "properties": {
        "id": "ROAD-003",
        "layer": "ROAD_CENTERLINE",
        "source_type": "agent_generated_design",
        "confidence": "medium",
        "geometry_role": "design_proposal",
        "road_class": "secondary",
        "name_zh": "众智园联络路"
      },
      "geometry": {
        "type": "LineString",
        "coordinates": [
          [
            116.3435,
            40.015
          ],
          [
            116.352,
            40.015
          ]
        ]
      }
    },
    {
      "type": "Feature",
      "id": "ROAD-004",
      "properties": {
        "id": "ROAD-004",
        "layer": "ROAD_CENTERLINE",
        "source_type": "agent_generated_design",
        "confidence": "medium",
        "geometry_role": "design_proposal",
        "road_class": "secondary",
        "name_zh": "原点社区联络路"
      },
      "geometry": {
        "type": "LineString",
        "coordinates": [
          [
            116.343,
            39.988
          ],
          [
            116.352,
            39.988
          ]
        ]
      }
    },
    {
      "type": "Feature",
      "id": "ROAD-005",
      "properties": {
        "id": "ROAD-005",
        "layer": "ROAD_CENTERLINE",
        "source_type": "agent_generated_design",
        "confidence": "medium",
        "geometry_role": "design_proposal",
        "road_class": "secondary",
        "name_zh": "大钟寺联络路"
      },
      "geometry": {
        "type": "LineString",
        "coordinates": [
          [
            116.343,
            39.947
          ],
          [
            116.353,
            39.947
          ]
        ]
      }
    },
    {
      "type": "Feature",
      "id": "ROAD-006",
      "properties": {
        "id": "ROAD-006",
        "layer": "ROAD_CENTERLINE",
        "source_type": "agent_generated_design",
        "confidence": "medium",
        "geometry_role": "design_proposal",
        "road_class": "greenway",
        "name_zh": "蓝绿步行骑行道"
      },
      "geometry": {
        "type": "LineString",
        "coordinates": [
          [
            116.3465,
            39.942
          ],
          [
            116.3468,
            39.965
          ],
          [
            116.347,
            39.99
          ],
          [
            116.3468,
            40.02
          ]
        ]
      }
    },
    {
      "type": "Feature",
      "id": "ROAD-007",
      "properties": {
        "id": "ROAD-007",
        "layer": "ROAD_CENTERLINE",
        "source_type": "agent_generated_design",
        "confidence": "medium",
        "geometry_role": "design_proposal",
        "road_class": "arterial",
        "name_zh": "西侧社区主路"
      },
      "geometry": {
        "type": "LineString",
        "coordinates": [
          [
            116.3415,
            39.942
          ],
          [
            116.341,
            39.975
          ],
          [
            116.342,
            40.005
          ],
          [
            116.343,
            40.02
          ]
        ]
      }
    },
    {
      "type": "Feature",
      "id": "ROAD-008",
      "properties": {
        "id": "ROAD-008",
        "layer": "ROAD_CENTERLINE",
        "source_type": "agent_generated_design",
        "confidence": "medium",
        "geometry_role": "design_proposal",
        "road_class": "secondary",
        "name_zh": "跨铁连接路北段"
      },
      "geometry": {
        "type": "LineString",
        "coordinates": [
          [
            116.344,
            40.025
          ],
          [
            116.351,
            40.025
          ]
        ]
      }
    },
    {
      "type": "Feature",
      "id": "ROAD-009",
      "properties": {
        "id": "ROAD-009",
        "layer": "ROAD_CENTERLINE",
        "source_type": "agent_generated_design",
        "confidence": "medium",
        "geometry_role": "design_proposal",
        "road_class": "secondary",
        "name_zh": "跨铁连接路南段"
      },
      "geometry": {
        "type": "LineString",
        "coordinates": [
          [
            116.344,
            39.942
          ],
          [
            116.351,
            39.942
          ]
        ]
      }
    },
    {
      "type": "Feature",
      "id": "ROAD-010",
      "properties": {
        "id": "ROAD-010",
        "layer": "ROAD_CENTERLINE",
        "source_type": "agent_generated_design",
        "confidence": "medium",
        "geometry_role": "design_proposal",
        "road_class": "greenway",
        "name_zh": "小月河滨水步道"
      },
      "geometry": {
        "type": "LineString",
        "coordinates": [
          [
            116.349,
            39.955
          ],
          [
            116.3495,
            39.975
          ],
          [
            116.35,
            39.995
          ]
        ]
      }
    }
  ]
}