{
  "type": "FeatureCollection",
  "name": "minimum_auth_reversible_prototypes",
  "features": [
    {
      "type": "Feature",
      "id": "BLDG-AUTH-01",
      "properties": {
        "id": "BLDG-AUTH-01",
        "layer": "BUILDING_FOOTPRINT",
        "source_type": "agent_generated_design",
        "confidence": "medium",
        "geometry_role": "design_proposal",
        "building_type": "lab",
        "name_zh": "最小披露测试亭",
        "proposed_storeys": 1,
        "floor_area_sqm": 4032.0,
        "intervention": "reversible_prototype",
        "status": "concept_only",
        "disclaimer": "不对应现状楼栋，不构成拆改留或建设批准。",
        "area_sqm_declared": 4032.0
      },
      "geometry": {
        "type": "Polygon",
        "coordinates": [
          [
            [
              116.34623197428493,
              40.01540751033273
            ],
            [
              116.3462278493675,
              40.015839778510035
            ],
            [
              116.34721168999951,
              40.015845324738336
            ],
            [
              116.34721580871057,
              40.01541305647662
            ],
            [
              116.34623197428493,
              40.01540751033273
            ]
          ]
        ]
      }
    },
    {
      "type": "Feature",
      "id": "BLDG-AUTH-02",
      "properties": {
        "id": "BLDG-AUTH-02",
        "layer": "BUILDING_FOOTPRINT",
        "source_type": "agent_generated_design",
        "confidence": "medium",
        "geometry_role": "design_proposal",
        "building_type": "incubator",
        "name_zh": "供应商交接诊所",
        "proposed_storeys": 2,
        "floor_area_sqm": 8064.0,
        "intervention": "reversible_prototype",
        "status": "concept_only",
        "disclaimer": "不对应现状楼栋，不构成拆改留或建设批准。",
        "area_sqm_declared": 4032.0
      },
      "geometry": {
        "type": "Polygon",
        "coordinates": [
          [
            [
              116.34982773832378,
              40.01797585871768
            ],
            [
              116.34974543030147,
              40.018403481175476
            ],
            [
              116.35071873556495,
              40.01851422440734
            ],
            [
              116.35080103766325,
              40.01808660121894
            ],
            [
              116.34982773832378,
              40.01797585871768
            ]
          ]
        ]
      }
    },
    {
      "type": "Feature",
      "id": "BLDG-AUTH-03",
      "properties": {
        "id": "BLDG-AUTH-03",
        "layer": "BUILDING_FOOTPRINT",
        "source_type": "agent_generated_design",
        "confidence": "medium",
        "geometry_role": "design_proposal",
        "building_type": "education",
        "name_zh": "字段账本共创室",
        "proposed_storeys": 1,
        "floor_area_sqm": 4032.0,
        "intervention": "reversible_prototype",
        "status": "concept_only",
        "disclaimer": "不对应现状楼栋，不构成拆改留或建设批准。",
        "area_sqm_declared": 4032.0
      },
      "geometry": {
        "type": "Polygon",
        "coordinates": [
          [
            [
              116.34524057495149,
              39.98766752948166
            ],
            [
              116.34523644783243,
              39.98809979964863
            ],
            [
              116.34621989020808,
              39.98810535111789
            ],
            [
              116.34622401112934,
              39.9876730808664
            ],
            [
              116.34524057495149,
              39.98766752948166
            ]
          ]
        ]
      }
    },
    {
      "type": "Feature",
      "id": "BLDG-AUTH-04",
      "properties": {
        "id": "BLDG-AUTH-04",
        "layer": "BUILDING_FOOTPRINT",
        "source_type": "agent_generated_design",
        "confidence": "medium",
        "geometry_role": "design_proposal",
        "building_type": "community_service",
        "name_zh": "人工复核与培训厅",
        "proposed_storeys": 2,
        "floor_area_sqm": 8064.0,
        "intervention": "reversible_prototype",
        "status": "concept_only",
        "disclaimer": "不对应现状楼栋，不构成拆改留或建设批准。",
        "area_sqm_declared": 4032.0
      },
      "geometry": {
        "type": "Polygon",
        "coordinates": [
          [
            [
              116.34882178439166,
              39.98904583499204
            ],
            [
              116.34873950728104,
              39.98947345909063
            ],
            [
              116.34971240068673,
              39.989584208023814
            ],
            [
              116.34979467188197,
              39.98915658319518
            ],
            [
              116.34882178439166,
              39.98904583499204
            ]
          ]
        ]
      }
    },
    {
      "type": "Feature",
      "id": "BLDG-AUTH-05",
      "properties": {
        "id": "BLDG-AUTH-05",
        "layer": "BUILDING_FOOTPRINT",
        "source_type": "agent_generated_design",
        "confidence": "medium",
        "geometry_role": "design_proposal",
        "building_type": "cultural",
        "name_zh": "一步办理示范厅",
        "proposed_storeys": 1,
        "floor_area_sqm": 4032.0,
        "intervention": "reversible_prototype",
        "status": "concept_only",
        "disclaimer": "不对应现状楼栋，不构成拆改留或建设批准。",
        "area_sqm_declared": 4032.0
      },
      "geometry": {
        "type": "Polygon",
        "coordinates": [
          [
            [
              116.34592498094213,
              39.94633475287556
            ],
            [
              116.34592086416397,
              39.94676702619316
            ],
            [
              116.34690371458512,
              39.94677256712638
            ],
            [
              116.34690782517829,
              39.94634029372439
            ],
            [
              116.34592498094213,
              39.94633475287556
            ]
          ]
        ]
      }
    },
    {
      "type": "Feature",
      "id": "BLDG-AUTH-06",
      "properties": {
        "id": "BLDG-AUTH-06",
        "layer": "BUILDING_FOOTPRINT",
        "source_type": "agent_generated_design",
        "confidence": "medium",
        "geometry_role": "design_proposal",
        "building_type": "community_service",
        "name_zh": "匿名申诉与修复室",
        "proposed_storeys": 1,
        "floor_area_sqm": 4032.0,
        "intervention": "reversible_prototype",
        "status": "concept_only",
        "disclaimer": "不对应现状楼栋，不构成拆改留或建设批准。",
        "area_sqm_declared": 4032.0
      },
      "geometry": {
        "type": "Polygon",
        "coordinates": [
          [
            [
              116.3501389603321,
              39.947135738490516
            ],
            [
              116.35005674518344,
              39.947563367073556
            ],
            [
              116.35102904779284,
              39.94767410101156
            ],
            [
              116.35111125703841,
              39.947246471699685
            ],
            [
              116.3501389603321,
              39.947135738490516
            ]
          ]
        ]
      }
    }
  ],
  "metadata": {
    "coordinate_reference_system": "EPSG:4326"
  }
}
