{
  "type": "FeatureCollection",
  "name": "minimum_auth_data_gaps",
  "features": [
    {
      "type": "Feature",
      "id": "C-PROV",
      "properties": {
        "id": "C-PROV",
        "layer": "SCENARIO_NODE",
        "source_type": "agent_inferred_from_public_data",
        "confidence": "low",
        "geometry_role": "analysis_helper",
        "name_zh": "总体与重点区边界为 provisional，不得解释为红线",
        "constraint_status": "data_gap",
        "is_regulatory_line": false,
        "resolution": "由有权数据、法务和现场共同设计关闭，不由生成式模型补齐。"
      },
      "geometry": {
        "type": "Point",
        "coordinates": [
          116.34778390619367,
          39.945963671110036
        ]
      }
    },
    {
      "type": "Feature",
      "id": "C-LOC",
      "properties": {
        "id": "C-LOC",
        "layer": "SCENARIO_NODE",
        "source_type": "agent_inferred_from_public_data",
        "confidence": "low",
        "geometry_role": "analysis_helper",
        "name_zh": "大钟寺 provisional 位置存在公开 Issue 所述定位疑点",
        "constraint_status": "data_gap",
        "is_regulatory_line": false,
        "resolution": "由有权数据、法务和现场共同设计关闭，不由生成式模型补齐。"
      },
      "geometry": {
        "type": "Point",
        "coordinates": [
          116.347650810779,
          39.95997431579747
        ]
      }
    },
    {
      "type": "Feature",
      "id": "C-CTRL",
      "properties": {
        "id": "C-CTRL",
        "layer": "SCENARIO_NODE",
        "source_type": "agent_inferred_from_public_data",
        "confidence": "low",
        "geometry_role": "analysis_helper",
        "name_zh": "控规、道路红线、权属和现状建筑资料缺失",
        "constraint_status": "data_gap",
        "is_regulatory_line": false,
        "resolution": "由有权数据、法务和现场共同设计关闭，不由生成式模型补齐。"
      },
      "geometry": {
        "type": "Point",
        "coordinates": [
          116.34751762216361,
          39.97398492614948
        ]
      }
    },
    {
      "type": "Feature",
      "id": "C-UTIL",
      "properties": {
        "id": "C-UTIL",
        "layer": "SCENARIO_NODE",
        "source_type": "agent_inferred_from_public_data",
        "confidence": "low",
        "geometry_role": "analysis_helper",
        "name_zh": "市政、消防、防洪、文保和无障碍底图缺失",
        "constraint_status": "data_gap",
        "is_regulatory_line": false,
        "resolution": "由有权数据、法务和现场共同设计关闭，不由生成式模型补齐。"
      },
      "geometry": {
        "type": "Point",
        "coordinates": [
          116.34738434027464,
          39.987995502162896
        ]
      }
    },
    {
      "type": "Feature",
      "id": "C-LEGAL",
      "properties": {
        "id": "C-LEGAL",
        "layer": "SCENARIO_NODE",
        "source_type": "agent_inferred_from_public_data",
        "confidence": "low",
        "geometry_role": "analysis_helper",
        "name_zh": "M2/M3 的逐事项法律必要性尚未由责任机构确认",
        "constraint_status": "data_gap",
        "is_regulatory_line": false,
        "resolution": "由有权数据、法务和现场共同设计关闭，不由生成式模型补齐。"
      },
      "geometry": {
        "type": "Point",
        "coordinates": [
          116.34725096503922,
          40.00200604383457
        ]
      }
    },
    {
      "type": "Feature",
      "id": "C-STAKE",
      "properties": {
        "id": "C-STAKE",
        "layer": "SCENARIO_NODE",
        "source_type": "agent_inferred_from_public_data",
        "confidence": "low",
        "geometry_role": "analysis_helper",
        "name_zh": "尚无京张现场使用者访谈或共同验收证据",
        "constraint_status": "data_gap",
        "is_regulatory_line": false,
        "resolution": "由有权数据、法务和现场共同设计关闭，不由生成式模型补齐。"
      },
      "geometry": {
        "type": "Point",
        "coordinates": [
          116.3471174963843,
          40.01601655116132
        ]
      }
    }
  ],
  "metadata": {
    "coordinate_reference_system": "EPSG:4326"
  }
}
