{
  "type": "FeatureCollection",
  "name": "minimum_auth_low_data_commons",
  "features": [
    {
      "type": "Feature",
      "id": "GREEN-LOW-DATA-01",
      "properties": {
        "id": "GREEN-LOW-DATA-01",
        "layer": "GREEN_SPACE",
        "source_type": "agent_generated_design",
        "confidence": "medium",
        "geometry_role": "design_proposal",
        "land_use_code": "1401",
        "name_zh": "低数据树荫公地",
        "sensor_policy": "环境数据可选；禁止以个人识别作为空间使用条件",
        "status": "concept_only",
        "area_sqm_declared": 1999928.668
      },
      "geometry": {
        "type": "Polygon",
        "coordinates": [
          [
            [
              116.34684741862104,
              39.93985330866269
            ],
            [
              116.3460302247832,
              40.02561823686648
            ],
            [
              116.34849017790374,
              40.02563209376106
            ],
            [
              116.34930429833967,
              39.93986712376596
            ],
            [
              116.34684741862104,
              39.93985330866269
            ]
          ]
        ]
      }
    }
  ],
  "metadata": {
    "coordinate_reference_system": "EPSG:4326"
  }
}
