{
  "type": "FeatureCollection",
  "name": "minimum_auth_complete_concept_partition",
  "features": [
    {
      "type": "Feature",
      "id": "LU-AUTH-01",
      "properties": {
        "id": "LU-AUTH-01",
        "layer": "LAND_USE",
        "source_type": "agent_generated_design",
        "confidence": "medium",
        "geometry_role": "design_proposal",
        "land_use_code": "05",
        "name_zh": "公共办理与企业服务概念带",
        "program": "civic_transaction",
        "status": "concept_only",
        "disclaimer": "完整拓扑分区仅服务包内复算，不代表现状或法定用地。",
        "area_sqm_declared": 1965542.763
      },
      "geometry": {
        "type": "Polygon",
        "coordinates": [
          [
            [
              116.3407,
              39.939
            ],
            [
              116.3403111111111,
              39.953
            ],
            [
              116.3553,
              39.953
            ],
            [
              116.3553,
              39.939
            ],
            [
              116.3407,
              39.939
            ]
          ]
        ]
      }
    },
    {
      "type": "Feature",
      "id": "LU-AUTH-02",
      "properties": {
        "id": "LU-AUTH-02",
        "layer": "LAND_USE",
        "source_type": "agent_generated_design",
        "confidence": "medium",
        "geometry_role": "design_proposal",
        "land_use_code": "0803",
        "name_zh": "文化解释与公共学习概念带",
        "program": "public_learning",
        "status": "concept_only",
        "disclaimer": "完整拓扑分区仅服务包内复算，不代表现状或法定用地。",
        "area_sqm_declared": 2267168.155
      },
      "geometry": {
        "type": "Polygon",
        "coordinates": [
          [
            [
              116.3553,
              39.965
            ],
            [
              116.3553,
              39.953
            ],
            [
              116.3403111111111,
              39.953
            ],
            [
              116.3398736111111,
              39.96875
            ],
            [
              116.355,
              39.96875
            ],
            [
              116.3553,
              39.965
            ]
          ]
        ]
      }
    },
    {
      "type": "Feature",
      "id": "LU-AUTH-03",
      "properties": {
        "id": "LU-AUTH-03",
        "layer": "LAND_USE",
        "source_type": "agent_generated_design",
        "confidence": "medium",
        "geometry_role": "design_proposal",
        "land_use_code": "1401",
        "name_zh": "低数据树荫公地概念带",
        "program": "low_data_commons",
        "status": "concept_only",
        "disclaimer": "完整拓扑分区仅服务包内复算，不代表现状或法定用地。",
        "area_sqm_declared": 2158915.679
      },
      "geometry": {
        "type": "Polygon",
        "coordinates": [
          [
            [
              116.355,
              39.96875
            ],
            [
              116.3398736111111,
              39.96875
            ],
            [
              116.3397,
              39.975
            ],
            [
              116.34031290322581,
              39.9845
            ],
            [
              116.35374,
              39.9845
            ],
            [
              116.355,
              39.96875
            ]
          ]
        ]
      }
    },
    {
      "type": "Feature",
      "id": "LU-AUTH-04",
      "properties": {
        "id": "LU-AUTH-04",
        "layer": "LAND_USE",
        "source_type": "agent_generated_design",
        "confidence": "medium",
        "geometry_role": "design_proposal",
        "land_use_code": "0804",
        "name_zh": "认证流程共创与培训概念带",
        "program": "protocol_studio",
        "status": "concept_only",
        "disclaimer": "完整拓扑分区仅服务包内复算，不代表现状或法定用地。",
        "area_sqm_declared": 1902696.747
      },
      "geometry": {
        "type": "Polygon",
        "coordinates": [
          [
            [
              116.3533,
              39.99
            ],
            [
              116.35374,
              39.9845
            ],
            [
              116.34031290322581,
              39.9845
            ],
            [
              116.34132903225806,
              40.00025
            ],
            [
              116.35386164383561,
              40.00025
            ],
            [
              116.3533,
              39.99
            ]
          ]
        ]
      }
    },
    {
      "type": "Feature",
      "id": "LU-AUTH-05",
      "properties": {
        "id": "LU-AUTH-05",
        "layer": "LAND_USE",
        "source_type": "agent_generated_design",
        "confidence": "medium",
        "geometry_role": "design_proposal",
        "land_use_code": "0802",
        "name_zh": "最小披露验证概念带",
        "program": "assurance_lab",
        "status": "concept_only",
        "disclaimer": "完整拓扑分区仅服务包内复算，不代表现状或法定用地。",
        "area_sqm_declared": 1451880.876
      },
      "geometry": {
        "type": "Polygon",
        "coordinates": [
          [
            [
              116.35386164383561,
              40.00025
            ],
            [
              116.34132903225806,
              40.00025
            ],
            [
              116.3417,
              40.006
            ],
            [
              116.34201707317074,
              40.012499999999996
            ],
            [
              116.35453287671233,
              40.012499999999996
            ],
            [
              116.35386164383561,
              40.00025
            ]
          ]
        ]
      }
    },
    {
      "type": "Feature",
      "id": "LU-AUTH-06",
      "properties": {
        "id": "LU-AUTH-06",
        "layer": "LAND_USE",
        "source_type": "agent_generated_design",
        "confidence": "medium",
        "geometry_role": "design_proposal",
        "land_use_code": "0702",
        "name_zh": "社区服务与值守支持概念带",
        "program": "human_support",
        "status": "concept_only",
        "disclaimer": "完整拓扑分区仅服务包内复算，不代表现状或法定用地。",
        "area_sqm_declared": 1666637.161
      },
      "geometry": {
        "type": "Polygon",
        "coordinates": [
          [
            [
              116.35453287671233,
              40.012499999999996
            ],
            [
              116.34201707317074,
              40.012499999999996
            ],
            [
              116.3427,
              40.0265
            ],
            [
              116.3553,
              40.0265
            ],
            [
              116.35453287671233,
              40.012499999999996
            ]
          ]
        ]
      }
    }
  ],
  "metadata": {
    "coordinate_reference_system": "EPSG:4326",
    "authority": "participant design; not statutory land use"
  }
}
