{
  "type": "FeatureCollection",
  "name": "minimum_auth_readiness_gates",
  "features": [
    {
      "type": "Feature",
      "id": "PHASE-AUTH-01",
      "properties": {
        "id": "PHASE-AUTH-01",
        "layer": "PHASE",
        "source_type": "agent_generated_design",
        "confidence": "medium",
        "geometry_role": "design_proposal",
        "phase": "phase_1",
        "name_zh": "门槛盘点与无永久工程原型",
        "readiness_gate": "先取得业务责任人、场地许可、事项清单和使用者基线",
        "schedule_status": "relative_gate_not_calendar_commitment",
        "area_sqm_declared": 4106946.996
      },
      "geometry": {
        "type": "Polygon",
        "coordinates": [
          [
            [
              116.3407,
              39.939
            ],
            [
              116.33989791666666,
              39.967875
            ],
            [
              116.35507,
              39.967875
            ],
            [
              116.3553,
              39.965
            ],
            [
              116.3553,
              39.939
            ],
            [
              116.3407,
              39.939
            ]
          ]
        ]
      }
    },
    {
      "type": "Feature",
      "id": "PHASE-AUTH-02",
      "properties": {
        "id": "PHASE-AUTH-02",
        "layer": "PHASE",
        "source_type": "agent_generated_design",
        "confidence": "medium",
        "geometry_role": "design_proposal",
        "phase": "phase_2",
        "name_zh": "三区各一处受控试点",
        "readiness_gate": "M2/M3逐事项确认、人工班次和删除验证通过",
        "schedule_status": "relative_gate_not_calendar_commitment",
        "area_sqm_declared": 3770875.249
      },
      "geometry": {
        "type": "Polygon",
        "coordinates": [
          [
            [
              116.3533,
              39.99
            ],
            [
              116.35507,
              39.967875
            ],
            [
              116.33989791666666,
              39.967875
            ],
            [
              116.3397,
              39.975
            ],
            [
              116.34110322580645,
              39.99675
            ],
            [
              116.3536698630137,
              39.99675
            ],
            [
              116.3533,
              39.99
            ]
          ]
        ]
      }
    },
    {
      "type": "Feature",
      "id": "PHASE-AUTH-03",
      "properties": {
        "id": "PHASE-AUTH-03",
        "layer": "PHASE",
        "source_type": "agent_generated_design",
        "confidence": "medium",
        "geometry_role": "design_proposal",
        "phase": "phase_3",
        "name_zh": "按证据扩展或撤回",
        "readiness_gate": "只扩大已达成功阈值的节点；不达标则退回M0/M1或关闭数字模块",
        "schedule_status": "relative_gate_not_calendar_commitment",
        "area_sqm_declared": 3535010.859
      },
      "geometry": {
        "type": "Polygon",
        "coordinates": [
          [
            [
              116.3536698630137,
              39.99675
            ],
            [
              116.34110322580645,
              39.99675
            ],
            [
              116.3417,
              40.006
            ],
            [
              116.3427,
              40.0265
            ],
            [
              116.3553,
              40.0265
            ],
            [
              116.3536698630137,
              39.99675
            ]
          ]
        ]
      }
    }
  ],
  "metadata": {
    "coordinate_reference_system": "EPSG:4326",
    "schedule_status": "conceptual readiness sequence"
  }
}
