{
  "type": "FeatureCollection",
  "name": "from_lab_to_city_conceptual_prototype_envelopes",
  "model_warning_zh": "仅为耐久骨架与可换内装的概念包络，不是现状建筑基底、拆改留结论或建设规模。",
  "features": [
    {
      "type": "Feature",
      "id": "BLDG-001",
      "properties": {
        "id": "BLDG-001",
        "layer": "BUILDING_FOOTPRINT",
        "source_type": "agent_generated_design",
        "confidence": "low",
        "geometry_role": "design_proposal",
        "model_status": "provisional_design_model",
        "name_zh": "可观看全栈试造院服务背板（概念性生产开间）",
        "name_en": "Visible Full-Stack Test Yard Service Backplane (Conceptual Productive Bay)",
        "derived_from_source_ids": [
          "DATA-SRC-PROVISIONAL-BOUNDARIES-20260605",
          "DATA-SRC-OFFICIAL-ANNOUNCEMENT-20260509",
          "A0-URBAN-RENEWAL-2025"
        ],
        "usage_note_zh": "概念建议，仅用于方案生成与复算；不是官方红线、现状测绘、地块或工程依据。",
        "usage_note_en": "Conceptual proposal for generation and recalculation only; not an official boundary, survey, parcel, or engineering basis.",
        "area_sqm_declared": 9204.0,
        "building_type": "lab",
        "interface_role": "MAKE",
        "parent_key_area_id": "PROV-KEY-001",
        "envelope_scope": "prototype_only_not_total_buildout",
        "demolition_retention_status": "unknown_pending_survey_and_ownership"
      },
      "geometry": {
        "type": "Polygon",
        "coordinates": [
          [
            [
              116.34553766309,
              40.01863330987
            ],
            [
              116.34553698627,
              40.01870415378
            ],
            [
              116.34553630945,
              40.01877499768
            ],
            [
              116.34553563263,
              40.01884584158
            ],
            [
              116.34553495581,
              40.01891668548
            ],
            [
              116.34553427898,
              40.01898752938
            ],
            [
              116.34553360215,
              40.01905837328
            ],
            [
              116.34553292532,
              40.01912921718
            ],
            [
              116.34553224849,
              40.01920006108
            ],
            [
              116.34553157165,
              40.01927090498
            ],
            [
              116.34553089481,
              40.01934174887
            ],
            [
              116.34553021797,
              40.01941259277
            ],
            [
              116.34552954113,
              40.01948343666
            ],
            [
              116.34552886428,
              40.01955428056
            ],
            [
              116.34552818743,
              40.01962512445
            ],
            [
              116.34552751058,
              40.01969596834
            ],
            [
              116.34561887233,
              40.01969648429
            ],
            [
              116.34571023408,
              40.01969700017
            ],
            [
              116.34580159583,
              40.01969751598
            ],
            [
              116.34589295759,
              40.01969803172
            ],
            [
              116.34598431935,
              40.01969854738
            ],
            [
              116.34607568111,
              40.01969906297
            ],
            [
              116.34616704287,
              40.01969957849
            ],
            [
              116.34625840463,
              40.01970009394
            ],
            [
              116.3463497664,
              40.01970060931
            ],
            [
              116.34644112817,
              40.01970112462
            ],
            [
              116.34644180408,
              40.01963028071
            ],
            [
              116.34644247998,
              40.01955943681
            ],
            [
              116.34644315588,
              40.0194885929
            ],
            [
              116.34644383178,
              40.01941774899
            ],
            [
              116.34644450768,
              40.01934690509
            ],
            [
              116.34644518357,
              40.01927606118
            ],
            [
              116.34644585946,
              40.01920521727
            ],
            [
              116.34644653535,
              40.01913437336
            ],
            [
              116.34644721124,
              40.01906352944
            ],
            [
              116.34644788712,
              40.01899268553
            ],
            [
              116.346448563,
              40.01892184162
            ],
            [
              116.34644923888,
              40.0188509977
            ],
            [
              116.34644991476,
              40.01878015379
            ],
            [
              116.34645059064,
              40.01870930987
            ],
            [
              116.34645126651,
              40.01863846595
            ],
            [
              116.34635990616,
              40.01863795067
            ],
            [
              116.34626854581,
              40.01863743531
            ],
            [
              116.34617718546,
              40.01863691989
            ],
            [
              116.34608582511,
              40.01863640439
            ],
            [
              116.34599446477,
              40.01863588881
            ],
            [
              116.34590310443,
              40.01863537317
            ],
            [
              116.34581174409,
              40.01863485745
            ],
            [
              116.34572038376,
              40.01863434166
            ],
            [
              116.34562902342,
              40.0186338258
            ],
            [
              116.34553766309,
              40.01863330987
            ]
          ]
        ]
      }
    },
    {
      "type": "Feature",
      "id": "BLDG-002",
      "properties": {
        "id": "BLDG-002",
        "layer": "BUILDING_FOOTPRINT",
        "source_type": "agent_generated_design",
        "confidence": "low",
        "geometry_role": "design_proposal",
        "model_status": "provisional_design_model",
        "name_zh": "共享设备坞（概念性生产开间）",
        "name_en": "Shared Equipment Dock (Conceptual Productive Bay)",
        "derived_from_source_ids": [
          "DATA-SRC-PROVISIONAL-BOUNDARIES-20260605",
          "DATA-SRC-OFFICIAL-ANNOUNCEMENT-20260509",
          "A0-URBAN-RENEWAL-2025"
        ],
        "usage_note_zh": "概念建议，仅用于方案生成与复算；不是官方红线、现状测绘、地块或工程依据。",
        "usage_note_en": "Conceptual proposal for generation and recalculation only; not an official boundary, survey, parcel, or engineering basis.",
        "area_sqm_declared": 7992.0,
        "building_type": "ai_r_and_d",
        "interface_role": "MAKE",
        "parent_key_area_id": "PROV-KEY-001",
        "envelope_scope": "prototype_only_not_total_buildout",
        "demolition_retention_status": "unknown_pending_survey_and_ownership"
      },
      "geometry": {
        "type": "Polygon",
        "coordinates": [
          [
            [
              116.35050312065,
              40.01627463786
            ],
            [
              116.35050246203,
              40.01634410958
            ],
            [
              116.35050180341,
              40.0164135813
            ],
            [
              116.35050114479,
              40.01648305303
            ],
            [
              116.35050048617,
              40.01655252474
            ],
            [
              116.35049982754,
              40.01662199646
            ],
            [
              116.35049916892,
              40.01669146818
            ],
            [
              116.35049851029,
              40.0167609399
            ],
            [
              116.35049785165,
              40.01683041161
            ],
            [
              116.35049719302,
              40.01689988333
            ],
            [
              116.35049653438,
              40.01696935504
            ],
            [
              116.35049587574,
              40.01703882676
            ],
            [
              116.3504952171,
              40.01710829847
            ],
            [
              116.35049455846,
              40.01717777018
            ],
            [
              116.35049389981,
              40.01724724189
            ],
            [
              116.35058057333,
              40.01724772765
            ],
            [
              116.35066724685,
              40.01724821334
            ],
            [
              116.35075392037,
              40.01724869897
            ],
            [
              116.35084059389,
              40.01724918453
            ],
            [
              116.35092726742,
              40.01724967002
            ],
            [
              116.35101394095,
              40.01725015545
            ],
            [
              116.35110061448,
              40.01725064082
            ],
            [
              116.35118728801,
              40.01725112612
            ],
            [
              116.35127396155,
              40.01725161136
            ],
            [
              116.35136063508,
              40.01725209653
            ],
            [
              116.35136129285,
              40.01718262481
            ],
            [
              116.35136195062,
              40.01711315308
            ],
            [
              116.35136260838,
              40.01704368136
            ],
            [
              116.35136326614,
              40.01697420963
            ],
            [
              116.3513639239,
              40.01690473791
            ],
            [
              116.35136458165,
              40.01683526618
            ],
            [
              116.35136523941,
              40.01676579445
            ],
            [
              116.35136589716,
              40.01669632272
            ],
            [
              116.35136655491,
              40.01662685099
            ],
            [
              116.35136721266,
              40.01655737926
            ],
            [
              116.3513678704,
              40.01648790753
            ],
            [
              116.35136852814,
              40.0164184358
            ],
            [
              116.35136918588,
              40.01634896407
            ],
            [
              116.35136984362,
              40.01627949233
            ],
            [
              116.35128317131,
              40.01627900718
            ],
            [
              116.35119649901,
              40.01627852196
            ],
            [
              116.35110982671,
              40.01627803667
            ],
            [
              116.35102315441,
              40.01627755132
            ],
            [
              116.35093648211,
              40.01627706591
            ],
            [
              116.35084980981,
              40.01627658043
            ],
            [
              116.35076313752,
              40.01627609488
            ],
            [
              116.35067646523,
              40.01627560927
            ],
            [
              116.35058979294,
              40.0162751236
            ],
            [
              116.35050312065,
              40.01627463786
            ]
          ]
        ]
      }
    },
    {
      "type": "Feature",
      "id": "BLDG-003",
      "properties": {
        "id": "BLDG-003",
        "layer": "BUILDING_FOOTPRINT",
        "source_type": "agent_generated_design",
        "confidence": "low",
        "geometry_role": "design_proposal",
        "model_status": "provisional_design_model",
        "name_zh": "工程解释与标准工作间（概念性生产开间）",
        "name_en": "Engineering Interpretation and Standards Bay (Conceptual Productive Bay)",
        "derived_from_source_ids": [
          "DATA-SRC-PROVISIONAL-BOUNDARIES-20260605",
          "DATA-SRC-OFFICIAL-ANNOUNCEMENT-20260509",
          "A0-URBAN-RENEWAL-2025"
        ],
        "usage_note_zh": "概念建议，仅用于方案生成与复算；不是官方红线、现状测绘、地块或工程依据。",
        "usage_note_en": "Conceptual proposal for generation and recalculation only; not an official boundary, survey, parcel, or engineering basis.",
        "area_sqm_declared": 5952.0,
        "building_type": "education",
        "interface_role": "MAKE",
        "parent_key_area_id": "PROV-KEY-001",
        "envelope_scope": "prototype_only_not_total_buildout",
        "demolition_retention_status": "unknown_pending_survey_and_ownership"
      },
      "geometry": {
        "type": "Polygon",
        "coordinates": [
          [
            [
              116.34567686707,
              40.01386988456
            ],
            [
              116.34567617904,
              40.01394192927
            ],
            [
              116.34567549101,
              40.01401397398
            ],
            [
              116.34567480298,
              40.01408601869
            ],
            [
              116.34567411495,
              40.01415806339
            ],
            [
              116.34567342691,
              40.0142301081
            ],
            [
              116.34567273887,
              40.0143021528
            ],
            [
              116.34567205083,
              40.01437419751
            ],
            [
              116.34567136279,
              40.01444624221
            ],
            [
              116.34567067474,
              40.01451828691
            ],
            [
              116.3456699867,
              40.01459033162
            ],
            [
              116.34566929864,
              40.01466237632
            ],
            [
              116.34566861059,
              40.01473442102
            ],
            [
              116.34575938012,
              40.0147349335
            ],
            [
              116.34585014964,
              40.01473544591
            ],
            [
              116.34594091917,
              40.01473595825
            ],
            [
              116.3460316887,
              40.01473647052
            ],
            [
              116.34612245824,
              40.01473698271
            ],
            [
              116.34621322777,
              40.01473749484
            ],
            [
              116.34630399731,
              40.01473800689
            ],
            [
              116.34639476685,
              40.01473851888
            ],
            [
              116.34639545414,
              40.01466647417
            ],
            [
              116.34639614143,
              40.01459442946
            ],
            [
              116.34639682872,
              40.01452238475
            ],
            [
              116.346397516,
              40.01445034003
            ],
            [
              116.34639820328,
              40.01437829532
            ],
            [
              116.34639889056,
              40.0143062506
            ],
            [
              116.34639957783,
              40.01423420589
            ],
            [
              116.34640026511,
              40.01416216117
            ],
            [
              116.34640095238,
              40.01409011646
            ],
            [
              116.34640163964,
              40.01401807174
            ],
            [
              116.34640232691,
              40.01394602702
            ],
            [
              116.34640301417,
              40.0138739823
            ],
            [
              116.34631224578,
              40.01387347033
            ],
            [
              116.34622147738,
              40.01387295829
            ],
            [
              116.34613070899,
              40.01387244618
            ],
            [
              116.3460399406,
              40.013871934
            ],
            [
              116.34594917222,
              40.01387142174
            ],
            [
              116.34585840383,
              40.01387090942
            ],
            [
              116.34576763545,
              40.01387039703
            ],
            [
              116.34567686707,
              40.01386988456
            ]
          ]
        ]
      }
    },
    {
      "type": "Feature",
      "id": "BLDG-004",
      "properties": {
        "id": "BLDG-004",
        "layer": "BUILDING_FOOTPRINT",
        "source_type": "agent_generated_design",
        "confidence": "low",
        "geometry_role": "design_proposal",
        "model_status": "provisional_design_model",
        "name_zh": "成果门诊与共研开间（概念性生产开间）",
        "name_en": "Outcome Clinic and Co-Research Bay (Conceptual Productive Bay)",
        "derived_from_source_ids": [
          "DATA-SRC-PROVISIONAL-BOUNDARIES-20260605",
          "DATA-SRC-OFFICIAL-ANNOUNCEMENT-20260509",
          "A0-URBAN-RENEWAL-2025"
        ],
        "usage_note_zh": "概念建议，仅用于方案生成与复算；不是官方红线、现状测绘、地块或工程依据。",
        "usage_note_en": "Conceptual proposal for generation and recalculation only; not an official boundary, survey, parcel, or engineering basis.",
        "area_sqm_declared": 4264.0,
        "building_type": "incubator",
        "interface_role": "TRANSLATE",
        "parent_key_area_id": "PROV-KEY-002",
        "envelope_scope": "prototype_only_not_total_buildout",
        "demolition_retention_status": "unknown_pending_survey_and_ownership"
      },
      "geometry": {
        "type": "Polygon",
        "coordinates": [
          [
            [
              116.3442772189,
              39.98964361162
            ],
            [
              116.34427657696,
              39.98971074445
            ],
            [
              116.34427593502,
              39.98977787728
            ],
            [
              116.34427529308,
              39.98984501011
            ],
            [
              116.34427465114,
              39.98991214294
            ],
            [
              116.3442740092,
              39.98997927577
            ],
            [
              116.34427336725,
              39.9900464086
            ],
            [
              116.3442727253,
              39.99011354143
            ],
            [
              116.34427208335,
              39.99018067426
            ],
            [
              116.3442714414,
              39.99024780709
            ],
            [
              116.34427079944,
              39.99031493991
            ],
            [
              116.34427015748,
              39.99038207274
            ],
            [
              116.34435713144,
              39.99038256477
            ],
            [
              116.34444410541,
              39.99038305673
            ],
            [
              116.34453107937,
              39.99038354863
            ],
            [
              116.34461805334,
              39.99038404047
            ],
            [
              116.34470502731,
              39.99038453224
            ],
            [
              116.34479200128,
              39.99038502394
            ],
            [
              116.34487897525,
              39.99038551558
            ],
            [
              116.34487961662,
              39.99031838275
            ],
            [
              116.34488025798,
              39.99025124991
            ],
            [
              116.34488089933,
              39.99018411708
            ],
            [
              116.34488154069,
              39.99011698424
            ],
            [
              116.34488218204,
              39.99004985141
            ],
            [
              116.34488282339,
              39.98998271857
            ],
            [
              116.34488346474,
              39.98991558573
            ],
            [
              116.34488410609,
              39.98984845289
            ],
            [
              116.34488474743,
              39.98978132005
            ],
            [
              116.34488538878,
              39.98971418721
            ],
            [
              116.34488603012,
              39.98964705437
            ],
            [
              116.34479905708,
              39.98964656274
            ],
            [
              116.34471208404,
              39.98964607105
            ],
            [
              116.34462511101,
              39.9896455793
            ],
            [
              116.34453813798,
              39.98964508747
            ],
            [
              116.34445116495,
              39.98964459559
            ],
            [
              116.34436419192,
              39.98964410363
            ],
            [
              116.3442772189,
              39.98964361162
            ]
          ]
        ]
      }
    },
    {
      "type": "Feature",
      "id": "BLDG-005",
      "properties": {
        "id": "BLDG-005",
        "layer": "BUILDING_FOOTPRINT",
        "source_type": "agent_generated_design",
        "confidence": "low",
        "geometry_role": "design_proposal",
        "model_status": "provisional_design_model",
        "name_zh": "开发者厨房与分时教室（概念性生产开间）",
        "name_en": "Developer Kitchen and Time-Shared Classroom (Conceptual Productive Bay)",
        "derived_from_source_ids": [
          "DATA-SRC-PROVISIONAL-BOUNDARIES-20260605",
          "DATA-SRC-OFFICIAL-ANNOUNCEMENT-20260509",
          "A0-URBAN-RENEWAL-2025"
        ],
        "usage_note_zh": "概念建议，仅用于方案生成与复算；不是官方红线、现状测绘、地块或工程依据。",
        "usage_note_en": "Conceptual proposal for generation and recalculation only; not an official boundary, survey, parcel, or engineering basis.",
        "area_sqm_declared": 4264.0,
        "building_type": "education",
        "interface_role": "TRANSLATE",
        "parent_key_area_id": "PROV-KEY-002",
        "envelope_scope": "prototype_only_not_total_buildout",
        "demolition_retention_status": "unknown_pending_survey_and_ownership"
      },
      "geometry": {
        "type": "Polygon",
        "coordinates": [
          [
            [
              116.34909199557,
              39.98813971189
            ],
            [
              116.34909135838,
              39.9882068448
            ],
            [
              116.34909072119,
              39.98827397772
            ],
            [
              116.349090084,
              39.98834111063
            ],
            [
              116.3490894468,
              39.98840824354
            ],
            [
              116.3490888096,
              39.98847537646
            ],
            [
              116.3490881724,
              39.98854250937
            ],
            [
              116.3490875352,
              39.98860964228
            ],
            [
              116.349086898,
              39.98867677519
            ],
            [
              116.34908626079,
              39.9887439081
            ],
            [
              116.34908562358,
              39.988811041
            ],
            [
              116.34908498637,
              39.98887817391
            ],
            [
              116.34917195851,
              39.98887866231
            ],
            [
              116.34925893065,
              39.98887915065
            ],
            [
              116.34934590279,
              39.98887963892
            ],
            [
              116.34943287494,
              39.98888012713
            ],
            [
              116.34951984708,
              39.98888061527
            ],
            [
              116.34960681923,
              39.98888110335
            ],
            [
              116.34969379138,
              39.98888159136
            ],
            [
              116.34969442799,
              39.98881445844
            ],
            [
              116.34969506461,
              39.98874732553
            ],
            [
              116.34969570122,
              39.98868019261
            ],
            [
              116.34969633782,
              39.98861305969
            ],
            [
              116.34969697443,
              39.98854592678
            ],
            [
              116.34969761103,
              39.98847879386
            ],
            [
              116.34969824764,
              39.98841166094
            ],
            [
              116.34969888423,
              39.98834452802
            ],
            [
              116.34969952083,
              39.98827739509
            ],
            [
              116.34970015743,
              39.98821026217
            ],
            [
              116.34970079402,
              39.98814312925
            ],
            [
              116.34961382281,
              39.98814264125
            ],
            [
              116.3495268516,
              39.98814215319
            ],
            [
              116.34943988039,
              39.98814166506
            ],
            [
              116.34935290918,
              39.98814117686
            ],
            [
              116.34926593797,
              39.9881406886
            ],
            [
              116.34917896677,
              39.98814020028
            ],
            [
              116.34909199557,
              39.98813971189
            ]
          ]
        ]
      }
    },
    {
      "type": "Feature",
      "id": "BLDG-006",
      "properties": {
        "id": "BLDG-006",
        "layer": "BUILDING_FOOTPRINT",
        "source_type": "agent_generated_design",
        "confidence": "low",
        "geometry_role": "design_proposal",
        "model_status": "provisional_design_model",
        "name_zh": "人才与公共问题前台（概念性生产开间）",
        "name_en": "Talent and Public-Problem Desk (Conceptual Productive Bay)",
        "derived_from_source_ids": [
          "DATA-SRC-PROVISIONAL-BOUNDARIES-20260605",
          "DATA-SRC-OFFICIAL-ANNOUNCEMENT-20260509",
          "A0-URBAN-RENEWAL-2025"
        ],
        "usage_note_zh": "概念建议，仅用于方案生成与复算；不是官方红线、现状测绘、地块或工程依据。",
        "usage_note_en": "Conceptual proposal for generation and recalculation only; not an official boundary, survey, parcel, or engineering basis.",
        "area_sqm_declared": 3552.0,
        "building_type": "community_service",
        "interface_role": "TRANSLATE",
        "parent_key_area_id": "PROV-KEY-002",
        "envelope_scope": "prototype_only_not_total_buildout",
        "demolition_retention_status": "unknown_pending_survey_and_ownership"
      },
      "geometry": {
        "type": "Polygon",
        "coordinates": [
          [
            [
              116.34432956554,
              39.98661785361
            ],
            [
              116.34432892842,
              39.98668449526
            ],
            [
              116.3443282913,
              39.98675113691
            ],
            [
              116.34432765417,
              39.98681777856
            ],
            [
              116.34432701705,
              39.98688442021
            ],
            [
              116.34432637992,
              39.98695106186
            ],
            [
              116.34432574279,
              39.98701770351
            ],
            [
              116.34432510566,
              39.98708434516
            ],
            [
              116.34432446852,
              39.98715098681
            ],
            [
              116.34432383138,
              39.98721762846
            ],
            [
              116.34432319425,
              39.9872842701
            ],
            [
              116.34441685428,
              39.9872847999
            ],
            [
              116.34451051432,
              39.98728532963
            ],
            [
              116.34460417436,
              39.98728585927
            ],
            [
              116.3446978344,
              39.98728638885
            ],
            [
              116.34479149445,
              39.98728691834
            ],
            [
              116.3448851545,
              39.98728744777
            ],
            [
              116.34488579109,
              39.98722080611
            ],
            [
              116.34488642768,
              39.98715416446
            ],
            [
              116.34488706427,
              39.9870875228
            ],
            [
              116.34488770086,
              39.98702088115
            ],
            [
              116.34488833744,
              39.98695423949
            ],
            [
              116.34488897403,
              39.98688759783
            ],
            [
              116.34488961061,
              39.98682095618
            ],
            [
              116.34489024718,
              39.98675431452
            ],
            [
              116.34489088376,
              39.98668767286
            ],
            [
              116.34489152033,
              39.9866210312
            ],
            [
              116.3447978612,
              39.98662050179
            ],
            [
              116.34470420206,
              39.9866199723
            ],
            [
              116.34461054293,
              39.98661944274
            ],
            [
              116.3445168838,
              39.98661891311
            ],
            [
              116.34442322467,
              39.9866183834
            ],
            [
              116.34432956554,
              39.98661785361
            ]
          ]
        ]
      }
    },
    {
      "type": "Feature",
      "id": "BLDG-007",
      "properties": {
        "id": "BLDG-007",
        "layer": "BUILDING_FOOTPRINT",
        "source_type": "agent_generated_design",
        "confidence": "low",
        "geometry_role": "design_proposal",
        "model_status": "provisional_design_model",
        "name_zh": "城市首用厅候选开间（概念性生产开间）",
        "name_en": "City First-Use Hall Candidate Bay (Conceptual Productive Bay)",
        "derived_from_source_ids": [
          "DATA-SRC-PROVISIONAL-BOUNDARIES-20260605",
          "DATA-SRC-OFFICIAL-ANNOUNCEMENT-20260509",
          "A0-URBAN-RENEWAL-2025"
        ],
        "usage_note_zh": "概念建议，仅用于方案生成与复算；不是官方红线、现状测绘、地块或工程依据。",
        "usage_note_en": "Conceptual proposal for generation and recalculation only; not an official boundary, survey, parcel, or engineering basis.",
        "area_sqm_declared": 10148.0,
        "building_type": "mixed_use",
        "interface_role": "USE",
        "parent_key_area_id": "PROV-KEY-003",
        "envelope_scope": "prototype_only_not_total_buildout",
        "demolition_retention_status": "unknown_pending_survey_and_ownership"
      },
      "geometry": {
        "type": "Polygon",
        "coordinates": [
          [
            [
              116.34498111929,
              39.9477198755
            ],
            [
              116.34498044359,
              39.94779072027
            ],
            [
              116.3449797679,
              39.94786156503
            ],
            [
              116.3449790922,
              39.9479324098
            ],
            [
              116.34497841649,
              39.94800325456
            ],
            [
              116.34497774079,
              39.94807409932
            ],
            [
              116.34497706508,
              39.94814494408
            ],
            [
              116.34497638937,
              39.94821578884
            ],
            [
              116.34497571366,
              39.9482866336
            ],
            [
              116.34497503795,
              39.94835747836
            ],
            [
              116.34497436223,
              39.94842832312
            ],
            [
              116.34497368651,
              39.94849916788
            ],
            [
              116.34497301079,
              39.94857001263
            ],
            [
              116.34497233507,
              39.94864085739
            ],
            [
              116.34497165934,
              39.94871170214
            ],
            [
              116.34497098361,
              39.9487825469
            ],
            [
              116.34506246369,
              39.94878306373
            ],
            [
              116.34515394377,
              39.9487835805
            ],
            [
              116.34524542385,
              39.94878409719
            ],
            [
              116.34533690393,
              39.94878461381
            ],
            [
              116.34542838402,
              39.94878513036
            ],
            [
              116.34551986411,
              39.94878564684
            ],
            [
              116.3456113442,
              39.94878616324
            ],
            [
              116.34570282429,
              39.94878667957
            ],
            [
              116.34579430438,
              39.94878719583
            ],
            [
              116.34588578448,
              39.94878771202
            ],
            [
              116.34597726458,
              39.94878822814
            ],
            [
              116.34597793927,
              39.94871738337
            ],
            [
              116.34597861396,
              39.9486465386
            ],
            [
              116.34597928864,
              39.94857569383
            ],
            [
              116.34597996333,
              39.94850484906
            ],
            [
              116.34598063801,
              39.94843400429
            ],
            [
              116.34598131269,
              39.94836315952
            ],
            [
              116.34598198736,
              39.94829231474
            ],
            [
              116.34598266204,
              39.94822146997
            ],
            [
              116.34598333671,
              39.9481506252
            ],
            [
              116.34598401138,
              39.94807978042
            ],
            [
              116.34598468604,
              39.94800893564
            ],
            [
              116.34598536071,
              39.94793809087
            ],
            [
              116.34598603537,
              39.94786724609
            ],
            [
              116.34598671003,
              39.94779640131
            ],
            [
              116.34598738468,
              39.94772555653
            ],
            [
              116.345895906,
              39.94772504043
            ],
            [
              116.34580442732,
              39.94772452427
            ],
            [
              116.34571294864,
              39.94772400803
            ],
            [
              116.34562146996,
              39.94772349171
            ],
            [
              116.34552999129,
              39.94772297533
            ],
            [
              116.34543851261,
              39.94772245887
            ],
            [
              116.34534703394,
              39.94772194234
            ],
            [
              116.34525555528,
              39.94772142574
            ],
            [
              116.34516407661,
              39.94772090907
            ],
            [
              116.34507259795,
              39.94772039232
            ],
            [
              116.34498111929,
              39.9477198755
            ]
          ]
        ]
      }
    },
    {
      "type": "Feature",
      "id": "BLDG-008",
      "properties": {
        "id": "BLDG-008",
        "layer": "BUILDING_FOOTPRINT",
        "source_type": "agent_generated_design",
        "confidence": "low",
        "geometry_role": "design_proposal",
        "model_status": "provisional_design_model",
        "name_zh": "维修、召回与复用台（概念性生产开间）",
        "name_en": "Repair, Recall and Reuse Desk (Conceptual Productive Bay)",
        "derived_from_source_ids": [
          "DATA-SRC-PROVISIONAL-BOUNDARIES-20260605",
          "DATA-SRC-OFFICIAL-ANNOUNCEMENT-20260509",
          "A0-URBAN-RENEWAL-2025"
        ],
        "usage_note_zh": "概念建议，仅用于方案生成与复算；不是官方红线、现状测绘、地块或工程依据。",
        "usage_note_en": "Conceptual proposal for generation and recalculation only; not an official boundary, survey, parcel, or engineering basis.",
        "area_sqm_declared": 6528.0,
        "building_type": "retail",
        "interface_role": "USE",
        "parent_key_area_id": "PROV-KEY-003",
        "envelope_scope": "prototype_only_not_total_buildout",
        "demolition_retention_status": "unknown_pending_survey_and_ownership"
      },
      "geometry": {
        "type": "Polygon",
        "coordinates": [
          [
            [
              116.34989559004,
              39.94649567927
            ],
            [
              116.34989490808,
              39.94656772488
            ],
            [
              116.34989422611,
              39.94663977049
            ],
            [
              116.34989354415,
              39.9467118161
            ],
            [
              116.34989286218,
              39.94678386171
            ],
            [
              116.3498921802,
              39.94685590731
            ],
            [
              116.34989149823,
              39.94692795292
            ],
            [
              116.34989081625,
              39.94699999852
            ],
            [
              116.34989013427,
              39.94707204413
            ],
            [
              116.34988945229,
              39.94714408973
            ],
            [
              116.34988877031,
              39.94721613533
            ],
            [
              116.34988808832,
              39.94728818093
            ],
            [
              116.34988740633,
              39.94736022653
            ],
            [
              116.34997581169,
              39.94736072225
            ],
            [
              116.35006421705,
              39.94736121789
            ],
            [
              116.35015262241,
              39.94736171347
            ],
            [
              116.35024102777,
              39.94736220898
            ],
            [
              116.35032943314,
              39.94736270443
            ],
            [
              116.35041783851,
              39.9473631998
            ],
            [
              116.35050624388,
              39.94736369511
            ],
            [
              116.35059464925,
              39.94736419035
            ],
            [
              116.35068305462,
              39.94736468553
            ],
            [
              116.35068373578,
              39.94729263992
            ],
            [
              116.35068441693,
              39.9472205943
            ],
            [
              116.35068509808,
              39.94714854869
            ],
            [
              116.35068577923,
              39.94707650308
            ],
            [
              116.35068646037,
              39.94700445746
            ],
            [
              116.35068714152,
              39.94693241184
            ],
            [
              116.35068782266,
              39.94686036623
            ],
            [
              116.3506885038,
              39.94678832061
            ],
            [
              116.35068918493,
              39.94671627499
            ],
            [
              116.35068986606,
              39.94664422937
            ],
            [
              116.35069054719,
              39.94657218375
            ],
            [
              116.35069122832,
              39.94650013813
            ],
            [
              116.35060282406,
              39.94649964297
            ],
            [
              116.3505144198,
              39.94649914774
            ],
            [
              116.35042601554,
              39.94649865245
            ],
            [
              116.35033761129,
              39.94649815709
            ],
            [
              116.35024920703,
              39.94649766166
            ],
            [
              116.35016080278,
              39.94649716616
            ],
            [
              116.35007239853,
              39.9464966706
            ],
            [
              116.34998399428,
              39.94649617497
            ],
            [
              116.34989559004,
              39.94649567927
            ]
          ]
        ]
      }
    },
    {
      "type": "Feature",
      "id": "BLDG-009",
      "properties": {
        "id": "BLDG-009",
        "layer": "BUILDING_FOOTPRINT",
        "source_type": "agent_generated_design",
        "confidence": "low",
        "geometry_role": "design_proposal",
        "model_status": "provisional_design_model",
        "name_zh": "人工替代服务台（概念性生产开间）",
        "name_en": "Human-Fallback Service Desk (Conceptual Productive Bay)",
        "derived_from_source_ids": [
          "DATA-SRC-PROVISIONAL-BOUNDARIES-20260605",
          "DATA-SRC-OFFICIAL-ANNOUNCEMENT-20260509",
          "A0-URBAN-RENEWAL-2025"
        ],
        "usage_note_zh": "概念建议，仅用于方案生成与复算；不是官方红线、现状测绘、地块或工程依据。",
        "usage_note_en": "Conceptual proposal for generation and recalculation only; not an official boundary, survey, parcel, or engineering basis.",
        "area_sqm_declared": 4264.0,
        "building_type": "community_service",
        "interface_role": "USE",
        "parent_key_area_id": "PROV-KEY-003",
        "envelope_scope": "prototype_only_not_total_buildout",
        "demolition_retention_status": "unknown_pending_survey_and_ownership"
      },
      "geometry": {
        "type": "Polygon",
        "coordinates": [
          [
            [
              116.3452042452,
              39.94518139378
            ],
            [
              116.34520360518,
              39.94524852714
            ],
            [
              116.34520296516,
              39.9453156605
            ],
            [
              116.34520232513,
              39.94538279386
            ],
            [
              116.3452016851,
              39.94544992722
            ],
            [
              116.34520104507,
              39.94551706058
            ],
            [
              116.34520040504,
              39.94558419394
            ],
            [
              116.34519976501,
              39.94565132729
            ],
            [
              116.34519912497,
              39.94571846065
            ],
            [
              116.34519848494,
              39.94578559401
            ],
            [
              116.3451978449,
              39.94585272736
            ],
            [
              116.34519720485,
              39.94591986071
            ],
            [
              116.3452841225,
              39.9459203516
            ],
            [
              116.34537104015,
              39.94592084242
            ],
            [
              116.34545795781,
              39.94592133317
            ],
            [
              116.34554487546,
              39.94592182386
            ],
            [
              116.34563179312,
              39.94592231448
            ],
            [
              116.34571871078,
              39.94592280504
            ],
            [
              116.34580562844,
              39.94592329554
            ],
            [
              116.34580626789,
              39.94585616217
            ],
            [
              116.34580690734,
              39.94578902881
            ],
            [
              116.34580754678,
              39.94572189545
            ],
            [
              116.34580818622,
              39.94565476208
            ],
            [
              116.34580882566,
              39.94558762872
            ],
            [
              116.3458094651,
              39.94552049535
            ],
            [
              116.34581010453,
              39.94545336198
            ],
            [
              116.34581074396,
              39.94538622862
            ],
            [
              116.34581138339,
              39.94531909525
            ],
            [
              116.34581202282,
              39.94525196188
            ],
            [
              116.34581266225,
              39.94518482851
            ],
            [
              116.34572574552,
              39.94518433803
            ],
            [
              116.34563882879,
              39.94518384748
            ],
            [
              116.34555191207,
              39.94518335687
            ],
            [
              116.34546499535,
              39.94518286619
            ],
            [
              116.34537807863,
              39.94518237545
            ],
            [
              116.34529116191,
              39.94518188465
            ],
            [
              116.3452042452,
              39.94518139378
            ]
          ]
        ]
      }
    }
  ]
}
