{
  "type": "FeatureCollection",
  "name": "from_lab_to_city_land_use_exact_provisional_partition",
  "partition_note_zh": "仅为临时计算边界内的概念功能分区，精确覆盖不等于法定用地有效。",
  "features": [
    {
      "type": "Feature",
      "id": "LU-001",
      "properties": {
        "id": "LU-001",
        "layer": "LAND_USE",
        "source_type": "agent_generated_design",
        "confidence": "low",
        "geometry_role": "design_proposal",
        "model_status": "provisional_design_model",
        "name_zh": "众智园全栈研发与试造主导区（概念）",
        "name_en": "Conceptual Full-Stack R&D and Making Domain",
        "derived_from_source_ids": [
          "DATA-SRC-PROVISIONAL-BOUNDARIES-20260605",
          "DATA-SRC-OFFICIAL-ANNOUNCEMENT-20260509",
          "A0-URBAN-RENEWAL-2025"
        ],
        "usage_note_zh": "概念建议，仅用于方案生成与复算；不是官方红线、现状测绘、地块或工程依据。",
        "usage_note_en": "Conceptual proposal for generation and recalculation only; not an official boundary, survey, parcel, or engineering basis.",
        "area_sqm_declared": 2156694.521,
        "land_use_code": "0802",
        "functional_role": "MAKE",
        "partition_status": "exact_partition_of_provisional_site_boundary"
      },
      "geometry": {
        "type": "Polygon",
        "coordinates": [
          [
            [
              116.3407,
              39.939
            ],
            [
              116.3397,
              39.975
            ],
            [
              116.3417,
              40.006
            ],
            [
              116.3427,
              40.0265
            ],
            [
              116.343444,
              40.0265
            ],
            [
              116.343444,
              39.939
            ],
            [
              116.3407,
              39.939
            ]
          ]
        ]
      }
    },
    {
      "type": "Feature",
      "id": "LU-002",
      "properties": {
        "id": "LU-002",
        "layer": "LAND_USE",
        "source_type": "agent_generated_design",
        "confidence": "low",
        "geometry_role": "design_proposal",
        "model_status": "provisional_design_model",
        "name_zh": "公园公共主线绿地（概念）",
        "name_en": "Conceptual Park-Spine Green Space",
        "derived_from_source_ids": [
          "DATA-SRC-PROVISIONAL-BOUNDARIES-20260605",
          "DATA-SRC-OFFICIAL-ANNOUNCEMENT-20260509",
          "A0-URBAN-RENEWAL-2025"
        ],
        "usage_note_zh": "概念建议，仅用于方案生成与复算；不是官方红线、现状测绘、地块或工程依据。",
        "usage_note_en": "Conceptual proposal for generation and recalculation only; not an official boundary, survey, parcel, or engineering basis.",
        "area_sqm_declared": 1035735.696,
        "land_use_code": "1401",
        "functional_role": "COMMON",
        "partition_status": "exact_partition_of_provisional_site_boundary"
      },
      "geometry": {
        "type": "Polygon",
        "coordinates": [
          [
            [
              116.345004,
              39.939
            ],
            [
              116.345004,
              40.0265
            ],
            [
              116.346252,
              40.0265
            ],
            [
              116.346252,
              39.939
            ],
            [
              116.345004,
              39.939
            ]
          ]
        ]
      }
    },
    {
      "type": "Feature",
      "id": "LU-003",
      "properties": {
        "id": "LU-003",
        "layer": "LAND_USE",
        "source_type": "agent_generated_design",
        "confidence": "low",
        "geometry_role": "design_proposal",
        "model_status": "provisional_design_model",
        "name_zh": "智能商务、首用与维修服务支持带（概念）",
        "name_en": "Conceptual Intelligent Business, First-Use and Repair Support Band",
        "derived_from_source_ids": [
          "DATA-SRC-PROVISIONAL-BOUNDARIES-20260605",
          "DATA-SRC-OFFICIAL-ANNOUNCEMENT-20260509",
          "A0-URBAN-RENEWAL-2025"
        ],
        "usage_note_zh": "概念建议，仅用于方案生成与复算；不是官方红线、现状测绘、地块或工程依据。",
        "usage_note_en": "Conceptual proposal for generation and recalculation only; not an official boundary, survey, parcel, or engineering basis.",
        "area_sqm_declared": 3041726.416,
        "land_use_code": "0902",
        "functional_role": "USE",
        "partition_status": "exact_partition_of_provisional_site_boundary"
      },
      "geometry": {
        "type": "Polygon",
        "coordinates": [
          [
            [
              116.3553,
              40.0265
            ],
            [
              116.3533,
              39.99
            ],
            [
              116.3553,
              39.965
            ],
            [
              116.3553,
              39.939
            ],
            [
              116.350932,
              39.939
            ],
            [
              116.350932,
              40.0265
            ],
            [
              116.3553,
              40.0265
            ]
          ]
        ]
      }
    },
    {
      "type": "Feature",
      "id": "LU-004",
      "properties": {
        "id": "LU-004",
        "layer": "LAND_USE",
        "source_type": "agent_generated_design",
        "confidence": "low",
        "geometry_role": "design_proposal",
        "model_status": "provisional_design_model",
        "name_zh": "社区服务、人才生活与公共反馈支持带（概念）",
        "name_en": "Conceptual Community, Talent-Life and Public-Feedback Support Band",
        "derived_from_source_ids": [
          "DATA-SRC-PROVISIONAL-BOUNDARIES-20260605",
          "DATA-SRC-OFFICIAL-ANNOUNCEMENT-20260509",
          "A0-URBAN-RENEWAL-2025"
        ],
        "usage_note_zh": "概念建议，仅用于方案生成与复算；不是官方红线、现状测绘、地块或工程依据。",
        "usage_note_en": "Conceptual proposal for generation and recalculation only; not an official boundary, survey, parcel, or engineering basis.",
        "area_sqm_declared": 3884006.16,
        "land_use_code": "0702",
        "functional_role": "LEARN",
        "partition_status": "exact_partition_of_provisional_site_boundary"
      },
      "geometry": {
        "type": "Polygon",
        "coordinates": [
          [
            [
              116.346252,
              39.939
            ],
            [
              116.346252,
              40.0265
            ],
            [
              116.350932,
              40.0265
            ],
            [
              116.350932,
              39.939
            ],
            [
              116.346252,
              39.939
            ]
          ]
        ]
      }
    },
    {
      "type": "Feature",
      "id": "LU-005",
      "properties": {
        "id": "LU-005",
        "layer": "LAND_USE",
        "source_type": "agent_generated_design",
        "confidence": "low",
        "geometry_role": "design_proposal",
        "model_status": "provisional_design_model",
        "name_zh": "教育科研与成果转化支持带（概念）",
        "name_en": "Conceptual Education, Research and Translation Support Band",
        "derived_from_source_ids": [
          "DATA-SRC-PROVISIONAL-BOUNDARIES-20260605",
          "DATA-SRC-OFFICIAL-ANNOUNCEMENT-20260509",
          "A0-URBAN-RENEWAL-2025"
        ],
        "usage_note_zh": "概念建议，仅用于方案生成与复算；不是官方红线、现状测绘、地块或工程依据。",
        "usage_note_en": "Conceptual proposal for generation and recalculation only; not an official boundary, survey, parcel, or engineering basis.",
        "area_sqm_declared": 1294670.047,
        "land_use_code": "0804",
        "functional_role": "TRANSLATE",
        "partition_status": "exact_partition_of_provisional_site_boundary"
      },
      "geometry": {
        "type": "Polygon",
        "coordinates": [
          [
            [
              116.343444,
              39.939
            ],
            [
              116.343444,
              40.0265
            ],
            [
              116.345004,
              40.0265
            ],
            [
              116.345004,
              39.939
            ],
            [
              116.343444,
              39.939
            ]
          ]
        ]
      }
    }
  ]
}
