{
 "type": "FeatureCollection",
 "features": [
  {
   "type": "Feature",
   "id": "CON-001",
   "properties": {
    "id": "CON-001",
    "layer": "REGULATORY_CONTROL",
    "source_type": "agent_inferred_from_public_data",
    "confidence": "low",
    "geometry_role": "provisional_constraint",
    "area_sqm_declared": 1728624.57,
    "label_zh": "京张高铁运营走廊控制提示带",
    "constraint_type": "rail_corridor_buffer",
    "boundary_precision": "provisional_rough",
    "note_zh": "临时粗略推断，非铁路安全保护区法定范围，待官方资料核校"
   },
   "geometry": {
    "type": "Polygon",
    "coordinates": [
     [
      [
       116.34454,
       39.93948
      ],
      [
       116.343713,
       40.0259654
      ],
      [
       116.3458216,
       40.0259773
      ],
      [
       116.3466459,
       39.9394919
      ],
      [
       116.34454,
       39.93948
      ]
     ]
    ]
   }
  },
  {
   "type": "Feature",
   "id": "CON-002",
   "properties": {
    "id": "CON-002",
    "layer": "HERITAGE_PROTECTION",
    "source_type": "agent_inferred_from_public_data",
    "confidence": "low",
    "geometry_role": "provisional_constraint",
    "area_sqm_declared": 28000.0,
    "label_zh": "清华园车站旧址保护提示区",
    "constraint_type": "heritage_protection_hint",
    "boundary_precision": "provisional_rough",
    "note_zh": "位置为公开常识的粗略示意，文保范围以官方公布为准"
   },
   "geometry": {
    "type": "Polygon",
    "coordinates": [
     [
      [
       116.3487484,
       39.9768643
      ],
      [
       116.3487365,
       39.978125
      ],
      [
       116.3510777,
       39.9781382
      ],
      [
       116.3510896,
       39.9768774
      ],
      [
       116.3487484,
       39.9768643
      ]
     ]
    ]
   }
  },
  {
   "type": "Feature",
   "id": "CON-003",
   "properties": {
    "id": "CON-003",
    "layer": "REGULATORY_CONTROL",
    "source_type": "agent_inferred_from_public_data",
    "confidence": "low",
    "geometry_role": "provisional_constraint",
    "area_sqm_declared": 64138.03,
    "label_zh": "五道口轨道节点协调提示区",
    "constraint_type": "metro_node_coordination",
    "boundary_precision": "provisional_rough",
    "note_zh": "示意性协调范围，站点出入口与换乘资料待官方核校"
   },
   "geometry": {
    "type": "Polygon",
    "coordinates": [
     [
      [
       116.340272,
       39.9642086
      ],
      [
       116.3402616,
       39.9652893
      ],
      [
       116.3465171,
       39.9653247
      ],
      [
       116.3465274,
       39.964244
      ],
      [
       116.340272,
       39.9642086
      ]
     ]
    ]
   }
  }
 ]
}
