{
 "type": "FeatureCollection",
 "features": [
  {
   "type": "Feature",
   "id": "GS-001",
   "properties": {
    "id": "GS-001",
    "layer": "GREEN_SPACE",
    "source_type": "agent_inferred_from_public_data",
    "confidence": "medium",
    "geometry_role": "design_proposal",
    "area_sqm_declared": 1108268.79,
    "label_zh": "京张遗址公园带与小月河绿带",
    "label_en": "Jingzhang heritage park belt & Xiaoyue river greenway",
    "space_type": "urban_park_greenway"
   },
   "geometry": {
    "type": "Polygon",
    "coordinates": [
     [
      [
       116.3467946,
       39.991495
      ],
      [
       116.3407618,
       39.9914608
      ],
      [
       116.3414401,
       40.0019732
      ],
      [
       116.3466945,
       40.0020029
      ],
      [
       116.3466129,
       40.0105614
      ],
      [
       116.3488381,
       40.0105739
      ],
      [
       116.3489194,
       40.0020154
      ],
      [
       116.3490192,
       39.9915075
      ],
      [
       116.3490838,
       39.9847004
      ],
      [
       116.3468595,
       39.9846879
      ],
      [
       116.3467946,
       39.991495
      ]
     ]
    ]
   }
  },
  {
   "type": "Feature",
   "id": "GS-002",
   "properties": {
    "id": "GS-002",
    "layer": "GREEN_SPACE",
    "source_type": "agent_inferred_from_public_data",
    "confidence": "medium",
    "geometry_role": "design_proposal",
    "area_sqm_declared": 358091.85,
    "label_zh": "京张遗址公园带与小月河绿带",
    "label_en": "Jingzhang heritage park belt & Xiaoyue river greenway",
    "space_type": "urban_park_greenway"
   },
   "geometry": {
    "type": "Polygon",
    "coordinates": [
     [
      [
       116.3469447,
       39.9757331
      ],
      [
       116.3468806,
       39.9824682
      ],
      [
       116.3491049,
       39.9824807
      ],
      [
       116.3491688,
       39.9757456
      ],
      [
       116.3492659,
       39.9655078
      ],
      [
       116.3470421,
       39.9654953
      ],
      [
       116.3469447,
       39.9757331
      ]
     ]
    ]
   }
  },
  {
   "type": "Feature",
   "id": "GS-003",
   "properties": {
    "id": "GS-003",
    "layer": "GREEN_SPACE",
    "source_type": "agent_inferred_from_public_data",
    "confidence": "medium",
    "geometry_role": "design_proposal",
    "area_sqm_declared": 248764.3,
    "label_zh": "京张遗址公园带与小月河绿带",
    "label_en": "Jingzhang heritage park belt & Xiaoyue river greenway",
    "space_type": "urban_park_greenway"
   },
   "geometry": {
    "type": "Polygon",
    "coordinates": [
     [
      [
       116.349271,
       39.9649675
      ],
      [
       116.3493348,
       39.9582324
      ],
      [
       116.3493827,
       39.9531765
      ],
      [
       116.3471594,
       39.953164
      ],
      [
       116.3471113,
       39.9582199
      ],
      [
       116.3470473,
       39.964955
      ],
      [
       116.349271,
       39.9649675
      ]
     ]
    ]
   }
  },
  {
   "type": "Feature",
   "id": "GS-004",
   "properties": {
    "id": "GS-004",
    "layer": "GREEN_SPACE",
    "source_type": "agent_inferred_from_public_data",
    "confidence": "medium",
    "geometry_role": "design_proposal",
    "area_sqm_declared": 239527.0,
    "label_zh": "京张遗址公园带与小月河绿带",
    "label_en": "Jingzhang heritage park belt & Xiaoyue river greenway",
    "space_type": "urban_park_greenway"
   },
   "geometry": {
    "type": "Polygon",
    "coordinates": [
     [
      [
       116.3488343,
       40.0109701
      ],
      [
       116.3466091,
       40.0109576
      ],
      [
       116.3465009,
       40.0223107
      ],
      [
       116.3487264,
       40.0223232
      ],
      [
       116.3488343,
       40.0109701
      ]
     ]
    ]
   }
  },
  {
   "type": "Feature",
   "id": "GS-005",
   "properties": {
    "id": "GS-005",
    "layer": "GREEN_SPACE",
    "source_type": "agent_inferred_from_public_data",
    "confidence": "medium",
    "geometry_role": "design_proposal",
    "area_sqm_declared": 193340.52,
    "label_zh": "京张遗址公园带与小月河绿带",
    "label_en": "Jingzhang heritage park belt & Xiaoyue river greenway",
    "space_type": "urban_park_greenway"
   },
   "geometry": {
    "type": "Polygon",
    "coordinates": [
     [
      [
       116.3471632,
       39.9527677
      ],
      [
       116.3493865,
       39.9527802
      ],
      [
       116.3494344,
       39.9477244
      ],
      [
       116.3494733,
       39.9436162
      ],
      [
       116.3472503,
       39.9436037
      ],
      [
       116.3472113,
       39.9477119
      ],
      [
       116.3471632,
       39.9527677
      ]
     ]
    ]
   }
  },
  {
   "type": "Feature",
   "id": "GS-006",
   "properties": {
    "id": "GS-006",
    "layer": "GREEN_SPACE",
    "source_type": "agent_inferred_from_public_data",
    "confidence": "medium",
    "geometry_role": "design_proposal",
    "area_sqm_declared": 85855.0,
    "label_zh": "京张遗址公园带与小月河绿带",
    "label_en": "Jingzhang heritage park belt & Xiaoyue river greenway",
    "space_type": "urban_park_greenway"
   },
   "geometry": {
    "type": "Polygon",
    "coordinates": [
     [
      [
       116.3494784,
       39.9430759
      ],
      [
       116.349517,
       39.9390002
      ],
      [
       116.347294,
       39.9390002
      ],
      [
       116.3472554,
       39.9430634
      ],
      [
       116.3494784,
       39.9430759
      ]
     ]
    ]
   }
  },
  {
   "type": "Feature",
   "id": "GS-007",
   "properties": {
    "id": "GS-007",
    "layer": "GREEN_SPACE",
    "source_type": "agent_inferred_from_public_data",
    "confidence": "medium",
    "geometry_role": "design_proposal",
    "area_sqm_declared": 76858.01,
    "label_zh": "京张遗址公园带与小月河绿带",
    "label_en": "Jingzhang heritage park belt & Xiaoyue river greenway",
    "space_type": "urban_park_greenway"
   },
   "geometry": {
    "type": "Polygon",
    "coordinates": [
     [
      [
       116.3464609,
       40.0265001
      ],
      [
       116.3486867,
       40.0265002
      ],
      [
       116.3487213,
       40.0228635
      ],
      [
       116.3464957,
       40.022851
      ],
      [
       116.3464609,
       40.0265001
      ]
     ]
    ]
   }
  },
  {
   "type": "Feature",
   "id": "GS-008",
   "properties": {
    "id": "GS-008",
    "layer": "GREEN_SPACE",
    "source_type": "agent_inferred_from_public_data",
    "confidence": "medium",
    "geometry_role": "design_proposal",
    "area_sqm_declared": 27069.19,
    "label_zh": "京张遗址公园带与小月河绿带",
    "label_en": "Jingzhang heritage park belt & Xiaoyue river greenway",
    "space_type": "urban_park_greenway"
   },
   "geometry": {
    "type": "Polygon",
    "coordinates": [
     [
      [
       116.3468632,
       39.9842916
      ],
      [
       116.3490876,
       39.9843041
      ],
      [
       116.3490997,
       39.9830211
      ],
      [
       116.3468755,
       39.9830086
      ],
      [
       116.3468632,
       39.9842916
      ]
     ]
    ]
   }
  }
 ]
}