{
 "type": "FeatureCollection",
 "features": [
  {
   "type": "Feature",
   "id": "LU-001",
   "properties": {
    "id": "LU-001",
    "layer": "LAND_USE",
    "source_type": "agent_inferred_from_public_data",
    "confidence": "medium",
    "geometry_role": "design_proposal",
    "area_sqm_declared": 696217.84,
    "label_zh": "文化用地",
    "label_en": "Culture",
    "land_use_code": "0803",
    "land_use_zh": "文化用地",
    "structure_role": "原点文化社区南段"
   },
   "geometry": {
    "type": "Polygon",
    "coordinates": [
     [
      [
       116.3399653,
       39.9654553
      ],
      [
       116.3397,
       39.975
      ],
      [
       116.3397446,
       39.9756923
      ],
      [
       116.3469447,
       39.9757331
      ],
      [
       116.3470421,
       39.9654953
      ],
      [
       116.3399653,
       39.9654553
      ]
     ]
    ]
   }
  },
  {
   "type": "Feature",
   "id": "LU-002",
   "properties": {
    "id": "LU-002",
    "layer": "LAND_USE",
    "source_type": "agent_inferred_from_public_data",
    "confidence": "medium",
    "geometry_role": "design_proposal",
    "area_sqm_declared": 643797.64,
    "label_zh": "科研用地",
    "label_en": "Research",
    "land_use_code": "0802",
    "land_use_zh": "科研用地",
    "structure_role": "众智园研发腹地"
   },
   "geometry": {
    "type": "Polygon",
    "coordinates": [
     [
      [
       116.355073,
       40.0223587
      ],
      [
       116.3544505,
       40.0110015
      ],
      [
       116.3488343,
       40.0109701
      ],
      [
       116.3487264,
       40.0223232
      ],
      [
       116.355073,
       40.0223587
      ]
     ]
    ]
   }
  },
  {
   "type": "Feature",
   "id": "LU-003",
   "properties": {
    "id": "LU-003",
    "layer": "LAND_USE",
    "source_type": "agent_inferred_from_public_data",
    "confidence": "medium",
    "geometry_role": "design_proposal",
    "area_sqm_declared": 562391.01,
    "label_zh": "公园绿地",
    "label_en": "Park green space",
    "land_use_code": "1401",
    "land_use_zh": "公园绿地",
    "structure_role": "小月河场景赋能翼"
   },
   "geometry": {
    "type": "Polygon",
    "coordinates": [
     [
      [
       116.3407618,
       39.9914608
      ],
      [
       116.3414401,
       40.0019732
      ],
      [
       116.3466945,
       40.0020029
      ],
      [
       116.3467946,
       39.991495
      ],
      [
       116.3407618,
       39.9914608
      ]
     ]
    ]
   }
  },
  {
   "type": "Feature",
   "id": "LU-004",
   "properties": {
    "id": "LU-004",
    "layer": "LAND_USE",
    "source_type": "agent_inferred_from_public_data",
    "confidence": "medium",
    "geometry_role": "design_proposal",
    "area_sqm_declared": 546828.45,
    "label_zh": "城镇住宅用地",
    "label_en": "Urban residential",
    "land_use_code": "0701",
    "land_use_zh": "城镇住宅用地",
    "structure_role": "原点文化社区南段"
   },
   "geometry": {
    "type": "Polygon",
    "coordinates": [
     [
      [
       116.3544382,
       39.9757751
      ],
      [
       116.3552567,
       39.9655413
      ],
      [
       116.3492659,
       39.9655078
      ],
      [
       116.3491688,
       39.9757456
      ],
      [
       116.3544382,
       39.9757751
      ]
     ]
    ]
   }
  },
  {
   "type": "Feature",
   "id": "LU-005",
   "properties": {
    "id": "LU-005",
    "layer": "LAND_USE",
    "source_type": "agent_inferred_from_public_data",
    "confidence": "medium",
    "geometry_role": "design_proposal",
    "area_sqm_declared": 468602.46,
    "label_zh": "科研用地",
    "label_en": "Research",
    "land_use_code": "0802",
    "land_use_zh": "科研用地",
    "structure_role": "小月河场景赋能翼"
   },
   "geometry": {
    "type": "Polygon",
    "coordinates": [
     [
      [
       116.3539597,
       40.0020436
      ],
      [
       116.3533839,
       39.991532
      ],
      [
       116.3490192,
       39.9915075
      ],
      [
       116.3489194,
       40.0020154
      ],
      [
       116.3539597,
       40.0020436
      ]
     ]
    ]
   }
  },
  {
   "type": "Feature",
   "id": "LU-006",
   "properties": {
    "id": "LU-006",
    "layer": "LAND_USE",
    "source_type": "agent_inferred_from_public_data",
    "confidence": "medium",
    "geometry_role": "design_proposal",
    "area_sqm_declared": 466866.67,
    "label_zh": "科研用地",
    "label_en": "Research",
    "land_use_code": "0802",
    "land_use_zh": "科研用地",
    "structure_role": "众智园研发腹地"
   },
   "geometry": {
    "type": "Polygon",
    "coordinates": [
     [
      [
       116.3419405,
       40.0109312
      ],
      [
       116.3424945,
       40.022288
      ],
      [
       116.3465009,
       40.0223107
      ],
      [
       116.3466091,
       40.0109576
      ],
      [
       116.3419405,
       40.0109312
      ]
     ]
    ]
   }
  },
  {
   "type": "Feature",
   "id": "LU-007",
   "properties": {
    "id": "LU-007",
    "layer": "LAND_USE",
    "source_type": "agent_inferred_from_public_data",
    "confidence": "medium",
    "geometry_role": "design_proposal",
    "area_sqm_declared": 447680.03,
    "label_zh": "文化用地",
    "label_en": "Culture",
    "land_use_code": "0803",
    "land_use_zh": "文化用地",
    "structure_role": "原点文化社区南段"
   },
   "geometry": {
    "type": "Polygon",
    "coordinates": [
     [
      [
       116.3401674,
       39.9581805
      ],
      [
       116.3399803,
       39.964915
      ],
      [
       116.3470473,
       39.964955
      ],
      [
       116.3471113,
       39.9582199
      ],
      [
       116.3401674,
       39.9581805
      ]
     ]
    ]
   }
  },
  {
   "type": "Feature",
   "id": "LU-008",
   "properties": {
    "id": "LU-008",
    "layer": "LAND_USE",
    "source_type": "agent_inferred_from_public_data",
    "confidence": "medium",
    "geometry_role": "design_proposal",
    "area_sqm_declared": 444067.59,
    "label_zh": "留白用地",
    "label_en": "Reserved (white) land",
    "land_use_code": "16",
    "land_use_zh": "留白用地",
    "structure_role": "留白生长储备北段"
   },
   "geometry": {
    "type": "Polygon",
    "coordinates": [
     [
      [
       116.3397446,
       39.9756923
      ],
      [
       116.3401792,
       39.9824303
      ],
      [
       116.3468806,
       39.9824682
      ],
      [
       116.3469447,
       39.9757331
      ],
      [
       116.3397446,
       39.9756923
      ]
     ]
    ]
   }
  },
  {
   "type": "Feature",
   "id": "LU-009",
   "properties": {
    "id": "LU-009",
    "layer": "LAND_USE",
    "source_type": "agent_inferred_from_public_data",
    "confidence": "medium",
    "geometry_role": "design_proposal",
    "area_sqm_declared": 431360.54,
    "label_zh": "科研用地",
    "label_en": "Research",
    "land_use_code": "0802",
    "land_use_zh": "科研用地",
    "structure_role": "众智园研发腹地"
   },
   "geometry": {
    "type": "Polygon",
    "coordinates": [
     [
      [
       116.3544288,
       40.0106052
      ],
      [
       116.3539597,
       40.0020436
      ],
      [
       116.3489194,
       40.0020154
      ],
      [
       116.3488381,
       40.0105739
      ],
      [
       116.3544288,
       40.0106052
      ]
     ]
    ]
   }
  },
  {
   "type": "Feature",
   "id": "LU-010",
   "properties": {
    "id": "LU-010",
    "layer": "LAND_USE",
    "source_type": "agent_inferred_from_public_data",
    "confidence": "medium",
    "geometry_role": "design_proposal",
    "area_sqm_declared": 405773.04,
    "label_zh": "留白用地",
    "label_en": "Reserved (white) land",
    "land_use_code": "16",
    "land_use_zh": "留白用地",
    "structure_role": "留白生长储备北段"
   },
   "geometry": {
    "type": "Polygon",
    "coordinates": [
     [
      [
       116.3403225,
       39.9846508
      ],
      [
       116.3407618,
       39.9914608
      ],
      [
       116.3467946,
       39.991495
      ],
      [
       116.3468595,
       39.9846879
      ],
      [
       116.3403225,
       39.9846508
      ]
     ]
    ]
   }
  },
  {
   "type": "Feature",
   "id": "LU-011",
   "properties": {
    "id": "LU-011",
    "layer": "LAND_USE",
    "source_type": "agent_inferred_from_public_data",
    "confidence": "medium",
    "geometry_role": "design_proposal",
    "area_sqm_declared": 402209.13,
    "label_zh": "科研用地",
    "label_en": "Research",
    "land_use_code": "0802",
    "land_use_zh": "科研用地",
    "structure_role": "众智园研发腹地"
   },
   "geometry": {
    "type": "Polygon",
    "coordinates": [
     [
      [
       116.3414401,
       40.0019732
      ],
      [
       116.3417,
       40.006
      ],
      [
       116.3419212,
       40.0105348
      ],
      [
       116.3466129,
       40.0105614
      ],
      [
       116.3466945,
       40.0020029
      ],
      [
       116.3414401,
       40.0019732
      ]
     ]
    ]
   }
  },
  {
   "type": "Feature",
   "id": "LU-012",
   "properties": {
    "id": "LU-012",
    "layer": "LAND_USE",
    "source_type": "agent_inferred_from_public_data",
    "confidence": "medium",
    "geometry_role": "design_proposal",
    "area_sqm_declared": 383238.13,
    "label_zh": "城镇住宅用地",
    "label_en": "Urban residential",
    "land_use_code": "0701",
    "land_use_zh": "城镇住宅用地",
    "structure_role": "原点文化社区南段"
   },
   "geometry": {
    "type": "Polygon",
    "coordinates": [
     [
      [
       116.3552999,
       39.9650012
      ],
      [
       116.3553,
       39.965
      ],
      [
       116.3553,
       39.9582657
      ],
      [
       116.3493348,
       39.9582324
      ],
      [
       116.349271,
       39.9649675
      ],
      [
       116.3552999,
       39.9650012
      ]
     ]
    ]
   }
  },
  {
   "type": "Feature",
   "id": "LU-013",
   "properties": {
    "id": "LU-013",
    "layer": "LAND_USE",
    "source_type": "agent_inferred_from_public_data",
    "confidence": "medium",
    "geometry_role": "design_proposal",
    "area_sqm_declared": 330921.86,
    "label_zh": "商务金融用地",
    "label_en": "Business finance",
    "land_use_code": "0902",
    "land_use_zh": "商务金融用地",
    "structure_role": "商务服务过渡带"
   },
   "geometry": {
    "type": "Polygon",
    "coordinates": [
     [
      [
       116.3403078,
       39.9531252
      ],
      [
       116.3401674,
       39.9581805
      ],
      [
       116.3471113,
       39.9582199
      ],
      [
       116.3471594,
       39.953164
      ],
      [
       116.3403078,
       39.9531252
      ]
     ]
    ]
   }
  },
  {
   "type": "Feature",
   "id": "LU-014",
   "properties": {
    "id": "LU-014",
    "layer": "LAND_USE",
    "source_type": "agent_inferred_from_public_data",
    "confidence": "medium",
    "geometry_role": "design_proposal",
    "area_sqm_declared": 326170.77,
    "label_zh": "商务金融用地",
    "label_en": "Business finance",
    "land_use_code": "0902",
    "land_use_zh": "商务金融用地",
    "structure_role": "商务服务过渡带"
   },
   "geometry": {
    "type": "Polygon",
    "coordinates": [
     [
      [
       116.3404592,
       39.9476737
      ],
      [
       116.3403188,
       39.952729
      ],
      [
       116.3471632,
       39.9527677
      ],
      [
       116.3472113,
       39.9477119
      ],
      [
       116.3404592,
       39.9476737
      ]
     ]
    ]
   }
  },
  {
   "type": "Feature",
   "id": "LU-015",
   "properties": {
    "id": "LU-015",
    "layer": "LAND_USE",
    "source_type": "agent_inferred_from_public_data",
    "confidence": "medium",
    "geometry_role": "design_proposal",
    "area_sqm_declared": 321486.83,
    "label_zh": "城镇住宅用地",
    "label_en": "Urban residential",
    "land_use_code": "0701",
    "land_use_zh": "城镇住宅用地",
    "structure_role": "留白生长储备北段"
   },
   "geometry": {
    "type": "Polygon",
    "coordinates": [
     [
      [
       116.3538996,
       39.9825076
      ],
      [
       116.3544382,
       39.9757751
      ],
      [
       116.3491688,
       39.9757456
      ],
      [
       116.3491049,
       39.9824807
      ],
      [
       116.3538996,
       39.9825076
      ]
     ]
    ]
   }
  },
  {
   "type": "Feature",
   "id": "LU-016",
   "properties": {
    "id": "LU-016",
    "layer": "LAND_USE",
    "source_type": "agent_inferred_from_public_data",
    "confidence": "medium",
    "geometry_role": "design_proposal",
    "area_sqm_declared": 285462.59,
    "label_zh": "城镇住宅用地",
    "label_en": "Urban residential",
    "land_use_code": "0701",
    "land_use_zh": "城镇住宅用地",
    "structure_role": "留白生长储备北段"
   },
   "geometry": {
    "type": "Polygon",
    "coordinates": [
     [
      [
       116.3533839,
       39.991532
      ],
      [
       116.3533,
       39.99
      ],
      [
       116.353722,
       39.9847263
      ],
      [
       116.3490838,
       39.9847004
      ],
      [
       116.3490192,
       39.9915075
      ],
      [
       116.3533839,
       39.991532
      ]
     ]
    ]
   }
  },
  {
   "type": "Feature",
   "id": "LU-017",
   "properties": {
    "id": "LU-017",
    "layer": "LAND_USE",
    "source_type": "agent_inferred_from_public_data",
    "confidence": "medium",
    "geometry_role": "design_proposal",
    "area_sqm_declared": 285029.17,
    "label_zh": "商务金融用地",
    "label_en": "Business finance",
    "land_use_code": "0902",
    "land_use_zh": "商务金融用地",
    "structure_role": "商务服务过渡带"
   },
   "geometry": {
    "type": "Polygon",
    "coordinates": [
     [
      [
       116.3553,
       39.9582657
      ],
      [
       116.3553,
       39.9532095
      ],
      [
       116.3493827,
       39.9531765
      ],
      [
       116.3493348,
       39.9582324
      ],
      [
       116.3553,
       39.9582657
      ]
     ]
    ]
   }
  },
  {
   "type": "Feature",
   "id": "LU-018",
   "properties": {
    "id": "LU-018",
    "layer": "LAND_USE",
    "source_type": "agent_inferred_from_public_data",
    "confidence": "medium",
    "geometry_role": "design_proposal",
    "area_sqm_declared": 282573.25,
    "label_zh": "商务金融用地",
    "label_en": "Business finance",
    "land_use_code": "0902",
    "land_use_zh": "商务金融用地",
    "structure_role": "商务服务过渡带"
   },
   "geometry": {
    "type": "Polygon",
    "coordinates": [
     [
      [
       116.3553,
       39.9528133
      ],
      [
       116.3553,
       39.9477571
      ],
      [
       116.3494344,
       39.9477244
      ],
      [
       116.3493865,
       39.9527802
      ],
      [
       116.3553,
       39.9528133
      ]
     ]
    ]
   }
  },
  {
   "type": "Feature",
   "id": "LU-019",
   "properties": {
    "id": "LU-019",
    "layer": "LAND_USE",
    "source_type": "agent_inferred_from_public_data",
    "confidence": "medium",
    "geometry_role": "design_proposal",
    "area_sqm_declared": 261786.39,
    "label_zh": "商业服务业用地",
    "label_en": "Commercial services",
    "land_use_code": "09",
    "land_use_zh": "商业服务业用地",
    "structure_role": "大钟寺智能原生消费核"
   },
   "geometry": {
    "type": "Polygon",
    "coordinates": [
     [
      [
       116.3405732,
       39.9435659
      ],
      [
       116.3404592,
       39.9476737
      ],
      [
       116.3472113,
       39.9477119
      ],
      [
       116.3472503,
       39.9436037
      ],
      [
       116.3405732,
       39.9435659
      ]
     ]
    ]
   }
  },
  {
   "type": "Feature",
   "id": "LU-020",
   "properties": {
    "id": "LU-020",
    "layer": "LAND_USE",
    "source_type": "agent_inferred_from_public_data",
    "confidence": "medium",
    "geometry_role": "design_proposal",
    "area_sqm_declared": 254517.72,
    "label_zh": "商业服务业用地",
    "label_en": "Commercial services",
    "land_use_code": "09",
    "land_use_zh": "商业服务业用地",
    "structure_role": "大钟寺智能原生消费核"
   },
   "geometry": {
    "type": "Polygon",
    "coordinates": [
     [
      [
       116.347294,
       39.9390002
      ],
      [
       116.3407,
       39.939
      ],
      [
       116.3405882,
       39.9430256
      ],
      [
       116.3472554,
       39.9430634
      ],
      [
       116.347294,
       39.9390002
      ]
     ]
    ]
   }
  },
  {
   "type": "Feature",
   "id": "LU-021",
   "properties": {
    "id": "LU-021",
    "layer": "LAND_USE",
    "source_type": "agent_inferred_from_public_data",
    "confidence": "medium",
    "geometry_role": "design_proposal",
    "area_sqm_declared": 239527.0,
    "label_zh": "公园绿地",
    "label_en": "Park green space",
    "land_use_code": "1401",
    "land_use_zh": "公园绿地",
    "structure_role": "众智园研发腹地"
   },
   "geometry": {
    "type": "Polygon",
    "coordinates": [
     [
      [
       116.3488343,
       40.0109701
      ],
      [
       116.3466091,
       40.0109576
      ],
      [
       116.3465009,
       40.0223107
      ],
      [
       116.3487264,
       40.0223232
      ],
      [
       116.3488343,
       40.0109701
      ]
     ]
    ]
   }
  },
  {
   "type": "Feature",
   "id": "LU-022",
   "properties": {
    "id": "LU-022",
    "layer": "LAND_USE",
    "source_type": "agent_inferred_from_public_data",
    "confidence": "medium",
    "geometry_role": "design_proposal",
    "area_sqm_declared": 227928.44,
    "label_zh": "商业服务业用地",
    "label_en": "Commercial services",
    "land_use_code": "09",
    "land_use_zh": "商业服务业用地",
    "structure_role": "大钟寺智能原生消费核"
   },
   "geometry": {
    "type": "Polygon",
    "coordinates": [
     [
      [
       116.3553,
       39.9477571
      ],
      [
       116.3553,
       39.9436488
      ],
      [
       116.3494733,
       39.9436162
      ],
      [
       116.3494344,
       39.9477244
      ],
      [
       116.3553,
       39.9477571
      ]
     ]
    ]
   }
  },
  {
   "type": "Feature",
   "id": "LU-023",
   "properties": {
    "id": "LU-023",
    "layer": "LAND_USE",
    "source_type": "agent_inferred_from_public_data",
    "confidence": "medium",
    "geometry_role": "design_proposal",
    "area_sqm_declared": 225334.6,
    "label_zh": "商业服务业用地",
    "label_en": "Commercial services",
    "land_use_code": "09",
    "land_use_zh": "商业服务业用地",
    "structure_role": "大钟寺智能原生消费核"
   },
   "geometry": {
    "type": "Polygon",
    "coordinates": [
     [
      [
       116.3553,
       39.9431084
      ],
      [
       116.3553,
       39.939
      ],
      [
       116.349517,
       39.9390002
      ],
      [
       116.3494784,
       39.9430759
      ],
      [
       116.3553,
       39.9431084
      ]
     ]
    ]
   }
  },
  {
   "type": "Feature",
   "id": "LU-024",
   "properties": {
    "id": "LU-024",
    "layer": "LAND_USE",
    "source_type": "agent_inferred_from_public_data",
    "confidence": "medium",
    "geometry_role": "design_proposal",
    "area_sqm_declared": 222856.54,
    "label_zh": "科研用地",
    "label_en": "Research",
    "land_use_code": "0802",
    "land_use_zh": "科研用地",
    "structure_role": "北端公园门户"
   },
   "geometry": {
    "type": "Polygon",
    "coordinates": [
     [
      [
       116.3486867,
       40.0265002
      ],
      [
       116.3553,
       40.0265
      ],
      [
       116.3551026,
       40.0228992
      ],
      [
       116.3487213,
       40.0228635
      ],
      [
       116.3486867,
       40.0265002
      ]
     ]
    ]
   }
  },
  {
   "type": "Feature",
   "id": "LU-025",
   "properties": {
    "id": "LU-025",
    "layer": "LAND_USE",
    "source_type": "agent_inferred_from_public_data",
    "confidence": "medium",
    "geometry_role": "design_proposal",
    "area_sqm_declared": 221695.11,
    "label_zh": "公园绿地",
    "label_en": "Park green space",
    "land_use_code": "1401",
    "land_use_zh": "公园绿地",
    "structure_role": "小月河场景赋能翼"
   },
   "geometry": {
    "type": "Polygon",
    "coordinates": [
     [
      [
       116.3490192,
       39.9915075
      ],
      [
       116.3467946,
       39.991495
      ],
      [
       116.3466945,
       40.0020029
      ],
      [
       116.3489194,
       40.0020154
      ],
      [
       116.3490192,
       39.9915075
      ]
     ]
    ]
   }
  },
  {
   "type": "Feature",
   "id": "LU-026",
   "properties": {
    "id": "LU-026",
    "layer": "LAND_USE",
    "source_type": "agent_inferred_from_public_data",
    "confidence": "medium",
    "geometry_role": "design_proposal",
    "area_sqm_declared": 215995.11,
    "label_zh": "公园绿地",
    "label_en": "Park green space",
    "land_use_code": "1401",
    "land_use_zh": "公园绿地",
    "structure_role": "原点文化社区南段"
   },
   "geometry": {
    "type": "Polygon",
    "coordinates": [
     [
      [
       116.3469447,
       39.9757331
      ],
      [
       116.3491688,
       39.9757456
      ],
      [
       116.3492659,
       39.9655078
      ],
      [
       116.3470421,
       39.9654953
      ],
      [
       116.3469447,
       39.9757331
      ]
     ]
    ]
   }
  },
  {
   "type": "Feature",
   "id": "LU-027",
   "properties": {
    "id": "LU-027",
    "layer": "LAND_USE",
    "source_type": "agent_inferred_from_public_data",
    "confidence": "medium",
    "geometry_role": "design_proposal",
    "area_sqm_declared": 180565.93,
    "label_zh": "公园绿地",
    "label_en": "Park green space",
    "land_use_code": "1401",
    "land_use_zh": "公园绿地",
    "structure_role": "众智园研发腹地"
   },
   "geometry": {
    "type": "Polygon",
    "coordinates": [
     [
      [
       116.3489194,
       40.0020154
      ],
      [
       116.3466945,
       40.0020029
      ],
      [
       116.3466129,
       40.0105614
      ],
      [
       116.3488381,
       40.0105739
      ],
      [
       116.3489194,
       40.0020154
      ]
     ]
    ]
   }
  },
  {
   "type": "Feature",
   "id": "LU-028",
   "properties": {
    "id": "LU-028",
    "layer": "LAND_USE",
    "source_type": "agent_inferred_from_public_data",
    "confidence": "medium",
    "geometry_role": "design_proposal",
    "area_sqm_declared": 143616.74,
    "label_zh": "公园绿地",
    "label_en": "Park green space",
    "land_use_code": "1401",
    "land_use_zh": "公园绿地",
    "structure_role": "留白生长储备北段"
   },
   "geometry": {
    "type": "Polygon",
    "coordinates": [
     [
      [
       116.3467946,
       39.991495
      ],
      [
       116.3490192,
       39.9915075
      ],
      [
       116.3490838,
       39.9847004
      ],
      [
       116.3468595,
       39.9846879
      ],
      [
       116.3467946,
       39.991495
      ]
     ]
    ]
   }
  },
  {
   "type": "Feature",
   "id": "LU-029",
   "properties": {
    "id": "LU-029",
    "layer": "LAND_USE",
    "source_type": "agent_inferred_from_public_data",
    "confidence": "medium",
    "geometry_role": "design_proposal",
    "area_sqm_declared": 142096.74,
    "label_zh": "公园绿地",
    "label_en": "Park green space",
    "land_use_code": "1401",
    "land_use_zh": "公园绿地",
    "structure_role": "原点文化社区南段"
   },
   "geometry": {
    "type": "Polygon",
    "coordinates": [
     [
      [
       116.3493348,
       39.9582324
      ],
      [
       116.3471113,
       39.9582199
      ],
      [
       116.3470473,
       39.964955
      ],
      [
       116.349271,
       39.9649675
      ],
      [
       116.3493348,
       39.9582324
      ]
     ]
    ]
   }
  },
  {
   "type": "Feature",
   "id": "LU-030",
   "properties": {
    "id": "LU-030",
    "layer": "LAND_USE",
    "source_type": "agent_inferred_from_public_data",
    "confidence": "medium",
    "geometry_role": "design_proposal",
    "area_sqm_declared": 142096.74,
    "label_zh": "公园绿地",
    "label_en": "Park green space",
    "land_use_code": "1401",
    "land_use_zh": "公园绿地",
    "structure_role": "留白生长储备北段"
   },
   "geometry": {
    "type": "Polygon",
    "coordinates": [
     [
      [
       116.3491688,
       39.9757456
      ],
      [
       116.3469447,
       39.9757331
      ],
      [
       116.3468806,
       39.9824682
      ],
      [
       116.3491049,
       39.9824807
      ],
      [
       116.3491688,
       39.9757456
      ]
     ]
    ]
   }
  },
  {
   "type": "Feature",
   "id": "LU-031",
   "properties": {
    "id": "LU-031",
    "layer": "LAND_USE",
    "source_type": "agent_inferred_from_public_data",
    "confidence": "medium",
    "geometry_role": "design_proposal",
    "area_sqm_declared": 134192.51,
    "label_zh": "科研用地",
    "label_en": "Research",
    "land_use_code": "0802",
    "land_use_zh": "科研用地",
    "structure_role": "北端公园门户"
   },
   "geometry": {
    "type": "Polygon",
    "coordinates": [
     [
      [
       116.3425209,
       40.0228285
      ],
      [
       116.3427,
       40.0265
      ],
      [
       116.3464609,
       40.0265001
      ],
      [
       116.3464957,
       40.022851
      ],
      [
       116.3425209,
       40.0228285
      ]
     ]
    ]
   }
  },
  {
   "type": "Feature",
   "id": "LU-032",
   "properties": {
    "id": "LU-032",
    "layer": "LAND_USE",
    "source_type": "agent_inferred_from_public_data",
    "confidence": "medium",
    "geometry_role": "design_proposal",
    "area_sqm_declared": 106667.56,
    "label_zh": "公园绿地",
    "label_en": "Park green space",
    "land_use_code": "1401",
    "land_use_zh": "公园绿地",
    "structure_role": "商务服务过渡带"
   },
   "geometry": {
    "type": "Polygon",
    "coordinates": [
     [
      [
       116.3494344,
       39.9477244
      ],
      [
       116.3472113,
       39.9477119
      ],
      [
       116.3471632,
       39.9527677
      ],
      [
       116.3493865,
       39.9527802
      ],
      [
       116.3494344,
       39.9477244
      ]
     ]
    ]
   }
  },
  {
   "type": "Feature",
   "id": "LU-033",
   "properties": {
    "id": "LU-033",
    "layer": "LAND_USE",
    "source_type": "agent_inferred_from_public_data",
    "confidence": "medium",
    "geometry_role": "design_proposal",
    "area_sqm_declared": 106667.56,
    "label_zh": "公园绿地",
    "label_en": "Park green space",
    "land_use_code": "1401",
    "land_use_zh": "公园绿地",
    "structure_role": "商务服务过渡带"
   },
   "geometry": {
    "type": "Polygon",
    "coordinates": [
     [
      [
       116.3471113,
       39.9582199
      ],
      [
       116.3493348,
       39.9582324
      ],
      [
       116.3493827,
       39.9531765
      ],
      [
       116.3471594,
       39.953164
      ],
      [
       116.3471113,
       39.9582199
      ]
     ]
    ]
   }
  },
  {
   "type": "Feature",
   "id": "LU-034",
   "properties": {
    "id": "LU-034",
    "layer": "LAND_USE",
    "source_type": "agent_inferred_from_public_data",
    "confidence": "medium",
    "geometry_role": "design_proposal",
    "area_sqm_declared": 86672.96,
    "label_zh": "公园绿地",
    "label_en": "Park green space",
    "land_use_code": "1401",
    "land_use_zh": "公园绿地",
    "structure_role": "大钟寺智能原生消费核"
   },
   "geometry": {
    "type": "Polygon",
    "coordinates": [
     [
      [
       116.3472113,
       39.9477119
      ],
      [
       116.3494344,
       39.9477244
      ],
      [
       116.3494733,
       39.9436162
      ],
      [
       116.3472503,
       39.9436037
      ],
      [
       116.3472113,
       39.9477119
      ]
     ]
    ]
   }
  },
  {
   "type": "Feature",
   "id": "LU-035",
   "properties": {
    "id": "LU-035",
    "layer": "LAND_USE",
    "source_type": "agent_inferred_from_public_data",
    "confidence": "medium",
    "geometry_role": "design_proposal",
    "area_sqm_declared": 85855.0,
    "label_zh": "公园绿地",
    "label_en": "Park green space",
    "land_use_code": "1401",
    "land_use_zh": "公园绿地",
    "structure_role": "大钟寺智能原生消费核"
   },
   "geometry": {
    "type": "Polygon",
    "coordinates": [
     [
      [
       116.349517,
       39.9390002
      ],
      [
       116.347294,
       39.9390002
      ],
      [
       116.3472554,
       39.9430634
      ],
      [
       116.3494784,
       39.9430759
      ],
      [
       116.349517,
       39.9390002
      ]
     ]
    ]
   }
  },
  {
   "type": "Feature",
   "id": "LU-036",
   "properties": {
    "id": "LU-036",
    "layer": "LAND_USE",
    "source_type": "agent_inferred_from_public_data",
    "confidence": "medium",
    "geometry_role": "design_proposal",
    "area_sqm_declared": 80488.77,
    "label_zh": "留白用地",
    "label_en": "Reserved (white) land",
    "land_use_code": "16",
    "land_use_zh": "留白用地",
    "structure_role": "留白生长储备北段"
   },
   "geometry": {
    "type": "Polygon",
    "coordinates": [
     [
      [
       116.3402141,
       39.9829708
      ],
      [
       116.3402969,
       39.9842544
      ],
      [
       116.3468632,
       39.9842916
      ],
      [
       116.3468755,
       39.9830086
      ],
      [
       116.3402141,
       39.9829708
      ]
     ]
    ]
   }
  },
  {
   "type": "Feature",
   "id": "LU-037",
   "properties": {
    "id": "LU-037",
    "layer": "LAND_USE",
    "source_type": "agent_inferred_from_public_data",
    "confidence": "medium",
    "geometry_role": "design_proposal",
    "area_sqm_declared": 76858.01,
    "label_zh": "公园绿地",
    "label_en": "Park green space",
    "land_use_code": "1401",
    "land_use_zh": "公园绿地",
    "structure_role": "北端公园门户"
   },
   "geometry": {
    "type": "Polygon",
    "coordinates": [
     [
      [
       116.3464609,
       40.0265001
      ],
      [
       116.3486867,
       40.0265002
      ],
      [
       116.3487213,
       40.0228635
      ],
      [
       116.3464957,
       40.022851
      ],
      [
       116.3464609,
       40.0265001
      ]
     ]
    ]
   }
  },
  {
   "type": "Feature",
   "id": "LU-038",
   "properties": {
    "id": "LU-038",
    "layer": "LAND_USE",
    "source_type": "agent_inferred_from_public_data",
    "confidence": "medium",
    "geometry_role": "design_proposal",
    "area_sqm_declared": 57335.97,
    "label_zh": "城镇住宅用地",
    "label_en": "Urban residential",
    "land_use_code": "0701",
    "land_use_zh": "城镇住宅用地",
    "structure_role": "留白生长储备北段"
   },
   "geometry": {
    "type": "Polygon",
    "coordinates": [
     [
      [
       116.3537537,
       39.9843302
      ],
      [
       116.3538563,
       39.9830477
      ],
      [
       116.3490997,
       39.9830211
      ],
      [
       116.3490876,
       39.9843041
      ],
      [
       116.3537537,
       39.9843302
      ]
     ]
    ]
   }
  },
  {
   "type": "Feature",
   "id": "LU-039",
   "properties": {
    "id": "LU-039",
    "layer": "LAND_USE",
    "source_type": "agent_inferred_from_public_data",
    "confidence": "medium",
    "geometry_role": "design_proposal",
    "area_sqm_declared": 36254.83,
    "label_zh": "文化用地",
    "label_en": "Culture",
    "land_use_code": "0803",
    "land_use_zh": "文化用地",
    "structure_role": "原点文化社区南段"
   },
   "geometry": {
    "type": "Polygon",
    "coordinates": [
     [
      [
       116.3399803,
       39.964915
      ],
      [
       116.3399653,
       39.9654553
      ],
      [
       116.3470421,
       39.9654953
      ],
      [
       116.3470473,
       39.964955
      ],
      [
       116.3399803,
       39.964915
      ]
     ]
    ]
   }
  },
  {
   "type": "Feature",
   "id": "LU-040",
   "properties": {
    "id": "LU-040",
    "layer": "LAND_USE",
    "source_type": "agent_inferred_from_public_data",
    "confidence": "medium",
    "geometry_role": "design_proposal",
    "area_sqm_declared": 34243.76,
    "label_zh": "留白用地",
    "label_en": "Reserved (white) land",
    "land_use_code": "16",
    "land_use_zh": "留白用地",
    "structure_role": "留白生长储备北段"
   },
   "geometry": {
    "type": "Polygon",
    "coordinates": [
     [
      [
       116.3401792,
       39.9824303
      ],
      [
       116.3402141,
       39.9829708
      ],
      [
       116.3468755,
       39.9830086
      ],
      [
       116.3468806,
       39.9824682
      ],
      [
       116.3401792,
       39.9824303
      ]
     ]
    ]
   }
  },
  {
   "type": "Feature",
   "id": "LU-041",
   "properties": {
    "id": "LU-041",
    "layer": "LAND_USE",
    "source_type": "agent_inferred_from_public_data",
    "confidence": "medium",
    "geometry_role": "design_proposal",
    "area_sqm_declared": 34216.01,
    "label_zh": "商业服务业用地",
    "label_en": "Commercial services",
    "land_use_code": "09",
    "land_use_zh": "商业服务业用地",
    "structure_role": "大钟寺智能原生消费核"
   },
   "geometry": {
    "type": "Polygon",
    "coordinates": [
     [
      [
       116.3405882,
       39.9430256
      ],
      [
       116.3405732,
       39.9435659
      ],
      [
       116.3472503,
       39.9436037
      ],
      [
       116.3472554,
       39.9430634
      ],
      [
       116.3405882,
       39.9430256
      ]
     ]
    ]
   }
  },
  {
   "type": "Feature",
   "id": "LU-042",
   "properties": {
    "id": "LU-042",
    "layer": "LAND_USE",
    "source_type": "agent_inferred_from_public_data",
    "confidence": "medium",
    "geometry_role": "design_proposal",
    "area_sqm_declared": 32597.87,
    "label_zh": "科研用地",
    "label_en": "Research",
    "land_use_code": "0802",
    "land_use_zh": "科研用地",
    "structure_role": "北端公园门户"
   },
   "geometry": {
    "type": "Polygon",
    "coordinates": [
     [
      [
       116.3551026,
       40.0228992
      ],
      [
       116.355073,
       40.0223587
      ],
      [
       116.3487264,
       40.0223232
      ],
      [
       116.3487213,
       40.0228635
      ],
      [
       116.3551026,
       40.0228992
      ]
     ]
    ]
   }
  },
  {
   "type": "Feature",
   "id": "LU-043",
   "properties": {
    "id": "LU-043",
    "layer": "LAND_USE",
    "source_type": "agent_inferred_from_public_data",
    "confidence": "medium",
    "geometry_role": "design_proposal",
    "area_sqm_declared": 30809.99,
    "label_zh": "城镇住宅用地",
    "label_en": "Urban residential",
    "land_use_code": "0701",
    "land_use_zh": "城镇住宅用地",
    "structure_role": "原点文化社区南段"
   },
   "geometry": {
    "type": "Polygon",
    "coordinates": [
     [
      [
       116.3552567,
       39.9655413
      ],
      [
       116.3552999,
       39.9650012
      ],
      [
       116.349271,
       39.9649675
      ],
      [
       116.3492659,
       39.9655078
      ],
      [
       116.3552567,
       39.9655413
      ]
     ]
    ]
   }
  },
  {
   "type": "Feature",
   "id": "LU-044",
   "properties": {
    "id": "LU-044",
    "layer": "LAND_USE",
    "source_type": "agent_inferred_from_public_data",
    "confidence": "medium",
    "geometry_role": "design_proposal",
    "area_sqm_declared": 29867.29,
    "label_zh": "商业服务业用地",
    "label_en": "Commercial services",
    "land_use_code": "09",
    "land_use_zh": "商业服务业用地",
    "structure_role": "大钟寺智能原生消费核"
   },
   "geometry": {
    "type": "Polygon",
    "coordinates": [
     [
      [
       116.3553,
       39.9436488
      ],
      [
       116.3553,
       39.9431084
      ],
      [
       116.3494784,
       39.9430759
      ],
      [
       116.3494733,
       39.9436162
      ],
      [
       116.3553,
       39.9436488
      ]
     ]
    ]
   }
  },
  {
   "type": "Feature",
   "id": "LU-045",
   "properties": {
    "id": "LU-045",
    "layer": "LAND_USE",
    "source_type": "agent_inferred_from_public_data",
    "confidence": "medium",
    "geometry_role": "design_proposal",
    "area_sqm_declared": 27069.19,
    "label_zh": "公园绿地",
    "label_en": "Park green space",
    "land_use_code": "1401",
    "land_use_zh": "公园绿地",
    "structure_role": "留白生长储备北段"
   },
   "geometry": {
    "type": "Polygon",
    "coordinates": [
     [
      [
       116.3468632,
       39.9842916
      ],
      [
       116.3490876,
       39.9843041
      ],
      [
       116.3490997,
       39.9830211
      ],
      [
       116.3468755,
       39.9830086
      ],
      [
       116.3468632,
       39.9842916
      ]
     ]
    ]
   }
  },
  {
   "type": "Feature",
   "id": "LU-046",
   "properties": {
    "id": "LU-046",
    "layer": "LAND_USE",
    "source_type": "agent_inferred_from_public_data",
    "confidence": "medium",
    "geometry_role": "design_proposal",
    "area_sqm_declared": 25749.6,
    "label_zh": "城镇村道路用地",
    "label_en": "Road land",
    "land_use_code": "1207",
    "land_use_zh": "城镇村道路用地",
    "structure_role": "商务服务过渡带"
   },
   "geometry": {
    "type": "Polygon",
    "coordinates": [
     [
      [
       116.3403188,
       39.952729
      ],
      [
       116.3403078,
       39.9531252
      ],
      [
       116.3471594,
       39.953164
      ],
      [
       116.3471632,
       39.9527677
      ],
      [
       116.3403188,
       39.952729
      ]
     ]
    ]
   }
  },
  {
   "type": "Feature",
   "id": "LU-047",
   "properties": {
    "id": "LU-047",
    "layer": "LAND_USE",
    "source_type": "agent_inferred_from_public_data",
    "confidence": "medium",
    "geometry_role": "design_proposal",
    "area_sqm_declared": 24624.01,
    "label_zh": "城镇村道路用地",
    "label_en": "Road land",
    "land_use_code": "1207",
    "land_use_zh": "城镇村道路用地",
    "structure_role": "留白生长储备北段"
   },
   "geometry": {
    "type": "Polygon",
    "coordinates": [
     [
      [
       116.3402969,
       39.9842544
      ],
      [
       116.3403225,
       39.9846508
      ],
      [
       116.3468595,
       39.9846879
      ],
      [
       116.3468632,
       39.9842916
      ],
      [
       116.3402969,
       39.9842544
      ]
     ]
    ]
   }
  },
  {
   "type": "Feature",
   "id": "LU-048",
   "properties": {
    "id": "LU-048",
    "layer": "LAND_USE",
    "source_type": "agent_inferred_from_public_data",
    "confidence": "medium",
    "geometry_role": "design_proposal",
    "area_sqm_declared": 24476.36,
    "label_zh": "城镇住宅用地",
    "label_en": "Urban residential",
    "land_use_code": "0701",
    "land_use_zh": "城镇住宅用地",
    "structure_role": "留白生长储备北段"
   },
   "geometry": {
    "type": "Polygon",
    "coordinates": [
     [
      [
       116.3538563,
       39.9830477
      ],
      [
       116.3538996,
       39.9825076
      ],
      [
       116.3491049,
       39.9824807
      ],
      [
       116.3490997,
       39.9830211
      ],
      [
       116.3538563,
       39.9830477
      ]
     ]
    ]
   }
  },
  {
   "type": "Feature",
   "id": "LU-049",
   "properties": {
    "id": "LU-049",
    "layer": "LAND_USE",
    "source_type": "agent_inferred_from_public_data",
    "confidence": "medium",
    "geometry_role": "design_proposal",
    "area_sqm_declared": 22242.73,
    "label_zh": "城镇村道路用地",
    "label_en": "Road land",
    "land_use_code": "1207",
    "land_use_zh": "城镇村道路用地",
    "structure_role": "商务服务过渡带"
   },
   "geometry": {
    "type": "Polygon",
    "coordinates": [
     [
      [
       116.3553,
       39.9532095
      ],
      [
       116.3553,
       39.9528133
      ],
      [
       116.3493865,
       39.9527802
      ],
      [
       116.3493827,
       39.9531765
      ],
      [
       116.3553,
       39.9532095
      ]
     ]
    ]
   }
  },
  {
   "type": "Feature",
   "id": "LU-050",
   "properties": {
    "id": "LU-050",
    "layer": "LAND_USE",
    "source_type": "agent_inferred_from_public_data",
    "confidence": "medium",
    "geometry_role": "design_proposal",
    "area_sqm_declared": 21052.09,
    "label_zh": "城镇村道路用地",
    "label_en": "Road land",
    "land_use_code": "1207",
    "land_use_zh": "城镇村道路用地",
    "structure_role": "众智园研发腹地"
   },
   "geometry": {
    "type": "Polygon",
    "coordinates": [
     [
      [
       116.3544505,
       40.0110015
      ],
      [
       116.3544288,
       40.0106052
      ],
      [
       116.3488381,
       40.0105739
      ],
      [
       116.3488343,
       40.0109701
      ],
      [
       116.3544505,
       40.0110015
      ]
     ]
    ]
   }
  },
  {
   "type": "Feature",
   "id": "LU-051",
   "properties": {
    "id": "LU-051",
    "layer": "LAND_USE",
    "source_type": "agent_inferred_from_public_data",
    "confidence": "medium",
    "geometry_role": "design_proposal",
    "area_sqm_declared": 20440.95,
    "label_zh": "科研用地",
    "label_en": "Research",
    "land_use_code": "0802",
    "land_use_zh": "科研用地",
    "structure_role": "北端公园门户"
   },
   "geometry": {
    "type": "Polygon",
    "coordinates": [
     [
      [
       116.3424945,
       40.022288
      ],
      [
       116.3425209,
       40.0228285
      ],
      [
       116.3464957,
       40.022851
      ],
      [
       116.3465009,
       40.0223107
      ],
      [
       116.3424945,
       40.022288
      ]
     ]
    ]
   }
  },
  {
   "type": "Feature",
   "id": "LU-052",
   "properties": {
    "id": "LU-052",
    "layer": "LAND_USE",
    "source_type": "agent_inferred_from_public_data",
    "confidence": "medium",
    "geometry_role": "design_proposal",
    "area_sqm_declared": 17583.44,
    "label_zh": "城镇村道路用地",
    "label_en": "Road land",
    "land_use_code": "1207",
    "land_use_zh": "城镇村道路用地",
    "structure_role": "众智园研发腹地"
   },
   "geometry": {
    "type": "Polygon",
    "coordinates": [
     [
      [
       116.3419212,
       40.0105348
      ],
      [
       116.3419405,
       40.0109312
      ],
      [
       116.3466091,
       40.0109576
      ],
      [
       116.3466129,
       40.0105614
      ],
      [
       116.3419212,
       40.0105348
      ]
     ]
    ]
   }
  },
  {
   "type": "Feature",
   "id": "LU-053",
   "properties": {
    "id": "LU-053",
    "layer": "LAND_USE",
    "source_type": "agent_inferred_from_public_data",
    "confidence": "medium",
    "geometry_role": "design_proposal",
    "area_sqm_declared": 17484.86,
    "label_zh": "城镇村道路用地",
    "label_en": "Road land",
    "land_use_code": "1207",
    "land_use_zh": "城镇村道路用地",
    "structure_role": "留白生长储备北段"
   },
   "geometry": {
    "type": "Polygon",
    "coordinates": [
     [
      [
       116.353722,
       39.9847263
      ],
      [
       116.3537537,
       39.9843302
      ],
      [
       116.3490876,
       39.9843041
      ],
      [
       116.3490838,
       39.9847004
      ],
      [
       116.353722,
       39.9847263
      ]
     ]
    ]
   }
  },
  {
   "type": "Feature",
   "id": "LU-054",
   "properties": {
    "id": "LU-054",
    "layer": "LAND_USE",
    "source_type": "agent_inferred_from_public_data",
    "confidence": "medium",
    "geometry_role": "design_proposal",
    "area_sqm_declared": 11400.0,
    "label_zh": "广场用地",
    "label_en": "Square",
    "land_use_code": "1403",
    "land_use_zh": "广场用地",
    "structure_role": "大钟寺智能原生消费核"
   },
   "geometry": {
    "type": "Polygon",
    "coordinates": [
     [
      [
       116.3494784,
       39.9430759
      ],
      [
       116.3472554,
       39.9430634
      ],
      [
       116.3472503,
       39.9436037
      ],
      [
       116.3494733,
       39.9436162
      ],
      [
       116.3494784,
       39.9430759
      ]
     ]
    ]
   }
  },
  {
   "type": "Feature",
   "id": "LU-055",
   "properties": {
    "id": "LU-055",
    "layer": "LAND_USE",
    "source_type": "agent_inferred_from_public_data",
    "confidence": "medium",
    "geometry_role": "design_proposal",
    "area_sqm_declared": 11400.0,
    "label_zh": "广场用地",
    "label_en": "Square",
    "land_use_code": "1403",
    "land_use_zh": "广场用地",
    "structure_role": "原点文化社区南段"
   },
   "geometry": {
    "type": "Polygon",
    "coordinates": [
     [
      [
       116.349271,
       39.9649675
      ],
      [
       116.3470473,
       39.964955
      ],
      [
       116.3470421,
       39.9654953
      ],
      [
       116.3492659,
       39.9655078
      ],
      [
       116.349271,
       39.9649675
      ]
     ]
    ]
   }
  },
  {
   "type": "Feature",
   "id": "LU-056",
   "properties": {
    "id": "LU-056",
    "layer": "LAND_USE",
    "source_type": "agent_inferred_from_public_data",
    "confidence": "medium",
    "geometry_role": "design_proposal",
    "area_sqm_declared": 11400.0,
    "label_zh": "广场用地",
    "label_en": "Square",
    "land_use_code": "1403",
    "land_use_zh": "广场用地",
    "structure_role": "留白生长储备北段"
   },
   "geometry": {
    "type": "Polygon",
    "coordinates": [
     [
      [
       116.3491049,
       39.9824807
      ],
      [
       116.3468806,
       39.9824682
      ],
      [
       116.3468755,
       39.9830086
      ],
      [
       116.3490997,
       39.9830211
      ],
      [
       116.3491049,
       39.9824807
      ]
     ]
    ]
   }
  },
  {
   "type": "Feature",
   "id": "LU-057",
   "properties": {
    "id": "LU-057",
    "layer": "LAND_USE",
    "source_type": "agent_inferred_from_public_data",
    "confidence": "medium",
    "geometry_role": "design_proposal",
    "area_sqm_declared": 11400.0,
    "label_zh": "广场用地",
    "label_en": "Square",
    "land_use_code": "1403",
    "land_use_zh": "广场用地",
    "structure_role": "北端公园门户"
   },
   "geometry": {
    "type": "Polygon",
    "coordinates": [
     [
      [
       116.3487264,
       40.0223232
      ],
      [
       116.3465009,
       40.0223107
      ],
      [
       116.3464957,
       40.022851
      ],
      [
       116.3487213,
       40.0228635
      ],
      [
       116.3487264,
       40.0223232
      ]
     ]
    ]
   }
  },
  {
   "type": "Feature",
   "id": "LU-058",
   "properties": {
    "id": "LU-058",
    "layer": "LAND_USE",
    "source_type": "agent_inferred_from_public_data",
    "confidence": "medium",
    "geometry_role": "design_proposal",
    "area_sqm_declared": 8360.0,
    "label_zh": "城镇村道路用地",
    "label_en": "Road land",
    "land_use_code": "1207",
    "land_use_zh": "城镇村道路用地",
    "structure_role": "商务服务过渡带"
   },
   "geometry": {
    "type": "Polygon",
    "coordinates": [
     [
      [
       116.3493865,
       39.9527802
      ],
      [
       116.3471632,
       39.9527677
      ],
      [
       116.3471594,
       39.953164
      ],
      [
       116.3493827,
       39.9531765
      ],
      [
       116.3493865,
       39.9527802
      ]
     ]
    ]
   }
  },
  {
   "type": "Feature",
   "id": "LU-059",
   "properties": {
    "id": "LU-059",
    "layer": "LAND_USE",
    "source_type": "agent_inferred_from_public_data",
    "confidence": "medium",
    "geometry_role": "design_proposal",
    "area_sqm_declared": 8360.0,
    "label_zh": "城镇村道路用地",
    "label_en": "Road land",
    "land_use_code": "1207",
    "land_use_zh": "城镇村道路用地",
    "structure_role": "留白生长储备北段"
   },
   "geometry": {
    "type": "Polygon",
    "coordinates": [
     [
      [
       116.3490876,
       39.9843041
      ],
      [
       116.3468632,
       39.9842916
      ],
      [
       116.3468595,
       39.9846879
      ],
      [
       116.3490838,
       39.9847004
      ],
      [
       116.3490876,
       39.9843041
      ]
     ]
    ]
   }
  },
  {
   "type": "Feature",
   "id": "LU-060",
   "properties": {
    "id": "LU-060",
    "layer": "LAND_USE",
    "source_type": "agent_inferred_from_public_data",
    "confidence": "medium",
    "geometry_role": "design_proposal",
    "area_sqm_declared": 8360.0,
    "label_zh": "城镇村道路用地",
    "label_en": "Road land",
    "land_use_code": "1207",
    "land_use_zh": "城镇村道路用地",
    "structure_role": "众智园研发腹地"
   },
   "geometry": {
    "type": "Polygon",
    "coordinates": [
     [
      [
       116.3488381,
       40.0105739
      ],
      [
       116.3466129,
       40.0105614
      ],
      [
       116.3466091,
       40.0109576
      ],
      [
       116.3488343,
       40.0109701
      ],
      [
       116.3488381,
       40.0105739
      ]
     ]
    ]
   }
  }
 ]
}