{
  "type": "FeatureCollection",
  "name": "buildings",
  "metadata": {
    "status": "controlled_provisional_design_model",
    "geometry_policy": "replaceable_provisional_constraints",
    "source_id": "DESIGN-MODEL-THREE-SPATIAL-LAWS-20260823",
    "constraint_source_id": "DATA-SRC-PROVISIONAL-BOUNDARIES-20260605",
    "source_commit": "7f1f45d719f89fd40ff01a772de5119496c8129f",
    "coordinate_reference_system": "EPSG:4326",
    "area_check_crs": "EPSG:4548",
    "official_boundary": false,
    "reason_zh": "建筑层只表达三条法则需要的承载尺度、组合关系和项目包络，不对应现状建筑，不作逐栋拆改留判断。",
    "reason_en": "The building layer expresses only the carrier grain and project envelopes required by the three laws; it is not an existing-building map or a building-level action schedule.",
    "use_limits_zh": "仅供概念城市设计、空间法则检验和暂定模型复算；不得作为现状、法定、权属、精确落位或工程依据。",
    "use_limits_en": "For conceptual urban design, spatial-law testing, and provisional model recomputation only; not an existing-condition, statutory, ownership, exact-siting, or engineering basis.",
    "recalculation_trigger": "replace the complete geometry, metrics, figures, HTML, drawings, manifest, and self-check when official or explicitly rights-cleared geometry becomes available",
    "building_geometry_type": "conceptual_envelope_not_surveyed_footprint"
  },
  "features": [
    {
      "type": "Feature",
      "id": "DES-BLD-ZZY-001",
      "properties": {
        "id": "DES-BLD-ZZY-001",
        "layer": "BUILDING_FOOTPRINT",
        "name_zh": "众智园分布式承载单元 1",
        "name_en": "Zhongzhiyuan distributed carrier 1",
        "spatial_law_id": "R-ZZY",
        "source_type": "agent_generated_design",
        "source_id": "DESIGN-MODEL-THREE-SPATIAL-LAWS-20260823",
        "constraint_source_id": "DATA-SRC-PROVISIONAL-BOUNDARIES-20260605",
        "source_commit": "7f1f45d719f89fd40ff01a772de5119496c8129f",
        "confidence": "low",
        "geometry_role": "design_proposal",
        "official_boundary": false,
        "design_status": "controlled_provisional",
        "existing_condition_claimed": false,
        "statutory_or_engineering_claimed": false,
        "replacement_required": true,
        "usage_note_zh": "在仓库暂定范围内生成的低置信度概念设计几何；不代表现状测绘、法定用地、官方红线、宗地权属、逐栋结论、精确落位或工程线位。",
        "usage_note_en": "Low-confidence conceptual design geometry within repository provisional constraints; not surveyed conditions, statutory land use, an official redline, ownership, a building-by-building decision, exact siting, or an engineering alignment.",
        "building_role": "distributed_existing_or_adapted_carrier",
        "conceptual_envelope": true,
        "real_building_claimed": false,
        "current_capacity_check_required": true,
        "general_purpose_centre": false,
        "area_sqm_declared": 52084.744
      },
      "geometry": {
        "type": "Polygon",
        "coordinates": [
          [
            [
              116.34388,
              40.02008
            ],
            [
              116.34388,
              40.02341
            ],
            [
              116.34553,
              40.02341
            ],
            [
              116.34553,
              40.02008
            ],
            [
              116.34388,
              40.02008
            ]
          ]
        ]
      }
    },
    {
      "type": "Feature",
      "id": "DES-BLD-ZZY-002",
      "properties": {
        "id": "DES-BLD-ZZY-002",
        "layer": "BUILDING_FOOTPRINT",
        "name_zh": "众智园分布式承载单元 2",
        "name_en": "Zhongzhiyuan distributed carrier 2",
        "spatial_law_id": "R-ZZY",
        "source_type": "agent_generated_design",
        "source_id": "DESIGN-MODEL-THREE-SPATIAL-LAWS-20260823",
        "constraint_source_id": "DATA-SRC-PROVISIONAL-BOUNDARIES-20260605",
        "source_commit": "7f1f45d719f89fd40ff01a772de5119496c8129f",
        "confidence": "low",
        "geometry_role": "design_proposal",
        "official_boundary": false,
        "design_status": "controlled_provisional",
        "existing_condition_claimed": false,
        "statutory_or_engineering_claimed": false,
        "replacement_required": true,
        "usage_note_zh": "在仓库暂定范围内生成的低置信度概念设计几何；不代表现状测绘、法定用地、官方红线、宗地权属、逐栋结论、精确落位或工程线位。",
        "usage_note_en": "Low-confidence conceptual design geometry within repository provisional constraints; not surveyed conditions, statutory land use, an official redline, ownership, a building-by-building decision, exact siting, or an engineering alignment.",
        "building_role": "distributed_existing_or_adapted_carrier",
        "conceptual_envelope": true,
        "real_building_claimed": false,
        "current_capacity_check_required": true,
        "general_purpose_centre": false,
        "area_sqm_declared": 52084.987
      },
      "geometry": {
        "type": "Polygon",
        "coordinates": [
          [
            [
              116.34674,
              40.01971
            ],
            [
              116.34674,
              40.02304
            ],
            [
              116.34839,
              40.02304
            ],
            [
              116.34839,
              40.01971
            ],
            [
              116.34674,
              40.01971
            ]
          ]
        ]
      }
    },
    {
      "type": "Feature",
      "id": "DES-BLD-ZZY-003",
      "properties": {
        "id": "DES-BLD-ZZY-003",
        "layer": "BUILDING_FOOTPRINT",
        "name_zh": "众智园分布式承载单元 3",
        "name_en": "Zhongzhiyuan distributed carrier 3",
        "spatial_law_id": "R-ZZY",
        "source_type": "agent_generated_design",
        "source_id": "DESIGN-MODEL-THREE-SPATIAL-LAWS-20260823",
        "constraint_source_id": "DATA-SRC-PROVISIONAL-BOUNDARIES-20260605",
        "source_commit": "7f1f45d719f89fd40ff01a772de5119496c8129f",
        "confidence": "low",
        "geometry_role": "design_proposal",
        "official_boundary": false,
        "design_status": "controlled_provisional",
        "existing_condition_claimed": false,
        "statutory_or_engineering_claimed": false,
        "replacement_required": true,
        "usage_note_zh": "在仓库暂定范围内生成的低置信度概念设计几何；不代表现状测绘、法定用地、官方红线、宗地权属、逐栋结论、精确落位或工程线位。",
        "usage_note_en": "Low-confidence conceptual design geometry within repository provisional constraints; not surveyed conditions, statutory land use, an official redline, ownership, a building-by-building decision, exact siting, or an engineering alignment.",
        "building_role": "distributed_existing_or_adapted_carrier",
        "conceptual_envelope": true,
        "real_building_claimed": false,
        "current_capacity_check_required": true,
        "general_purpose_centre": false,
        "area_sqm_declared": 62501.434
      },
      "geometry": {
        "type": "Polygon",
        "coordinates": [
          [
            [
              116.35004,
              40.020265
            ],
            [
              116.35004,
              40.023595
            ],
            [
              116.35202,
              40.023595
            ],
            [
              116.35202,
              40.020265
            ],
            [
              116.35004,
              40.020265
            ]
          ]
        ]
      }
    },
    {
      "type": "Feature",
      "id": "DES-BLD-ZZY-004",
      "properties": {
        "id": "DES-BLD-ZZY-004",
        "layer": "BUILDING_FOOTPRINT",
        "name_zh": "众智园分布式承载单元 4",
        "name_en": "Zhongzhiyuan distributed carrier 4",
        "spatial_law_id": "R-ZZY",
        "source_type": "agent_generated_design",
        "source_id": "DESIGN-MODEL-THREE-SPATIAL-LAWS-20260823",
        "constraint_source_id": "DATA-SRC-PROVISIONAL-BOUNDARIES-20260605",
        "source_commit": "7f1f45d719f89fd40ff01a772de5119496c8129f",
        "confidence": "low",
        "geometry_role": "design_proposal",
        "official_boundary": false,
        "design_status": "controlled_provisional",
        "existing_condition_claimed": false,
        "statutory_or_engineering_claimed": false,
        "replacement_required": true,
        "usage_note_zh": "在仓库暂定范围内生成的低置信度概念设计几何；不代表现状测绘、法定用地、官方红线、宗地权属、逐栋结论、精确落位或工程线位。",
        "usage_note_en": "Low-confidence conceptual design geometry within repository provisional constraints; not surveyed conditions, statutory land use, an official redline, ownership, a building-by-building decision, exact siting, or an engineering alignment.",
        "building_role": "distributed_existing_or_adapted_carrier",
        "conceptual_envelope": true,
        "real_building_claimed": false,
        "current_capacity_check_required": true,
        "general_purpose_centre": false,
        "area_sqm_declared": 54985.006
      },
      "geometry": {
        "type": "Polygon",
        "coordinates": [
          [
            [
              116.34476,
              40.01157
            ],
            [
              116.34476,
              40.015085
            ],
            [
              116.34641,
              40.015085
            ],
            [
              116.34641,
              40.01157
            ],
            [
              116.34476,
              40.01157
            ]
          ]
        ]
      }
    },
    {
      "type": "Feature",
      "id": "DES-BLD-ZZY-005",
      "properties": {
        "id": "DES-BLD-ZZY-005",
        "layer": "BUILDING_FOOTPRINT",
        "name_zh": "众智园分布式承载单元 5",
        "name_en": "Zhongzhiyuan distributed carrier 5",
        "spatial_law_id": "R-ZZY",
        "source_type": "agent_generated_design",
        "source_id": "DESIGN-MODEL-THREE-SPATIAL-LAWS-20260823",
        "constraint_source_id": "DATA-SRC-PROVISIONAL-BOUNDARIES-20260605",
        "source_commit": "7f1f45d719f89fd40ff01a772de5119496c8129f",
        "confidence": "low",
        "geometry_role": "design_proposal",
        "official_boundary": false,
        "design_status": "controlled_provisional",
        "existing_condition_claimed": false,
        "statutory_or_engineering_claimed": false,
        "replacement_required": true,
        "usage_note_zh": "在仓库暂定范围内生成的低置信度概念设计几何；不代表现状测绘、法定用地、官方红线、宗地权属、逐栋结论、精确落位或工程线位。",
        "usage_note_en": "Low-confidence conceptual design geometry within repository provisional constraints; not surveyed conditions, statutory land use, an official redline, ownership, a building-by-building decision, exact siting, or an engineering alignment.",
        "building_role": "distributed_existing_or_adapted_carrier",
        "conceptual_envelope": true,
        "real_building_claimed": false,
        "current_capacity_check_required": true,
        "general_purpose_centre": false,
        "area_sqm_declared": 52090.672
      },
      "geometry": {
        "type": "Polygon",
        "coordinates": [
          [
            [
              116.34795,
              40.012125
            ],
            [
              116.34795,
              40.015455
            ],
            [
              116.3496,
              40.015455
            ],
            [
              116.3496,
              40.012125
            ],
            [
              116.34795,
              40.012125
            ]
          ]
        ]
      }
    },
    {
      "type": "Feature",
      "id": "DES-BLD-ZZY-006",
      "properties": {
        "id": "DES-BLD-ZZY-006",
        "layer": "BUILDING_FOOTPRINT",
        "name_zh": "众智园分布式承载单元 6",
        "name_en": "Zhongzhiyuan distributed carrier 6",
        "spatial_law_id": "R-ZZY",
        "source_type": "agent_generated_design",
        "source_id": "DESIGN-MODEL-THREE-SPATIAL-LAWS-20260823",
        "constraint_source_id": "DATA-SRC-PROVISIONAL-BOUNDARIES-20260605",
        "source_commit": "7f1f45d719f89fd40ff01a772de5119496c8129f",
        "confidence": "low",
        "geometry_role": "design_proposal",
        "official_boundary": false,
        "design_status": "controlled_provisional",
        "existing_condition_claimed": false,
        "statutory_or_engineering_claimed": false,
        "replacement_required": true,
        "usage_note_zh": "在仓库暂定范围内生成的低置信度概念设计几何；不代表现状测绘、法定用地、官方红线、宗地权属、逐栋结论、精确落位或工程线位。",
        "usage_note_en": "Low-confidence conceptual design geometry within repository provisional constraints; not surveyed conditions, statutory land use, an official redline, ownership, a building-by-building decision, exact siting, or an engineering alignment.",
        "building_role": "specialised_new_build_candidate",
        "conceptual_envelope": true,
        "real_building_claimed": false,
        "current_capacity_check_required": true,
        "general_purpose_centre": false,
        "area_sqm_declared": 58650.431
      },
      "geometry": {
        "type": "Polygon",
        "coordinates": [
          [
            [
              116.35092,
              40.011755
            ],
            [
              116.35092,
              40.01527
            ],
            [
              116.35268,
              40.01527
            ],
            [
              116.35268,
              40.011755
            ],
            [
              116.35092,
              40.011755
            ]
          ]
        ]
      }
    },
    {
      "type": "Feature",
      "id": "DES-BLD-AIO-001",
      "properties": {
        "id": "DES-BLD-AIO-001",
        "layer": "BUILDING_FOOTPRINT",
        "name_zh": "AI原点小型使用单元 1",
        "name_en": "AI Origin small-use unit 1",
        "spatial_law_id": "R-AIO",
        "source_type": "agent_generated_design",
        "source_id": "DESIGN-MODEL-THREE-SPATIAL-LAWS-20260823",
        "constraint_source_id": "DATA-SRC-PROVISIONAL-BOUNDARIES-20260605",
        "source_commit": "7f1f45d719f89fd40ff01a772de5119496c8129f",
        "confidence": "low",
        "geometry_role": "design_proposal",
        "official_boundary": false,
        "design_status": "controlled_provisional",
        "existing_condition_claimed": false,
        "statutory_or_engineering_claimed": false,
        "replacement_required": true,
        "usage_note_zh": "在仓库暂定范围内生成的低置信度概念设计几何；不代表现状测绘、法定用地、官方红线、宗地权属、逐栋结论、精确落位或工程线位。",
        "usage_note_en": "Low-confidence conceptual design geometry within repository provisional constraints; not surveyed conditions, statutory land use, an official redline, ownership, a building-by-building decision, exact siting, or an engineering alignment.",
        "conceptual_envelope": true,
        "real_building_claimed": false,
        "retain_repair_comparison_required": true,
        "independent_entry_preserved": true,
        "small_use_unit_preserved": true,
        "superblock_merger": false,
        "area_sqm_declared": 23367.854
      },
      "geometry": {
        "type": "Polygon",
        "coordinates": [
          [
            [
              116.34288,
              39.9897
            ],
            [
              116.34288,
              39.9913
            ],
            [
              116.34442,
              39.9913
            ],
            [
              116.34442,
              39.9897
            ],
            [
              116.34288,
              39.9897
            ]
          ]
        ]
      }
    },
    {
      "type": "Feature",
      "id": "DES-BLD-AIO-002",
      "properties": {
        "id": "DES-BLD-AIO-002",
        "layer": "BUILDING_FOOTPRINT",
        "name_zh": "AI原点小型使用单元 2",
        "name_en": "AI Origin small-use unit 2",
        "spatial_law_id": "R-AIO",
        "source_type": "agent_generated_design",
        "source_id": "DESIGN-MODEL-THREE-SPATIAL-LAWS-20260823",
        "constraint_source_id": "DATA-SRC-PROVISIONAL-BOUNDARIES-20260605",
        "source_commit": "7f1f45d719f89fd40ff01a772de5119496c8129f",
        "confidence": "low",
        "geometry_role": "design_proposal",
        "official_boundary": false,
        "design_status": "controlled_provisional",
        "existing_condition_claimed": false,
        "statutory_or_engineering_claimed": false,
        "replacement_required": true,
        "usage_note_zh": "在仓库暂定范围内生成的低置信度概念设计几何；不代表现状测绘、法定用地、官方红线、宗地权属、逐栋结论、精确落位或工程线位。",
        "usage_note_en": "Low-confidence conceptual design geometry within repository provisional constraints; not surveyed conditions, statutory land use, an official redline, ownership, a building-by-building decision, exact siting, or an engineering alignment.",
        "conceptual_envelope": true,
        "real_building_claimed": false,
        "retain_repair_comparison_required": true,
        "independent_entry_preserved": true,
        "small_use_unit_preserved": true,
        "superblock_merger": false,
        "area_sqm_declared": 23367.845
      },
      "geometry": {
        "type": "Polygon",
        "coordinates": [
          [
            [
              116.34453,
              39.9897
            ],
            [
              116.34453,
              39.9913
            ],
            [
              116.34607,
              39.9913
            ],
            [
              116.34607,
              39.9897
            ],
            [
              116.34453,
              39.9897
            ]
          ]
        ]
      }
    },
    {
      "type": "Feature",
      "id": "DES-BLD-AIO-003",
      "properties": {
        "id": "DES-BLD-AIO-003",
        "layer": "BUILDING_FOOTPRINT",
        "name_zh": "AI原点小型使用单元 3",
        "name_en": "AI Origin small-use unit 3",
        "spatial_law_id": "R-AIO",
        "source_type": "agent_generated_design",
        "source_id": "DESIGN-MODEL-THREE-SPATIAL-LAWS-20260823",
        "constraint_source_id": "DATA-SRC-PROVISIONAL-BOUNDARIES-20260605",
        "source_commit": "7f1f45d719f89fd40ff01a772de5119496c8129f",
        "confidence": "low",
        "geometry_role": "design_proposal",
        "official_boundary": false,
        "design_status": "controlled_provisional",
        "existing_condition_claimed": false,
        "statutory_or_engineering_claimed": false,
        "replacement_required": true,
        "usage_note_zh": "在仓库暂定范围内生成的低置信度概念设计几何；不代表现状测绘、法定用地、官方红线、宗地权属、逐栋结论、精确落位或工程线位。",
        "usage_note_en": "Low-confidence conceptual design geometry within repository provisional constraints; not surveyed conditions, statutory land use, an official redline, ownership, a building-by-building decision, exact siting, or an engineering alignment.",
        "conceptual_envelope": true,
        "real_building_claimed": false,
        "retain_repair_comparison_required": true,
        "independent_entry_preserved": true,
        "small_use_unit_preserved": true,
        "superblock_merger": false,
        "area_sqm_declared": 23993.256
      },
      "geometry": {
        "type": "Polygon",
        "coordinates": [
          [
            [
              116.34321,
              39.9915
            ],
            [
              116.34321,
              39.9925
            ],
            [
              116.34574,
              39.9925
            ],
            [
              116.34574,
              39.9915
            ],
            [
              116.34321,
              39.9915
            ]
          ]
        ]
      }
    },
    {
      "type": "Feature",
      "id": "DES-BLD-AIO-004",
      "properties": {
        "id": "DES-BLD-AIO-004",
        "layer": "BUILDING_FOOTPRINT",
        "name_zh": "AI原点小型使用单元 4",
        "name_en": "AI Origin small-use unit 4",
        "spatial_law_id": "R-AIO",
        "source_type": "agent_generated_design",
        "source_id": "DESIGN-MODEL-THREE-SPATIAL-LAWS-20260823",
        "constraint_source_id": "DATA-SRC-PROVISIONAL-BOUNDARIES-20260605",
        "source_commit": "7f1f45d719f89fd40ff01a772de5119496c8129f",
        "confidence": "low",
        "geometry_role": "design_proposal",
        "official_boundary": false,
        "design_status": "controlled_provisional",
        "existing_condition_claimed": false,
        "statutory_or_engineering_claimed": false,
        "replacement_required": true,
        "usage_note_zh": "在仓库暂定范围内生成的低置信度概念设计几何；不代表现状测绘、法定用地、官方红线、宗地权属、逐栋结论、精确落位或工程线位。",
        "usage_note_en": "Low-confidence conceptual design geometry within repository provisional constraints; not surveyed conditions, statutory land use, an official redline, ownership, a building-by-building decision, exact siting, or an engineering alignment.",
        "conceptual_envelope": true,
        "real_building_claimed": false,
        "retain_repair_comparison_required": true,
        "independent_entry_preserved": true,
        "small_use_unit_preserved": true,
        "superblock_merger": false,
        "area_sqm_declared": 23367.822
      },
      "geometry": {
        "type": "Polygon",
        "coordinates": [
          [
            [
              116.34871,
              39.9897
            ],
            [
              116.34871,
              39.9913
            ],
            [
              116.35025,
              39.9913
            ],
            [
              116.35025,
              39.9897
            ],
            [
              116.34871,
              39.9897
            ]
          ]
        ]
      }
    },
    {
      "type": "Feature",
      "id": "DES-BLD-AIO-005",
      "properties": {
        "id": "DES-BLD-AIO-005",
        "layer": "BUILDING_FOOTPRINT",
        "name_zh": "AI原点小型使用单元 5",
        "name_en": "AI Origin small-use unit 5",
        "spatial_law_id": "R-AIO",
        "source_type": "agent_generated_design",
        "source_id": "DESIGN-MODEL-THREE-SPATIAL-LAWS-20260823",
        "constraint_source_id": "DATA-SRC-PROVISIONAL-BOUNDARIES-20260605",
        "source_commit": "7f1f45d719f89fd40ff01a772de5119496c8129f",
        "confidence": "low",
        "geometry_role": "design_proposal",
        "official_boundary": false,
        "design_status": "controlled_provisional",
        "existing_condition_claimed": false,
        "statutory_or_engineering_claimed": false,
        "replacement_required": true,
        "usage_note_zh": "在仓库暂定范围内生成的低置信度概念设计几何；不代表现状测绘、法定用地、官方红线、宗地权属、逐栋结论、精确落位或工程线位。",
        "usage_note_en": "Low-confidence conceptual design geometry within repository provisional constraints; not surveyed conditions, statutory land use, an official redline, ownership, a building-by-building decision, exact siting, or an engineering alignment.",
        "conceptual_envelope": true,
        "real_building_claimed": false,
        "retain_repair_comparison_required": true,
        "independent_entry_preserved": true,
        "small_use_unit_preserved": true,
        "superblock_merger": false,
        "area_sqm_declared": 23367.813
      },
      "geometry": {
        "type": "Polygon",
        "coordinates": [
          [
            [
              116.35036,
              39.9897
            ],
            [
              116.35036,
              39.9913
            ],
            [
              116.3519,
              39.9913
            ],
            [
              116.3519,
              39.9897
            ],
            [
              116.35036,
              39.9897
            ]
          ]
        ]
      }
    },
    {
      "type": "Feature",
      "id": "DES-BLD-AIO-006",
      "properties": {
        "id": "DES-BLD-AIO-006",
        "layer": "BUILDING_FOOTPRINT",
        "name_zh": "AI原点小型使用单元 6",
        "name_en": "AI Origin small-use unit 6",
        "spatial_law_id": "R-AIO",
        "source_type": "agent_generated_design",
        "source_id": "DESIGN-MODEL-THREE-SPATIAL-LAWS-20260823",
        "constraint_source_id": "DATA-SRC-PROVISIONAL-BOUNDARIES-20260605",
        "source_commit": "7f1f45d719f89fd40ff01a772de5119496c8129f",
        "confidence": "low",
        "geometry_role": "design_proposal",
        "official_boundary": false,
        "design_status": "controlled_provisional",
        "existing_condition_claimed": false,
        "statutory_or_engineering_claimed": false,
        "replacement_required": true,
        "usage_note_zh": "在仓库暂定范围内生成的低置信度概念设计几何；不代表现状测绘、法定用地、官方红线、宗地权属、逐栋结论、精确落位或工程线位。",
        "usage_note_en": "Low-confidence conceptual design geometry within repository provisional constraints; not surveyed conditions, statutory land use, an official redline, ownership, a building-by-building decision, exact siting, or an engineering alignment.",
        "conceptual_envelope": true,
        "real_building_claimed": false,
        "retain_repair_comparison_required": true,
        "independent_entry_preserved": true,
        "small_use_unit_preserved": true,
        "superblock_merger": false,
        "area_sqm_declared": 23993.223
      },
      "geometry": {
        "type": "Polygon",
        "coordinates": [
          [
            [
              116.34904,
              39.9915
            ],
            [
              116.34904,
              39.9925
            ],
            [
              116.35157,
              39.9925
            ],
            [
              116.35157,
              39.9915
            ],
            [
              116.34904,
              39.9915
            ]
          ]
        ]
      }
    },
    {
      "type": "Feature",
      "id": "DES-BLD-AIO-007",
      "properties": {
        "id": "DES-BLD-AIO-007",
        "layer": "BUILDING_FOOTPRINT",
        "name_zh": "AI原点小型使用单元 7",
        "name_en": "AI Origin small-use unit 7",
        "spatial_law_id": "R-AIO",
        "source_type": "agent_generated_design",
        "source_id": "DESIGN-MODEL-THREE-SPATIAL-LAWS-20260823",
        "constraint_source_id": "DATA-SRC-PROVISIONAL-BOUNDARIES-20260605",
        "source_commit": "7f1f45d719f89fd40ff01a772de5119496c8129f",
        "confidence": "low",
        "geometry_role": "design_proposal",
        "official_boundary": false,
        "design_status": "controlled_provisional",
        "existing_condition_claimed": false,
        "statutory_or_engineering_claimed": false,
        "replacement_required": true,
        "usage_note_zh": "在仓库暂定范围内生成的低置信度概念设计几何；不代表现状测绘、法定用地、官方红线、宗地权属、逐栋结论、精确落位或工程线位。",
        "usage_note_en": "Low-confidence conceptual design geometry within repository provisional constraints; not surveyed conditions, statutory land use, an official redline, ownership, a building-by-building decision, exact siting, or an engineering alignment.",
        "conceptual_envelope": true,
        "real_building_claimed": false,
        "retain_repair_comparison_required": true,
        "independent_entry_preserved": true,
        "small_use_unit_preserved": true,
        "superblock_merger": false,
        "area_sqm_declared": 23369.471
      },
      "geometry": {
        "type": "Polygon",
        "coordinates": [
          [
            [
              116.34288,
              39.9849
            ],
            [
              116.34288,
              39.9865
            ],
            [
              116.34442,
              39.9865
            ],
            [
              116.34442,
              39.9849
            ],
            [
              116.34288,
              39.9849
            ]
          ]
        ]
      }
    },
    {
      "type": "Feature",
      "id": "DES-BLD-AIO-008",
      "properties": {
        "id": "DES-BLD-AIO-008",
        "layer": "BUILDING_FOOTPRINT",
        "name_zh": "AI原点小型使用单元 8",
        "name_en": "AI Origin small-use unit 8",
        "spatial_law_id": "R-AIO",
        "source_type": "agent_generated_design",
        "source_id": "DESIGN-MODEL-THREE-SPATIAL-LAWS-20260823",
        "constraint_source_id": "DATA-SRC-PROVISIONAL-BOUNDARIES-20260605",
        "source_commit": "7f1f45d719f89fd40ff01a772de5119496c8129f",
        "confidence": "low",
        "geometry_role": "design_proposal",
        "official_boundary": false,
        "design_status": "controlled_provisional",
        "existing_condition_claimed": false,
        "statutory_or_engineering_claimed": false,
        "replacement_required": true,
        "usage_note_zh": "在仓库暂定范围内生成的低置信度概念设计几何；不代表现状测绘、法定用地、官方红线、宗地权属、逐栋结论、精确落位或工程线位。",
        "usage_note_en": "Low-confidence conceptual design geometry within repository provisional constraints; not surveyed conditions, statutory land use, an official redline, ownership, a building-by-building decision, exact siting, or an engineering alignment.",
        "conceptual_envelope": true,
        "real_building_claimed": false,
        "retain_repair_comparison_required": true,
        "independent_entry_preserved": true,
        "small_use_unit_preserved": true,
        "superblock_merger": false,
        "area_sqm_declared": 23369.462
      },
      "geometry": {
        "type": "Polygon",
        "coordinates": [
          [
            [
              116.34453,
              39.9849
            ],
            [
              116.34453,
              39.9865
            ],
            [
              116.34607,
              39.9865
            ],
            [
              116.34607,
              39.9849
            ],
            [
              116.34453,
              39.9849
            ]
          ]
        ]
      }
    },
    {
      "type": "Feature",
      "id": "DES-BLD-AIO-009",
      "properties": {
        "id": "DES-BLD-AIO-009",
        "layer": "BUILDING_FOOTPRINT",
        "name_zh": "AI原点小型使用单元 9",
        "name_en": "AI Origin small-use unit 9",
        "spatial_law_id": "R-AIO",
        "source_type": "agent_generated_design",
        "source_id": "DESIGN-MODEL-THREE-SPATIAL-LAWS-20260823",
        "constraint_source_id": "DATA-SRC-PROVISIONAL-BOUNDARIES-20260605",
        "source_commit": "7f1f45d719f89fd40ff01a772de5119496c8129f",
        "confidence": "low",
        "geometry_role": "design_proposal",
        "official_boundary": false,
        "design_status": "controlled_provisional",
        "existing_condition_claimed": false,
        "statutory_or_engineering_claimed": false,
        "replacement_required": true,
        "usage_note_zh": "在仓库暂定范围内生成的低置信度概念设计几何；不代表现状测绘、法定用地、官方红线、宗地权属、逐栋结论、精确落位或工程线位。",
        "usage_note_en": "Low-confidence conceptual design geometry within repository provisional constraints; not surveyed conditions, statutory land use, an official redline, ownership, a building-by-building decision, exact siting, or an engineering alignment.",
        "conceptual_envelope": true,
        "real_building_claimed": false,
        "retain_repair_comparison_required": true,
        "independent_entry_preserved": true,
        "small_use_unit_preserved": true,
        "superblock_merger": false,
        "area_sqm_declared": 23994.916
      },
      "geometry": {
        "type": "Polygon",
        "coordinates": [
          [
            [
              116.34321,
              39.9867
            ],
            [
              116.34321,
              39.9877
            ],
            [
              116.34574,
              39.9877
            ],
            [
              116.34574,
              39.9867
            ],
            [
              116.34321,
              39.9867
            ]
          ]
        ]
      }
    },
    {
      "type": "Feature",
      "id": "DES-BLD-AIO-010",
      "properties": {
        "id": "DES-BLD-AIO-010",
        "layer": "BUILDING_FOOTPRINT",
        "name_zh": "AI原点小型使用单元 10",
        "name_en": "AI Origin small-use unit 10",
        "spatial_law_id": "R-AIO",
        "source_type": "agent_generated_design",
        "source_id": "DESIGN-MODEL-THREE-SPATIAL-LAWS-20260823",
        "constraint_source_id": "DATA-SRC-PROVISIONAL-BOUNDARIES-20260605",
        "source_commit": "7f1f45d719f89fd40ff01a772de5119496c8129f",
        "confidence": "low",
        "geometry_role": "design_proposal",
        "official_boundary": false,
        "design_status": "controlled_provisional",
        "existing_condition_claimed": false,
        "statutory_or_engineering_claimed": false,
        "replacement_required": true,
        "usage_note_zh": "在仓库暂定范围内生成的低置信度概念设计几何；不代表现状测绘、法定用地、官方红线、宗地权属、逐栋结论、精确落位或工程线位。",
        "usage_note_en": "Low-confidence conceptual design geometry within repository provisional constraints; not surveyed conditions, statutory land use, an official redline, ownership, a building-by-building decision, exact siting, or an engineering alignment.",
        "conceptual_envelope": true,
        "real_building_claimed": false,
        "retain_repair_comparison_required": true,
        "independent_entry_preserved": true,
        "small_use_unit_preserved": true,
        "superblock_merger": false,
        "area_sqm_declared": 23369.439
      },
      "geometry": {
        "type": "Polygon",
        "coordinates": [
          [
            [
              116.34871,
              39.9849
            ],
            [
              116.34871,
              39.9865
            ],
            [
              116.35025,
              39.9865
            ],
            [
              116.35025,
              39.9849
            ],
            [
              116.34871,
              39.9849
            ]
          ]
        ]
      }
    },
    {
      "type": "Feature",
      "id": "DES-BLD-AIO-011",
      "properties": {
        "id": "DES-BLD-AIO-011",
        "layer": "BUILDING_FOOTPRINT",
        "name_zh": "AI原点小型使用单元 11",
        "name_en": "AI Origin small-use unit 11",
        "spatial_law_id": "R-AIO",
        "source_type": "agent_generated_design",
        "source_id": "DESIGN-MODEL-THREE-SPATIAL-LAWS-20260823",
        "constraint_source_id": "DATA-SRC-PROVISIONAL-BOUNDARIES-20260605",
        "source_commit": "7f1f45d719f89fd40ff01a772de5119496c8129f",
        "confidence": "low",
        "geometry_role": "design_proposal",
        "official_boundary": false,
        "design_status": "controlled_provisional",
        "existing_condition_claimed": false,
        "statutory_or_engineering_claimed": false,
        "replacement_required": true,
        "usage_note_zh": "在仓库暂定范围内生成的低置信度概念设计几何；不代表现状测绘、法定用地、官方红线、宗地权属、逐栋结论、精确落位或工程线位。",
        "usage_note_en": "Low-confidence conceptual design geometry within repository provisional constraints; not surveyed conditions, statutory land use, an official redline, ownership, a building-by-building decision, exact siting, or an engineering alignment.",
        "conceptual_envelope": true,
        "real_building_claimed": false,
        "retain_repair_comparison_required": true,
        "independent_entry_preserved": true,
        "small_use_unit_preserved": true,
        "superblock_merger": false,
        "area_sqm_declared": 23369.43
      },
      "geometry": {
        "type": "Polygon",
        "coordinates": [
          [
            [
              116.35036,
              39.9849
            ],
            [
              116.35036,
              39.9865
            ],
            [
              116.3519,
              39.9865
            ],
            [
              116.3519,
              39.9849
            ],
            [
              116.35036,
              39.9849
            ]
          ]
        ]
      }
    },
    {
      "type": "Feature",
      "id": "DES-BLD-AIO-012",
      "properties": {
        "id": "DES-BLD-AIO-012",
        "layer": "BUILDING_FOOTPRINT",
        "name_zh": "AI原点小型使用单元 12",
        "name_en": "AI Origin small-use unit 12",
        "spatial_law_id": "R-AIO",
        "source_type": "agent_generated_design",
        "source_id": "DESIGN-MODEL-THREE-SPATIAL-LAWS-20260823",
        "constraint_source_id": "DATA-SRC-PROVISIONAL-BOUNDARIES-20260605",
        "source_commit": "7f1f45d719f89fd40ff01a772de5119496c8129f",
        "confidence": "low",
        "geometry_role": "design_proposal",
        "official_boundary": false,
        "design_status": "controlled_provisional",
        "existing_condition_claimed": false,
        "statutory_or_engineering_claimed": false,
        "replacement_required": true,
        "usage_note_zh": "在仓库暂定范围内生成的低置信度概念设计几何；不代表现状测绘、法定用地、官方红线、宗地权属、逐栋结论、精确落位或工程线位。",
        "usage_note_en": "Low-confidence conceptual design geometry within repository provisional constraints; not surveyed conditions, statutory land use, an official redline, ownership, a building-by-building decision, exact siting, or an engineering alignment.",
        "conceptual_envelope": true,
        "real_building_claimed": false,
        "retain_repair_comparison_required": true,
        "independent_entry_preserved": true,
        "small_use_unit_preserved": true,
        "superblock_merger": false,
        "area_sqm_declared": 23994.883
      },
      "geometry": {
        "type": "Polygon",
        "coordinates": [
          [
            [
              116.34904,
              39.9867
            ],
            [
              116.34904,
              39.9877
            ],
            [
              116.35157,
              39.9877
            ],
            [
              116.35157,
              39.9867
            ],
            [
              116.34904,
              39.9867
            ]
          ]
        ]
      }
    },
    {
      "type": "Feature",
      "id": "DES-BLD-DZS-001",
      "properties": {
        "id": "DES-BLD-DZS-001",
        "layer": "BUILDING_FOOTPRINT",
        "name_zh": "大钟寺项目包络 1",
        "name_en": "Dazhongsi project envelope 1",
        "spatial_law_id": "R-DZS",
        "source_type": "agent_generated_design",
        "source_id": "DESIGN-MODEL-THREE-SPATIAL-LAWS-20260823",
        "constraint_source_id": "DATA-SRC-PROVISIONAL-BOUNDARIES-20260605",
        "source_commit": "7f1f45d719f89fd40ff01a772de5119496c8129f",
        "confidence": "low",
        "geometry_role": "design_proposal",
        "official_boundary": false,
        "design_status": "controlled_provisional",
        "existing_condition_claimed": false,
        "statutory_or_engineering_claimed": false,
        "replacement_required": true,
        "usage_note_zh": "在仓库暂定范围内生成的低置信度概念设计几何；不代表现状测绘、法定用地、官方红线、宗地权属、逐栋结论、精确落位或工程线位。",
        "usage_note_en": "Low-confidence conceptual design geometry within repository provisional constraints; not surveyed conditions, statutory land use, an official redline, ownership, a building-by-building decision, exact siting, or an engineering alignment.",
        "conceptual_envelope": true,
        "real_building_claimed": false,
        "public_improvement_contribution_required": true,
        "public_benefit_claim_allowed": false,
        "co_delivery_required": true,
        "public_space_independent_acceptance_required": true,
        "area_sqm_declared": 36454.269
      },
      "geometry": {
        "type": "Polygon",
        "coordinates": [
          [
            [
              116.34291,
              39.9476792
            ],
            [
              116.34291,
              39.9490224
            ],
            [
              116.34577,
              39.9490224
            ],
            [
              116.34577,
              39.9476792
            ],
            [
              116.34291,
              39.9476792
            ]
          ]
        ]
      }
    },
    {
      "type": "Feature",
      "id": "DES-BLD-DZS-002",
      "properties": {
        "id": "DES-BLD-DZS-002",
        "layer": "BUILDING_FOOTPRINT",
        "name_zh": "大钟寺项目包络 2",
        "name_en": "Dazhongsi project envelope 2",
        "spatial_law_id": "R-DZS",
        "source_type": "agent_generated_design",
        "source_id": "DESIGN-MODEL-THREE-SPATIAL-LAWS-20260823",
        "constraint_source_id": "DATA-SRC-PROVISIONAL-BOUNDARIES-20260605",
        "source_commit": "7f1f45d719f89fd40ff01a772de5119496c8129f",
        "confidence": "low",
        "geometry_role": "design_proposal",
        "official_boundary": false,
        "design_status": "controlled_provisional",
        "existing_condition_claimed": false,
        "statutory_or_engineering_claimed": false,
        "replacement_required": true,
        "usage_note_zh": "在仓库暂定范围内生成的低置信度概念设计几何；不代表现状测绘、法定用地、官方红线、宗地权属、逐栋结论、精确落位或工程线位。",
        "usage_note_en": "Low-confidence conceptual design geometry within repository provisional constraints; not surveyed conditions, statutory land use, an official redline, ownership, a building-by-building decision, exact siting, or an engineering alignment.",
        "conceptual_envelope": true,
        "real_building_claimed": false,
        "public_improvement_contribution_required": true,
        "public_benefit_claim_allowed": false,
        "co_delivery_required": true,
        "public_space_independent_acceptance_required": true,
        "area_sqm_declared": 31771.3
      },
      "geometry": {
        "type": "Polygon",
        "coordinates": [
          [
            [
              116.34668,
              39.9479128
            ],
            [
              116.34668,
              39.9491392
            ],
            [
              116.34941,
              39.9491392
            ],
            [
              116.34941,
              39.9479128
            ],
            [
              116.34668,
              39.9479128
            ]
          ]
        ]
      }
    },
    {
      "type": "Feature",
      "id": "DES-BLD-DZS-003",
      "properties": {
        "id": "DES-BLD-DZS-003",
        "layer": "BUILDING_FOOTPRINT",
        "name_zh": "大钟寺项目包络 3",
        "name_en": "Dazhongsi project envelope 3",
        "spatial_law_id": "R-DZS",
        "source_type": "agent_generated_design",
        "source_id": "DESIGN-MODEL-THREE-SPATIAL-LAWS-20260823",
        "constraint_source_id": "DATA-SRC-PROVISIONAL-BOUNDARIES-20260605",
        "source_commit": "7f1f45d719f89fd40ff01a772de5119496c8129f",
        "confidence": "low",
        "geometry_role": "design_proposal",
        "official_boundary": false,
        "design_status": "controlled_provisional",
        "existing_condition_claimed": false,
        "statutory_or_engineering_claimed": false,
        "replacement_required": true,
        "usage_note_zh": "在仓库暂定范围内生成的低置信度概念设计几何；不代表现状测绘、法定用地、官方红线、宗地权属、逐栋结论、精确落位或工程线位。",
        "usage_note_en": "Low-confidence conceptual design geometry within repository provisional constraints; not surveyed conditions, statutory land use, an official redline, ownership, a building-by-building decision, exact siting, or an engineering alignment.",
        "conceptual_envelope": true,
        "real_building_claimed": false,
        "public_improvement_contribution_required": true,
        "public_benefit_claim_allowed": false,
        "co_delivery_required": true,
        "public_space_independent_acceptance_required": true,
        "area_sqm_declared": 38111.209
      },
      "geometry": {
        "type": "Polygon",
        "coordinates": [
          [
            [
              116.35084,
              39.9476792
            ],
            [
              116.35084,
              39.9490224
            ],
            [
              116.35383,
              39.9490224
            ],
            [
              116.35383,
              39.9476792
            ],
            [
              116.35084,
              39.9476792
            ]
          ]
        ]
      }
    },
    {
      "type": "Feature",
      "id": "DES-BLD-DZS-004",
      "properties": {
        "id": "DES-BLD-DZS-004",
        "layer": "BUILDING_FOOTPRINT",
        "name_zh": "大钟寺项目包络 4",
        "name_en": "Dazhongsi project envelope 4",
        "spatial_law_id": "R-DZS",
        "source_type": "agent_generated_design",
        "source_id": "DESIGN-MODEL-THREE-SPATIAL-LAWS-20260823",
        "constraint_source_id": "DATA-SRC-PROVISIONAL-BOUNDARIES-20260605",
        "source_commit": "7f1f45d719f89fd40ff01a772de5119496c8129f",
        "confidence": "low",
        "geometry_role": "design_proposal",
        "official_boundary": false,
        "design_status": "controlled_provisional",
        "existing_condition_claimed": false,
        "statutory_or_engineering_claimed": false,
        "replacement_required": true,
        "usage_note_zh": "在仓库暂定范围内生成的低置信度概念设计几何；不代表现状测绘、法定用地、官方红线、宗地权属、逐栋结论、精确落位或工程线位。",
        "usage_note_en": "Low-confidence conceptual design geometry within repository provisional constraints; not surveyed conditions, statutory land use, an official redline, ownership, a building-by-building decision, exact siting, or an engineering alignment.",
        "conceptual_envelope": true,
        "real_building_claimed": false,
        "public_improvement_contribution_required": true,
        "public_benefit_claim_allowed": false,
        "co_delivery_required": true,
        "public_space_independent_acceptance_required": true,
        "area_sqm_declared": 36455.799
      },
      "geometry": {
        "type": "Polygon",
        "coordinates": [
          [
            [
              116.34304,
              39.9447592
            ],
            [
              116.34304,
              39.9461024
            ],
            [
              116.3459,
              39.9461024
            ],
            [
              116.3459,
              39.9447592
            ],
            [
              116.34304,
              39.9447592
            ]
          ]
        ]
      }
    },
    {
      "type": "Feature",
      "id": "DES-BLD-DZS-005",
      "properties": {
        "id": "DES-BLD-DZS-005",
        "layer": "BUILDING_FOOTPRINT",
        "name_zh": "大钟寺项目包络 5",
        "name_en": "Dazhongsi project envelope 5",
        "spatial_law_id": "R-DZS",
        "source_type": "agent_generated_design",
        "source_id": "DESIGN-MODEL-THREE-SPATIAL-LAWS-20260823",
        "constraint_source_id": "DATA-SRC-PROVISIONAL-BOUNDARIES-20260605",
        "source_commit": "7f1f45d719f89fd40ff01a772de5119496c8129f",
        "confidence": "low",
        "geometry_role": "design_proposal",
        "official_boundary": false,
        "design_status": "controlled_provisional",
        "existing_condition_claimed": false,
        "statutory_or_engineering_claimed": false,
        "replacement_required": true,
        "usage_note_zh": "在仓库暂定范围内生成的低置信度概念设计几何；不代表现状测绘、法定用地、官方红线、宗地权属、逐栋结论、精确落位或工程线位。",
        "usage_note_en": "Low-confidence conceptual design geometry within repository provisional constraints; not surveyed conditions, statutory land use, an official redline, ownership, a building-by-building decision, exact siting, or an engineering alignment.",
        "conceptual_envelope": true,
        "real_building_claimed": false,
        "public_improvement_contribution_required": true,
        "public_benefit_claim_allowed": false,
        "co_delivery_required": true,
        "public_space_independent_acceptance_required": true,
        "area_sqm_declared": 33285.742
      },
      "geometry": {
        "type": "Polygon",
        "coordinates": [
          [
            [
              116.34694,
              39.9447008
            ],
            [
              116.34694,
              39.9459856
            ],
            [
              116.34967,
              39.9459856
            ],
            [
              116.34967,
              39.9447008
            ],
            [
              116.34694,
              39.9447008
            ]
          ]
        ]
      }
    },
    {
      "type": "Feature",
      "id": "DES-BLD-DZS-006",
      "properties": {
        "id": "DES-BLD-DZS-006",
        "layer": "BUILDING_FOOTPRINT",
        "name_zh": "大钟寺项目包络 6",
        "name_en": "Dazhongsi project envelope 6",
        "spatial_law_id": "R-DZS",
        "source_type": "agent_generated_design",
        "source_id": "DESIGN-MODEL-THREE-SPATIAL-LAWS-20260823",
        "constraint_source_id": "DATA-SRC-PROVISIONAL-BOUNDARIES-20260605",
        "source_commit": "7f1f45d719f89fd40ff01a772de5119496c8129f",
        "confidence": "low",
        "geometry_role": "design_proposal",
        "official_boundary": false,
        "design_status": "controlled_provisional",
        "existing_condition_claimed": false,
        "statutory_or_engineering_claimed": false,
        "replacement_required": true,
        "usage_note_zh": "在仓库暂定范围内生成的低置信度概念设计几何；不代表现状测绘、法定用地、官方红线、宗地权属、逐栋结论、精确落位或工程线位。",
        "usage_note_en": "Low-confidence conceptual design geometry within repository provisional constraints; not surveyed conditions, statutory land use, an official redline, ownership, a building-by-building decision, exact siting, or an engineering alignment.",
        "conceptual_envelope": true,
        "real_building_claimed": false,
        "public_improvement_contribution_required": true,
        "public_benefit_claim_allowed": false,
        "co_delivery_required": true,
        "public_space_independent_acceptance_required": true,
        "area_sqm_declared": 36455.701
      },
      "geometry": {
        "type": "Polygon",
        "coordinates": [
          [
            [
              116.35097,
              39.9448176
            ],
            [
              116.35097,
              39.9461608
            ],
            [
              116.35383,
              39.9461608
            ],
            [
              116.35383,
              39.9448176
            ],
            [
              116.35097,
              39.9448176
            ]
          ]
        ]
      }
    }
  ]
}
