{
  "type": "FeatureCollection",
  "name": "green_space",
  "metadata": {
    "status": "controlled_provisional_design_model",
    "geometry_policy": "replaceable_provisional_constraints",
    "source_id": "DESIGN-MODEL-THREE-SPATIAL-LAWS-20260823",
    "constraint_source_id": "DATA-SRC-PROVISIONAL-BOUNDARIES-20260605",
    "source_commit": "7f1f45d719f89fd40ff01a772de5119496c8129f",
    "coordinate_reference_system": "EPSG:4326",
    "area_check_crs": "EPSG:4548",
    "official_boundary": false,
    "reason_zh": "绿地层只表达三条空间法则所需的公共环境接口，不对应现状绿地、绿线、河道或文保控制。",
    "reason_en": "The green layer expresses only the public-environment interfaces required by the three laws; it is not existing green space, a statutory green line, water control, or heritage control.",
    "use_limits_zh": "仅供概念城市设计、空间法则检验和暂定模型复算；不得作为现状、法定、权属、精确落位或工程依据。",
    "use_limits_en": "For conceptual urban design, spatial-law testing, and provisional model recomputation only; not an existing-condition, statutory, ownership, exact-siting, or engineering basis.",
    "recalculation_trigger": "replace the complete geometry, metrics, figures, HTML, drawings, manifest, and self-check when official or explicitly rights-cleared geometry becomes available",
    "statutory_green_boundary_claimed": false
  },
  "features": [
    {
      "type": "Feature",
      "id": "DES-GREEN-CONTEXT-001",
      "properties": {
        "id": "DES-GREEN-CONTEXT-001",
        "layer": "GREEN_SPACE",
        "name_zh": "京张遗址蓝绿联系带",
        "name_en": "Jing-Zhang heritage blue-green connection",
        "spatial_law_id": "R-COMMON",
        "source_type": "agent_generated_design",
        "source_id": "DESIGN-MODEL-THREE-SPATIAL-LAWS-20260823",
        "constraint_source_id": "DATA-SRC-PROVISIONAL-BOUNDARIES-20260605",
        "source_commit": "7f1f45d719f89fd40ff01a772de5119496c8129f",
        "confidence": "low",
        "geometry_role": "design_proposal",
        "official_boundary": false,
        "design_status": "controlled_provisional",
        "existing_condition_claimed": false,
        "statutory_or_engineering_claimed": false,
        "replacement_required": true,
        "usage_note_zh": "在仓库暂定范围内生成的低置信度概念设计几何；不代表现状测绘、法定用地、官方红线、宗地权属、逐栋结论、精确落位或工程线位。",
        "usage_note_en": "Low-confidence conceptual design geometry within repository provisional constraints; not surveyed conditions, statutory land use, an official redline, ownership, a building-by-building decision, exact siting, or an engineering alignment.",
        "statutory_green_boundary_claimed": false,
        "exact_siting_claimed": false,
        "area_sqm_declared": 621441.122
      },
      "geometry": {
        "type": "Polygon",
        "coordinates": [
          [
            [
              116.3472816,
              39.939
            ],
            [
              116.3472816,
              40.0265
            ],
            [
              116.3480304,
              40.0265
            ],
            [
              116.3480304,
              39.939
            ],
            [
              116.3472816,
              39.939
            ]
          ]
        ]
      }
    },
    {
      "type": "Feature",
      "id": "DES-GREEN-ZZY-001",
      "properties": {
        "id": "DES-GREEN-ZZY-001",
        "layer": "GREEN_SPACE",
        "name_zh": "众智园西部微绿地接口",
        "name_en": "Zhongzhiyuan west micro-green interface",
        "spatial_law_id": "R-ZZY",
        "source_type": "agent_generated_design",
        "source_id": "DESIGN-MODEL-THREE-SPATIAL-LAWS-20260823",
        "constraint_source_id": "DATA-SRC-PROVISIONAL-BOUNDARIES-20260605",
        "source_commit": "7f1f45d719f89fd40ff01a772de5119496c8129f",
        "confidence": "low",
        "geometry_role": "design_proposal",
        "official_boundary": false,
        "design_status": "controlled_provisional",
        "existing_condition_claimed": false,
        "statutory_or_engineering_claimed": false,
        "replacement_required": true,
        "usage_note_zh": "在仓库暂定范围内生成的低置信度概念设计几何；不代表现状测绘、法定用地、官方红线、宗地权属、逐栋结论、精确落位或工程线位。",
        "usage_note_en": "Low-confidence conceptual design geometry within repository provisional constraints; not surveyed conditions, statutory land use, an official redline, ownership, a building-by-building decision, exact siting, or an engineering alignment.",
        "statutory_green_boundary_claimed": false,
        "exact_siting_claimed": false,
        "area_sqm_declared": 32410.364
      },
      "geometry": {
        "type": "Polygon",
        "coordinates": [
          [
            [
              116.34366,
              40.01601
            ],
            [
              116.34366,
              40.0186
            ],
            [
              116.34498,
              40.0186
            ],
            [
              116.34498,
              40.01601
            ],
            [
              116.34366,
              40.01601
            ]
          ]
        ]
      }
    },
    {
      "type": "Feature",
      "id": "DES-GREEN-ZZY-002",
      "properties": {
        "id": "DES-GREEN-ZZY-002",
        "layer": "GREEN_SPACE",
        "name_zh": "众智园东部微绿地接口",
        "name_en": "Zhongzhiyuan east micro-green interface",
        "spatial_law_id": "R-ZZY",
        "source_type": "agent_generated_design",
        "source_id": "DESIGN-MODEL-THREE-SPATIAL-LAWS-20260823",
        "constraint_source_id": "DATA-SRC-PROVISIONAL-BOUNDARIES-20260605",
        "source_commit": "7f1f45d719f89fd40ff01a772de5119496c8129f",
        "confidence": "low",
        "geometry_role": "design_proposal",
        "official_boundary": false,
        "design_status": "controlled_provisional",
        "existing_condition_claimed": false,
        "statutory_or_engineering_claimed": false,
        "replacement_required": true,
        "usage_note_zh": "在仓库暂定范围内生成的低置信度概念设计几何；不代表现状测绘、法定用地、官方红线、宗地权属、逐栋结论、精确落位或工程线位。",
        "usage_note_en": "Low-confidence conceptual design geometry within repository provisional constraints; not surveyed conditions, statutory land use, an official redline, ownership, a building-by-building decision, exact siting, or an engineering alignment.",
        "statutory_green_boundary_claimed": false,
        "exact_siting_claimed": false,
        "area_sqm_declared": 35111.16
      },
      "geometry": {
        "type": "Polygon",
        "coordinates": [
          [
            [
              116.35191,
              40.01601
            ],
            [
              116.35191,
              40.0186
            ],
            [
              116.35334,
              40.0186
            ],
            [
              116.35334,
              40.01601
            ],
            [
              116.35191,
              40.01601
            ]
          ]
        ]
      }
    },
    {
      "type": "Feature",
      "id": "DES-GREEN-AIO-001",
      "properties": {
        "id": "DES-GREEN-AIO-001",
        "layer": "GREEN_SPACE",
        "name_zh": "AI原点西侧街院绿化",
        "name_en": "AI Origin west street-courtyard green",
        "spatial_law_id": "R-AIO",
        "source_type": "agent_generated_design",
        "source_id": "DESIGN-MODEL-THREE-SPATIAL-LAWS-20260823",
        "constraint_source_id": "DATA-SRC-PROVISIONAL-BOUNDARIES-20260605",
        "source_commit": "7f1f45d719f89fd40ff01a772de5119496c8129f",
        "confidence": "low",
        "geometry_role": "design_proposal",
        "official_boundary": false,
        "design_status": "controlled_provisional",
        "existing_condition_claimed": false,
        "statutory_or_engineering_claimed": false,
        "replacement_required": true,
        "usage_note_zh": "在仓库暂定范围内生成的低置信度概念设计几何；不代表现状测绘、法定用地、官方红线、宗地权属、逐栋结论、精确落位或工程线位。",
        "usage_note_en": "Low-confidence conceptual design geometry within repository provisional constraints; not surveyed conditions, statutory land use, an official redline, ownership, a building-by-building decision, exact siting, or an engineering alignment.",
        "statutory_green_boundary_claimed": false,
        "exact_siting_claimed": false,
        "area_sqm_declared": 15961.516
      },
      "geometry": {
        "type": "Polygon",
        "coordinates": [
          [
            [
              116.34629,
              39.9877
            ],
            [
              116.34629,
              39.9894
            ],
            [
              116.34728,
              39.9894
            ],
            [
              116.34728,
              39.9877
            ],
            [
              116.34629,
              39.9877
            ]
          ]
        ]
      }
    },
    {
      "type": "Feature",
      "id": "DES-GREEN-AIO-002",
      "properties": {
        "id": "DES-GREEN-AIO-002",
        "layer": "GREEN_SPACE",
        "name_zh": "AI原点东侧街院绿化",
        "name_en": "AI Origin east street-courtyard green",
        "spatial_law_id": "R-AIO",
        "source_type": "agent_generated_design",
        "source_id": "DESIGN-MODEL-THREE-SPATIAL-LAWS-20260823",
        "constraint_source_id": "DATA-SRC-PROVISIONAL-BOUNDARIES-20260605",
        "source_commit": "7f1f45d719f89fd40ff01a772de5119496c8129f",
        "confidence": "low",
        "geometry_role": "design_proposal",
        "official_boundary": false,
        "design_status": "controlled_provisional",
        "existing_condition_claimed": false,
        "statutory_or_engineering_claimed": false,
        "replacement_required": true,
        "usage_note_zh": "在仓库暂定范围内生成的低置信度概念设计几何；不代表现状测绘、法定用地、官方红线、宗地权属、逐栋结论、精确落位或工程线位。",
        "usage_note_en": "Low-confidence conceptual design geometry within repository provisional constraints; not surveyed conditions, statutory land use, an official redline, ownership, a building-by-building decision, exact siting, or an engineering alignment.",
        "statutory_green_boundary_claimed": false,
        "exact_siting_claimed": false,
        "area_sqm_declared": 15961.511
      },
      "geometry": {
        "type": "Polygon",
        "coordinates": [
          [
            [
              116.34772,
              39.9877
            ],
            [
              116.34772,
              39.9894
            ],
            [
              116.34871,
              39.9894
            ],
            [
              116.34871,
              39.9877
            ],
            [
              116.34772,
              39.9877
            ]
          ]
        ]
      }
    },
    {
      "type": "Feature",
      "id": "DES-GREEN-DZS-001",
      "properties": {
        "id": "DES-GREEN-DZS-001",
        "layer": "GREEN_SPACE",
        "name_zh": "大钟寺复合遮荫与雨洪单元",
        "name_en": "Dazhongsi multi-use shade and sponge unit",
        "spatial_law_id": "R-DZS",
        "source_type": "agent_generated_design",
        "source_id": "DESIGN-MODEL-THREE-SPATIAL-LAWS-20260823",
        "constraint_source_id": "DATA-SRC-PROVISIONAL-BOUNDARIES-20260605",
        "source_commit": "7f1f45d719f89fd40ff01a772de5119496c8129f",
        "confidence": "low",
        "geometry_role": "design_proposal",
        "official_boundary": false,
        "design_status": "controlled_provisional",
        "existing_condition_claimed": false,
        "statutory_or_engineering_claimed": false,
        "replacement_required": true,
        "usage_note_zh": "在仓库暂定范围内生成的低置信度概念设计几何；不代表现状测绘、法定用地、官方红线、宗地权属、逐栋结论、精确落位或工程线位。",
        "usage_note_en": "Low-confidence conceptual design geometry within repository provisional constraints; not surveyed conditions, statutory land use, an official redline, ownership, a building-by-building decision, exact siting, or an engineering alignment.",
        "statutory_green_boundary_claimed": false,
        "exact_siting_claimed": false,
        "area_sqm_declared": 27233.174
      },
      "geometry": {
        "type": "Polygon",
        "coordinates": [
          [
            [
              116.34512,
              39.9461608
            ],
            [
              116.34512,
              39.9477376
            ],
            [
              116.34694,
              39.9477376
            ],
            [
              116.34694,
              39.9461608
            ],
            [
              116.34512,
              39.9461608
            ]
          ]
        ]
      }
    },
    {
      "type": "Feature",
      "id": "DES-GREEN-DZS-002",
      "properties": {
        "id": "DES-GREEN-DZS-002",
        "layer": "GREEN_SPACE",
        "name_zh": "大钟寺复合停留与雨洪单元",
        "name_en": "Dazhongsi multi-use stay and sponge unit",
        "spatial_law_id": "R-DZS",
        "source_type": "agent_generated_design",
        "source_id": "DESIGN-MODEL-THREE-SPATIAL-LAWS-20260823",
        "constraint_source_id": "DATA-SRC-PROVISIONAL-BOUNDARIES-20260605",
        "source_commit": "7f1f45d719f89fd40ff01a772de5119496c8129f",
        "confidence": "low",
        "geometry_role": "design_proposal",
        "official_boundary": false,
        "design_status": "controlled_provisional",
        "existing_condition_claimed": false,
        "statutory_or_engineering_claimed": false,
        "replacement_required": true,
        "usage_note_zh": "在仓库暂定范围内生成的低置信度概念设计几何；不代表现状测绘、法定用地、官方红线、宗地权属、逐栋结论、精确落位或工程线位。",
        "usage_note_en": "Low-confidence conceptual design geometry within repository provisional constraints; not surveyed conditions, statutory land use, an official redline, ownership, a building-by-building decision, exact siting, or an engineering alignment.",
        "statutory_green_boundary_claimed": false,
        "exact_siting_claimed": false,
        "area_sqm_declared": 27233.142
      },
      "geometry": {
        "type": "Polygon",
        "coordinates": [
          [
            [
              116.35006,
              39.9461608
            ],
            [
              116.35006,
              39.9477376
            ],
            [
              116.35188,
              39.9477376
            ],
            [
              116.35188,
              39.9461608
            ],
            [
              116.35006,
              39.9461608
            ]
          ]
        ]
      }
    }
  ]
}
