{
  "type": "FeatureCollection",
  "name": "land_use",
  "metadata": {
    "status": "controlled_provisional_design_model",
    "geometry_policy": "replaceable_provisional_constraints",
    "source_id": "DESIGN-MODEL-THREE-SPATIAL-LAWS-20260823",
    "constraint_source_id": "DATA-SRC-PROVISIONAL-BOUNDARIES-20260605",
    "source_commit": "7f1f45d719f89fd40ff01a772de5119496c8129f",
    "coordinate_reference_system": "EPSG:4326",
    "area_check_crs": "EPSG:4548",
    "official_boundary": false,
    "reason_zh": "用地层不创造新的法定分类，而以三种项目处置法则完整划分三处暂定重点区。",
    "reason_en": "The land-use layer creates no statutory class; it assigns three project-disposition laws to the three provisional key areas.",
    "use_limits_zh": "仅供概念城市设计、空间法则检验和暂定模型复算；不得作为现状、法定、权属、精确落位或工程依据。",
    "use_limits_en": "For conceptual urban design, spatial-law testing, and provisional model recomputation only; not an existing-condition, statutory, ownership, exact-siting, or engineering basis.",
    "recalculation_trigger": "replace the complete geometry, metrics, figures, HTML, drawings, manifest, and self-check when official or explicitly rights-cleared geometry becomes available",
    "coverage_rule": "context plus three law zones partition the provisional site without overlap",
    "statutory_land_use_claimed": false
  },
  "features": [
    {
      "type": "Feature",
      "id": "DES-LU-CONTEXT-001",
      "properties": {
        "id": "DES-LU-CONTEXT-001",
        "layer": "LAND_USE",
        "name_zh": "现状功能延续及待核区",
        "name_en": "Existing-use continuity and verification zone",
        "spatial_law_id": "R-COMMON",
        "source_type": "agent_generated_design",
        "source_id": "DESIGN-MODEL-THREE-SPATIAL-LAWS-20260823",
        "constraint_source_id": "DATA-SRC-PROVISIONAL-BOUNDARIES-20260605",
        "source_commit": "7f1f45d719f89fd40ff01a772de5119496c8129f",
        "confidence": "low",
        "geometry_role": "design_proposal",
        "official_boundary": false,
        "design_status": "controlled_provisional",
        "existing_condition_claimed": false,
        "statutory_or_engineering_claimed": false,
        "replacement_required": true,
        "usage_note_zh": "在仓库暂定范围内生成的低置信度概念设计几何；不代表现状测绘、法定用地、官方红线、宗地权属、逐栋结论、精确落位或工程线位。",
        "usage_note_en": "Low-confidence conceptual design geometry within repository provisional constraints; not surveyed conditions, statutory land use, an official redline, ownership, a building-by-building decision, exact siting, or an engineering alignment.",
        "planning_role": "retain_current_use_pending_verified_survey",
        "statutory_land_use_claimed": false,
        "area_sqm_declared": 7719932.38
      },
      "geometry": {
        "type": "Polygon",
        "coordinates": [
          [
            [
              116.3397,
              39.975
            ],
            [
              116.3417,
              40.006
            ],
            [
              116.3427,
              40.0265
            ],
            [
              116.3553,
              40.0265
            ],
            [
              116.3533,
              39.99
            ],
            [
              116.3553,
              39.965
            ],
            [
              116.3553,
              39.939
            ],
            [
              116.3407,
              39.939
            ],
            [
              116.3397,
              39.975
            ]
          ],
          [
            [
              116.342,
              39.944
            ],
            [
              116.355,
              39.944
            ],
            [
              116.355,
              39.94984
            ],
            [
              116.342,
              39.94984
            ],
            [
              116.342,
              39.944
            ]
          ],
          [
            [
              116.342,
              39.9935
            ],
            [
              116.342,
              39.9835
            ],
            [
              116.353,
              39.9835
            ],
            [
              116.353,
              39.9935
            ],
            [
              116.342,
              39.9935
            ]
          ],
          [
            [
              116.343,
              40.026
            ],
            [
              116.343,
              40.0075
            ],
            [
              116.354,
              40.0075
            ],
            [
              116.354,
              40.026
            ],
            [
              116.343,
              40.026
            ]
          ]
        ]
      }
    },
    {
      "type": "Feature",
      "id": "DES-LU-ZZY-001",
      "properties": {
        "id": "DES-LU-ZZY-001",
        "layer": "LAND_USE",
        "name_zh": "众智园分布式服务承载区",
        "name_en": "Zhongzhiyuan distributed service-carrier zone",
        "spatial_law_id": "R-ZZY",
        "source_type": "agent_generated_design",
        "source_id": "DESIGN-MODEL-THREE-SPATIAL-LAWS-20260823",
        "constraint_source_id": "DATA-SRC-PROVISIONAL-BOUNDARIES-20260605",
        "source_commit": "7f1f45d719f89fd40ff01a772de5119496c8129f",
        "confidence": "low",
        "geometry_role": "design_proposal",
        "official_boundary": false,
        "design_status": "controlled_provisional",
        "existing_condition_claimed": false,
        "statutory_or_engineering_claimed": false,
        "replacement_required": true,
        "usage_note_zh": "在仓库暂定范围内生成的低置信度概念设计几何；不代表现状测绘、法定用地、官方红线、宗地权属、逐栋结论、精确落位或工程线位。",
        "usage_note_en": "Low-confidence conceptual design geometry within repository provisional constraints; not surveyed conditions, statutory land use, an official redline, ownership, a building-by-building decision, exact siting, or an engineering alignment.",
        "planning_role": "distributed_capacity_before_general_purpose_new_build",
        "single_centre_allowed": false,
        "area_sqm_declared": 1929201.877
      },
      "geometry": {
        "type": "Polygon",
        "coordinates": [
          [
            [
              116.343,
              40.0075
            ],
            [
              116.354,
              40.0075
            ],
            [
              116.354,
              40.026
            ],
            [
              116.343,
              40.026
            ],
            [
              116.343,
              40.0075
            ]
          ]
        ]
      }
    },
    {
      "type": "Feature",
      "id": "DES-LU-AIO-001",
      "properties": {
        "id": "DES-LU-AIO-001",
        "layer": "LAND_USE",
        "name_zh": "AI原点街院肌理保全区",
        "name_en": "AI Origin street-and-courtyard fabric conservation zone",
        "spatial_law_id": "R-AIO",
        "source_type": "agent_generated_design",
        "source_id": "DESIGN-MODEL-THREE-SPATIAL-LAWS-20260823",
        "constraint_source_id": "DATA-SRC-PROVISIONAL-BOUNDARIES-20260605",
        "source_commit": "7f1f45d719f89fd40ff01a772de5119496c8129f",
        "confidence": "low",
        "geometry_role": "design_proposal",
        "official_boundary": false,
        "design_status": "controlled_provisional",
        "existing_condition_claimed": false,
        "statutory_or_engineering_claimed": false,
        "replacement_required": true,
        "usage_note_zh": "在仓库暂定范围内生成的低置信度概念设计几何；不代表现状测绘、法定用地、官方红线、宗地权属、逐栋结论、精确落位或工程线位。",
        "usage_note_en": "Low-confidence conceptual design geometry within repository provisional constraints; not surveyed conditions, statutory land use, an official redline, ownership, a building-by-building decision, exact siting, or an engineering alignment.",
        "planning_role": "preserve_entries_short_streets_courtyards_and_small_units",
        "superblock_consolidation_allowed": false,
        "area_sqm_declared": 1043236.909
      },
      "geometry": {
        "type": "Polygon",
        "coordinates": [
          [
            [
              116.342,
              39.9835
            ],
            [
              116.353,
              39.9835
            ],
            [
              116.353,
              39.9935
            ],
            [
              116.342,
              39.9935
            ],
            [
              116.342,
              39.9835
            ]
          ]
        ]
      }
    },
    {
      "type": "Feature",
      "id": "DES-LU-DZS-001",
      "properties": {
        "id": "DES-LU-DZS-001",
        "layer": "LAND_USE",
        "name_zh": "大钟寺叠加需求共同塑造区",
        "name_en": "Dazhongsi cumulative-demand co-production zone",
        "spatial_law_id": "R-DZS",
        "source_type": "agent_generated_design",
        "source_id": "DESIGN-MODEL-THREE-SPATIAL-LAWS-20260823",
        "constraint_source_id": "DATA-SRC-PROVISIONAL-BOUNDARIES-20260605",
        "source_commit": "7f1f45d719f89fd40ff01a772de5119496c8129f",
        "confidence": "low",
        "geometry_role": "design_proposal",
        "official_boundary": false,
        "design_status": "controlled_provisional",
        "existing_condition_claimed": false,
        "statutory_or_engineering_claimed": false,
        "replacement_required": true,
        "usage_note_zh": "在仓库暂定范围内生成的低置信度概念设计几何；不代表现状测绘、法定用地、官方红线、宗地权属、逐栋结论、精确落位或工程线位。",
        "usage_note_en": "Low-confidence conceptual design geometry within repository provisional constraints; not surveyed conditions, statutory land use, an official redline, ownership, a building-by-building decision, exact siting, or an engineering alignment.",
        "planning_role": "cross_project_cross_time_demand_shapes_public_base",
        "duplicate_public_benefit_claim_allowed": false,
        "area_sqm_declared": 720454.219
      },
      "geometry": {
        "type": "Polygon",
        "coordinates": [
          [
            [
              116.342,
              39.944
            ],
            [
              116.355,
              39.944
            ],
            [
              116.355,
              39.94984
            ],
            [
              116.342,
              39.94984
            ],
            [
              116.342,
              39.944
            ]
          ]
        ]
      }
    }
  ]
}
