{
  "type": "FeatureCollection",
  "name": "phasing",
  "metadata": {
    "status": "controlled_provisional_design_model",
    "geometry_policy": "replaceable_provisional_constraints",
    "source_id": "DESIGN-MODEL-THREE-SPATIAL-LAWS-20260823",
    "constraint_source_id": "DATA-SRC-PROVISIONAL-BOUNDARIES-20260605",
    "source_commit": "7f1f45d719f89fd40ff01a772de5119496c8129f",
    "coordinate_reference_system": "EPSG:4326",
    "area_check_crs": "EPSG:4548",
    "official_boundary": false,
    "reason_zh": "分期表达三条法则各自的证据、空间与实施顺序，不虚构年份、主体、预算或开竣工事实。",
    "reason_en": "Phasing records the evidence, spatial, and implementation sequence of each law without inventing dates, actors, budgets, starts, or completions.",
    "use_limits_zh": "仅供概念城市设计、空间法则检验和暂定模型复算；不得作为现状、法定、权属、精确落位或工程依据。",
    "use_limits_en": "For conceptual urban design, spatial-law testing, and provisional model recomputation only; not an existing-condition, statutory, ownership, exact-siting, or engineering basis.",
    "recalculation_trigger": "replace the complete geometry, metrics, figures, HTML, drawings, manifest, and self-check when official or explicitly rights-cleared geometry becomes available",
    "calendar_claimed": false
  },
  "features": [
    {
      "type": "Feature",
      "id": "DES-PHASE-ZZY-001",
      "properties": {
        "id": "DES-PHASE-ZZY-001",
        "layer": "PHASE",
        "name_zh": "既有、在建与改造容量普查",
        "name_en": "Inventory existing, under-construction, and adaptable capacity",
        "spatial_law_id": "R-ZZY",
        "source_type": "agent_generated_design",
        "source_id": "DESIGN-MODEL-THREE-SPATIAL-LAWS-20260823",
        "constraint_source_id": "DATA-SRC-PROVISIONAL-BOUNDARIES-20260605",
        "source_commit": "7f1f45d719f89fd40ff01a772de5119496c8129f",
        "confidence": "low",
        "geometry_role": "design_proposal",
        "official_boundary": false,
        "design_status": "controlled_provisional",
        "existing_condition_claimed": false,
        "statutory_or_engineering_claimed": false,
        "replacement_required": true,
        "usage_note_zh": "在仓库暂定范围内生成的低置信度概念设计几何；不代表现状测绘、法定用地、官方红线、宗地权属、逐栋结论、精确落位或工程线位。",
        "usage_note_en": "Low-confidence conceptual design geometry within repository provisional constraints; not surveyed conditions, statutory land use, an official redline, ownership, a building-by-building decision, exact siting, or an engineering alignment.",
        "phase_order": 1,
        "phase_logic": "capacity_inventory",
        "calendar_claimed": false,
        "actor_claimed": false,
        "area_sqm_declared": 1929201.877
      },
      "geometry": {
        "type": "Polygon",
        "coordinates": [
          [
            [
              116.343,
              40.0075
            ],
            [
              116.354,
              40.0075
            ],
            [
              116.354,
              40.026
            ],
            [
              116.343,
              40.026
            ],
            [
              116.343,
              40.0075
            ]
          ]
        ]
      }
    },
    {
      "type": "Feature",
      "id": "DES-PHASE-ZZY-002",
      "properties": {
        "id": "DES-PHASE-ZZY-002",
        "layer": "PHASE",
        "name_zh": "共享服务分布到多个承载单元",
        "name_en": "Distribute shared services across multiple carriers",
        "spatial_law_id": "R-ZZY",
        "source_type": "agent_generated_design",
        "source_id": "DESIGN-MODEL-THREE-SPATIAL-LAWS-20260823",
        "constraint_source_id": "DATA-SRC-PROVISIONAL-BOUNDARIES-20260605",
        "source_commit": "7f1f45d719f89fd40ff01a772de5119496c8129f",
        "confidence": "low",
        "geometry_role": "design_proposal",
        "official_boundary": false,
        "design_status": "controlled_provisional",
        "existing_condition_claimed": false,
        "statutory_or_engineering_claimed": false,
        "replacement_required": true,
        "usage_note_zh": "在仓库暂定范围内生成的低置信度概念设计几何；不代表现状测绘、法定用地、官方红线、宗地权属、逐栋结论、精确落位或工程线位。",
        "usage_note_en": "Low-confidence conceptual design geometry within repository provisional constraints; not surveyed conditions, statutory land use, an official redline, ownership, a building-by-building decision, exact siting, or an engineering alignment.",
        "phase_order": 2,
        "phase_logic": "distributed_adaptation",
        "calendar_claimed": false,
        "actor_claimed": false,
        "area_sqm_declared": 1929201.877
      },
      "geometry": {
        "type": "Polygon",
        "coordinates": [
          [
            [
              116.343,
              40.0075
            ],
            [
              116.354,
              40.0075
            ],
            [
              116.354,
              40.026
            ],
            [
              116.343,
              40.026
            ],
            [
              116.343,
              40.0075
            ]
          ]
        ]
      }
    },
    {
      "type": "Feature",
      "id": "DES-PHASE-ZZY-003",
      "properties": {
        "id": "DES-PHASE-ZZY-003",
        "layer": "PHASE",
        "name_zh": "仅对特殊物理需求保留专门新建",
        "name_en": "Retain specialised new build only for exceptional physical needs",
        "spatial_law_id": "R-ZZY",
        "source_type": "agent_generated_design",
        "source_id": "DESIGN-MODEL-THREE-SPATIAL-LAWS-20260823",
        "constraint_source_id": "DATA-SRC-PROVISIONAL-BOUNDARIES-20260605",
        "source_commit": "7f1f45d719f89fd40ff01a772de5119496c8129f",
        "confidence": "low",
        "geometry_role": "design_proposal",
        "official_boundary": false,
        "design_status": "controlled_provisional",
        "existing_condition_claimed": false,
        "statutory_or_engineering_claimed": false,
        "replacement_required": true,
        "usage_note_zh": "在仓库暂定范围内生成的低置信度概念设计几何；不代表现状测绘、法定用地、官方红线、宗地权属、逐栋结论、精确落位或工程线位。",
        "usage_note_en": "Low-confidence conceptual design geometry within repository provisional constraints; not surveyed conditions, statutory land use, an official redline, ownership, a building-by-building decision, exact siting, or an engineering alignment.",
        "phase_order": 3,
        "phase_logic": "specialised_exception",
        "calendar_claimed": false,
        "actor_claimed": false,
        "area_sqm_declared": 1929201.877
      },
      "geometry": {
        "type": "Polygon",
        "coordinates": [
          [
            [
              116.343,
              40.0075
            ],
            [
              116.354,
              40.0075
            ],
            [
              116.354,
              40.026
            ],
            [
              116.343,
              40.026
            ],
            [
              116.343,
              40.0075
            ]
          ]
        ]
      }
    },
    {
      "type": "Feature",
      "id": "DES-PHASE-AIO-001",
      "properties": {
        "id": "DES-PHASE-AIO-001",
        "layer": "PHASE",
        "name_zh": "记录入口、短街、院落与小型单元",
        "name_en": "Record entries, short streets, courtyards, and small units",
        "spatial_law_id": "R-AIO",
        "source_type": "agent_generated_design",
        "source_id": "DESIGN-MODEL-THREE-SPATIAL-LAWS-20260823",
        "constraint_source_id": "DATA-SRC-PROVISIONAL-BOUNDARIES-20260605",
        "source_commit": "7f1f45d719f89fd40ff01a772de5119496c8129f",
        "confidence": "low",
        "geometry_role": "design_proposal",
        "official_boundary": false,
        "design_status": "controlled_provisional",
        "existing_condition_claimed": false,
        "statutory_or_engineering_claimed": false,
        "replacement_required": true,
        "usage_note_zh": "在仓库暂定范围内生成的低置信度概念设计几何；不代表现状测绘、法定用地、官方红线、宗地权属、逐栋结论、精确落位或工程线位。",
        "usage_note_en": "Low-confidence conceptual design geometry within repository provisional constraints; not surveyed conditions, statutory land use, an official redline, ownership, a building-by-building decision, exact siting, or an engineering alignment.",
        "phase_order": 1,
        "phase_logic": "grain_inventory",
        "calendar_claimed": false,
        "actor_claimed": false,
        "area_sqm_declared": 1043236.909
      },
      "geometry": {
        "type": "Polygon",
        "coordinates": [
          [
            [
              116.342,
              39.9835
            ],
            [
              116.353,
              39.9835
            ],
            [
              116.353,
              39.9935
            ],
            [
              116.342,
              39.9935
            ],
            [
              116.342,
              39.9835
            ]
          ]
        ]
      }
    },
    {
      "type": "Feature",
      "id": "DES-PHASE-AIO-002",
      "properties": {
        "id": "DES-PHASE-AIO-002",
        "layer": "PHASE",
        "name_zh": "保留修补方案与拆并方案并列比较",
        "name_en": "Compare retain-and-repair with consolidation",
        "spatial_law_id": "R-AIO",
        "source_type": "agent_generated_design",
        "source_id": "DESIGN-MODEL-THREE-SPATIAL-LAWS-20260823",
        "constraint_source_id": "DATA-SRC-PROVISIONAL-BOUNDARIES-20260605",
        "source_commit": "7f1f45d719f89fd40ff01a772de5119496c8129f",
        "confidence": "low",
        "geometry_role": "design_proposal",
        "official_boundary": false,
        "design_status": "controlled_provisional",
        "existing_condition_claimed": false,
        "statutory_or_engineering_claimed": false,
        "replacement_required": true,
        "usage_note_zh": "在仓库暂定范围内生成的低置信度概念设计几何；不代表现状测绘、法定用地、官方红线、宗地权属、逐栋结论、精确落位或工程线位。",
        "usage_note_en": "Low-confidence conceptual design geometry within repository provisional constraints; not surveyed conditions, statutory land use, an official redline, ownership, a building-by-building decision, exact siting, or an engineering alignment.",
        "phase_order": 2,
        "phase_logic": "parallel_comparison",
        "calendar_claimed": false,
        "actor_claimed": false,
        "area_sqm_declared": 1043236.909
      },
      "geometry": {
        "type": "Polygon",
        "coordinates": [
          [
            [
              116.342,
              39.9835
            ],
            [
              116.353,
              39.9835
            ],
            [
              116.353,
              39.9935
            ],
            [
              116.342,
              39.9935
            ],
            [
              116.342,
              39.9835
            ]
          ]
        ]
      }
    },
    {
      "type": "Feature",
      "id": "DES-PHASE-AIO-003",
      "properties": {
        "id": "DES-PHASE-AIO-003",
        "layer": "PHASE",
        "name_zh": "只采用不减少细粒关系的更新组合",
        "name_en": "Adopt only renewal combinations that preserve fine-grain relations",
        "spatial_law_id": "R-AIO",
        "source_type": "agent_generated_design",
        "source_id": "DESIGN-MODEL-THREE-SPATIAL-LAWS-20260823",
        "constraint_source_id": "DATA-SRC-PROVISIONAL-BOUNDARIES-20260605",
        "source_commit": "7f1f45d719f89fd40ff01a772de5119496c8129f",
        "confidence": "low",
        "geometry_role": "design_proposal",
        "official_boundary": false,
        "design_status": "controlled_provisional",
        "existing_condition_claimed": false,
        "statutory_or_engineering_claimed": false,
        "replacement_required": true,
        "usage_note_zh": "在仓库暂定范围内生成的低置信度概念设计几何；不代表现状测绘、法定用地、官方红线、宗地权属、逐栋结论、精确落位或工程线位。",
        "usage_note_en": "Low-confidence conceptual design geometry within repository provisional constraints; not surveyed conditions, statutory land use, an official redline, ownership, a building-by-building decision, exact siting, or an engineering alignment.",
        "phase_order": 3,
        "phase_logic": "fine_grain_selection",
        "calendar_claimed": false,
        "actor_claimed": false,
        "area_sqm_declared": 1043236.909
      },
      "geometry": {
        "type": "Polygon",
        "coordinates": [
          [
            [
              116.342,
              39.9835
            ],
            [
              116.353,
              39.9835
            ],
            [
              116.353,
              39.9935
            ],
            [
              116.342,
              39.9935
            ],
            [
              116.342,
              39.9835
            ]
          ]
        ]
      }
    },
    {
      "type": "Feature",
      "id": "DES-PHASE-DZS-001",
      "properties": {
        "id": "DES-PHASE-DZS-001",
        "layer": "PHASE",
        "name_zh": "汇总跨项目跨时段需求",
        "name_en": "Aggregate cross-project and cross-time demands",
        "spatial_law_id": "R-DZS",
        "source_type": "agent_generated_design",
        "source_id": "DESIGN-MODEL-THREE-SPATIAL-LAWS-20260823",
        "constraint_source_id": "DATA-SRC-PROVISIONAL-BOUNDARIES-20260605",
        "source_commit": "7f1f45d719f89fd40ff01a772de5119496c8129f",
        "confidence": "low",
        "geometry_role": "design_proposal",
        "official_boundary": false,
        "design_status": "controlled_provisional",
        "existing_condition_claimed": false,
        "statutory_or_engineering_claimed": false,
        "replacement_required": true,
        "usage_note_zh": "在仓库暂定范围内生成的低置信度概念设计几何；不代表现状测绘、法定用地、官方红线、宗地权属、逐栋结论、精确落位或工程线位。",
        "usage_note_en": "Low-confidence conceptual design geometry within repository provisional constraints; not surveyed conditions, statutory land use, an official redline, ownership, a building-by-building decision, exact siting, or an engineering alignment.",
        "phase_order": 1,
        "phase_logic": "cumulative_demand_register",
        "calendar_claimed": false,
        "actor_claimed": false,
        "area_sqm_declared": 720454.219
      },
      "geometry": {
        "type": "Polygon",
        "coordinates": [
          [
            [
              116.342,
              39.944
            ],
            [
              116.355,
              39.944
            ],
            [
              116.355,
              39.94984
            ],
            [
              116.342,
              39.94984
            ],
            [
              116.342,
              39.944
            ]
          ]
        ]
      }
    },
    {
      "type": "Feature",
      "id": "DES-PHASE-DZS-002",
      "properties": {
        "id": "DES-PHASE-DZS-002",
        "layer": "PHASE",
        "name_zh": "共同确定片区公共基面规模与断面",
        "name_en": "Co-define the district public-base scale and section",
        "spatial_law_id": "R-DZS",
        "source_type": "agent_generated_design",
        "source_id": "DESIGN-MODEL-THREE-SPATIAL-LAWS-20260823",
        "constraint_source_id": "DATA-SRC-PROVISIONAL-BOUNDARIES-20260605",
        "source_commit": "7f1f45d719f89fd40ff01a772de5119496c8129f",
        "confidence": "low",
        "geometry_role": "design_proposal",
        "official_boundary": false,
        "design_status": "controlled_provisional",
        "existing_condition_claimed": false,
        "statutory_or_engineering_claimed": false,
        "replacement_required": true,
        "usage_note_zh": "在仓库暂定范围内生成的低置信度概念设计几何；不代表现状测绘、法定用地、官方红线、宗地权属、逐栋结论、精确落位或工程线位。",
        "usage_note_en": "Low-confidence conceptual design geometry within repository provisional constraints; not surveyed conditions, statutory land use, an official redline, ownership, a building-by-building decision, exact siting, or an engineering alignment.",
        "phase_order": 2,
        "phase_logic": "shared_public_base_design",
        "calendar_claimed": false,
        "actor_claimed": false,
        "area_sqm_declared": 720454.219
      },
      "geometry": {
        "type": "Polygon",
        "coordinates": [
          [
            [
              116.342,
              39.944
            ],
            [
              116.355,
              39.944
            ],
            [
              116.355,
              39.94984
            ],
            [
              116.342,
              39.94984
            ],
            [
              116.342,
              39.944
            ]
          ]
        ]
      }
    },
    {
      "type": "Feature",
      "id": "DES-PHASE-DZS-003",
      "properties": {
        "id": "DES-PHASE-DZS-003",
        "layer": "PHASE",
        "name_zh": "相关项目按责任共同实施",
        "name_en": "Co-deliver according to allocated responsibilities",
        "spatial_law_id": "R-DZS",
        "source_type": "agent_generated_design",
        "source_id": "DESIGN-MODEL-THREE-SPATIAL-LAWS-20260823",
        "constraint_source_id": "DATA-SRC-PROVISIONAL-BOUNDARIES-20260605",
        "source_commit": "7f1f45d719f89fd40ff01a772de5119496c8129f",
        "confidence": "low",
        "geometry_role": "design_proposal",
        "official_boundary": false,
        "design_status": "controlled_provisional",
        "existing_condition_claimed": false,
        "statutory_or_engineering_claimed": false,
        "replacement_required": true,
        "usage_note_zh": "在仓库暂定范围内生成的低置信度概念设计几何；不代表现状测绘、法定用地、官方红线、宗地权属、逐栋结论、精确落位或工程线位。",
        "usage_note_en": "Low-confidence conceptual design geometry within repository provisional constraints; not surveyed conditions, statutory land use, an official redline, ownership, a building-by-building decision, exact siting, or an engineering alignment.",
        "phase_order": 3,
        "phase_logic": "joint_delivery",
        "calendar_claimed": false,
        "actor_claimed": false,
        "area_sqm_declared": 720454.219
      },
      "geometry": {
        "type": "Polygon",
        "coordinates": [
          [
            [
              116.342,
              39.944
            ],
            [
              116.355,
              39.944
            ],
            [
              116.355,
              39.94984
            ],
            [
              116.342,
              39.94984
            ],
            [
              116.342,
              39.944
            ]
          ]
        ]
      }
    },
    {
      "type": "Feature",
      "id": "DES-PHASE-DZS-004",
      "properties": {
        "id": "DES-PHASE-DZS-004",
        "layer": "PHASE",
        "name_zh": "公共改善独立验收且只认领一次",
        "name_en": "Independently accept each public improvement and recognise it once",
        "spatial_law_id": "R-DZS",
        "source_type": "agent_generated_design",
        "source_id": "DESIGN-MODEL-THREE-SPATIAL-LAWS-20260823",
        "constraint_source_id": "DATA-SRC-PROVISIONAL-BOUNDARIES-20260605",
        "source_commit": "7f1f45d719f89fd40ff01a772de5119496c8129f",
        "confidence": "low",
        "geometry_role": "design_proposal",
        "official_boundary": false,
        "design_status": "controlled_provisional",
        "existing_condition_claimed": false,
        "statutory_or_engineering_claimed": false,
        "replacement_required": true,
        "usage_note_zh": "在仓库暂定范围内生成的低置信度概念设计几何；不代表现状测绘、法定用地、官方红线、宗地权属、逐栋结论、精确落位或工程线位。",
        "usage_note_en": "Low-confidence conceptual design geometry within repository provisional constraints; not surveyed conditions, statutory land use, an official redline, ownership, a building-by-building decision, exact siting, or an engineering alignment.",
        "phase_order": 4,
        "phase_logic": "independent_acceptance_unique_claim",
        "calendar_claimed": false,
        "actor_claimed": false,
        "area_sqm_declared": 720454.219
      },
      "geometry": {
        "type": "Polygon",
        "coordinates": [
          [
            [
              116.342,
              39.944
            ],
            [
              116.355,
              39.944
            ],
            [
              116.355,
              39.94984
            ],
            [
              116.342,
              39.94984
            ],
            [
              116.342,
              39.944
            ]
          ]
        ]
      }
    }
  ]
}
