{
  "type": "FeatureCollection",
  "name": "public_space",
  "metadata": {
    "status": "controlled_provisional_design_model",
    "geometry_policy": "replaceable_provisional_constraints",
    "source_id": "DESIGN-MODEL-THREE-SPATIAL-LAWS-20260823",
    "constraint_source_id": "DATA-SRC-PROVISIONAL-BOUNDARIES-20260605",
    "source_commit": "7f1f45d719f89fd40ff01a772de5119496c8129f",
    "coordinate_reference_system": "EPSG:4326",
    "area_check_crs": "EPSG:4548",
    "official_boundary": false,
    "reason_zh": "公共空间层把众智园的分布式服务接口、AI原点的独立院落和大钟寺的叠加需求片区公共基面分别空间化。",
    "reason_en": "The public-space layer separately spatialises Zhongzhiyuan's distributed service interfaces, AI Origin's independent courtyards, and Dazhongsi's cumulative-demand public base.",
    "use_limits_zh": "仅供概念城市设计、空间法则检验和暂定模型复算；不得作为现状、法定、权属、精确落位或工程依据。",
    "use_limits_en": "For conceptual urban design, spatial-law testing, and provisional model recomputation only; not an existing-condition, statutory, ownership, exact-siting, or engineering basis.",
    "recalculation_trigger": "replace the complete geometry, metrics, figures, HTML, drawings, manifest, and self-check when official or explicitly rights-cleared geometry becomes available",
    "exact_siting_claimed": false
  },
  "features": [
    {
      "type": "Feature",
      "id": "DES-PUBLIC-CONTEXT-001",
      "properties": {
        "id": "DES-PUBLIC-CONTEXT-001",
        "layer": "PUBLIC_SPACE",
        "name_zh": "京张遗址公共联系带",
        "name_en": "Jing-Zhang heritage public-connection band",
        "spatial_law_id": "R-COMMON",
        "source_type": "agent_generated_design",
        "source_id": "DESIGN-MODEL-THREE-SPATIAL-LAWS-20260823",
        "constraint_source_id": "DATA-SRC-PROVISIONAL-BOUNDARIES-20260605",
        "source_commit": "7f1f45d719f89fd40ff01a772de5119496c8129f",
        "confidence": "low",
        "geometry_role": "design_proposal",
        "official_boundary": false,
        "design_status": "controlled_provisional",
        "existing_condition_claimed": false,
        "statutory_or_engineering_claimed": false,
        "replacement_required": true,
        "usage_note_zh": "在仓库暂定范围内生成的低置信度概念设计几何；不代表现状测绘、法定用地、官方红线、宗地权属、逐栋结论、精确落位或工程线位。",
        "usage_note_en": "Low-confidence conceptual design geometry within repository provisional constraints; not surveyed conditions, statutory land use, an official redline, ownership, a building-by-building decision, exact siting, or an engineering alignment.",
        "public_role": "overall_public_connection",
        "exact_siting_claimed": false,
        "area_sqm_declared": 258933.801
      },
      "geometry": {
        "type": "Polygon",
        "coordinates": [
          [
            [
              116.3475,
              39.939
            ],
            [
              116.3475,
              40.0265
            ],
            [
              116.347812,
              40.0265
            ],
            [
              116.347812,
              39.939
            ],
            [
              116.3475,
              39.939
            ]
          ]
        ]
      }
    },
    {
      "type": "Feature",
      "id": "DES-PUBLIC-ZZY-001",
      "properties": {
        "id": "DES-PUBLIC-ZZY-001",
        "layer": "PUBLIC_SPACE",
        "name_zh": "众智园共享服务接口 1",
        "name_en": "Zhongzhiyuan shared-service interface 1",
        "spatial_law_id": "R-ZZY",
        "source_type": "agent_generated_design",
        "source_id": "DESIGN-MODEL-THREE-SPATIAL-LAWS-20260823",
        "constraint_source_id": "DATA-SRC-PROVISIONAL-BOUNDARIES-20260605",
        "source_commit": "7f1f45d719f89fd40ff01a772de5119496c8129f",
        "confidence": "low",
        "geometry_role": "design_proposal",
        "official_boundary": false,
        "design_status": "controlled_provisional",
        "existing_condition_claimed": false,
        "statutory_or_engineering_claimed": false,
        "replacement_required": true,
        "usage_note_zh": "在仓库暂定范围内生成的低置信度概念设计几何；不代表现状测绘、法定用地、官方红线、宗地权属、逐栋结论、精确落位或工程线位。",
        "usage_note_en": "Low-confidence conceptual design geometry within repository provisional constraints; not surveyed conditions, statutory land use, an official redline, ownership, a building-by-building decision, exact siting, or an engineering alignment.",
        "public_role": "distributed_shared_service_interface",
        "single_central_hall": false,
        "exact_siting_claimed": false,
        "area_sqm_declared": 23150.005
      },
      "geometry": {
        "type": "Polygon",
        "coordinates": [
          [
            [
              116.3452,
              40.01712
            ],
            [
              116.3452,
              40.01897
            ],
            [
              116.34652,
              40.01897
            ],
            [
              116.34652,
              40.01712
            ],
            [
              116.3452,
              40.01712
            ]
          ]
        ]
      }
    },
    {
      "type": "Feature",
      "id": "DES-PUBLIC-ZZY-002",
      "properties": {
        "id": "DES-PUBLIC-ZZY-002",
        "layer": "PUBLIC_SPACE",
        "name_zh": "众智园共享服务接口 2",
        "name_en": "Zhongzhiyuan shared-service interface 2",
        "spatial_law_id": "R-ZZY",
        "source_type": "agent_generated_design",
        "source_id": "DESIGN-MODEL-THREE-SPATIAL-LAWS-20260823",
        "constraint_source_id": "DATA-SRC-PROVISIONAL-BOUNDARIES-20260605",
        "source_commit": "7f1f45d719f89fd40ff01a772de5119496c8129f",
        "confidence": "low",
        "geometry_role": "design_proposal",
        "official_boundary": false,
        "design_status": "controlled_provisional",
        "existing_condition_claimed": false,
        "statutory_or_engineering_claimed": false,
        "replacement_required": true,
        "usage_note_zh": "在仓库暂定范围内生成的低置信度概念设计几何；不代表现状测绘、法定用地、官方红线、宗地权属、逐栋结论、精确落位或工程线位。",
        "usage_note_en": "Low-confidence conceptual design geometry within repository provisional constraints; not surveyed conditions, statutory land use, an official redline, ownership, a building-by-building decision, exact siting, or an engineering alignment.",
        "public_role": "distributed_shared_service_interface",
        "single_central_hall": false,
        "exact_siting_claimed": false,
        "area_sqm_declared": 25465.093
      },
      "geometry": {
        "type": "Polygon",
        "coordinates": [
          [
            [
              116.34762,
              40.01675
            ],
            [
              116.34762,
              40.018785
            ],
            [
              116.34894,
              40.018785
            ],
            [
              116.34894,
              40.01675
            ],
            [
              116.34762,
              40.01675
            ]
          ]
        ]
      }
    },
    {
      "type": "Feature",
      "id": "DES-PUBLIC-ZZY-003",
      "properties": {
        "id": "DES-PUBLIC-ZZY-003",
        "layer": "PUBLIC_SPACE",
        "name_zh": "众智园共享服务接口 3",
        "name_en": "Zhongzhiyuan shared-service interface 3",
        "spatial_law_id": "R-ZZY",
        "source_type": "agent_generated_design",
        "source_id": "DESIGN-MODEL-THREE-SPATIAL-LAWS-20260823",
        "constraint_source_id": "DATA-SRC-PROVISIONAL-BOUNDARIES-20260605",
        "source_commit": "7f1f45d719f89fd40ff01a772de5119496c8129f",
        "confidence": "low",
        "geometry_role": "design_proposal",
        "official_boundary": false,
        "design_status": "controlled_provisional",
        "existing_condition_claimed": false,
        "statutory_or_engineering_claimed": false,
        "replacement_required": true,
        "usage_note_zh": "在仓库暂定范围内生成的低置信度概念设计几何；不代表现状测绘、法定用地、官方红线、宗地权属、逐栋结论、精确落位或工程线位。",
        "usage_note_en": "Low-confidence conceptual design geometry within repository provisional constraints; not surveyed conditions, statutory land use, an official redline, ownership, a building-by-building decision, exact siting, or an engineering alignment.",
        "public_role": "distributed_shared_service_interface",
        "single_central_hall": false,
        "exact_siting_claimed": false,
        "area_sqm_declared": 23149.977
      },
      "geometry": {
        "type": "Polygon",
        "coordinates": [
          [
            [
              116.35037,
              40.01712
            ],
            [
              116.35037,
              40.01897
            ],
            [
              116.35169,
              40.01897
            ],
            [
              116.35169,
              40.01712
            ],
            [
              116.35037,
              40.01712
            ]
          ]
        ]
      }
    },
    {
      "type": "Feature",
      "id": "DES-PUBLIC-ZZY-004",
      "properties": {
        "id": "DES-PUBLIC-ZZY-004",
        "layer": "PUBLIC_SPACE",
        "name_zh": "众智园共享服务接口 4",
        "name_en": "Zhongzhiyuan shared-service interface 4",
        "spatial_law_id": "R-ZZY",
        "source_type": "agent_generated_design",
        "source_id": "DESIGN-MODEL-THREE-SPATIAL-LAWS-20260823",
        "constraint_source_id": "DATA-SRC-PROVISIONAL-BOUNDARIES-20260605",
        "source_commit": "7f1f45d719f89fd40ff01a772de5119496c8129f",
        "confidence": "low",
        "geometry_role": "design_proposal",
        "official_boundary": false,
        "design_status": "controlled_provisional",
        "existing_condition_claimed": false,
        "statutory_or_engineering_claimed": false,
        "replacement_required": true,
        "usage_note_zh": "在仓库暂定范围内生成的低置信度概念设计几何；不代表现状测绘、法定用地、官方红线、宗地权属、逐栋结论、精确落位或工程线位。",
        "usage_note_en": "Low-confidence conceptual design geometry within repository provisional constraints; not surveyed conditions, statutory land use, an official redline, ownership, a building-by-building decision, exact siting, or an engineering alignment.",
        "public_role": "distributed_shared_service_interface",
        "single_central_hall": false,
        "exact_siting_claimed": false,
        "area_sqm_declared": 23152.644
      },
      "geometry": {
        "type": "Polygon",
        "coordinates": [
          [
            [
              116.34828,
              40.009165
            ],
            [
              116.34828,
              40.011015
            ],
            [
              116.3496,
              40.011015
            ],
            [
              116.3496,
              40.009165
            ],
            [
              116.34828,
              40.009165
            ]
          ]
        ]
      }
    },
    {
      "type": "Feature",
      "id": "DES-PUBLIC-AIO-001",
      "properties": {
        "id": "DES-PUBLIC-AIO-001",
        "layer": "PUBLIC_SPACE",
        "name_zh": "AI原点独立院落 1",
        "name_en": "AI Origin independent courtyard 1",
        "spatial_law_id": "R-AIO",
        "source_type": "agent_generated_design",
        "source_id": "DESIGN-MODEL-THREE-SPATIAL-LAWS-20260823",
        "constraint_source_id": "DATA-SRC-PROVISIONAL-BOUNDARIES-20260605",
        "source_commit": "7f1f45d719f89fd40ff01a772de5119496c8129f",
        "confidence": "low",
        "geometry_role": "design_proposal",
        "official_boundary": false,
        "design_status": "controlled_provisional",
        "existing_condition_claimed": false,
        "statutory_or_engineering_claimed": false,
        "replacement_required": true,
        "usage_note_zh": "在仓库暂定范围内生成的低置信度概念设计几何；不代表现状测绘、法定用地、官方红线、宗地权属、逐栋结论、精确落位或工程线位。",
        "usage_note_en": "Low-confidence conceptual design geometry within repository provisional constraints; not surveyed conditions, statutory land use, an official redline, ownership, a building-by-building decision, exact siting, or an engineering alignment.",
        "public_role": "independent_courtyard",
        "independent_entry_preserved": true,
        "superblock_lobby": false,
        "exact_siting_claimed": false,
        "area_sqm_declared": 12518.472
      },
      "geometry": {
        "type": "Polygon",
        "coordinates": [
          [
            [
              116.34398,
              39.9901
            ],
            [
              116.34398,
              39.9911
            ],
            [
              116.3453,
              39.9911
            ],
            [
              116.3453,
              39.9901
            ],
            [
              116.34398,
              39.9901
            ]
          ]
        ]
      }
    },
    {
      "type": "Feature",
      "id": "DES-PUBLIC-AIO-002",
      "properties": {
        "id": "DES-PUBLIC-AIO-002",
        "layer": "PUBLIC_SPACE",
        "name_zh": "AI原点独立院落 2",
        "name_en": "AI Origin independent courtyard 2",
        "spatial_law_id": "R-AIO",
        "source_type": "agent_generated_design",
        "source_id": "DESIGN-MODEL-THREE-SPATIAL-LAWS-20260823",
        "constraint_source_id": "DATA-SRC-PROVISIONAL-BOUNDARIES-20260605",
        "source_commit": "7f1f45d719f89fd40ff01a772de5119496c8129f",
        "confidence": "low",
        "geometry_role": "design_proposal",
        "official_boundary": false,
        "design_status": "controlled_provisional",
        "existing_condition_claimed": false,
        "statutory_or_engineering_claimed": false,
        "replacement_required": true,
        "usage_note_zh": "在仓库暂定范围内生成的低置信度概念设计几何；不代表现状测绘、法定用地、官方红线、宗地权属、逐栋结论、精确落位或工程线位。",
        "usage_note_en": "Low-confidence conceptual design geometry within repository provisional constraints; not surveyed conditions, statutory land use, an official redline, ownership, a building-by-building decision, exact siting, or an engineering alignment.",
        "public_role": "independent_courtyard",
        "independent_entry_preserved": true,
        "superblock_lobby": false,
        "exact_siting_claimed": false,
        "area_sqm_declared": 12518.456
      },
      "geometry": {
        "type": "Polygon",
        "coordinates": [
          [
            [
              116.34948,
              39.9901
            ],
            [
              116.34948,
              39.9911
            ],
            [
              116.3508,
              39.9911
            ],
            [
              116.3508,
              39.9901
            ],
            [
              116.34948,
              39.9901
            ]
          ]
        ]
      }
    },
    {
      "type": "Feature",
      "id": "DES-PUBLIC-AIO-003",
      "properties": {
        "id": "DES-PUBLIC-AIO-003",
        "layer": "PUBLIC_SPACE",
        "name_zh": "AI原点独立院落 3",
        "name_en": "AI Origin independent courtyard 3",
        "spatial_law_id": "R-AIO",
        "source_type": "agent_generated_design",
        "source_id": "DESIGN-MODEL-THREE-SPATIAL-LAWS-20260823",
        "constraint_source_id": "DATA-SRC-PROVISIONAL-BOUNDARIES-20260605",
        "source_commit": "7f1f45d719f89fd40ff01a772de5119496c8129f",
        "confidence": "low",
        "geometry_role": "design_proposal",
        "official_boundary": false,
        "design_status": "controlled_provisional",
        "existing_condition_claimed": false,
        "statutory_or_engineering_claimed": false,
        "replacement_required": true,
        "usage_note_zh": "在仓库暂定范围内生成的低置信度概念设计几何；不代表现状测绘、法定用地、官方红线、宗地权属、逐栋结论、精确落位或工程线位。",
        "usage_note_en": "Low-confidence conceptual design geometry within repository provisional constraints; not surveyed conditions, statutory land use, an official redline, ownership, a building-by-building decision, exact siting, or an engineering alignment.",
        "public_role": "independent_courtyard",
        "independent_entry_preserved": true,
        "superblock_lobby": false,
        "exact_siting_claimed": false,
        "area_sqm_declared": 12519.338
      },
      "geometry": {
        "type": "Polygon",
        "coordinates": [
          [
            [
              116.34398,
              39.9853
            ],
            [
              116.34398,
              39.9863
            ],
            [
              116.3453,
              39.9863
            ],
            [
              116.3453,
              39.9853
            ],
            [
              116.34398,
              39.9853
            ]
          ]
        ]
      }
    },
    {
      "type": "Feature",
      "id": "DES-PUBLIC-AIO-004",
      "properties": {
        "id": "DES-PUBLIC-AIO-004",
        "layer": "PUBLIC_SPACE",
        "name_zh": "AI原点独立院落 4",
        "name_en": "AI Origin independent courtyard 4",
        "spatial_law_id": "R-AIO",
        "source_type": "agent_generated_design",
        "source_id": "DESIGN-MODEL-THREE-SPATIAL-LAWS-20260823",
        "constraint_source_id": "DATA-SRC-PROVISIONAL-BOUNDARIES-20260605",
        "source_commit": "7f1f45d719f89fd40ff01a772de5119496c8129f",
        "confidence": "low",
        "geometry_role": "design_proposal",
        "official_boundary": false,
        "design_status": "controlled_provisional",
        "existing_condition_claimed": false,
        "statutory_or_engineering_claimed": false,
        "replacement_required": true,
        "usage_note_zh": "在仓库暂定范围内生成的低置信度概念设计几何；不代表现状测绘、法定用地、官方红线、宗地权属、逐栋结论、精确落位或工程线位。",
        "usage_note_en": "Low-confidence conceptual design geometry within repository provisional constraints; not surveyed conditions, statutory land use, an official redline, ownership, a building-by-building decision, exact siting, or an engineering alignment.",
        "public_role": "independent_courtyard",
        "independent_entry_preserved": true,
        "superblock_lobby": false,
        "exact_siting_claimed": false,
        "area_sqm_declared": 12519.322
      },
      "geometry": {
        "type": "Polygon",
        "coordinates": [
          [
            [
              116.34948,
              39.9853
            ],
            [
              116.34948,
              39.9863
            ],
            [
              116.3508,
              39.9863
            ],
            [
              116.3508,
              39.9853
            ],
            [
              116.34948,
              39.9853
            ]
          ]
        ]
      }
    },
    {
      "type": "Feature",
      "id": "DES-PUBLIC-DZS-001",
      "properties": {
        "id": "DES-PUBLIC-DZS-001",
        "layer": "PUBLIC_SPACE",
        "name_zh": "纵向片区公共基面",
        "name_en": "Longitudinal district public base",
        "spatial_law_id": "R-DZS",
        "source_type": "agent_generated_design",
        "source_id": "DESIGN-MODEL-THREE-SPATIAL-LAWS-20260823",
        "constraint_source_id": "DATA-SRC-PROVISIONAL-BOUNDARIES-20260605",
        "source_commit": "7f1f45d719f89fd40ff01a772de5119496c8129f",
        "confidence": "low",
        "geometry_role": "design_proposal",
        "official_boundary": false,
        "design_status": "controlled_provisional",
        "existing_condition_claimed": false,
        "statutory_or_engineering_claimed": false,
        "replacement_required": true,
        "usage_note_zh": "在仓库暂定范围内生成的低置信度概念设计几何；不代表现状测绘、法定用地、官方红线、宗地权属、逐栋结论、精确落位或工程线位。",
        "usage_note_en": "Low-confidence conceptual design geometry within repository provisional constraints; not surveyed conditions, statutory land use, an official redline, ownership, a building-by-building decision, exact siting, or an engineering alignment.",
        "public_role": "cross_project_cross_time_public_base",
        "demand_types": [
          "commute",
          "event",
          "delivery",
          "bicycle",
          "night",
          "construction"
        ],
        "claim_registry_id": "DZS-PUB-REG-001",
        "duplicate_public_benefit_claim_allowed": false,
        "co_delivery_required": true,
        "independent_acceptance_required": true,
        "exact_siting_claimed": false,
        "area_sqm_declared": 96829.047
      },
      "geometry": {
        "type": "Polygon",
        "coordinates": [
          [
            [
              116.34746,
              39.9444672
            ],
            [
              116.34746,
              39.9493728
            ],
            [
              116.34954,
              39.9493728
            ],
            [
              116.34954,
              39.9444672
            ],
            [
              116.34746,
              39.9444672
            ]
          ]
        ]
      }
    },
    {
      "type": "Feature",
      "id": "DES-PUBLIC-DZS-002",
      "properties": {
        "id": "DES-PUBLIC-DZS-002",
        "layer": "PUBLIC_SPACE",
        "name_zh": "横向片区公共基面",
        "name_en": "Transverse district public base",
        "spatial_law_id": "R-DZS",
        "source_type": "agent_generated_design",
        "source_id": "DESIGN-MODEL-THREE-SPATIAL-LAWS-20260823",
        "constraint_source_id": "DATA-SRC-PROVISIONAL-BOUNDARIES-20260605",
        "source_commit": "7f1f45d719f89fd40ff01a772de5119496c8129f",
        "confidence": "low",
        "geometry_role": "design_proposal",
        "official_boundary": false,
        "design_status": "controlled_provisional",
        "existing_condition_claimed": false,
        "statutory_or_engineering_claimed": false,
        "replacement_required": true,
        "usage_note_zh": "在仓库暂定范围内生成的低置信度概念设计几何；不代表现状测绘、法定用地、官方红线、宗地权属、逐栋结论、精确落位或工程线位。",
        "usage_note_en": "Low-confidence conceptual design geometry within repository provisional constraints; not surveyed conditions, statutory land use, an official redline, ownership, a building-by-building decision, exact siting, or an engineering alignment.",
        "public_role": "cross_project_cross_time_public_base",
        "demand_types": [
          "commute",
          "event",
          "delivery",
          "bicycle",
          "night",
          "construction"
        ],
        "claim_registry_id": "DZS-PUB-REG-002",
        "duplicate_public_benefit_claim_allowed": false,
        "co_delivery_required": true,
        "independent_acceptance_required": true,
        "exact_siting_claimed": false,
        "area_sqm_declared": 102880.819
      },
      "geometry": {
        "type": "Polygon",
        "coordinates": [
          [
            [
              116.34304,
              39.9464528
            ],
            [
              116.34304,
              39.9474456
            ],
            [
              116.35396,
              39.9474456
            ],
            [
              116.35396,
              39.9464528
            ],
            [
              116.34304,
              39.9464528
            ]
          ]
        ]
      }
    },
    {
      "type": "Feature",
      "id": "DES-PUBLIC-DZS-003",
      "properties": {
        "id": "DES-PUBLIC-DZS-003",
        "layer": "PUBLIC_SPACE",
        "name_zh": "多时段转换公共场",
        "name_en": "Multi-period transition commons",
        "spatial_law_id": "R-DZS",
        "source_type": "agent_generated_design",
        "source_id": "DESIGN-MODEL-THREE-SPATIAL-LAWS-20260823",
        "constraint_source_id": "DATA-SRC-PROVISIONAL-BOUNDARIES-20260605",
        "source_commit": "7f1f45d719f89fd40ff01a772de5119496c8129f",
        "confidence": "low",
        "geometry_role": "design_proposal",
        "official_boundary": false,
        "design_status": "controlled_provisional",
        "existing_condition_claimed": false,
        "statutory_or_engineering_claimed": false,
        "replacement_required": true,
        "usage_note_zh": "在仓库暂定范围内生成的低置信度概念设计几何；不代表现状测绘、法定用地、官方红线、宗地权属、逐栋结论、精确落位或工程线位。",
        "usage_note_en": "Low-confidence conceptual design geometry within repository provisional constraints; not surveyed conditions, statutory land use, an official redline, ownership, a building-by-building decision, exact siting, or an engineering alignment.",
        "public_role": "cross_project_cross_time_public_base",
        "demand_types": [
          "commute",
          "event",
          "delivery",
          "bicycle",
          "night",
          "construction"
        ],
        "claim_registry_id": "DZS-PUB-REG-003",
        "duplicate_public_benefit_claim_allowed": false,
        "co_delivery_required": true,
        "independent_acceptance_required": true,
        "exact_siting_claimed": false,
        "area_sqm_declared": 79970.385
      },
      "geometry": {
        "type": "Polygon",
        "coordinates": [
          [
            [
              116.34655,
              39.9458688
            ],
            [
              116.34655,
              39.9480296
            ],
            [
              116.35045,
              39.9480296
            ],
            [
              116.35045,
              39.9458688
            ],
            [
              116.34655,
              39.9458688
            ]
          ]
        ]
      }
    }
  ]
}
