{
  "type": "FeatureCollection",
  "name": "roads",
  "metadata": {
    "status": "controlled_provisional_design_model",
    "geometry_policy": "replaceable_provisional_constraints",
    "source_id": "DESIGN-MODEL-THREE-SPATIAL-LAWS-20260823",
    "constraint_source_id": "DATA-SRC-PROVISIONAL-BOUNDARIES-20260605",
    "source_commit": "7f1f45d719f89fd40ff01a772de5119496c8129f",
    "coordinate_reference_system": "EPSG:4326",
    "area_check_crs": "EPSG:4548",
    "official_boundary": false,
    "reason_zh": "联系线分别表达分布式承载、街院肌理和六类叠加需求，不代表道路中心线、站口或交通工程。",
    "reason_en": "Movement lines express distributed carriers, fine-grain streets, and six cumulative demand types; they are not road centrelines, station exits, or transport engineering.",
    "use_limits_zh": "仅供概念城市设计、空间法则检验和暂定模型复算；不得作为现状、法定、权属、精确落位或工程依据。",
    "use_limits_en": "For conceptual urban design, spatial-law testing, and provisional model recomputation only; not an existing-condition, statutory, ownership, exact-siting, or engineering basis.",
    "recalculation_trigger": "replace the complete geometry, metrics, figures, HTML, drawings, manifest, and self-check when official or explicitly rights-cleared geometry becomes available",
    "engineering_alignment_claimed": false
  },
  "features": [
    {
      "type": "Feature",
      "id": "DES-ROAD-CONTEXT-001",
      "properties": {
        "id": "DES-ROAD-CONTEXT-001",
        "layer": "ROAD_CENTERLINE",
        "name_zh": "京张遗址公共联系示意线",
        "name_en": "Jing-Zhang heritage public-connection diagram line",
        "spatial_law_id": "R-COMMON",
        "source_type": "agent_generated_design",
        "source_id": "DESIGN-MODEL-THREE-SPATIAL-LAWS-20260823",
        "constraint_source_id": "DATA-SRC-PROVISIONAL-BOUNDARIES-20260605",
        "source_commit": "7f1f45d719f89fd40ff01a772de5119496c8129f",
        "confidence": "low",
        "geometry_role": "design_proposal",
        "official_boundary": false,
        "design_status": "controlled_provisional",
        "existing_condition_claimed": false,
        "statutory_or_engineering_claimed": false,
        "replacement_required": true,
        "usage_note_zh": "在仓库暂定范围内生成的低置信度概念设计几何；不代表现状测绘、法定用地、官方红线、宗地权属、逐栋结论、精确落位或工程线位。",
        "usage_note_en": "Low-confidence conceptual design geometry within repository provisional constraints; not surveyed conditions, statutory land use, an official redline, ownership, a building-by-building decision, exact siting, or an engineering alignment.",
        "road_class": "greenway",
        "conceptual_link_type": "heritage_public_connection",
        "engineering_alignment_claimed": false
      },
      "geometry": {
        "type": "LineString",
        "coordinates": [
          [
            116.347656,
            39.939
          ],
          [
            116.347656,
            40.0265
          ]
        ]
      }
    },
    {
      "type": "Feature",
      "id": "DES-ROAD-ZZY-001",
      "properties": {
        "id": "DES-ROAD-ZZY-001",
        "layer": "ROAD_CENTERLINE",
        "name_zh": "众智园北部多锚点联系",
        "name_en": "Zhongzhiyuan northern multi-anchor link",
        "spatial_law_id": "R-ZZY",
        "source_type": "agent_generated_design",
        "source_id": "DESIGN-MODEL-THREE-SPATIAL-LAWS-20260823",
        "constraint_source_id": "DATA-SRC-PROVISIONAL-BOUNDARIES-20260605",
        "source_commit": "7f1f45d719f89fd40ff01a772de5119496c8129f",
        "confidence": "low",
        "geometry_role": "design_proposal",
        "official_boundary": false,
        "design_status": "controlled_provisional",
        "existing_condition_claimed": false,
        "statutory_or_engineering_claimed": false,
        "replacement_required": true,
        "usage_note_zh": "在仓库暂定范围内生成的低置信度概念设计几何；不代表现状测绘、法定用地、官方红线、宗地权属、逐栋结论、精确落位或工程线位。",
        "usage_note_en": "Low-confidence conceptual design geometry within repository provisional constraints; not surveyed conditions, statutory land use, an official redline, ownership, a building-by-building decision, exact siting, or an engineering alignment.",
        "road_class": "pedestrian",
        "conceptual_link_type": "pedestrian_service_link",
        "engineering_alignment_claimed": false
      },
      "geometry": {
        "type": "LineString",
        "coordinates": [
          [
            116.34465,
            40.02156
          ],
          [
            116.34762,
            40.02119
          ],
          [
            116.35103,
            40.021745
          ]
        ]
      }
    },
    {
      "type": "Feature",
      "id": "DES-ROAD-ZZY-002",
      "properties": {
        "id": "DES-ROAD-ZZY-002",
        "layer": "ROAD_CENTERLINE",
        "name_zh": "众智园南部多锚点联系",
        "name_en": "Zhongzhiyuan southern multi-anchor link",
        "spatial_law_id": "R-ZZY",
        "source_type": "agent_generated_design",
        "source_id": "DESIGN-MODEL-THREE-SPATIAL-LAWS-20260823",
        "constraint_source_id": "DATA-SRC-PROVISIONAL-BOUNDARIES-20260605",
        "source_commit": "7f1f45d719f89fd40ff01a772de5119496c8129f",
        "confidence": "low",
        "geometry_role": "design_proposal",
        "official_boundary": false,
        "design_status": "controlled_provisional",
        "existing_condition_claimed": false,
        "statutory_or_engineering_claimed": false,
        "replacement_required": true,
        "usage_note_zh": "在仓库暂定范围内生成的低置信度概念设计几何；不代表现状测绘、法定用地、官方红线、宗地权属、逐栋结论、精确落位或工程线位。",
        "usage_note_en": "Low-confidence conceptual design geometry within repository provisional constraints; not surveyed conditions, statutory land use, an official redline, ownership, a building-by-building decision, exact siting, or an engineering alignment.",
        "road_class": "pedestrian",
        "conceptual_link_type": "pedestrian_service_link",
        "engineering_alignment_claimed": false
      },
      "geometry": {
        "type": "LineString",
        "coordinates": [
          [
            116.34564,
            40.013235
          ],
          [
            116.34872,
            40.01379
          ],
          [
            116.3518,
            40.01342
          ]
        ]
      }
    },
    {
      "type": "Feature",
      "id": "DES-ROAD-ZZY-003",
      "properties": {
        "id": "DES-ROAD-ZZY-003",
        "layer": "ROAD_CENTERLINE",
        "name_zh": "众智园跨组团联系",
        "name_en": "Zhongzhiyuan cross-cluster link",
        "spatial_law_id": "R-ZZY",
        "source_type": "agent_generated_design",
        "source_id": "DESIGN-MODEL-THREE-SPATIAL-LAWS-20260823",
        "constraint_source_id": "DATA-SRC-PROVISIONAL-BOUNDARIES-20260605",
        "source_commit": "7f1f45d719f89fd40ff01a772de5119496c8129f",
        "confidence": "low",
        "geometry_role": "design_proposal",
        "official_boundary": false,
        "design_status": "controlled_provisional",
        "existing_condition_claimed": false,
        "statutory_or_engineering_claimed": false,
        "replacement_required": true,
        "usage_note_zh": "在仓库暂定范围内生成的低置信度概念设计几何；不代表现状测绘、法定用地、官方红线、宗地权属、逐栋结论、精确落位或工程线位。",
        "usage_note_en": "Low-confidence conceptual design geometry within repository provisional constraints; not surveyed conditions, statutory land use, an official redline, ownership, a building-by-building decision, exact siting, or an engineering alignment.",
        "road_class": "pedestrian",
        "conceptual_link_type": "pedestrian_service_link",
        "engineering_alignment_claimed": false
      },
      "geometry": {
        "type": "LineString",
        "coordinates": [
          [
            116.34762,
            40.02119
          ],
          [
            116.34872,
            40.01379
          ]
        ]
      }
    },
    {
      "type": "Feature",
      "id": "DES-ROAD-AIO-001",
      "properties": {
        "id": "DES-ROAD-AIO-001",
        "layer": "ROAD_CENTERLINE",
        "name_zh": "东西短街联系",
        "name_en": "East-west short-street link",
        "spatial_law_id": "R-AIO",
        "source_type": "agent_generated_design",
        "source_id": "DESIGN-MODEL-THREE-SPATIAL-LAWS-20260823",
        "constraint_source_id": "DATA-SRC-PROVISIONAL-BOUNDARIES-20260605",
        "source_commit": "7f1f45d719f89fd40ff01a772de5119496c8129f",
        "confidence": "low",
        "geometry_role": "design_proposal",
        "official_boundary": false,
        "design_status": "controlled_provisional",
        "existing_condition_claimed": false,
        "statutory_or_engineering_claimed": false,
        "replacement_required": true,
        "usage_note_zh": "在仓库暂定范围内生成的低置信度概念设计几何；不代表现状测绘、法定用地、官方红线、宗地权属、逐栋结论、精确落位或工程线位。",
        "usage_note_en": "Low-confidence conceptual design geometry within repository provisional constraints; not surveyed conditions, statutory land use, an official redline, ownership, a building-by-building decision, exact siting, or an engineering alignment.",
        "road_class": "local_access",
        "conceptual_link_type": "short_street_or_entry_link",
        "engineering_alignment_claimed": false,
        "independent_access_supported": true
      },
      "geometry": {
        "type": "LineString",
        "coordinates": [
          [
            116.34266,
            39.9887
          ],
          [
            116.35234,
            39.9887
          ]
        ]
      }
    },
    {
      "type": "Feature",
      "id": "DES-ROAD-AIO-002",
      "properties": {
        "id": "DES-ROAD-AIO-002",
        "layer": "ROAD_CENTERLINE",
        "name_zh": "南北短街联系",
        "name_en": "North-south short-street link",
        "spatial_law_id": "R-AIO",
        "source_type": "agent_generated_design",
        "source_id": "DESIGN-MODEL-THREE-SPATIAL-LAWS-20260823",
        "constraint_source_id": "DATA-SRC-PROVISIONAL-BOUNDARIES-20260605",
        "source_commit": "7f1f45d719f89fd40ff01a772de5119496c8129f",
        "confidence": "low",
        "geometry_role": "design_proposal",
        "official_boundary": false,
        "design_status": "controlled_provisional",
        "existing_condition_claimed": false,
        "statutory_or_engineering_claimed": false,
        "replacement_required": true,
        "usage_note_zh": "在仓库暂定范围内生成的低置信度概念设计几何；不代表现状测绘、法定用地、官方红线、宗地权属、逐栋结论、精确落位或工程线位。",
        "usage_note_en": "Low-confidence conceptual design geometry within repository provisional constraints; not surveyed conditions, statutory land use, an official redline, ownership, a building-by-building decision, exact siting, or an engineering alignment.",
        "road_class": "local_access",
        "conceptual_link_type": "short_street_or_entry_link",
        "engineering_alignment_claimed": false,
        "independent_access_supported": true
      },
      "geometry": {
        "type": "LineString",
        "coordinates": [
          [
            116.3475,
            39.9843
          ],
          [
            116.3475,
            39.9927
          ]
        ]
      }
    },
    {
      "type": "Feature",
      "id": "DES-ROAD-AIO-003",
      "properties": {
        "id": "DES-ROAD-AIO-003",
        "layer": "ROAD_CENTERLINE",
        "name_zh": "西南院落入口联系",
        "name_en": "South-west courtyard-entry link",
        "spatial_law_id": "R-AIO",
        "source_type": "agent_generated_design",
        "source_id": "DESIGN-MODEL-THREE-SPATIAL-LAWS-20260823",
        "constraint_source_id": "DATA-SRC-PROVISIONAL-BOUNDARIES-20260605",
        "source_commit": "7f1f45d719f89fd40ff01a772de5119496c8129f",
        "confidence": "low",
        "geometry_role": "design_proposal",
        "official_boundary": false,
        "design_status": "controlled_provisional",
        "existing_condition_claimed": false,
        "statutory_or_engineering_claimed": false,
        "replacement_required": true,
        "usage_note_zh": "在仓库暂定范围内生成的低置信度概念设计几何；不代表现状测绘、法定用地、官方红线、宗地权属、逐栋结论、精确落位或工程线位。",
        "usage_note_en": "Low-confidence conceptual design geometry within repository provisional constraints; not surveyed conditions, statutory land use, an official redline, ownership, a building-by-building decision, exact siting, or an engineering alignment.",
        "road_class": "local_access",
        "conceptual_link_type": "short_street_or_entry_link",
        "engineering_alignment_claimed": false,
        "independent_access_supported": true
      },
      "geometry": {
        "type": "LineString",
        "coordinates": [
          [
            116.34255,
            39.9863
          ],
          [
            116.3464,
            39.9863
          ]
        ]
      }
    },
    {
      "type": "Feature",
      "id": "DES-ROAD-AIO-004",
      "properties": {
        "id": "DES-ROAD-AIO-004",
        "layer": "ROAD_CENTERLINE",
        "name_zh": "东南院落入口联系",
        "name_en": "South-east courtyard-entry link",
        "spatial_law_id": "R-AIO",
        "source_type": "agent_generated_design",
        "source_id": "DESIGN-MODEL-THREE-SPATIAL-LAWS-20260823",
        "constraint_source_id": "DATA-SRC-PROVISIONAL-BOUNDARIES-20260605",
        "source_commit": "7f1f45d719f89fd40ff01a772de5119496c8129f",
        "confidence": "low",
        "geometry_role": "design_proposal",
        "official_boundary": false,
        "design_status": "controlled_provisional",
        "existing_condition_claimed": false,
        "statutory_or_engineering_claimed": false,
        "replacement_required": true,
        "usage_note_zh": "在仓库暂定范围内生成的低置信度概念设计几何；不代表现状测绘、法定用地、官方红线、宗地权属、逐栋结论、精确落位或工程线位。",
        "usage_note_en": "Low-confidence conceptual design geometry within repository provisional constraints; not surveyed conditions, statutory land use, an official redline, ownership, a building-by-building decision, exact siting, or an engineering alignment.",
        "road_class": "local_access",
        "conceptual_link_type": "short_street_or_entry_link",
        "engineering_alignment_claimed": false,
        "independent_access_supported": true
      },
      "geometry": {
        "type": "LineString",
        "coordinates": [
          [
            116.3486,
            39.9863
          ],
          [
            116.35245,
            39.9863
          ]
        ]
      }
    },
    {
      "type": "Feature",
      "id": "DES-ROAD-AIO-005",
      "properties": {
        "id": "DES-ROAD-AIO-005",
        "layer": "ROAD_CENTERLINE",
        "name_zh": "西北院落入口联系",
        "name_en": "North-west courtyard-entry link",
        "spatial_law_id": "R-AIO",
        "source_type": "agent_generated_design",
        "source_id": "DESIGN-MODEL-THREE-SPATIAL-LAWS-20260823",
        "constraint_source_id": "DATA-SRC-PROVISIONAL-BOUNDARIES-20260605",
        "source_commit": "7f1f45d719f89fd40ff01a772de5119496c8129f",
        "confidence": "low",
        "geometry_role": "design_proposal",
        "official_boundary": false,
        "design_status": "controlled_provisional",
        "existing_condition_claimed": false,
        "statutory_or_engineering_claimed": false,
        "replacement_required": true,
        "usage_note_zh": "在仓库暂定范围内生成的低置信度概念设计几何；不代表现状测绘、法定用地、官方红线、宗地权属、逐栋结论、精确落位或工程线位。",
        "usage_note_en": "Low-confidence conceptual design geometry within repository provisional constraints; not surveyed conditions, statutory land use, an official redline, ownership, a building-by-building decision, exact siting, or an engineering alignment.",
        "road_class": "local_access",
        "conceptual_link_type": "short_street_or_entry_link",
        "engineering_alignment_claimed": false,
        "independent_access_supported": true
      },
      "geometry": {
        "type": "LineString",
        "coordinates": [
          [
            116.34255,
            39.9907
          ],
          [
            116.3464,
            39.9907
          ]
        ]
      }
    },
    {
      "type": "Feature",
      "id": "DES-ROAD-AIO-006",
      "properties": {
        "id": "DES-ROAD-AIO-006",
        "layer": "ROAD_CENTERLINE",
        "name_zh": "东北院落入口联系",
        "name_en": "North-east courtyard-entry link",
        "spatial_law_id": "R-AIO",
        "source_type": "agent_generated_design",
        "source_id": "DESIGN-MODEL-THREE-SPATIAL-LAWS-20260823",
        "constraint_source_id": "DATA-SRC-PROVISIONAL-BOUNDARIES-20260605",
        "source_commit": "7f1f45d719f89fd40ff01a772de5119496c8129f",
        "confidence": "low",
        "geometry_role": "design_proposal",
        "official_boundary": false,
        "design_status": "controlled_provisional",
        "existing_condition_claimed": false,
        "statutory_or_engineering_claimed": false,
        "replacement_required": true,
        "usage_note_zh": "在仓库暂定范围内生成的低置信度概念设计几何；不代表现状测绘、法定用地、官方红线、宗地权属、逐栋结论、精确落位或工程线位。",
        "usage_note_en": "Low-confidence conceptual design geometry within repository provisional constraints; not surveyed conditions, statutory land use, an official redline, ownership, a building-by-building decision, exact siting, or an engineering alignment.",
        "road_class": "local_access",
        "conceptual_link_type": "short_street_or_entry_link",
        "engineering_alignment_claimed": false,
        "independent_access_supported": true
      },
      "geometry": {
        "type": "LineString",
        "coordinates": [
          [
            116.3486,
            39.9907
          ],
          [
            116.35245,
            39.9907
          ]
        ]
      }
    },
    {
      "type": "Feature",
      "id": "DES-ROAD-DZS-001",
      "properties": {
        "id": "DES-ROAD-DZS-001",
        "layer": "ROAD_CENTERLINE",
        "name_zh": "通勤需求联系",
        "name_en": "Commuter-demand link",
        "spatial_law_id": "R-DZS",
        "source_type": "agent_generated_design",
        "source_id": "DESIGN-MODEL-THREE-SPATIAL-LAWS-20260823",
        "constraint_source_id": "DATA-SRC-PROVISIONAL-BOUNDARIES-20260605",
        "source_commit": "7f1f45d719f89fd40ff01a772de5119496c8129f",
        "confidence": "low",
        "geometry_role": "design_proposal",
        "official_boundary": false,
        "design_status": "controlled_provisional",
        "existing_condition_claimed": false,
        "statutory_or_engineering_claimed": false,
        "replacement_required": true,
        "usage_note_zh": "在仓库暂定范围内生成的低置信度概念设计几何；不代表现状测绘、法定用地、官方红线、宗地权属、逐栋结论、精确落位或工程线位。",
        "usage_note_en": "Low-confidence conceptual design geometry within repository provisional constraints; not surveyed conditions, statutory land use, an official redline, ownership, a building-by-building decision, exact siting, or an engineering alignment.",
        "road_class": "transit_connection",
        "conceptual_link_type": "cumulative_demand_trace",
        "demand_type": "commute",
        "cross_project": true,
        "cross_time": true,
        "engineering_alignment_claimed": false
      },
      "geometry": {
        "type": "LineString",
        "coordinates": [
          [
            116.3485,
            39.9441168
          ],
          [
            116.3485,
            39.9497232
          ]
        ]
      }
    },
    {
      "type": "Feature",
      "id": "DES-ROAD-DZS-002",
      "properties": {
        "id": "DES-ROAD-DZS-002",
        "layer": "ROAD_CENTERLINE",
        "name_zh": "非机动车需求联系",
        "name_en": "Cycle-demand link",
        "spatial_law_id": "R-DZS",
        "source_type": "agent_generated_design",
        "source_id": "DESIGN-MODEL-THREE-SPATIAL-LAWS-20260823",
        "constraint_source_id": "DATA-SRC-PROVISIONAL-BOUNDARIES-20260605",
        "source_commit": "7f1f45d719f89fd40ff01a772de5119496c8129f",
        "confidence": "low",
        "geometry_role": "design_proposal",
        "official_boundary": false,
        "design_status": "controlled_provisional",
        "existing_condition_claimed": false,
        "statutory_or_engineering_claimed": false,
        "replacement_required": true,
        "usage_note_zh": "在仓库暂定范围内生成的低置信度概念设计几何；不代表现状测绘、法定用地、官方红线、宗地权属、逐栋结论、精确落位或工程线位。",
        "usage_note_en": "Low-confidence conceptual design geometry within repository provisional constraints; not surveyed conditions, statutory land use, an official redline, ownership, a building-by-building decision, exact siting, or an engineering alignment.",
        "road_class": "transit_connection",
        "conceptual_link_type": "cumulative_demand_trace",
        "demand_type": "bicycle",
        "cross_project": true,
        "cross_time": true,
        "engineering_alignment_claimed": false
      },
      "geometry": {
        "type": "LineString",
        "coordinates": [
          [
            116.34226,
            39.9470368
          ],
          [
            116.35474,
            39.9470368
          ]
        ]
      }
    },
    {
      "type": "Feature",
      "id": "DES-ROAD-DZS-003",
      "properties": {
        "id": "DES-ROAD-DZS-003",
        "layer": "ROAD_CENTERLINE",
        "name_zh": "活动需求联系",
        "name_en": "Event-demand link",
        "spatial_law_id": "R-DZS",
        "source_type": "agent_generated_design",
        "source_id": "DESIGN-MODEL-THREE-SPATIAL-LAWS-20260823",
        "constraint_source_id": "DATA-SRC-PROVISIONAL-BOUNDARIES-20260605",
        "source_commit": "7f1f45d719f89fd40ff01a772de5119496c8129f",
        "confidence": "low",
        "geometry_role": "design_proposal",
        "official_boundary": false,
        "design_status": "controlled_provisional",
        "existing_condition_claimed": false,
        "statutory_or_engineering_claimed": false,
        "replacement_required": true,
        "usage_note_zh": "在仓库暂定范围内生成的低置信度概念设计几何；不代表现状测绘、法定用地、官方红线、宗地权属、逐栋结论、精确落位或工程线位。",
        "usage_note_en": "Low-confidence conceptual design geometry within repository provisional constraints; not surveyed conditions, statutory land use, an official redline, ownership, a building-by-building decision, exact siting, or an engineering alignment.",
        "road_class": "transit_connection",
        "conceptual_link_type": "cumulative_demand_trace",
        "demand_type": "event",
        "cross_project": true,
        "cross_time": true,
        "engineering_alignment_claimed": false
      },
      "geometry": {
        "type": "LineString",
        "coordinates": [
          [
            116.3433,
            39.9447008
          ],
          [
            116.3537,
            39.9491392
          ]
        ]
      }
    },
    {
      "type": "Feature",
      "id": "DES-ROAD-DZS-004",
      "properties": {
        "id": "DES-ROAD-DZS-004",
        "layer": "ROAD_CENTERLINE",
        "name_zh": "夜间使用联系",
        "name_en": "Night-use link",
        "spatial_law_id": "R-DZS",
        "source_type": "agent_generated_design",
        "source_id": "DESIGN-MODEL-THREE-SPATIAL-LAWS-20260823",
        "constraint_source_id": "DATA-SRC-PROVISIONAL-BOUNDARIES-20260605",
        "source_commit": "7f1f45d719f89fd40ff01a772de5119496c8129f",
        "confidence": "low",
        "geometry_role": "design_proposal",
        "official_boundary": false,
        "design_status": "controlled_provisional",
        "existing_condition_claimed": false,
        "statutory_or_engineering_claimed": false,
        "replacement_required": true,
        "usage_note_zh": "在仓库暂定范围内生成的低置信度概念设计几何；不代表现状测绘、法定用地、官方红线、宗地权属、逐栋结论、精确落位或工程线位。",
        "usage_note_en": "Low-confidence conceptual design geometry within repository provisional constraints; not surveyed conditions, statutory land use, an official redline, ownership, a building-by-building decision, exact siting, or an engineering alignment.",
        "road_class": "transit_connection",
        "conceptual_link_type": "cumulative_demand_trace",
        "demand_type": "night",
        "cross_project": true,
        "cross_time": true,
        "engineering_alignment_claimed": false
      },
      "geometry": {
        "type": "LineString",
        "coordinates": [
          [
            116.3433,
            39.9491392
          ],
          [
            116.3537,
            39.9447008
          ]
        ]
      }
    },
    {
      "type": "Feature",
      "id": "DES-ROAD-DZS-005",
      "properties": {
        "id": "DES-ROAD-DZS-005",
        "layer": "ROAD_CENTERLINE",
        "name_zh": "配送需求联系",
        "name_en": "Delivery-demand link",
        "spatial_law_id": "R-DZS",
        "source_type": "agent_generated_design",
        "source_id": "DESIGN-MODEL-THREE-SPATIAL-LAWS-20260823",
        "constraint_source_id": "DATA-SRC-PROVISIONAL-BOUNDARIES-20260605",
        "source_commit": "7f1f45d719f89fd40ff01a772de5119496c8129f",
        "confidence": "low",
        "geometry_role": "design_proposal",
        "official_boundary": false,
        "design_status": "controlled_provisional",
        "existing_condition_claimed": false,
        "statutory_or_engineering_claimed": false,
        "replacement_required": true,
        "usage_note_zh": "在仓库暂定范围内生成的低置信度概念设计几何；不代表现状测绘、法定用地、官方红线、宗地权属、逐栋结论、精确落位或工程线位。",
        "usage_note_en": "Low-confidence conceptual design geometry within repository provisional constraints; not surveyed conditions, statutory land use, an official redline, ownership, a building-by-building decision, exact siting, or an engineering alignment.",
        "road_class": "transit_connection",
        "conceptual_link_type": "cumulative_demand_trace",
        "demand_type": "delivery",
        "cross_project": true,
        "cross_time": true,
        "engineering_alignment_claimed": false
      },
      "geometry": {
        "type": "LineString",
        "coordinates": [
          [
            116.34226,
            39.945168
          ],
          [
            116.35474,
            39.945168
          ]
        ]
      }
    },
    {
      "type": "Feature",
      "id": "DES-ROAD-DZS-006",
      "properties": {
        "id": "DES-ROAD-DZS-006",
        "layer": "ROAD_CENTERLINE",
        "name_zh": "施工转换联系",
        "name_en": "Construction-transition link",
        "spatial_law_id": "R-DZS",
        "source_type": "agent_generated_design",
        "source_id": "DESIGN-MODEL-THREE-SPATIAL-LAWS-20260823",
        "constraint_source_id": "DATA-SRC-PROVISIONAL-BOUNDARIES-20260605",
        "source_commit": "7f1f45d719f89fd40ff01a772de5119496c8129f",
        "confidence": "low",
        "geometry_role": "design_proposal",
        "official_boundary": false,
        "design_status": "controlled_provisional",
        "existing_condition_claimed": false,
        "statutory_or_engineering_claimed": false,
        "replacement_required": true,
        "usage_note_zh": "在仓库暂定范围内生成的低置信度概念设计几何；不代表现状测绘、法定用地、官方红线、宗地权属、逐栋结论、精确落位或工程线位。",
        "usage_note_en": "Low-confidence conceptual design geometry within repository provisional constraints; not surveyed conditions, statutory land use, an official redline, ownership, a building-by-building decision, exact siting, or an engineering alignment.",
        "road_class": "transit_connection",
        "conceptual_link_type": "cumulative_demand_trace",
        "demand_type": "construction",
        "cross_project": true,
        "cross_time": true,
        "engineering_alignment_claimed": false
      },
      "geometry": {
        "type": "LineString",
        "coordinates": [
          [
            116.34226,
            39.9487888
          ],
          [
            116.35474,
            39.9487888
          ]
        ]
      }
    }
  ]
}
