{
 "type": "FeatureCollection",
 "name": "green_space",
 "features": [
  {
   "type": "Feature",
   "id": "GR-001",
   "properties": {
    "id": "GR-001",
    "layer": "GREEN_SPACE",
    "name_zh": "京张遗址公园活力带(一期已开放段)",
    "source_type": "agent_generated_design",
    "confidence": "medium",
    "geometry_role": "design_proposal",
    "green_type": "park",
    "area_sqm_declared": 604134.1
   },
   "geometry": {
    "type": "Polygon",
    "coordinates": [
     [
      [
       116.3438,
       39.95032903225807
      ],
      [
       116.3438,
       39.95081806451613
      ],
      [
       116.3438,
       39.951307096774194
      ],
      [
       116.3438,
       39.95179612903226
      ],
      [
       116.3438,
       39.95228516129033
      ],
      [
       116.3438,
       39.952774193548386
      ],
      [
       116.3438,
       39.95326322580645
      ],
      [
       116.3438,
       39.95375225806452
      ],
      [
       116.3438,
       39.954241290322585
      ],
      [
       116.3438,
       39.954730322580644
      ],
      [
       116.3438,
       39.95521935483871
      ],
      [
       116.3438,
       39.95570838709678
      ],
      [
       116.3438,
       39.956197419354844
      ],
      [
       116.3438,
       39.9566864516129
      ],
      [
       116.3438,
       39.95717548387097
      ],
      [
       116.3438,
       39.957664516129036
      ],
      [
       116.3438,
       39.9581535483871
      ],
      [
       116.3438,
       39.95864258064516
      ],
      [
       116.3438,
       39.95913161290323
      ],
      [
       116.3438,
       39.959620645161294
      ],
      [
       116.3438,
       39.96010967741936
      ],
      [
       116.3438,
       39.96059870967742
      ],
      [
       116.3438,
       39.961087741935486
      ],
      [
       116.3438,
       39.96157677419355
      ],
      [
       116.3438,
       39.96206580645162
      ],
      [
       116.3438,
       39.96255483870968
      ],
      [
       116.3438,
       39.963043870967745
      ],
      [
       116.3438,
       39.96353290322581
      ],
      [
       116.3438,
       39.96402193548388
      ],
      [
       116.3438,
       39.96451096774194
      ],
      [
       116.3438,
       39.965
      ],
      [
       116.34426666666667,
       39.965
      ],
      [
       116.34473333333334,
       39.965
      ],
      [
       116.3452,
       39.965
      ],
      [
       116.34566666666667,
       39.965
      ],
      [
       116.34613333333333,
       39.965
      ],
      [
       116.3466,
       39.965
      ],
      [
       116.34706666666666,
       39.965
      ],
      [
       116.34753333333333,
       39.965
      ],
      [
       116.348,
       39.965
      ],
      [
       116.348,
       39.96451096774194
      ],
      [
       116.348,
       39.96402193548388
      ],
      [
       116.348,
       39.96353290322581
      ],
      [
       116.348,
       39.963043870967745
      ],
      [
       116.348,
       39.96255483870968
      ],
      [
       116.348,
       39.96206580645162
      ],
      [
       116.348,
       39.96157677419355
      ],
      [
       116.348,
       39.961087741935486
      ],
      [
       116.348,
       39.96059870967742
      ],
      [
       116.348,
       39.96010967741936
      ],
      [
       116.348,
       39.959620645161294
      ],
      [
       116.348,
       39.95913161290323
      ],
      [
       116.348,
       39.95864258064516
      ],
      [
       116.348,
       39.9581535483871
      ],
      [
       116.348,
       39.957664516129036
      ],
      [
       116.348,
       39.95717548387097
      ],
      [
       116.348,
       39.9566864516129
      ],
      [
       116.348,
       39.956197419354844
      ],
      [
       116.348,
       39.95570838709678
      ],
      [
       116.348,
       39.95521935483871
      ],
      [
       116.348,
       39.954730322580644
      ],
      [
       116.348,
       39.954241290322585
      ],
      [
       116.348,
       39.95375225806452
      ],
      [
       116.348,
       39.95326322580645
      ],
      [
       116.348,
       39.952774193548386
      ],
      [
       116.348,
       39.95228516129033
      ],
      [
       116.348,
       39.95179612903226
      ],
      [
       116.348,
       39.951307096774194
      ],
      [
       116.348,
       39.95081806451613
      ],
      [
       116.348,
       39.95032903225807
      ],
      [
       116.348,
       39.94984
      ],
      [
       116.34753333333333,
       39.94984
      ],
      [
       116.34706666666666,
       39.94984
      ],
      [
       116.3466,
       39.94984
      ],
      [
       116.34613333333333,
       39.94984
      ],
      [
       116.34566666666667,
       39.94984
      ],
      [
       116.3452,
       39.94984
      ],
      [
       116.34473333333334,
       39.94984
      ],
      [
       116.34426666666667,
       39.94984
      ],
      [
       116.3438,
       39.94984
      ],
      [
       116.3438,
       39.95032903225807
      ]
     ]
    ]
   }
  },
  {
   "type": "Feature",
   "id": "GR-002",
   "properties": {
    "id": "GR-002",
    "layer": "GREEN_SPACE",
    "name_zh": "京张遗址公园中段绿地",
    "source_type": "agent_generated_design",
    "confidence": "medium",
    "geometry_role": "design_proposal",
    "green_type": "park",
    "area_sqm_declared": 436262.9
   },
   "geometry": {
    "type": "Polygon",
    "coordinates": [
     [
      [
       116.3432,
       39.984
      ],
      [
       116.3432,
       39.9845
      ],
      [
       116.3432,
       39.985
      ],
      [
       116.3432,
       39.9855
      ],
      [
       116.3432,
       39.986
      ],
      [
       116.3432,
       39.9865
      ],
      [
       116.3432,
       39.987
      ],
      [
       116.3432,
       39.9875
      ],
      [
       116.3432,
       39.988
      ],
      [
       116.3432,
       39.9885
      ],
      [
       116.3432,
       39.989
      ],
      [
       116.3432,
       39.9895
      ],
      [
       116.3432,
       39.989999999999995
      ],
      [
       116.3432,
       39.9905
      ],
      [
       116.3432,
       39.991
      ],
      [
       116.3432,
       39.991499999999995
      ],
      [
       116.3432,
       39.992
      ],
      [
       116.3432,
       39.9925
      ],
      [
       116.3432,
       39.992999999999995
      ],
      [
       116.3432,
       39.9935
      ],
      [
       116.34366,
       39.9935
      ],
      [
       116.34412,
       39.9935
      ],
      [
       116.34458,
       39.9935
      ],
      [
       116.34504,
       39.9935
      ],
      [
       116.3455,
       39.9935
      ],
      [
       116.34596,
       39.9935
      ],
      [
       116.34642000000001,
       39.9935
      ],
      [
       116.34688,
       39.9935
      ],
      [
       116.34734,
       39.9935
      ],
      [
       116.3478,
       39.9935
      ],
      [
       116.3478,
       39.992999999999995
      ],
      [
       116.3478,
       39.9925
      ],
      [
       116.3478,
       39.992
      ],
      [
       116.3478,
       39.991499999999995
      ],
      [
       116.3478,
       39.991
      ],
      [
       116.3478,
       39.9905
      ],
      [
       116.3478,
       39.989999999999995
      ],
      [
       116.3478,
       39.9895
      ],
      [
       116.3478,
       39.989
      ],
      [
       116.3478,
       39.9885
      ],
      [
       116.3478,
       39.988
      ],
      [
       116.3478,
       39.9875
      ],
      [
       116.3478,
       39.987
      ],
      [
       116.3478,
       39.9865
      ],
      [
       116.3478,
       39.986
      ],
      [
       116.3478,
       39.9855
      ],
      [
       116.3478,
       39.985
      ],
      [
       116.3478,
       39.9845
      ],
      [
       116.3478,
       39.984
      ],
      [
       116.3478,
       39.9835
      ],
      [
       116.34734,
       39.9835
      ],
      [
       116.34688,
       39.9835
      ],
      [
       116.34642000000001,
       39.9835
      ],
      [
       116.34596,
       39.9835
      ],
      [
       116.3455,
       39.9835
      ],
      [
       116.34504,
       39.9835
      ],
      [
       116.34458,
       39.9835
      ],
      [
       116.34412,
       39.9835
      ],
      [
       116.34366,
       39.9835
      ],
      [
       116.3432,
       39.9835
      ],
      [
       116.3432,
       39.984
      ]
     ]
    ]
   }
  },
  {
   "type": "Feature",
   "id": "GR-003",
   "properties": {
    "id": "GR-003",
    "layer": "GREEN_SPACE",
    "name_zh": "京张遗址公园北段绿楔",
    "source_type": "agent_generated_design",
    "confidence": "medium",
    "geometry_role": "design_proposal",
    "green_type": "park",
    "area_sqm_declared": 792534.8
   },
   "geometry": {
    "type": "Polygon",
    "coordinates": [
     [
      [
       116.3472,
       40.025999999999996
      ],
      [
       116.3472,
       40.0255
      ],
      [
       116.3472,
       40.025
      ],
      [
       116.3472,
       40.024499999999996
      ],
      [
       116.3472,
       40.024
      ],
      [
       116.3472,
       40.0235
      ],
      [
       116.3472,
       40.022999999999996
      ],
      [
       116.3472,
       40.0225
      ],
      [
       116.3472,
       40.022
      ],
      [
       116.3472,
       40.021499999999996
      ],
      [
       116.3472,
       40.021
      ],
      [
       116.3472,
       40.0205
      ],
      [
       116.3472,
       40.019999999999996
      ],
      [
       116.3472,
       40.0195
      ],
      [
       116.3472,
       40.019
      ],
      [
       116.3472,
       40.018499999999996
      ],
      [
       116.3472,
       40.018
      ],
      [
       116.3472,
       40.0175
      ],
      [
       116.3472,
       40.016999999999996
      ],
      [
       116.3472,
       40.0165
      ],
      [
       116.3472,
       40.016
      ],
      [
       116.3472,
       40.0155
      ],
      [
       116.3472,
       40.015
      ],
      [
       116.3472,
       40.0145
      ],
      [
       116.3472,
       40.014
      ],
      [
       116.3472,
       40.0135
      ],
      [
       116.3472,
       40.013
      ],
      [
       116.3472,
       40.0125
      ],
      [
       116.3472,
       40.012
      ],
      [
       116.3472,
       40.0115
      ],
      [
       116.3472,
       40.011
      ],
      [
       116.3472,
       40.0105
      ],
      [
       116.3472,
       40.01
      ],
      [
       116.3472,
       40.0095
      ],
      [
       116.3472,
       40.009
      ],
      [
       116.3472,
       40.0085
      ],
      [
       116.3472,
       40.008
      ],
      [
       116.3472,
       40.0075
      ],
      [
       116.3467111111111,
       40.0075
      ],
      [
       116.34622222222222,
       40.0075
      ],
      [
       116.34573333333333,
       40.0075
      ],
      [
       116.34524444444445,
       40.0075
      ],
      [
       116.34475555555555,
       40.0075
      ],
      [
       116.34426666666667,
       40.0075
      ],
      [
       116.34377777777777,
       40.0075
      ],
      [
       116.34328888888889,
       40.0075
      ],
      [
       116.3428,
       40.0075
      ],
      [
       116.3428,
       40.008
      ],
      [
       116.3428,
       40.0085
      ],
      [
       116.3428,
       40.009
      ],
      [
       116.3428,
       40.0095
      ],
      [
       116.3428,
       40.01
      ],
      [
       116.3428,
       40.0105
      ],
      [
       116.3428,
       40.011
      ],
      [
       116.3428,
       40.0115
      ],
      [
       116.3428,
       40.012
      ],
      [
       116.3428,
       40.0125
      ],
      [
       116.3428,
       40.013
      ],
      [
       116.3428,
       40.0135
      ],
      [
       116.3428,
       40.014
      ],
      [
       116.3428,
       40.0145
      ],
      [
       116.3428,
       40.015
      ],
      [
       116.3428,
       40.0155
      ],
      [
       116.3428,
       40.016
      ],
      [
       116.3428,
       40.0165
      ],
      [
       116.3428,
       40.016999999999996
      ],
      [
       116.3428,
       40.0175
      ],
      [
       116.3428,
       40.018
      ],
      [
       116.3428,
       40.018499999999996
      ],
      [
       116.3428,
       40.019
      ],
      [
       116.3428,
       40.0195
      ],
      [
       116.3428,
       40.019999999999996
      ],
      [
       116.3428,
       40.0205
      ],
      [
       116.3428,
       40.021
      ],
      [
       116.3428,
       40.021499999999996
      ],
      [
       116.3428,
       40.022
      ],
      [
       116.3428,
       40.0225
      ],
      [
       116.3428,
       40.022999999999996
      ],
      [
       116.3428,
       40.0235
      ],
      [
       116.3428,
       40.024
      ],
      [
       116.3428,
       40.024499999999996
      ],
      [
       116.3428,
       40.025
      ],
      [
       116.3428,
       40.0255
      ],
      [
       116.3428,
       40.025999999999996
      ],
      [
       116.3428,
       40.0265
      ],
      [
       116.34318461538462,
       40.0265
      ],
      [
       116.34328888888889,
       40.0265
      ],
      [
       116.34366923076922,
       40.0265
      ],
      [
       116.34377777777777,
       40.0265
      ],
      [
       116.34415384615384,
       40.0265
      ],
      [
       116.34426666666667,
       40.0265
      ],
      [
       116.34463846153845,
       40.0265
      ],
      [
       116.34475555555555,
       40.0265
      ],
      [
       116.34512307692307,
       40.0265
      ],
      [
       116.34524444444445,
       40.0265
      ],
      [
       116.34560769230768,
       40.0265
      ],
      [
       116.34573333333333,
       40.0265
      ],
      [
       116.3460923076923,
       40.0265
      ],
      [
       116.34622222222222,
       40.0265
      ],
      [
       116.34657692307692,
       40.0265
      ],
      [
       116.3467111111111,
       40.0265
      ],
      [
       116.34706153846153,
       40.0265
      ],
      [
       116.3472,
       40.0265
      ],
      [
       116.3472,
       40.025999999999996
      ]
     ]
    ]
   }
  },
  {
   "type": "Feature",
   "id": "GR-004",
   "properties": {
    "id": "GR-004",
    "layer": "GREEN_SPACE",
    "name_zh": "大钟寺城市广场绿地",
    "source_type": "agent_generated_design",
    "confidence": "medium",
    "geometry_role": "design_proposal",
    "green_type": "park",
    "area_sqm_declared": 249388.2
   },
   "geometry": {
    "type": "Polygon",
    "coordinates": [
     [
      [
       116.342,
       39.94448666666667
      ],
      [
       116.342,
       39.94497333333334
      ],
      [
       116.342,
       39.945460000000004
      ],
      [
       116.342,
       39.94594666666667
      ],
      [
       116.342,
       39.94643333333334
      ],
      [
       116.342,
       39.946920000000006
      ],
      [
       116.342,
       39.947406666666666
      ],
      [
       116.342,
       39.94789333333333
      ],
      [
       116.342,
       39.94838
      ],
      [
       116.342,
       39.94886666666667
      ],
      [
       116.342,
       39.949353333333335
      ],
      [
       116.342,
       39.94984
      ],
      [
       116.34245,
       39.94984
      ],
      [
       116.3429,
       39.94984
      ],
      [
       116.34335,
       39.94984
      ],
      [
       116.3438,
       39.94984
      ],
      [
       116.34425,
       39.94984
      ],
      [
       116.3447,
       39.94984
      ],
      [
       116.34515,
       39.94984
      ],
      [
       116.3456,
       39.94984
      ],
      [
       116.34605,
       39.94984
      ],
      [
       116.3465,
       39.94984
      ],
      [
       116.3465,
       39.949353333333335
      ],
      [
       116.3465,
       39.94886666666667
      ],
      [
       116.3465,
       39.94838
      ],
      [
       116.3465,
       39.94789333333333
      ],
      [
       116.3465,
       39.947406666666666
      ],
      [
       116.3465,
       39.946920000000006
      ],
      [
       116.3465,
       39.94643333333334
      ],
      [
       116.3465,
       39.94594666666667
      ],
      [
       116.3465,
       39.945460000000004
      ],
      [
       116.3465,
       39.94497333333334
      ],
      [
       116.3465,
       39.94448666666667
      ],
      [
       116.3465,
       39.944
      ],
      [
       116.34605,
       39.944
      ],
      [
       116.3456,
       39.944
      ],
      [
       116.34515,
       39.944
      ],
      [
       116.3447,
       39.944
      ],
      [
       116.34425,
       39.944
      ],
      [
       116.3438,
       39.944
      ],
      [
       116.34335,
       39.944
      ],
      [
       116.3429,
       39.944
      ],
      [
       116.34245,
       39.944
      ],
      [
       116.342,
       39.944
      ],
      [
       116.342,
       39.94448666666667
      ]
     ]
    ]
   }
  },
  {
   "type": "Feature",
   "id": "GR-005",
   "properties": {
    "id": "GR-005",
    "layer": "GREEN_SPACE",
    "name_zh": "成府路南侧社区绿带",
    "source_type": "agent_generated_design",
    "confidence": "medium",
    "geometry_role": "design_proposal",
    "green_type": "park",
    "area_sqm_declared": 322498.2
   },
   "geometry": {
    "type": "Polygon",
    "coordinates": [
     [
      [
       116.3438,
       39.975500000000004
      ],
      [
       116.3438,
       39.976
      ],
      [
       116.3438,
       39.9765
      ],
      [
       116.3438,
       39.977000000000004
      ],
      [
       116.3438,
       39.9775
      ],
      [
       116.3438,
       39.978
      ],
      [
       116.3438,
       39.978500000000004
      ],
      [
       116.3438,
       39.979
      ],
      [
       116.3438,
       39.9795
      ],
      [
       116.3438,
       39.98
      ],
      [
       116.3438,
       39.9805
      ],
      [
       116.3438,
       39.981
      ],
      [
       116.3438,
       39.9815
      ],
      [
       116.3438,
       39.982
      ],
      [
       116.3438,
       39.9825
      ],
      [
       116.3438,
       39.983
      ],
      [
       116.3438,
       39.9835
      ],
      [
       116.34424444444444,
       39.9835
      ],
      [
       116.3446888888889,
       39.9835
      ],
      [
       116.34513333333334,
       39.9835
      ],
      [
       116.34557777777778,
       39.9835
      ],
      [
       116.34602222222223,
       39.9835
      ],
      [
       116.34646666666667,
       39.9835
      ],
      [
       116.34691111111111,
       39.9835
      ],
      [
       116.34735555555557,
       39.9835
      ],
      [
       116.3478,
       39.9835
      ],
      [
       116.3478,
       39.983
      ],
      [
       116.3478,
       39.9825
      ],
      [
       116.3478,
       39.982
      ],
      [
       116.3478,
       39.9815
      ],
      [
       116.3478,
       39.981
      ],
      [
       116.3478,
       39.9805
      ],
      [
       116.3478,
       39.98
      ],
      [
       116.3478,
       39.9795
      ],
      [
       116.3478,
       39.979
      ],
      [
       116.3478,
       39.978500000000004
      ],
      [
       116.3478,
       39.978
      ],
      [
       116.3478,
       39.9775
      ],
      [
       116.3478,
       39.977000000000004
      ],
      [
       116.3478,
       39.9765
      ],
      [
       116.3478,
       39.976
      ],
      [
       116.3478,
       39.975500000000004
      ],
      [
       116.3478,
       39.975
      ],
      [
       116.34735555555557,
       39.975
      ],
      [
       116.34691111111111,
       39.975
      ],
      [
       116.34646666666667,
       39.975
      ],
      [
       116.34602222222223,
       39.975
      ],
      [
       116.34557777777778,
       39.975
      ],
      [
       116.34513333333334,
       39.975
      ],
      [
       116.3446888888889,
       39.975
      ],
      [
       116.34424444444444,
       39.975
      ],
      [
       116.3438,
       39.975
      ],
      [
       116.3438,
       39.975500000000004
      ]
     ]
    ]
   }
  }
 ]
}