{
 "type": "FeatureCollection",
 "name": "key_areas",
 "features": [
  {
   "type": "Feature",
   "id": "PROV-KEY-001",
   "properties": {
    "id": "PROV-KEY-001",
    "layer": "KEY_AREA",
    "parent_scope_id": "key_detailed_design_area",
    "area_id": "zhongzhiyuan_ai_acceleration_area",
    "name_zh": "众智园AI自主创新加速区粗略范围",
    "source_type": "agent_inferred_from_public_data",
    "confidence": "medium",
    "geometry_role": "provisional_constraint",
    "official_boundary": false,
    "boundary_precision": "provisional_rough",
    "announced_area_sqm": 1921000,
    "area_sqm_calculated": 1929201.896,
    "area_sqm_declared": 1929201.896,
    "derivation_method": "按公告三处重点区名称、南北顺序与约面积,在临时总体设计范围内粗略定位;矩形边不得解释为地块或道路红线。",
    "usage_note": "仅用于AI agent生成、展示和临时自检;不得作为official key-area polygon、审批依据或精确面积复算依据。"
   },
   "geometry": {
    "type": "Polygon",
    "coordinates": [
     [
      [
       116.343,
       40.0075
      ],
      [
       116.3435,
       40.0075
      ],
      [
       116.34400000000001,
       40.0075
      ],
      [
       116.3445,
       40.0075
      ],
      [
       116.345,
       40.0075
      ],
      [
       116.3455,
       40.0075
      ],
      [
       116.346,
       40.0075
      ],
      [
       116.3465,
       40.0075
      ],
      [
       116.34700000000001,
       40.0075
      ],
      [
       116.3475,
       40.0075
      ],
      [
       116.348,
       40.0075
      ],
      [
       116.3485,
       40.0075
      ],
      [
       116.349,
       40.0075
      ],
      [
       116.3495,
       40.0075
      ],
      [
       116.35,
       40.0075
      ],
      [
       116.3505,
       40.0075
      ],
      [
       116.351,
       40.0075
      ],
      [
       116.3515,
       40.0075
      ],
      [
       116.352,
       40.0075
      ],
      [
       116.3525,
       40.0075
      ],
      [
       116.353,
       40.0075
      ],
      [
       116.3535,
       40.0075
      ],
      [
       116.354,
       40.0075
      ],
      [
       116.354,
       40.00798684210526
      ],
      [
       116.354,
       40.00847368421053
      ],
      [
       116.354,
       40.00896052631579
      ],
      [
       116.354,
       40.00944736842105
      ],
      [
       116.354,
       40.00993421052632
      ],
      [
       116.354,
       40.01042105263158
      ],
      [
       116.354,
       40.010907894736846
      ],
      [
       116.354,
       40.01139473684211
      ],
      [
       116.354,
       40.01188157894737
      ],
      [
       116.354,
       40.012368421052635
      ],
      [
       116.354,
       40.012855263157896
      ],
      [
       116.354,
       40.013342105263156
      ],
      [
       116.354,
       40.013828947368424
      ],
      [
       116.354,
       40.014315789473685
      ],
      [
       116.354,
       40.01480263157895
      ],
      [
       116.354,
       40.01528947368421
      ],
      [
       116.354,
       40.01577631578947
      ],
      [
       116.354,
       40.01626315789474
      ],
      [
       116.354,
       40.01675
      ],
      [
       116.354,
       40.01723684210526
      ],
      [
       116.354,
       40.01772368421053
      ],
      [
       116.354,
       40.01821052631579
      ],
      [
       116.354,
       40.01869736842105
      ],
      [
       116.354,
       40.01918421052632
      ],
      [
       116.354,
       40.01967105263158
      ],
      [
       116.354,
       40.02015789473685
      ],
      [
       116.354,
       40.02064473684211
      ],
      [
       116.354,
       40.02113157894737
      ],
      [
       116.354,
       40.02161842105264
      ],
      [
       116.354,
       40.0221052631579
      ],
      [
       116.354,
       40.02259210526316
      ],
      [
       116.354,
       40.023078947368425
      ],
      [
       116.354,
       40.023565789473686
      ],
      [
       116.354,
       40.024052631578954
      ],
      [
       116.354,
       40.024539473684214
      ],
      [
       116.354,
       40.025026315789475
      ],
      [
       116.354,
       40.02551315789474
      ],
      [
       116.354,
       40.026
      ],
      [
       116.3535,
       40.026
      ],
      [
       116.353,
       40.026
      ],
      [
       116.3525,
       40.026
      ],
      [
       116.352,
       40.026
      ],
      [
       116.3515,
       40.026
      ],
      [
       116.351,
       40.026
      ],
      [
       116.3505,
       40.026
      ],
      [
       116.35,
       40.026
      ],
      [
       116.3495,
       40.026
      ],
      [
       116.349,
       40.026
      ],
      [
       116.3485,
       40.026
      ],
      [
       116.348,
       40.026
      ],
      [
       116.3475,
       40.026
      ],
      [
       116.34700000000001,
       40.026
      ],
      [
       116.3465,
       40.026
      ],
      [
       116.346,
       40.026
      ],
      [
       116.3455,
       40.026
      ],
      [
       116.345,
       40.026
      ],
      [
       116.3445,
       40.026
      ],
      [
       116.34400000000001,
       40.026
      ],
      [
       116.3435,
       40.026
      ],
      [
       116.343,
       40.026
      ],
      [
       116.343,
       40.02551315789474
      ],
      [
       116.343,
       40.025026315789475
      ],
      [
       116.343,
       40.024539473684214
      ],
      [
       116.343,
       40.024052631578954
      ],
      [
       116.343,
       40.023565789473686
      ],
      [
       116.343,
       40.023078947368425
      ],
      [
       116.343,
       40.02259210526316
      ],
      [
       116.343,
       40.0221052631579
      ],
      [
       116.343,
       40.02161842105264
      ],
      [
       116.343,
       40.02113157894737
      ],
      [
       116.343,
       40.02064473684211
      ],
      [
       116.343,
       40.02015789473685
      ],
      [
       116.343,
       40.01967105263158
      ],
      [
       116.343,
       40.01918421052632
      ],
      [
       116.343,
       40.01869736842105
      ],
      [
       116.343,
       40.01821052631579
      ],
      [
       116.343,
       40.01772368421053
      ],
      [
       116.343,
       40.01723684210526
      ],
      [
       116.343,
       40.01675
      ],
      [
       116.343,
       40.01626315789474
      ],
      [
       116.343,
       40.01577631578947
      ],
      [
       116.343,
       40.01528947368421
      ],
      [
       116.343,
       40.01480263157895
      ],
      [
       116.343,
       40.014315789473685
      ],
      [
       116.343,
       40.013828947368424
      ],
      [
       116.343,
       40.013342105263156
      ],
      [
       116.343,
       40.012855263157896
      ],
      [
       116.343,
       40.012368421052635
      ],
      [
       116.343,
       40.01188157894737
      ],
      [
       116.343,
       40.01139473684211
      ],
      [
       116.343,
       40.010907894736846
      ],
      [
       116.343,
       40.01042105263158
      ],
      [
       116.343,
       40.00993421052632
      ],
      [
       116.343,
       40.00944736842105
      ],
      [
       116.343,
       40.00896052631579
      ],
      [
       116.343,
       40.00847368421053
      ],
      [
       116.343,
       40.00798684210526
      ],
      [
       116.343,
       40.0075
      ]
     ]
    ]
   }
  },
  {
   "type": "Feature",
   "id": "PROV-KEY-002",
   "properties": {
    "id": "PROV-KEY-002",
    "layer": "KEY_AREA",
    "parent_scope_id": "key_detailed_design_area",
    "area_id": "beijing_ai_origin_community",
    "name_zh": "北京AI原点社区粗略范围",
    "source_type": "agent_inferred_from_public_data",
    "confidence": "medium",
    "geometry_role": "provisional_constraint",
    "official_boundary": false,
    "boundary_precision": "provisional_rough",
    "announced_area_sqm": 1043000,
    "area_sqm_calculated": 1043236.912,
    "area_sqm_declared": 1043236.912,
    "derivation_method": "按公告三处重点区名称、南北顺序与约面积,在临时总体设计范围内粗略定位;矩形边不得解释为地块或道路红线。",
    "usage_note": "仅用于AI agent生成、展示和临时自检;不得作为official key-area polygon、审批依据或精确面积复算依据。"
   },
   "geometry": {
    "type": "Polygon",
    "coordinates": [
     [
      [
       116.342,
       39.9835
      ],
      [
       116.3425,
       39.9835
      ],
      [
       116.343,
       39.9835
      ],
      [
       116.34349999999999,
       39.9835
      ],
      [
       116.344,
       39.9835
      ],
      [
       116.3445,
       39.9835
      ],
      [
       116.345,
       39.9835
      ],
      [
       116.3455,
       39.9835
      ],
      [
       116.346,
       39.9835
      ],
      [
       116.34649999999999,
       39.9835
      ],
      [
       116.347,
       39.9835
      ],
      [
       116.3475,
       39.9835
      ],
      [
       116.348,
       39.9835
      ],
      [
       116.3485,
       39.9835
      ],
      [
       116.34899999999999,
       39.9835
      ],
      [
       116.34949999999999,
       39.9835
      ],
      [
       116.35,
       39.9835
      ],
      [
       116.3505,
       39.9835
      ],
      [
       116.351,
       39.9835
      ],
      [
       116.3515,
       39.9835
      ],
      [
       116.35199999999999,
       39.9835
      ],
      [
       116.35249999999999,
       39.9835
      ],
      [
       116.353,
       39.9835
      ],
      [
       116.353,
       39.984
      ],
      [
       116.353,
       39.9845
      ],
      [
       116.353,
       39.985
      ],
      [
       116.353,
       39.9855
      ],
      [
       116.353,
       39.986
      ],
      [
       116.353,
       39.9865
      ],
      [
       116.353,
       39.987
      ],
      [
       116.353,
       39.9875
      ],
      [
       116.353,
       39.988
      ],
      [
       116.353,
       39.9885
      ],
      [
       116.353,
       39.989
      ],
      [
       116.353,
       39.9895
      ],
      [
       116.353,
       39.989999999999995
      ],
      [
       116.353,
       39.9905
      ],
      [
       116.353,
       39.991
      ],
      [
       116.353,
       39.991499999999995
      ],
      [
       116.353,
       39.992
      ],
      [
       116.353,
       39.9925
      ],
      [
       116.353,
       39.992999999999995
      ],
      [
       116.353,
       39.9935
      ],
      [
       116.35249999999999,
       39.9935
      ],
      [
       116.35199999999999,
       39.9935
      ],
      [
       116.3515,
       39.9935
      ],
      [
       116.351,
       39.9935
      ],
      [
       116.3505,
       39.9935
      ],
      [
       116.35,
       39.9935
      ],
      [
       116.34949999999999,
       39.9935
      ],
      [
       116.34899999999999,
       39.9935
      ],
      [
       116.3485,
       39.9935
      ],
      [
       116.348,
       39.9935
      ],
      [
       116.3475,
       39.9935
      ],
      [
       116.347,
       39.9935
      ],
      [
       116.34649999999999,
       39.9935
      ],
      [
       116.346,
       39.9935
      ],
      [
       116.3455,
       39.9935
      ],
      [
       116.345,
       39.9935
      ],
      [
       116.3445,
       39.9935
      ],
      [
       116.344,
       39.9935
      ],
      [
       116.34349999999999,
       39.9935
      ],
      [
       116.343,
       39.9935
      ],
      [
       116.3425,
       39.9935
      ],
      [
       116.342,
       39.9935
      ],
      [
       116.342,
       39.992999999999995
      ],
      [
       116.342,
       39.9925
      ],
      [
       116.342,
       39.992
      ],
      [
       116.342,
       39.991499999999995
      ],
      [
       116.342,
       39.991
      ],
      [
       116.342,
       39.9905
      ],
      [
       116.342,
       39.989999999999995
      ],
      [
       116.342,
       39.9895
      ],
      [
       116.342,
       39.989
      ],
      [
       116.342,
       39.9885
      ],
      [
       116.342,
       39.988
      ],
      [
       116.342,
       39.9875
      ],
      [
       116.342,
       39.987
      ],
      [
       116.342,
       39.9865
      ],
      [
       116.342,
       39.986
      ],
      [
       116.342,
       39.9855
      ],
      [
       116.342,
       39.985
      ],
      [
       116.342,
       39.9845
      ],
      [
       116.342,
       39.984
      ],
      [
       116.342,
       39.9835
      ]
     ]
    ]
   }
  },
  {
   "type": "Feature",
   "id": "PROV-KEY-003",
   "properties": {
    "id": "PROV-KEY-003",
    "layer": "KEY_AREA",
    "parent_scope_id": "key_detailed_design_area",
    "area_id": "dazhongsi_ai_industry_cluster",
    "name_zh": "大钟寺AI产业聚集区粗略范围",
    "source_type": "agent_inferred_from_public_data",
    "confidence": "medium",
    "geometry_role": "provisional_constraint",
    "official_boundary": false,
    "boundary_precision": "provisional_rough",
    "announced_area_sqm": 720000,
    "area_sqm_calculated": 720454.22,
    "area_sqm_declared": 720454.22,
    "derivation_method": "按公告三处重点区名称、南北顺序与约面积,在临时总体设计范围内粗略定位;矩形边不得解释为地块或道路红线。",
    "usage_note": "仅用于AI agent生成、展示和临时自检;不得作为official key-area polygon、审批依据或精确面积复算依据。"
   },
   "geometry": {
    "type": "Polygon",
    "coordinates": [
     [
      [
       116.342,
       39.944
      ],
      [
       116.34248148148149,
       39.944
      ],
      [
       116.34296296296296,
       39.944
      ],
      [
       116.34344444444444,
       39.944
      ],
      [
       116.34392592592593,
       39.944
      ],
      [
       116.3444074074074,
       39.944
      ],
      [
       116.34488888888889,
       39.944
      ],
      [
       116.34537037037038,
       39.944
      ],
      [
       116.34585185185185,
       39.944
      ],
      [
       116.34633333333333,
       39.944
      ],
      [
       116.34681481481482,
       39.944
      ],
      [
       116.34729629629629,
       39.944
      ],
      [
       116.34777777777778,
       39.944
      ],
      [
       116.34825925925927,
       39.944
      ],
      [
       116.34874074074074,
       39.944
      ],
      [
       116.34922222222222,
       39.944
      ],
      [
       116.34970370370371,
       39.944
      ],
      [
       116.35018518518518,
       39.944
      ],
      [
       116.35066666666667,
       39.944
      ],
      [
       116.35114814814816,
       39.944
      ],
      [
       116.35162962962963,
       39.944
      ],
      [
       116.35211111111111,
       39.944
      ],
      [
       116.3525925925926,
       39.944
      ],
      [
       116.35307407407407,
       39.944
      ],
      [
       116.35355555555556,
       39.944
      ],
      [
       116.35403703703705,
       39.944
      ],
      [
       116.35451851851852,
       39.944
      ],
      [
       116.355,
       39.944
      ],
      [
       116.355,
       39.94448666666667
      ],
      [
       116.355,
       39.94497333333334
      ],
      [
       116.355,
       39.945460000000004
      ],
      [
       116.355,
       39.94594666666667
      ],
      [
       116.355,
       39.94643333333334
      ],
      [
       116.355,
       39.946920000000006
      ],
      [
       116.355,
       39.947406666666666
      ],
      [
       116.355,
       39.94789333333333
      ],
      [
       116.355,
       39.94838
      ],
      [
       116.355,
       39.94886666666667
      ],
      [
       116.355,
       39.949353333333335
      ],
      [
       116.355,
       39.94984
      ],
      [
       116.35451851851852,
       39.94984
      ],
      [
       116.35403703703705,
       39.94984
      ],
      [
       116.35355555555556,
       39.94984
      ],
      [
       116.35307407407407,
       39.94984
      ],
      [
       116.3525925925926,
       39.94984
      ],
      [
       116.35211111111111,
       39.94984
      ],
      [
       116.35162962962963,
       39.94984
      ],
      [
       116.35114814814816,
       39.94984
      ],
      [
       116.35066666666667,
       39.94984
      ],
      [
       116.35018518518518,
       39.94984
      ],
      [
       116.34970370370371,
       39.94984
      ],
      [
       116.34922222222222,
       39.94984
      ],
      [
       116.34874074074074,
       39.94984
      ],
      [
       116.34825925925927,
       39.94984
      ],
      [
       116.34777777777778,
       39.94984
      ],
      [
       116.34729629629629,
       39.94984
      ],
      [
       116.34681481481482,
       39.94984
      ],
      [
       116.34633333333333,
       39.94984
      ],
      [
       116.34585185185185,
       39.94984
      ],
      [
       116.34537037037038,
       39.94984
      ],
      [
       116.34488888888889,
       39.94984
      ],
      [
       116.3444074074074,
       39.94984
      ],
      [
       116.34392592592593,
       39.94984
      ],
      [
       116.34344444444444,
       39.94984
      ],
      [
       116.34296296296296,
       39.94984
      ],
      [
       116.34248148148149,
       39.94984
      ],
      [
       116.342,
       39.94984
      ],
      [
       116.342,
       39.949353333333335
      ],
      [
       116.342,
       39.94886666666667
      ],
      [
       116.342,
       39.94838
      ],
      [
       116.342,
       39.94789333333333
      ],
      [
       116.342,
       39.947406666666666
      ],
      [
       116.342,
       39.946920000000006
      ],
      [
       116.342,
       39.94643333333334
      ],
      [
       116.342,
       39.94594666666667
      ],
      [
       116.342,
       39.945460000000004
      ],
      [
       116.342,
       39.94497333333334
      ],
      [
       116.342,
       39.94448666666667
      ],
      [
       116.342,
       39.944
      ]
     ]
    ]
   }
  }
 ]
}