{
 "type": "FeatureCollection",
 "name": "phasing",
 "features": [
  {
   "type": "Feature",
   "id": "PH-001",
   "properties": {
    "id": "PH-001",
    "layer": "PHASE",
    "name_zh": "近期:南段编组场与钩位激活(2026-2028)",
    "source_type": "agent_generated_design",
    "confidence": "medium",
    "geometry_role": "design_proposal",
    "phase": "near_term",
    "area_sqm_declared": 3602008.2
   },
   "geometry": {
    "type": "Polygon",
    "coordinates": [
     [
      [
       116.3407,
       39.939
      ],
      [
       116.3407,
       39.93949056603773
      ],
      [
       116.3407,
       39.939981132075474
      ],
      [
       116.3407,
       39.94047169811321
      ],
      [
       116.3407,
       39.94096226415095
      ],
      [
       116.3407,
       39.94145283018868
      ],
      [
       116.3407,
       39.941943396226414
      ],
      [
       116.3407,
       39.942433962264154
      ],
      [
       116.3407,
       39.94292452830189
      ],
      [
       116.3407,
       39.94341509433962
      ],
      [
       116.3407,
       39.94390566037736
      ],
      [
       116.3407,
       39.944396226415094
      ],
      [
       116.3407,
       39.944886792452834
      ],
      [
       116.3407,
       39.94537735849057
      ],
      [
       116.3407,
       39.9458679245283
      ],
      [
       116.3407,
       39.94635849056604
      ],
      [
       116.3407,
       39.946849056603774
      ],
      [
       116.3407,
       39.94733962264151
      ],
      [
       116.3407,
       39.94783018867925
      ],
      [
       116.3407,
       39.94832075471698
      ],
      [
       116.3407,
       39.94881132075472
      ],
      [
       116.3407,
       39.949301886792455
      ],
      [
       116.3407,
       39.94979245283019
      ],
      [
       116.3407,
       39.95028301886793
      ],
      [
       116.3407,
       39.95077358490566
      ],
      [
       116.3407,
       39.951264150943395
      ],
      [
       116.3407,
       39.951754716981135
      ],
      [
       116.3407,
       39.95224528301887
      ],
      [
       116.3407,
       39.95273584905661
      ],
      [
       116.3407,
       39.95322641509434
      ],
      [
       116.3407,
       39.953716981132075
      ],
      [
       116.3407,
       39.954207547169815
      ],
      [
       116.3407,
       39.95469811320755
      ],
      [
       116.3407,
       39.95518867924528
      ],
      [
       116.3407,
       39.95567924528302
      ],
      [
       116.3407,
       39.956169811320756
      ],
      [
       116.3407,
       39.956660377358496
      ],
      [
       116.3407,
       39.95715094339623
      ],
      [
       116.3407,
       39.95764150943396
      ],
      [
       116.3407,
       39.9581320754717
      ],
      [
       116.3407,
       39.958622641509436
      ],
      [
       116.3407,
       39.95911320754717
      ],
      [
       116.3407,
       39.95960377358491
      ],
      [
       116.3407,
       39.96009433962264
      ],
      [
       116.3407,
       39.96058490566038
      ],
      [
       116.3407,
       39.961075471698116
      ],
      [
       116.3407,
       39.96156603773585
      ],
      [
       116.3407,
       39.96205660377359
      ],
      [
       116.3407,
       39.96254716981132
      ],
      [
       116.3407,
       39.963037735849056
      ],
      [
       116.3407,
       39.9635283018868
      ],
      [
       116.3407,
       39.96401886792453
      ],
      [
       116.3407,
       39.96450943396227
      ],
      [
       116.3407,
       39.965
      ],
      [
       116.34118666666666,
       39.965
      ],
      [
       116.34167333333333,
       39.965
      ],
      [
       116.34215999999999,
       39.965
      ],
      [
       116.34264666666667,
       39.965
      ],
      [
       116.34313333333333,
       39.965
      ],
      [
       116.34362,
       39.965
      ],
      [
       116.34410666666666,
       39.965
      ],
      [
       116.34459333333334,
       39.965
      ],
      [
       116.34508,
       39.965
      ],
      [
       116.34556666666667,
       39.965
      ],
      [
       116.34605333333333,
       39.965
      ],
      [
       116.34654,
       39.965
      ],
      [
       116.34702666666666,
       39.965
      ],
      [
       116.34751333333334,
       39.965
      ],
      [
       116.348,
       39.965
      ],
      [
       116.34848666666666,
       39.965
      ],
      [
       116.34897333333333,
       39.965
      ],
      [
       116.34946,
       39.965
      ],
      [
       116.34994666666667,
       39.965
      ],
      [
       116.35043333333333,
       39.965
      ],
      [
       116.35092,
       39.965
      ],
      [
       116.35140666666666,
       39.965
      ],
      [
       116.35189333333334,
       39.965
      ],
      [
       116.35238,
       39.965
      ],
      [
       116.35286666666667,
       39.965
      ],
      [
       116.35335333333333,
       39.965
      ],
      [
       116.35384,
       39.965
      ],
      [
       116.35432666666667,
       39.965
      ],
      [
       116.35481333333334,
       39.965
      ],
      [
       116.3553,
       39.965
      ],
      [
       116.3553,
       39.96450943396227
      ],
      [
       116.3553,
       39.96401886792453
      ],
      [
       116.3553,
       39.9635283018868
      ],
      [
       116.3553,
       39.963037735849056
      ],
      [
       116.3553,
       39.96254716981132
      ],
      [
       116.3553,
       39.96205660377359
      ],
      [
       116.3553,
       39.96156603773585
      ],
      [
       116.3553,
       39.961075471698116
      ],
      [
       116.3553,
       39.96058490566038
      ],
      [
       116.3553,
       39.96009433962264
      ],
      [
       116.3553,
       39.95960377358491
      ],
      [
       116.3553,
       39.95911320754717
      ],
      [
       116.3553,
       39.958622641509436
      ],
      [
       116.3553,
       39.9581320754717
      ],
      [
       116.3553,
       39.95764150943396
      ],
      [
       116.3553,
       39.95715094339623
      ],
      [
       116.3553,
       39.956660377358496
      ],
      [
       116.3553,
       39.956169811320756
      ],
      [
       116.3553,
       39.95567924528302
      ],
      [
       116.3553,
       39.95518867924528
      ],
      [
       116.3553,
       39.95469811320755
      ],
      [
       116.3553,
       39.954207547169815
      ],
      [
       116.3553,
       39.953716981132075
      ],
      [
       116.3553,
       39.95322641509434
      ],
      [
       116.3553,
       39.95273584905661
      ],
      [
       116.3553,
       39.95224528301887
      ],
      [
       116.3553,
       39.951754716981135
      ],
      [
       116.3553,
       39.951264150943395
      ],
      [
       116.3553,
       39.95077358490566
      ],
      [
       116.3553,
       39.95028301886793
      ],
      [
       116.3553,
       39.94979245283019
      ],
      [
       116.3553,
       39.949301886792455
      ],
      [
       116.3553,
       39.94881132075472
      ],
      [
       116.3553,
       39.94832075471698
      ],
      [
       116.3553,
       39.94783018867925
      ],
      [
       116.3553,
       39.94733962264151
      ],
      [
       116.3553,
       39.946849056603774
      ],
      [
       116.3553,
       39.94635849056604
      ],
      [
       116.3553,
       39.9458679245283
      ],
      [
       116.3553,
       39.94537735849057
      ],
      [
       116.3553,
       39.944886792452834
      ],
      [
       116.3553,
       39.944396226415094
      ],
      [
       116.3553,
       39.94390566037736
      ],
      [
       116.3553,
       39.94341509433962
      ],
      [
       116.3553,
       39.94292452830189
      ],
      [
       116.3553,
       39.942433962264154
      ],
      [
       116.3553,
       39.941943396226414
      ],
      [
       116.3553,
       39.94145283018868
      ],
      [
       116.3553,
       39.94096226415095
      ],
      [
       116.3553,
       39.94047169811321
      ],
      [
       116.3553,
       39.939981132075474
      ],
      [
       116.3553,
       39.93949056603773
      ],
      [
       116.3553,
       39.939
      ],
      [
       116.35481333333334,
       39.939
      ],
      [
       116.35432666666667,
       39.939
      ],
      [
       116.35384,
       39.939
      ],
      [
       116.35335333333333,
       39.939
      ],
      [
       116.35286666666667,
       39.939
      ],
      [
       116.35238,
       39.939
      ],
      [
       116.35189333333334,
       39.939
      ],
      [
       116.35140666666666,
       39.939
      ],
      [
       116.35092,
       39.939
      ],
      [
       116.35043333333333,
       39.939
      ],
      [
       116.34994666666667,
       39.939
      ],
      [
       116.34946,
       39.939
      ],
      [
       116.34897333333333,
       39.939
      ],
      [
       116.34848666666666,
       39.939
      ],
      [
       116.348,
       39.939
      ],
      [
       116.34751333333334,
       39.939
      ],
      [
       116.34702666666666,
       39.939
      ],
      [
       116.34654,
       39.939
      ],
      [
       116.34605333333333,
       39.939
      ],
      [
       116.34556666666667,
       39.939
      ],
      [
       116.34508,
       39.939
      ],
      [
       116.34459333333334,
       39.939
      ],
      [
       116.34410666666666,
       39.939
      ],
      [
       116.34362,
       39.939
      ],
      [
       116.34313333333333,
       39.939
      ],
      [
       116.34264666666667,
       39.939
      ],
      [
       116.34215999999999,
       39.939
      ],
      [
       116.34167333333333,
       39.939
      ],
      [
       116.34118666666666,
       39.939
      ],
      [
       116.3407,
       39.939
      ]
     ]
    ]
   }
  },
  {
   "type": "Feature",
   "id": "PH-002",
   "properties": {
    "id": "PH-002",
    "layer": "PHASE",
    "name_zh": "中期:原点头车与中段缝合(2028-2031)",
    "source_type": "agent_generated_design",
    "confidence": "medium",
    "geometry_role": "design_proposal",
    "phase": "mid_term",
    "area_sqm_declared": 3798927.8
   },
   "geometry": {
    "type": "Polygon",
    "coordinates": [
     [
      [
       116.3548125,
       39.965
      ],
      [
       116.354325,
       39.965
      ],
      [
       116.3538375,
       39.965
      ],
      [
       116.35335,
       39.965
      ],
      [
       116.3528625,
       39.965
      ],
      [
       116.352375,
       39.965
      ],
      [
       116.3518875,
       39.965
      ],
      [
       116.3514,
       39.965
      ],
      [
       116.35091249999999,
       39.965
      ],
      [
       116.350425,
       39.965
      ],
      [
       116.3499375,
       39.965
      ],
      [
       116.34944999999999,
       39.965
      ],
      [
       116.3489625,
       39.965
      ],
      [
       116.348475,
       39.965
      ],
      [
       116.3479875,
       39.965
      ],
      [
       116.3475,
       39.965
      ],
      [
       116.34701249999999,
       39.965
      ],
      [
       116.346525,
       39.965
      ],
      [
       116.3460375,
       39.965
      ],
      [
       116.34555,
       39.965
      ],
      [
       116.3450625,
       39.965
      ],
      [
       116.34457499999999,
       39.965
      ],
      [
       116.3440875,
       39.965
      ],
      [
       116.3436,
       39.965
      ],
      [
       116.34311249999999,
       39.965
      ],
      [
       116.342625,
       39.965
      ],
      [
       116.34213749999999,
       39.965
      ],
      [
       116.34164999999999,
       39.965
      ],
      [
       116.3411625,
       39.965
      ],
      [
       116.34067499999999,
       39.965
      ],
      [
       116.3401875,
       39.965
      ],
      [
       116.33997777777778,
       39.965
      ],
      [
       116.33997397260273,
       39.965136986301374
      ],
      [
       116.3399602739726,
       39.965630136986306
      ],
      [
       116.33994657534247,
       39.96612328767123
      ],
      [
       116.33993287671233,
       39.96661643835616
      ],
      [
       116.33991917808218,
       39.967109589041094
      ],
      [
       116.33990547945204,
       39.967602739726026
      ],
      [
       116.33989178082192,
       39.96809589041096
      ],
      [
       116.33987808219177,
       39.96858904109589
      ],
      [
       116.33986438356163,
       39.96908219178082
      ],
      [
       116.3398506849315,
       39.96957534246575
      ],
      [
       116.33983698630136,
       39.970068493150684
      ],
      [
       116.33982328767122,
       39.970561643835616
      ],
      [
       116.3398095890411,
       39.97105479452055
      ],
      [
       116.33979589041095,
       39.97154794520548
      ],
      [
       116.33978219178081,
       39.97204109589041
      ],
      [
       116.33976849315067,
       39.97253424657534
      ],
      [
       116.33975479452054,
       39.973027397260275
      ],
      [
       116.3397410958904,
       39.973520547945206
      ],
      [
       116.33972739726026,
       39.97401369863014
      ],
      [
       116.33971369863013,
       39.97450684931507
      ],
      [
       116.3397,
       39.975
      ],
      [
       116.33973174603175,
       39.97549206349206
      ],
      [
       116.33976349206348,
       39.97598412698413
      ],
      [
       116.33979523809523,
       39.97647619047619
      ],
      [
       116.33982698412697,
       39.97696825396825
      ],
      [
       116.33985873015872,
       39.97746031746032
      ],
      [
       116.33989047619048,
       39.97795238095238
      ],
      [
       116.33992222222221,
       39.97844444444445
      ],
      [
       116.33995396825397,
       39.97893650793651
      ],
      [
       116.3399857142857,
       39.97942857142857
      ],
      [
       116.34001746031745,
       39.97992063492064
      ],
      [
       116.3400492063492,
       39.9804126984127
      ],
      [
       116.34008095238094,
       39.98090476190476
      ],
      [
       116.3401126984127,
       39.98139682539683
      ],
      [
       116.34014444444443,
       39.98188888888889
      ],
      [
       116.34017619047619,
       39.98238095238095
      ],
      [
       116.34020793650794,
       39.98287301587302
      ],
      [
       116.34023968253967,
       39.98336507936508
      ],
      [
       116.34027142857143,
       39.98385714285715
      ],
      [
       116.34030317460316,
       39.98434920634921
      ],
      [
       116.34033492063492,
       39.98484126984127
      ],
      [
       116.34036666666667,
       39.98533333333334
      ],
      [
       116.3403984126984,
       39.9858253968254
      ],
      [
       116.34043015873016,
       39.98631746031746
      ],
      [
       116.3404619047619,
       39.98680952380953
      ],
      [
       116.34049365079365,
       39.98730158730159
      ],
      [
       116.3405253968254,
       39.98779365079365
      ],
      [
       116.34055714285714,
       39.988285714285716
      ],
      [
       116.34058888888889,
       39.98877777777778
      ],
      [
       116.34062063492063,
       39.989269841269845
      ],
      [
       116.34065238095238,
       39.989761904761906
      ],
      [
       116.34068412698413,
       39.99025396825397
      ],
      [
       116.34071587301587,
       39.990746031746035
      ],
      [
       116.34074761904762,
       39.991238095238096
      ],
      [
       116.34077936507937,
       39.99173015873016
      ],
      [
       116.34081111111111,
       39.992222222222225
      ],
      [
       116.34084285714286,
       39.992714285714285
      ],
      [
       116.3408746031746,
       39.99320634920635
      ],
      [
       116.3408935483871,
       39.9935
      ],
      [
       116.3411625,
       39.9935
      ],
      [
       116.34164999999999,
       39.9935
      ],
      [
       116.34213749999999,
       39.9935
      ],
      [
       116.342625,
       39.9935
      ],
      [
       116.34311249999999,
       39.9935
      ],
      [
       116.3436,
       39.9935
      ],
      [
       116.3440875,
       39.9935
      ],
      [
       116.34457499999999,
       39.9935
      ],
      [
       116.3450625,
       39.9935
      ],
      [
       116.34555,
       39.9935
      ],
      [
       116.3460375,
       39.9935
      ],
      [
       116.346525,
       39.9935
      ],
      [
       116.34701249999999,
       39.9935
      ],
      [
       116.3475,
       39.9935
      ],
      [
       116.3479875,
       39.9935
      ],
      [
       116.348475,
       39.9935
      ],
      [
       116.3489625,
       39.9935
      ],
      [
       116.34944999999999,
       39.9935
      ],
      [
       116.3499375,
       39.9935
      ],
      [
       116.350425,
       39.9935
      ],
      [
       116.35091249999999,
       39.9935
      ],
      [
       116.3514,
       39.9935
      ],
      [
       116.3518875,
       39.9935
      ],
      [
       116.352375,
       39.9935
      ],
      [
       116.3528625,
       39.9935
      ],
      [
       116.35335,
       39.9935
      ],
      [
       116.35349178082191,
       39.9935
      ],
      [
       116.35348918918919,
       39.993452702702704
      ],
      [
       116.35346216216216,
       39.99295945945946
      ],
      [
       116.35343513513514,
       39.992466216216215
      ],
      [
       116.35340810810811,
       39.991972972972974
      ],
      [
       116.35338108108108,
       39.99147972972973
      ],
      [
       116.35335405405405,
       39.99098648648649
      ],
      [
       116.35332702702704,
       39.99049324324324
      ],
      [
       116.3533,
       39.99
      ],
      [
       116.35333921568628,
       39.98950980392157
      ],
      [
       116.35337843137255,
       39.98901960784314
      ],
      [
       116.35341764705883,
       39.98852941176471
      ],
      [
       116.3534568627451,
       39.98803921568628
      ],
      [
       116.35349607843138,
       39.98754901960785
      ],
      [
       116.35353529411765,
       39.987058823529416
      ],
      [
       116.35357450980392,
       39.986568627450986
      ],
      [
       116.3536137254902,
       39.986078431372555
      ],
      [
       116.35365294117648,
       39.98558823529412
      ],
      [
       116.35369215686275,
       39.985098039215686
      ],
      [
       116.35373137254902,
       39.984607843137255
      ],
      [
       116.35377058823529,
       39.984117647058824
      ],
      [
       116.35380980392158,
       39.98362745098039
      ],
      [
       116.35384901960785,
       39.98313725490196
      ],
      [
       116.35388823529412,
       39.98264705882353
      ],
      [
       116.3539274509804,
       39.9821568627451
      ],
      [
       116.35396666666666,
       39.98166666666667
      ],
      [
       116.35400588235295,
       39.98117647058824
      ],
      [
       116.35404509803922,
       39.98068627450981
      ],
      [
       116.3540843137255,
       39.980196078431376
      ],
      [
       116.35412352941177,
       39.979705882352945
      ],
      [
       116.35416274509804,
       39.979215686274514
      ],
      [
       116.35420196078432,
       39.978725490196084
      ],
      [
       116.3542411764706,
       39.97823529411765
      ],
      [
       116.35428039215687,
       39.97774509803922
      ],
      [
       116.35431960784314,
       39.977254901960784
      ],
      [
       116.35435882352941,
       39.97676470588235
      ],
      [
       116.35439803921568,
       39.97627450980392
      ],
      [
       116.35443725490197,
       39.97578431372549
      ],
      [
       116.35447647058824,
       39.97529411764706
      ],
      [
       116.35451568627451,
       39.97480392156863
      ],
      [
       116.35455490196078,
       39.9743137254902
      ],
      [
       116.35459411764705,
       39.97382352941177
      ],
      [
       116.35463333333334,
       39.973333333333336
      ],
      [
       116.35467254901961,
       39.972843137254905
      ],
      [
       116.35471176470588,
       39.972352941176474
      ],
      [
       116.35475098039215,
       39.97186274509804
      ],
      [
       116.35479019607843,
       39.97137254901961
      ],
      [
       116.35482941176471,
       39.97088235294118
      ],
      [
       116.35486862745098,
       39.97039215686275
      ],
      [
       116.35490784313725,
       39.96990196078432
      ],
      [
       116.35494705882353,
       39.96941176470589
      ],
      [
       116.3549862745098,
       39.96892156862745
      ],
      [
       116.35502549019608,
       39.96843137254902
      ],
      [
       116.35506470588236,
       39.96794117647059
      ],
      [
       116.35510392156863,
       39.96745098039216
      ],
      [
       116.3551431372549,
       39.96696078431373
      ],
      [
       116.35518235294117,
       39.966470588235296
      ],
      [
       116.35522156862746,
       39.965980392156865
      ],
      [
       116.35526078431373,
       39.965490196078434
      ],
      [
       116.3553,
       39.965
      ],
      [
       116.3548125,
       39.965
      ]
     ]
    ]
   }
  },
  {
   "type": "Feature",
   "id": "PH-003",
   "properties": {
    "id": "PH-003",
    "layer": "PHASE",
    "name_zh": "远期:北段机车库与全链贯通(2031-2035)",
    "source_type": "agent_generated_design",
    "confidence": "medium",
    "geometry_role": "design_proposal",
    "phase": "far_term",
    "area_sqm_declared": 3875024.9
   },
   "geometry": {
    "type": "Polygon",
    "coordinates": [
     [
      [
       116.35335714285715,
       39.9935
      ],
      [
       116.35287142857143,
       39.9935
      ],
      [
       116.35238571428572,
       39.9935
      ],
      [
       116.3519,
       39.9935
      ],
      [
       116.35141428571428,
       39.9935
      ],
      [
       116.35092857142857,
       39.9935
      ],
      [
       116.35044285714285,
       39.9935
      ],
      [
       116.34995714285715,
       39.9935
      ],
      [
       116.34947142857143,
       39.9935
      ],
      [
       116.34898571428572,
       39.9935
      ],
      [
       116.3485,
       39.9935
      ],
      [
       116.34801428571429,
       39.9935
      ],
      [
       116.34752857142857,
       39.9935
      ],
      [
       116.34704285714285,
       39.9935
      ],
      [
       116.34655714285715,
       39.9935
      ],
      [
       116.34607142857143,
       39.9935
      ],
      [
       116.34558571428572,
       39.9935
      ],
      [
       116.3451,
       39.9935
      ],
      [
       116.34461428571429,
       39.9935
      ],
      [
       116.34412857142857,
       39.9935
      ],
      [
       116.34364285714285,
       39.9935
      ],
      [
       116.34315714285715,
       39.9935
      ],
      [
       116.34267142857144,
       39.9935
      ],
      [
       116.34218571428572,
       39.9935
      ],
      [
       116.3417,
       39.9935
      ],
      [
       116.3417,
       39.99399253731343
      ],
      [
       116.3417,
       39.994485074626866
      ],
      [
       116.3417,
       39.99497761194029
      ],
      [
       116.3417,
       39.99547014925373
      ],
      [
       116.3417,
       39.99596268656716
      ],
      [
       116.3417,
       39.996455223880595
      ],
      [
       116.3417,
       39.99694776119403
      ],
      [
       116.3417,
       39.99744029850746
      ],
      [
       116.3417,
       39.99793283582089
      ],
      [
       116.3417,
       39.998425373134324
      ],
      [
       116.3417,
       39.99891791044776
      ],
      [
       116.3417,
       39.99941044776119
      ],
      [
       116.3417,
       39.99990298507463
      ],
      [
       116.3417,
       40.000395522388054
      ],
      [
       116.3417,
       40.00088805970149
      ],
      [
       116.3417,
       40.00138059701492
      ],
      [
       116.3417,
       40.001873134328356
      ],
      [
       116.3417,
       40.00236567164179
      ],
      [
       116.3417,
       40.002858208955224
      ],
      [
       116.3417,
       40.00335074626865
      ],
      [
       116.3417,
       40.003843283582086
      ],
      [
       116.3417,
       40.00433582089552
      ],
      [
       116.3417,
       40.004828358208954
      ],
      [
       116.3417,
       40.00532089552239
      ],
      [
       116.3417,
       40.00581343283582
      ],
      [
       116.3417,
       40.006
      ],
      [
       116.34172380952381,
       40.0064880952381
      ],
      [
       116.34174761904762,
       40.00697619047619
      ],
      [
       116.34177142857143,
       40.007464285714285
      ],
      [
       116.34179523809524,
       40.00795238095238
      ],
      [
       116.34181904761905,
       40.00844047619048
      ],
      [
       116.34184285714286,
       40.00892857142857
      ],
      [
       116.34186666666668,
       40.00941666666667
      ],
      [
       116.34189047619047,
       40.009904761904764
      ],
      [
       116.34191428571428,
       40.010392857142854
      ],
      [
       116.34193809523809,
       40.01088095238095
      ],
      [
       116.3419619047619,
       40.01136904761905
      ],
      [
       116.34198571428571,
       40.011857142857146
      ],
      [
       116.34200952380952,
       40.012345238095236
      ],
      [
       116.34203333333333,
       40.01283333333333
      ],
      [
       116.34205714285714,
       40.01332142857143
      ],
      [
       116.34208095238095,
       40.01380952380952
      ],
      [
       116.34210476190476,
       40.01429761904762
      ],
      [
       116.34212857142857,
       40.014785714285715
      ],
      [
       116.34215238095238,
       40.01527380952381
      ],
      [
       116.3421761904762,
       40.0157619047619
      ],
      [
       116.34219999999999,
       40.01625
      ],
      [
       116.3422238095238,
       40.0167380952381
      ],
      [
       116.34224761904761,
       40.01722619047619
      ],
      [
       116.34227142857142,
       40.017714285714284
      ],
      [
       116.34229523809523,
       40.01820238095238
      ],
      [
       116.34231904761904,
       40.01869047619048
      ],
      [
       116.34234285714285,
       40.01917857142857
      ],
      [
       116.34236666666666,
       40.019666666666666
      ],
      [
       116.34239047619047,
       40.02015476190476
      ],
      [
       116.34241428571428,
       40.02064285714285
      ],
      [
       116.3424380952381,
       40.02113095238095
      ],
      [
       116.3424619047619,
       40.02161904761905
      ],
      [
       116.34248571428571,
       40.022107142857145
      ],
      [
       116.34250952380953,
       40.022595238095235
      ],
      [
       116.34253333333332,
       40.02308333333333
      ],
      [
       116.34255714285713,
       40.02357142857143
      ],
      [
       116.34258095238094,
       40.02405952380952
      ],
      [
       116.34260476190475,
       40.02454761904762
      ],
      [
       116.34262857142856,
       40.025035714285714
      ],
      [
       116.34265238095237,
       40.02552380952381
      ],
      [
       116.34267619047618,
       40.0260119047619
      ],
      [
       116.3427,
       40.0265
      ],
      [
       116.34315714285715,
       40.0265
      ],
      [
       116.34318461538462,
       40.0265
      ],
      [
       116.34364285714285,
       40.0265
      ],
      [
       116.34366923076922,
       40.0265
      ],
      [
       116.34412857142857,
       40.0265
      ],
      [
       116.34415384615384,
       40.0265
      ],
      [
       116.34461428571429,
       40.0265
      ],
      [
       116.34463846153845,
       40.0265
      ],
      [
       116.3451,
       40.0265
      ],
      [
       116.34512307692307,
       40.0265
      ],
      [
       116.34558571428572,
       40.0265
      ],
      [
       116.34560769230768,
       40.0265
      ],
      [
       116.34607142857143,
       40.0265
      ],
      [
       116.3460923076923,
       40.0265
      ],
      [
       116.34655714285715,
       40.0265
      ],
      [
       116.34657692307692,
       40.0265
      ],
      [
       116.34704285714285,
       40.0265
      ],
      [
       116.34706153846153,
       40.0265
      ],
      [
       116.34752857142857,
       40.0265
      ],
      [
       116.34754615384615,
       40.0265
      ],
      [
       116.34801428571429,
       40.0265
      ],
      [
       116.34803076923076,
       40.0265
      ],
      [
       116.3485,
       40.0265
      ],
      [
       116.34851538461538,
       40.0265
      ],
      [
       116.34898571428572,
       40.0265
      ],
      [
       116.34899999999999,
       40.0265
      ],
      [
       116.34947142857143,
       40.0265
      ],
      [
       116.34948461538461,
       40.0265
      ],
      [
       116.34995714285715,
       40.0265
      ],
      [
       116.34996923076923,
       40.0265
      ],
      [
       116.35044285714285,
       40.0265
      ],
      [
       116.35045384615384,
       40.0265
      ],
      [
       116.35092857142857,
       40.0265
      ],
      [
       116.35093846153846,
       40.0265
      ],
      [
       116.35141428571428,
       40.0265
      ],
      [
       116.35142307692307,
       40.0265
      ],
      [
       116.3519,
       40.0265
      ],
      [
       116.35190769230769,
       40.0265
      ],
      [
       116.35238571428572,
       40.0265
      ],
      [
       116.35239230769231,
       40.0265
      ],
      [
       116.35287142857143,
       40.0265
      ],
      [
       116.35287692307692,
       40.0265
      ],
      [
       116.35335714285715,
       40.0265
      ],
      [
       116.35336153846154,
       40.0265
      ],
      [
       116.35384285714285,
       40.0265
      ],
      [
       116.35384615384615,
       40.0265
      ],
      [
       116.35432857142857,
       40.0265
      ],
      [
       116.35433076923077,
       40.0265
      ],
      [
       116.35481428571428,
       40.0265
      ],
      [
       116.35481538461538,
       40.0265
      ],
      [
       116.3553,
       40.0265
      ],
      [
       116.35527297297297,
       40.02600675675676
      ],
      [
       116.35524594594595,
       40.02551351351351
      ],
      [
       116.35521891891892,
       40.02502027027027
      ],
      [
       116.35519189189189,
       40.02452702702703
      ],
      [
       116.35516486486486,
       40.024033783783786
      ],
      [
       116.35513783783784,
       40.02354054054054
      ],
      [
       116.35511081081081,
       40.023047297297296
      ],
      [
       116.35508378378378,
       40.022554054054055
      ],
      [
       116.35505675675675,
       40.02206081081081
      ],
      [
       116.35502972972974,
       40.021567567567566
      ],
      [
       116.3550027027027,
       40.021074324324324
      ],
      [
       116.35497567567568,
       40.02058108108108
      ],
      [
       116.35494864864864,
       40.020087837837835
      ],
      [
       116.35492162162163,
       40.019594594594594
      ],
      [
       116.3548945945946,
       40.01910135135135
      ],
      [
       116.35486756756757,
       40.018608108108104
      ],
      [
       116.35484054054054,
       40.01811486486486
      ],
      [
       116.35481351351352,
       40.01762162162162
      ],
      [
       116.35478648648649,
       40.01712837837838
      ],
      [
       116.35475945945946,
       40.01663513513513
      ],
      [
       116.35473243243243,
       40.01614189189189
      ],
      [
       116.35470540540541,
       40.01564864864865
      ],
      [
       116.35467837837838,
       40.0151554054054
      ],
      [
       116.35465135135135,
       40.01466216216216
      ],
      [
       116.35462432432432,
       40.01416891891892
      ],
      [
       116.3545972972973,
       40.01367567567568
      ],
      [
       116.35457027027027,
       40.01318243243243
      ],
      [
       116.35454324324324,
       40.01268918918919
      ],
      [
       116.35451621621621,
       40.01219594594595
      ],
      [
       116.3544891891892,
       40.0117027027027
      ],
      [
       116.35446216216216,
       40.01120945945946
      ],
      [
       116.35443513513513,
       40.01071621621622
      ],
      [
       116.3544081081081,
       40.010222972972976
      ],
      [
       116.35438108108109,
       40.00972972972973
      ],
      [
       116.35435405405406,
       40.009236486486486
      ],
      [
       116.35432702702703,
       40.008743243243245
      ],
      [
       116.3543,
       40.008250000000004
      ],
      [
       116.35427297297298,
       40.007756756756756
      ],
      [
       116.35424594594595,
       40.007263513513514
      ],
      [
       116.35421891891892,
       40.00677027027027
      ],
      [
       116.3541918918919,
       40.006277027027025
      ],
      [
       116.35416486486487,
       40.005783783783784
      ],
      [
       116.35413783783784,
       40.00529054054054
      ],
      [
       116.35411081081081,
       40.0047972972973
      ],
      [
       116.35408378378379,
       40.00430405405405
      ],
      [
       116.35405675675676,
       40.00381081081081
      ],
      [
       116.35402972972973,
       40.00331756756757
      ],
      [
       116.3540027027027,
       40.00282432432432
      ],
      [
       116.35397567567568,
       40.00233108108108
      ],
      [
       116.35394864864865,
       40.00183783783784
      ],
      [
       116.35392162162162,
       40.0013445945946
      ],
      [
       116.35389459459459,
       40.00085135135135
      ],
      [
       116.35386756756758,
       40.00035810810811
      ],
      [
       116.35384054054055,
       39.99986486486487
      ],
      [
       116.35381351351351,
       39.99937162162162
      ],
      [
       116.35378648648648,
       39.99887837837838
      ],
      [
       116.35375945945947,
       39.99838513513514
      ],
      [
       116.35373243243244,
       39.997891891891896
      ],
      [
       116.3537054054054,
       39.99739864864865
      ],
      [
       116.35367837837838,
       39.99690540540541
      ],
      [
       116.35365135135136,
       39.996412162162166
      ],
      [
       116.35362432432433,
       39.99591891891892
      ],
      [
       116.3535972972973,
       39.995425675675676
      ],
      [
       116.35357027027027,
       39.994932432432435
      ],
      [
       116.35354324324325,
       39.994439189189194
      ],
      [
       116.35351621621622,
       39.993945945945946
      ],
      [
       116.35349178082191,
       39.9935
      ],
      [
       116.35335714285715,
       39.9935
      ]
     ]
    ]
   }
  }
 ]
}