{
 "type": "FeatureCollection",
 "name": "public_space",
 "features": [
  {
   "type": "Feature",
   "id": "CP-01",
   "properties": {
    "id": "CP-01",
    "layer": "PUBLIC_SPACE",
    "name_zh": "大钟寺三灯连挂钩位",
    "source_type": "agent_generated_design",
    "confidence": "medium",
    "geometry_role": "design_proposal",
    "space_type": "coupler_node_plaza",
    "area_sqm_declared": 45549.6,
    "note_zh": "车钩节点广场：AI场景与公共空间的连挂/解挂/缓冲展示点。"
   },
   "geometry": {
    "type": "Polygon",
    "coordinates": [
     [
      [
       116.3442,
       39.947500000000005
      ],
      [
       116.3442,
       39.948
      ],
      [
       116.3442,
       39.948499999999996
      ],
      [
       116.3442,
       39.949
      ],
      [
       116.34468,
       39.949
      ],
      [
       116.34515999999999,
       39.949
      ],
      [
       116.34564,
       39.949
      ],
      [
       116.34612,
       39.949
      ],
      [
       116.3466,
       39.949
      ],
      [
       116.3466,
       39.948499999999996
      ],
      [
       116.3466,
       39.948
      ],
      [
       116.3466,
       39.947500000000005
      ],
      [
       116.3466,
       39.947
      ],
      [
       116.34612,
       39.947
      ],
      [
       116.34564,
       39.947
      ],
      [
       116.34515999999999,
       39.947
      ],
      [
       116.34468,
       39.947
      ],
      [
       116.3442,
       39.947
      ],
      [
       116.3442,
       39.947500000000005
      ]
     ]
    ]
   }
  },
  {
   "type": "Feature",
   "id": "CP-02",
   "properties": {
    "id": "CP-02",
    "layer": "PUBLIC_SPACE",
    "name_zh": "知春路换向钩位",
    "source_type": "agent_generated_design",
    "confidence": "medium",
    "geometry_role": "design_proposal",
    "space_type": "coupler_node_plaza",
    "area_sqm_declared": 68773.4,
    "note_zh": "车钩节点广场：AI场景与公共空间的连挂/解挂/缓冲展示点。"
   },
   "geometry": {
    "type": "Polygon",
    "coordinates": [
     [
      [
       116.344,
       39.97291666666666
      ],
      [
       116.344,
       39.97333333333333
      ],
      [
       116.344,
       39.973749999999995
      ],
      [
       116.344,
       39.97416666666667
      ],
      [
       116.344,
       39.974583333333335
      ],
      [
       116.344,
       39.975
      ],
      [
       116.34448333333333,
       39.975
      ],
      [
       116.34496666666666,
       39.975
      ],
      [
       116.34545,
       39.975
      ],
      [
       116.34593333333333,
       39.975
      ],
      [
       116.34641666666667,
       39.975
      ],
      [
       116.3469,
       39.975
      ],
      [
       116.3469,
       39.974583333333335
      ],
      [
       116.3469,
       39.97416666666667
      ],
      [
       116.3469,
       39.973749999999995
      ],
      [
       116.3469,
       39.97333333333333
      ],
      [
       116.3469,
       39.97291666666666
      ],
      [
       116.3469,
       39.9725
      ],
      [
       116.34641666666667,
       39.9725
      ],
      [
       116.34593333333333,
       39.9725
      ],
      [
       116.34545,
       39.9725
      ],
      [
       116.34496666666666,
       39.9725
      ],
      [
       116.34448333333333,
       39.9725
      ],
      [
       116.344,
       39.9725
      ],
      [
       116.344,
       39.97291666666666
      ]
     ]
    ]
   }
  },
  {
   "type": "Feature",
   "id": "CP-03",
   "properties": {
    "id": "CP-03",
    "layer": "PUBLIC_SPACE",
    "name_zh": "成府路缝合钩位",
    "source_type": "agent_generated_design",
    "confidence": "medium",
    "geometry_role": "design_proposal",
    "space_type": "coupler_node_plaza",
    "area_sqm_declared": 58797.3,
    "note_zh": "车钩节点广场：AI场景与公共空间的连挂/解挂/缓冲展示点。"
   },
   "geometry": {
    "type": "Polygon",
    "coordinates": [
     [
      [
       116.3435,
       39.992000000000004
      ],
      [
       116.3435,
       39.9925
      ],
      [
       116.3435,
       39.992999999999995
      ],
      [
       116.3435,
       39.9935
      ],
      [
       116.34394285714286,
       39.9935
      ],
      [
       116.34438571428572,
       39.9935
      ],
      [
       116.34482857142858,
       39.9935
      ],
      [
       116.34527142857142,
       39.9935
      ],
      [
       116.34571428571428,
       39.9935
      ],
      [
       116.34615714285714,
       39.9935
      ],
      [
       116.3466,
       39.9935
      ],
      [
       116.3466,
       39.992999999999995
      ],
      [
       116.3466,
       39.9925
      ],
      [
       116.3466,
       39.992000000000004
      ],
      [
       116.3466,
       39.9915
      ],
      [
       116.34615714285714,
       39.9915
      ],
      [
       116.34571428571428,
       39.9915
      ],
      [
       116.34527142857142,
       39.9915
      ],
      [
       116.34482857142858,
       39.9915
      ],
      [
       116.34438571428572,
       39.9915
      ],
      [
       116.34394285714286,
       39.9915
      ],
      [
       116.3435,
       39.9915
      ],
      [
       116.3435,
       39.992000000000004
      ]
     ]
    ]
   }
  },
  {
   "type": "Feature",
   "id": "CP-04",
   "properties": {
    "id": "CP-04",
    "layer": "PUBLIC_SPACE",
    "name_zh": "原点社区头车钩位",
    "source_type": "agent_generated_design",
    "confidence": "medium",
    "geometry_role": "design_proposal",
    "space_type": "coupler_node_plaza",
    "area_sqm_declared": 165970.8,
    "note_zh": "车钩节点广场：AI场景与公共空间的连挂/解挂/缓冲展示点。"
   },
   "geometry": {
    "type": "Polygon",
    "coordinates": [
     [
      [
       116.344,
       39.986000000000004
      ],
      [
       116.344,
       39.9865
      ],
      [
       116.344,
       39.987
      ],
      [
       116.344,
       39.9875
      ],
      [
       116.344,
       39.988
      ],
      [
       116.344,
       39.9885
      ],
      [
       116.344,
       39.989
      ],
      [
       116.344,
       39.9895
      ],
      [
       116.344,
       39.989999999999995
      ],
      [
       116.344,
       39.9905
      ],
      [
       116.3444375,
       39.9905
      ],
      [
       116.344875,
       39.9905
      ],
      [
       116.34531249999999,
       39.9905
      ],
      [
       116.34575,
       39.9905
      ],
      [
       116.3461875,
       39.9905
      ],
      [
       116.34662499999999,
       39.9905
      ],
      [
       116.34706249999999,
       39.9905
      ],
      [
       116.3475,
       39.9905
      ],
      [
       116.3475,
       39.989999999999995
      ],
      [
       116.3475,
       39.9895
      ],
      [
       116.3475,
       39.989
      ],
      [
       116.3475,
       39.9885
      ],
      [
       116.3475,
       39.988
      ],
      [
       116.3475,
       39.9875
      ],
      [
       116.3475,
       39.987
      ],
      [
       116.3475,
       39.9865
      ],
      [
       116.3475,
       39.986000000000004
      ],
      [
       116.3475,
       39.9855
      ],
      [
       116.34706249999999,
       39.9855
      ],
      [
       116.34662499999999,
       39.9855
      ],
      [
       116.3461875,
       39.9855
      ],
      [
       116.34575,
       39.9855
      ],
      [
       116.34531249999999,
       39.9855
      ],
      [
       116.344875,
       39.9855
      ],
      [
       116.3444375,
       39.9855
      ],
      [
       116.344,
       39.9855
      ],
      [
       116.344,
       39.986000000000004
      ]
     ]
    ]
   }
  },
  {
   "type": "Feature",
   "id": "CP-05",
   "properties": {
    "id": "CP-05",
    "layer": "PUBLIC_SPACE",
    "name_zh": "清华东路试验钩位",
    "source_type": "agent_generated_design",
    "confidence": "medium",
    "geometry_role": "design_proposal",
    "space_type": "coupler_node_plaza",
    "area_sqm_declared": 42666.7,
    "note_zh": "车钩节点广场：AI场景与公共空间的连挂/解挂/缓冲展示点。"
   },
   "geometry": {
    "type": "Polygon",
    "coordinates": [
     [
      [
       116.343,
       40.006375
      ],
      [
       116.343,
       40.00675
      ],
      [
       116.343,
       40.007125
      ],
      [
       116.343,
       40.0075
      ],
      [
       116.34342857142857,
       40.0075
      ],
      [
       116.34385714285715,
       40.0075
      ],
      [
       116.34428571428572,
       40.0075
      ],
      [
       116.34471428571429,
       40.0075
      ],
      [
       116.34514285714286,
       40.0075
      ],
      [
       116.34557142857143,
       40.0075
      ],
      [
       116.346,
       40.0075
      ],
      [
       116.346,
       40.007125
      ],
      [
       116.346,
       40.00675
      ],
      [
       116.346,
       40.006375
      ],
      [
       116.346,
       40.006
      ],
      [
       116.34557142857143,
       40.006
      ],
      [
       116.34514285714286,
       40.006
      ],
      [
       116.34471428571429,
       40.006
      ],
      [
       116.34428571428572,
       40.006
      ],
      [
       116.34385714285715,
       40.006
      ],
      [
       116.34342857142857,
       40.006
      ],
      [
       116.343,
       40.006
      ],
      [
       116.343,
       40.006375
      ]
     ]
    ]
   }
  },
  {
   "type": "Feature",
   "id": "CP-06",
   "properties": {
    "id": "CP-06",
    "layer": "PUBLIC_SPACE",
    "name_zh": "众智园机车钩位",
    "source_type": "agent_generated_design",
    "confidence": "medium",
    "geometry_role": "design_proposal",
    "space_type": "coupler_node_plaza",
    "area_sqm_declared": 132730.7,
    "note_zh": "车钩节点广场：AI场景与公共空间的连挂/解挂/缓冲展示点。"
   },
   "geometry": {
    "type": "Polygon",
    "coordinates": [
     [
      [
       116.3435,
       40.010444444444445
      ],
      [
       116.3435,
       40.010888888888886
      ],
      [
       116.3435,
       40.01133333333333
      ],
      [
       116.3435,
       40.01177777777778
      ],
      [
       116.3435,
       40.01222222222222
      ],
      [
       116.3435,
       40.01266666666667
      ],
      [
       116.3435,
       40.013111111111115
      ],
      [
       116.3435,
       40.013555555555556
      ],
      [
       116.3435,
       40.014
      ],
      [
       116.34400000000001,
       40.014
      ],
      [
       116.3445,
       40.014
      ],
      [
       116.345,
       40.014
      ],
      [
       116.3455,
       40.014
      ],
      [
       116.346,
       40.014
      ],
      [
       116.34649999999999,
       40.014
      ],
      [
       116.347,
       40.014
      ],
      [
       116.347,
       40.013555555555556
      ],
      [
       116.347,
       40.013111111111115
      ],
      [
       116.347,
       40.01266666666667
      ],
      [
       116.347,
       40.01222222222222
      ],
      [
       116.347,
       40.01177777777778
      ],
      [
       116.347,
       40.01133333333333
      ],
      [
       116.347,
       40.010888888888886
      ],
      [
       116.347,
       40.010444444444445
      ],
      [
       116.347,
       40.01
      ],
      [
       116.34649999999999,
       40.01
      ],
      [
       116.346,
       40.01
      ],
      [
       116.3455,
       40.01
      ],
      [
       116.345,
       40.01
      ],
      [
       116.3445,
       40.01
      ],
      [
       116.34400000000001,
       40.01
      ],
      [
       116.3435,
       40.01
      ],
      [
       116.3435,
       40.010444444444445
      ]
     ]
    ]
   }
  },
  {
   "type": "Feature",
   "id": "PS-001",
   "properties": {
    "id": "PS-001",
    "layer": "PUBLIC_SPACE",
    "name_zh": "中关村科技服务翼机务段广场",
    "source_type": "agent_generated_design",
    "confidence": "medium",
    "geometry_role": "design_proposal",
    "space_type": "service_depot_plaza",
    "area_sqm_declared": 149377.3
   },
   "geometry": {
    "type": "Polygon",
    "coordinates": [
     [
      [
       116.3495,
       39.98445
      ],
      [
       116.3495,
       39.9849
      ],
      [
       116.3495,
       39.985350000000004
      ],
      [
       116.3495,
       39.985800000000005
      ],
      [
       116.3495,
       39.98625
      ],
      [
       116.3495,
       39.9867
      ],
      [
       116.3495,
       39.98715
      ],
      [
       116.3495,
       39.9876
      ],
      [
       116.3495,
       39.98805
      ],
      [
       116.3495,
       39.9885
      ],
      [
       116.35000000000001,
       39.9885
      ],
      [
       116.3505,
       39.9885
      ],
      [
       116.351,
       39.9885
      ],
      [
       116.3515,
       39.9885
      ],
      [
       116.352,
       39.9885
      ],
      [
       116.35249999999999,
       39.9885
      ],
      [
       116.353,
       39.9885
      ],
      [
       116.353,
       39.98805
      ],
      [
       116.353,
       39.9876
      ],
      [
       116.353,
       39.98715
      ],
      [
       116.353,
       39.9867
      ],
      [
       116.353,
       39.98625
      ],
      [
       116.353,
       39.985800000000005
      ],
      [
       116.353,
       39.985350000000004
      ],
      [
       116.353,
       39.9849
      ],
      [
       116.353,
       39.98445
      ],
      [
       116.353,
       39.984
      ],
      [
       116.35249999999999,
       39.984
      ],
      [
       116.352,
       39.984
      ],
      [
       116.3515,
       39.984
      ],
      [
       116.351,
       39.984
      ],
      [
       116.3505,
       39.984
      ],
      [
       116.35000000000001,
       39.984
      ],
      [
       116.3495,
       39.984
      ],
      [
       116.3495,
       39.98445
      ]
     ]
    ]
   }
  }
 ]
}