{
  "type": "FeatureCollection",
  "name": "pause_line_building_prototypes",
  "features": [
    {
      "type": "Feature",
      "id": "BLDG-001",
      "properties": {
        "id": "BLDG-001",
        "source_type": "agent_generated_design",
        "confidence": "medium",
        "geometry_role": "design_proposal",
        "layer": "BUILDING_FOOTPRINT",
        "building_type": "community_service",
        "name_zh": "停靠服务建筑原型 1",
        "name_en": "Pause service building prototype 1",
        "retain_renew_status": "retain_and_retrofit",
        "design_note": "Illustrative envelope only; survey, ownership, heritage, fire safety, height, and FAR controls are pending.",
        "area_sqm_declared": 13440.0
      },
      "geometry": {
        "type": "Polygon",
        "coordinates": [
          [
            [
              116.34342645,
              39.94706007
            ],
            [
              116.3434144,
              39.94832086
            ],
            [
              116.34453768,
              39.94832722
            ],
            [
              116.34454971,
              39.94706642
            ],
            [
              116.34342645,
              39.94706007
            ]
          ]
        ]
      }
    },
    {
      "type": "Feature",
      "id": "BLDG-002",
      "properties": {
        "id": "BLDG-002",
        "source_type": "agent_generated_design",
        "confidence": "medium",
        "geometry_role": "design_proposal",
        "layer": "BUILDING_FOOTPRINT",
        "building_type": "mobility_hub",
        "name_zh": "停靠服务建筑原型 2",
        "name_en": "Pause service building prototype 2",
        "retain_renew_status": "adaptive_infill",
        "design_note": "Illustrative envelope only; survey, ownership, heritage, fire safety, height, and FAR controls are pending.",
        "area_sqm_declared": 13440.0
      },
      "geometry": {
        "type": "Polygon",
        "coordinates": [
          [
            [
              116.35162561,
              39.94710621
            ],
            [
              116.35161371,
              39.94836701
            ],
            [
              116.35273699,
              39.94837329
            ],
            [
              116.35274887,
              39.94711249
            ],
            [
              116.35162561,
              39.94710621
            ]
          ]
        ]
      }
    },
    {
      "type": "Feature",
      "id": "BLDG-003",
      "properties": {
        "id": "BLDG-003",
        "source_type": "agent_generated_design",
        "confidence": "medium",
        "geometry_role": "design_proposal",
        "layer": "BUILDING_FOOTPRINT",
        "building_type": "education",
        "name_zh": "停靠服务建筑原型 3",
        "name_en": "Pause service building prototype 3",
        "retain_renew_status": "adaptive_infill",
        "design_note": "Illustrative envelope only; survey, ownership, heritage, fire safety, height, and FAR controls are pending.",
        "area_sqm_declared": 13440.0
      },
      "geometry": {
        "type": "Polygon",
        "coordinates": [
          [
            [
              116.34329665,
              39.96063287
            ],
            [
              116.34328459,
              39.96189366
            ],
            [
              116.34440809,
              39.96190002
            ],
            [
              116.34442013,
              39.96063923
            ],
            [
              116.34329665,
              39.96063287
            ]
          ]
        ]
      }
    },
    {
      "type": "Feature",
      "id": "BLDG-004",
      "properties": {
        "id": "BLDG-004",
        "source_type": "agent_generated_design",
        "confidence": "medium",
        "geometry_role": "design_proposal",
        "layer": "BUILDING_FOOTPRINT",
        "building_type": "lab",
        "name_zh": "停靠服务建筑原型 4",
        "name_en": "Pause service building prototype 4",
        "retain_renew_status": "retain_and_retrofit",
        "design_note": "Illustrative envelope only; survey, ownership, heritage, fire safety, height, and FAR controls are pending.",
        "area_sqm_declared": 13440.0
      },
      "geometry": {
        "type": "Polygon",
        "coordinates": [
          [
            [
              116.35149743,
              39.96067903
            ],
            [
              116.35148552,
              39.96193983
            ],
            [
              116.35260902,
              39.96194611
            ],
            [
              116.35262091,
              39.96068531
            ],
            [
              116.35149743,
              39.96067903
            ]
          ]
        ]
      }
    },
    {
      "type": "Feature",
      "id": "BLDG-005",
      "properties": {
        "id": "BLDG-005",
        "source_type": "agent_generated_design",
        "confidence": "medium",
        "geometry_role": "design_proposal",
        "layer": "BUILDING_FOOTPRINT",
        "building_type": "incubator",
        "name_zh": "停靠服务建筑原型 5",
        "name_en": "Pause service building prototype 5",
        "retain_renew_status": "adaptive_infill",
        "design_note": "Illustrative envelope only; survey, ownership, heritage, fire safety, height, and FAR controls are pending.",
        "area_sqm_declared": 13440.0
      },
      "geometry": {
        "type": "Polygon",
        "coordinates": [
          [
            [
              116.34316676,
              39.97420563
            ],
            [
              116.34315469,
              39.97546642
            ],
            [
              116.34427842,
              39.97547279
            ],
            [
              116.34429047,
              39.97421199
            ],
            [
              116.34316676,
              39.97420563
            ]
          ]
        ]
      }
    },
    {
      "type": "Feature",
      "id": "BLDG-006",
      "properties": {
        "id": "BLDG-006",
        "source_type": "agent_generated_design",
        "confidence": "medium",
        "geometry_role": "design_proposal",
        "layer": "BUILDING_FOOTPRINT",
        "building_type": "cultural",
        "name_zh": "停靠服务建筑原型 6",
        "name_en": "Pause service building prototype 6",
        "retain_renew_status": "adaptive_infill",
        "design_note": "Illustrative envelope only; survey, ownership, heritage, fire safety, height, and FAR controls are pending.",
        "area_sqm_declared": 13440.0
      },
      "geometry": {
        "type": "Polygon",
        "coordinates": [
          [
            [
              116.35136916,
              39.97425182
            ],
            [
              116.35135724,
              39.97551261
            ],
            [
              116.35248097,
              39.9755189
            ],
            [
              116.35249287,
              39.9742581
            ],
            [
              116.35136916,
              39.97425182
            ]
          ]
        ]
      }
    },
    {
      "type": "Feature",
      "id": "BLDG-007",
      "properties": {
        "id": "BLDG-007",
        "source_type": "agent_generated_design",
        "confidence": "medium",
        "geometry_role": "design_proposal",
        "layer": "BUILDING_FOOTPRINT",
        "building_type": "community_service",
        "name_zh": "停靠服务建筑原型 7",
        "name_en": "Pause service building prototype 7",
        "retain_renew_status": "retain_and_retrofit",
        "design_note": "Illustrative envelope only; survey, ownership, heritage, fire safety, height, and FAR controls are pending.",
        "area_sqm_declared": 13440.0
      },
      "geometry": {
        "type": "Polygon",
        "coordinates": [
          [
            [
              116.34303678,
              39.98777837
            ],
            [
              116.3430247,
              39.98903915
            ],
            [
              116.34414865,
              39.98904552
            ],
            [
              116.34416071,
              39.98778473
            ],
            [
              116.34303678,
              39.98777837
            ]
          ]
        ]
      }
    },
    {
      "type": "Feature",
      "id": "BLDG-008",
      "properties": {
        "id": "BLDG-008",
        "source_type": "agent_generated_design",
        "confidence": "medium",
        "geometry_role": "design_proposal",
        "layer": "BUILDING_FOOTPRINT",
        "building_type": "retail",
        "name_zh": "停靠服务建筑原型 8",
        "name_en": "Pause service building prototype 8",
        "retain_renew_status": "adaptive_infill",
        "design_note": "Illustrative envelope only; survey, ownership, heritage, fire safety, height, and FAR controls are pending.",
        "area_sqm_declared": 13440.0
      },
      "geometry": {
        "type": "Polygon",
        "coordinates": [
          [
            [
              116.35124081,
              39.98782458
            ],
            [
              116.35122888,
              39.98908537
            ],
            [
              116.35235283,
              39.98909165
            ],
            [
              116.35236474,
              39.98783086
            ],
            [
              116.35124081,
              39.98782458
            ]
          ]
        ]
      }
    },
    {
      "type": "Feature",
      "id": "BLDG-009",
      "properties": {
        "id": "BLDG-009",
        "source_type": "agent_generated_design",
        "confidence": "medium",
        "geometry_role": "design_proposal",
        "layer": "BUILDING_FOOTPRINT",
        "building_type": "office",
        "name_zh": "停靠服务建筑原型 9",
        "name_en": "Pause service building prototype 9",
        "retain_renew_status": "adaptive_infill",
        "design_note": "Illustrative envelope only; survey, ownership, heritage, fire safety, height, and FAR controls are pending.",
        "area_sqm_declared": 13440.0
      },
      "geometry": {
        "type": "Polygon",
        "coordinates": [
          [
            [
              116.34290672,
              40.00135107
            ],
            [
              116.34289463,
              40.00261185
            ],
            [
              116.3440188,
              40.00261822
            ],
            [
              116.34403087,
              40.00135744
            ],
            [
              116.34290672,
              40.00135107
            ]
          ]
        ]
      }
    },
    {
      "type": "Feature",
      "id": "BLDG-010",
      "properties": {
        "id": "BLDG-010",
        "source_type": "agent_generated_design",
        "confidence": "medium",
        "geometry_role": "design_proposal",
        "layer": "BUILDING_FOOTPRINT",
        "building_type": "mixed_use",
        "name_zh": "停靠服务建筑原型 10",
        "name_en": "Pause service building prototype 10",
        "retain_renew_status": "retain_and_retrofit",
        "design_note": "Illustrative envelope only; survey, ownership, heritage, fire safety, height, and FAR controls are pending.",
        "area_sqm_declared": 13440.0
      },
      "geometry": {
        "type": "Polygon",
        "coordinates": [
          [
            [
              116.35111236,
              40.0013973
            ],
            [
              116.35110043,
              40.00265809
            ],
            [
              116.3522246,
              40.00266438
            ],
            [
              116.35223652,
              40.00140359
            ],
            [
              116.35111236,
              40.0013973
            ]
          ]
        ]
      }
    },
    {
      "type": "Feature",
      "id": "BLDG-011",
      "properties": {
        "id": "BLDG-011",
        "source_type": "agent_generated_design",
        "confidence": "medium",
        "geometry_role": "design_proposal",
        "layer": "BUILDING_FOOTPRINT",
        "building_type": "ai_r_and_d",
        "name_zh": "停靠服务建筑原型 11",
        "name_en": "Pause service building prototype 11",
        "retain_renew_status": "adaptive_infill",
        "design_note": "Illustrative envelope only; survey, ownership, heritage, fire safety, height, and FAR controls are pending.",
        "area_sqm_declared": 13440.0
      },
      "geometry": {
        "type": "Polygon",
        "coordinates": [
          [
            [
              116.34277656,
              40.01492374
            ],
            [
              116.34276447,
              40.01618452
            ],
            [
              116.34388886,
              40.01619089
            ],
            [
              116.34390094,
              40.01493011
            ],
            [
              116.34277656,
              40.01492374
            ]
          ]
        ]
      }
    },
    {
      "type": "Feature",
      "id": "BLDG-012",
      "properties": {
        "id": "BLDG-012",
        "source_type": "agent_generated_design",
        "confidence": "medium",
        "geometry_role": "design_proposal",
        "layer": "BUILDING_FOOTPRINT",
        "building_type": "talent_apartment",
        "name_zh": "停靠服务建筑原型 12",
        "name_en": "Pause service building prototype 12",
        "retain_renew_status": "adaptive_infill",
        "design_note": "Illustrative envelope only; survey, ownership, heritage, fire safety, height, and FAR controls are pending.",
        "area_sqm_declared": 13440.0
      },
      "geometry": {
        "type": "Polygon",
        "coordinates": [
          [
            [
              116.35098384,
              40.01496999
            ],
            [
              116.35097189,
              40.01623078
            ],
            [
              116.35209629,
              40.01623707
            ],
            [
              116.35210821,
              40.01497628
            ],
            [
              116.35098384,
              40.01496999
            ]
          ]
        ]
      }
    }
  ]
}
