{
  "type": "FeatureCollection",
  "name": "pause_line_green_comfort_network",
  "features": [
    {
      "type": "Feature",
      "id": "GREEN-001",
      "properties": {
        "id": "GREEN-001",
        "source_type": "agent_generated_design",
        "confidence": "medium",
        "geometry_role": "design_proposal",
        "layer": "GREEN_SPACE",
        "land_use_code": "1401",
        "name_zh": "连续遮阴停靠带",
        "name_en": "Continuous shaded pause ribbon",
        "design_note": "Conceptual comfort infrastructure; planting, drainage, and heritage interfaces require survey and engineering design.",
        "area_sqm_declared": 554878.867
      },
      "geometry": {
        "type": "Polygon",
        "coordinates": [
          [
            [
              116.34829835,
              39.95501349
            ],
            [
              116.34791913,
              39.96193266
            ],
            [
              116.34726495,
              39.96885946
            ],
            [
              116.34673555,
              39.97579765
            ],
            [
              116.34664705,
              39.98274326
            ],
            [
              116.34701494,
              39.98968724
            ],
            [
              116.34754333,
              39.99662166
            ],
            [
              116.34782818,
              40.00354508
            ],
            [
              116.34763167,
              40.01046352
            ],
            [
              116.34704205,
              40.01738643
            ],
            [
              116.34641501,
              40.02431498
            ],
            [
              116.34711616,
              40.02435249
            ],
            [
              116.34774323,
              40.01742283
            ],
            [
              116.34833387,
              40.01048708
            ],
            [
              116.34853106,
              40.00354243
            ],
            [
              116.34824525,
              39.9965973
            ],
            [
              116.3477166,
              39.98966043
            ],
            [
              116.34734961,
              39.9827349
            ],
            [
              116.3474377,
              39.97581614
            ],
            [
              116.34796574,
              39.96889488
            ],
            [
              116.34862027,
              39.96196363
            ],
            [
              116.34900067,
              39.95502164
            ],
            [
              116.34889227,
              39.94807546
            ],
            [
              116.34841414,
              39.94113452
            ],
            [
              116.34771312,
              39.94116312
            ],
            [
              116.34819043,
              39.94809301
            ],
            [
              116.34829835,
              39.95501349
            ]
          ]
        ]
      }
    },
    {
      "type": "Feature",
      "id": "GREEN-002",
      "properties": {
        "id": "GREEN-002",
        "source_type": "agent_generated_design",
        "confidence": "medium",
        "geometry_role": "design_proposal",
        "layer": "GREEN_SPACE",
        "land_use_code": "1401",
        "name_zh": "校准花园",
        "name_en": "Calibration Garden",
        "design_note": "Key-area public-space prototype within a provisional polygon.",
        "area_sqm_declared": 21090.152
      },
      "geometry": {
        "type": "Polygon",
        "coordinates": [
          [
            [
              116.3494565,
              40.01668271
            ],
            [
              116.34944335,
              40.01661095
            ],
            [
              116.34942111,
              40.01654052
            ],
            [
              116.34939001,
              40.01647211
            ],
            [
              116.34935033,
              40.01640637
            ],
            [
              116.34930247,
              40.01634394
            ],
            [
              116.34924688,
              40.01628542
            ],
            [
              116.34918409,
              40.01623137
            ],
            [
              116.34911472,
              40.01618231
            ],
            [
              116.34903943,
              40.01613871
            ],
            [
              116.34895894,
              40.016101
            ],
            [
              116.34887403,
              40.01606954
            ],
            [
              116.34878552,
              40.01604463
            ],
            [
              116.34869426,
              40.01602651
            ],
            [
              116.34860113,
              40.01601535
            ],
            [
              116.34850703,
              40.01601126
            ],
            [
              116.34841286,
              40.01601429
            ],
            [
              116.34831952,
              40.0160244
            ],
            [
              116.34822793,
              40.01604149
            ],
            [
              116.34813896,
              40.01606541
            ],
            [
              116.34805346,
              40.01609591
            ],
            [
              116.34797226,
              40.01613271
            ],
            [
              116.34789615,
              40.01617546
            ],
            [
              116.34782585,
              40.01622373
            ],
            [
              116.34776204,
              40.01627707
            ],
            [
              116.34770534,
              40.01633496
            ],
            [
              116.3476563,
              40.01639685
            ],
            [
              116.34761538,
              40.01646213
            ],
            [
              116.34758297,
              40.01653019
            ],
            [
              116.3475594,
              40.01660036
            ],
            [
              116.34754489,
              40.01667196
            ],
            [
              116.34753958,
              40.01674432
            ],
            [
              116.34754351,
              40.01681673
            ],
            [
              116.34755666,
              40.01688849
            ],
            [
              116.34757889,
              40.01695891
            ],
            [
              116.34760999,
              40.01702733
            ],
            [
              116.34764967,
              40.01709306
            ],
            [
              116.34769753,
              40.01715549
            ],
            [
              116.34775312,
              40.01721402
            ],
            [
              116.34781591,
              40.01726807
            ],
            [
              116.34788528,
              40.01731713
            ],
            [
              116.34796058,
              40.01736073
            ],
            [
              116.34804106,
              40.01739844
            ],
            [
              116.34812597,
              40.0174299
            ],
            [
              116.34821448,
              40.01745481
            ],
            [
              116.34830575,
              40.01747294
            ],
            [
              116.34839888,
              40.01748409
            ],
            [
              116.34849298,
              40.01748818
            ],
            [
              116.34858716,
              40.01748515
            ],
            [
              116.34868049,
              40.01747504
            ],
            [
              116.34877209,
              40.01745795
            ],
            [
              116.34886106,
              40.01743403
            ],
            [
              116.34894656,
              40.01740353
            ],
            [
              116.34902776,
              40.01736673
            ],
            [
              116.34910387,
              40.01732398
            ],
            [
              116.34917417,
              40.01727571
            ],
            [
              116.34923798,
              40.01722237
            ],
            [
              116.34929468,
              40.01716447
            ],
            [
              116.34934372,
              40.01710259
            ],
            [
              116.34938464,
              40.0170373
            ],
            [
              116.34941704,
              40.01696925
            ],
            [
              116.34944061,
              40.01689908
            ],
            [
              116.34945512,
              40.01682747
            ],
            [
              116.34946043,
              40.01675512
            ],
            [
              116.3494565,
              40.01668271
            ]
          ]
        ]
      }
    },
    {
      "type": "Feature",
      "id": "GREEN-003",
      "properties": {
        "id": "GREEN-003",
        "source_type": "agent_generated_design",
        "confidence": "medium",
        "geometry_role": "design_proposal",
        "layer": "GREEN_SPACE",
        "land_use_code": "1401",
        "name_zh": "共创花园",
        "name_en": "Co-creation Garden",
        "design_note": "Key-area public-space prototype within a provisional polygon.",
        "area_sqm_declared": 21090.152
      },
      "geometry": {
        "type": "Polygon",
        "coordinates": [
          [
            [
              116.3484561,
              39.988433
            ],
            [
              116.34844295,
              39.98836124
            ],
            [
              116.34842073,
              39.98829082
            ],
            [
              116.34838964,
              39.9882224
            ],
            [
              116.34834998,
              39.98815667
            ],
            [
              116.34830214,
              39.98809423
            ],
            [
              116.34824657,
              39.98803571
            ],
            [
              116.34818381,
              39.98798166
            ],
            [
              116.34811446,
              39.9879326
            ],
            [
              116.3480392,
              39.987889
            ],
            [
              116.34795875,
              39.98785129
            ],
            [
              116.34787388,
              39.98781983
            ],
            [
              116.3477854,
              39.98779492
            ],
            [
              116.34769418,
              39.98777679
            ],
            [
              116.34760109,
              39.98776563
            ],
            [
              116.34750703,
              39.98776155
            ],
            [
              116.34741289,
              39.98776458
            ],
            [
              116.3473196,
              39.98777468
            ],
            [
              116.34722804,
              39.98779178
            ],
            [
              116.34713911,
              39.98781569
            ],
            [
              116.34705364,
              39.9878462
            ],
            [
              116.34697248,
              39.987883
            ],
            [
              116.3468964,
              39.98792574
            ],
            [
              116.34682613,
              39.98797402
            ],
            [
              116.34676235,
              39.98802736
            ],
            [
              116.34670567,
              39.98808525
            ],
            [
              116.34665664,
              39.98814713
            ],
            [
              116.34661574,
              39.98821242
            ],
            [
              116.34658335,
              39.98828047
            ],
            [
              116.34655979,
              39.98835064
            ],
            [
              116.34654528,
              39.98842225
            ],
            [
              116.34653997,
              39.9884946
            ],
            [
              116.3465439,
              39.98856701
            ],
            [
              116.34655704,
              39.98863877
            ],
            [
              116.34657926,
              39.9887092
            ],
            [
              116.34661035,
              39.98877761
            ],
            [
              116.34665001,
              39.98884335
            ],
            [
              116.34669785,
              39.98890578
            ],
            [
              116.34675342,
              39.98896431
            ],
            [
              116.34681618,
              39.98901836
            ],
            [
              116.34688552,
              39.98906742
            ],
            [
              116.34696079,
              39.98911102
            ],
            [
              116.34704124,
              39.98914873
            ],
            [
              116.34712612,
              39.98918019
            ],
            [
              116.34721459,
              39.98920511
            ],
            [
              116.34730581,
              39.98922323
            ],
            [
              116.34739891,
              39.98923439
            ],
            [
              116.34749297,
              39.98923847
            ],
            [
              116.34758711,
              39.98923545
            ],
            [
              116.3476804,
              39.98922534
            ],
            [
              116.34777196,
              39.98920824
            ],
            [
              116.3478609,
              39.98918433
            ],
            [
              116.34794636,
              39.98915382
            ],
            [
              116.34802753,
              39.98911702
            ],
            [
              116.34810361,
              39.98907428
            ],
            [
              116.34817388,
              39.989026
            ],
            [
              116.34823766,
              39.98897266
            ],
            [
              116.34829434,
              39.98891477
            ],
            [
              116.34834337,
              39.98885288
            ],
            [
              116.34838427,
              39.9887876
            ],
            [
              116.34841666,
              39.98871954
            ],
            [
              116.34844022,
              39.98864937
            ],
            [
              116.34845472,
              39.98857777
            ],
            [
              116.34846003,
              39.98850541
            ],
            [
              116.3484561,
              39.988433
            ]
          ]
        ]
      }
    },
    {
      "type": "Feature",
      "id": "GREEN-004",
      "properties": {
        "id": "GREEN-004",
        "source_type": "agent_generated_design",
        "confidence": "medium",
        "geometry_role": "design_proposal",
        "layer": "GREEN_SPACE",
        "land_use_code": "1401",
        "name_zh": "交接花园（类型原型）",
        "name_en": "Handover Garden (typology)",
        "design_note": "Key-area public-space prototype within a provisional polygon.",
        "area_sqm_declared": 21090.152
      },
      "geometry": {
        "type": "Polygon",
        "coordinates": [
          [
            [
              116.34945551,
              39.94685312
            ],
            [
              116.34944238,
              39.94678136
            ],
            [
              116.34942017,
              39.94671093
            ],
            [
              116.34938909,
              39.94664252
            ],
            [
              116.34934946,
              39.94657678
            ],
            [
              116.34930164,
              39.94651435
            ],
            [
              116.3492461,
              39.94645583
            ],
            [
              116.34918338,
              39.94640178
            ],
            [
              116.34911408,
              39.94635272
            ],
            [
              116.34903886,
              39.94630912
            ],
            [
              116.34895845,
              39.94627141
            ],
            [
              116.34887363,
              39.94623995
            ],
            [
              116.34878521,
              39.94621504
            ],
            [
              116.34869404,
              39.94619692
            ],
            [
              116.34860101,
              39.94618576
            ],
            [
              116.348507,
              39.94618167
            ],
            [
              116.34841293,
              39.9461847
            ],
            [
              116.34831969,
              39.94619481
            ],
            [
              116.34822819,
              39.94621191
            ],
            [
              116.34813931,
              39.94623582
            ],
            [
              116.3480539,
              39.94626633
            ],
            [
              116.34797278,
              39.94630313
            ],
            [
              116.34789675,
              39.94634588
            ],
            [
              116.34782652,
              39.94639415
            ],
            [
              116.34776278,
              39.94644749
            ],
            [
              116.34770614,
              39.94650539
            ],
            [
              116.34765714,
              39.94656727
            ],
            [
              116.34761626,
              39.94663256
            ],
            [
              116.3475839,
              39.94670061
            ],
            [
              116.34756035,
              39.94677078
            ],
            [
              116.34754585,
              39.94684239
            ],
            [
              116.34754055,
              39.94691475
            ],
            [
              116.34754448,
              39.94698715
            ],
            [
              116.34755761,
              39.94705892
            ],
            [
              116.34757982,
              39.94712934
            ],
            [
              116.34761089,
              39.94719776
            ],
            [
              116.34765053,
              39.94726349
            ],
            [
              116.34769835,
              39.94732593
            ],
            [
              116.34775388,
              39.94738445
            ],
            [
              116.3478166,
              39.9474385
            ],
            [
              116.34788591,
              39.94748756
            ],
            [
              116.34796112,
              39.94753116
            ],
            [
              116.34804153,
              39.94756887
            ],
            [
              116.34812635,
              39.94760033
            ],
            [
              116.34821478,
              39.94762525
            ],
            [
              116.34830594,
              39.94764337
            ],
            [
              116.34839898,
              39.94765452
            ],
            [
              116.34849299,
              39.94765861
            ],
            [
              116.34858707,
              39.94765558
            ],
            [
              116.34868031,
              39.94764547
            ],
            [
              116.34877181,
              39.94762838
            ],
            [
              116.34886069,
              39.94760446
            ],
            [
              116.34894611,
              39.94757395
            ],
            [
              116.34902722,
              39.94753715
            ],
            [
              116.34910326,
              39.9474944
            ],
            [
              116.34917348,
              39.94744613
            ],
            [
              116.34923722,
              39.94739279
            ],
            [
              116.34929386,
              39.94733489
            ],
            [
              116.34934286,
              39.947273
            ],
            [
              116.34938374,
              39.94720772
            ],
            [
              116.3494161,
              39.94713966
            ],
            [
              116.34943965,
              39.94706949
            ],
            [
              116.34945414,
              39.94699789
            ],
            [
              116.34945945,
              39.94692553
            ],
            [
              116.34945551,
              39.94685312
            ]
          ]
        ]
      }
    }
  ]
}
