{
  "type": "FeatureCollection",
  "name": "pause_line_land_use_framework",
  "features": [
    {
      "type": "Feature",
      "id": "LU-001",
      "properties": {
        "id": "LU-001",
        "source_type": "agent_generated_design",
        "confidence": "medium",
        "geometry_role": "design_proposal",
        "layer": "LAND_USE",
        "land_use_code": "0804",
        "name_zh": "教育科研与近校协作",
        "name_en": "Education and near-campus collaboration",
        "design_note": "Conceptual allocation only; statutory land use and development intensity remain pending official controls.",
        "area_sqm_declared": 2254655.495
      },
      "geometry": {
        "type": "Polygon",
        "coordinates": [
          [
            [
              116.3407,
              39.939
            ],
            [
              116.3397,
              39.975
            ],
            [
              116.34036618,
              39.98532865
            ],
            [
              116.34506976,
              39.98535533
            ],
            [
              116.3455119,
              39.9390002
            ],
            [
              116.3407,
              39.939
            ]
          ]
        ]
      }
    },
    {
      "type": "Feature",
      "id": "LU-002",
      "properties": {
        "id": "LU-002",
        "source_type": "agent_generated_design",
        "confidence": "medium",
        "geometry_role": "design_proposal",
        "layer": "LAND_USE",
        "land_use_code": "0802",
        "name_zh": "自主研发与校准测试",
        "name_en": "Independent R&D and calibration testing",
        "design_note": "Conceptual allocation only; statutory land use and development intensity remain pending official controls.",
        "area_sqm_declared": 1980830.192
      },
      "geometry": {
        "type": "Polygon",
        "coordinates": [
          [
            [
              116.3455119,
              39.9390002
            ],
            [
              116.34506976,
              39.98535533
            ],
            [
              116.34957377,
              39.98538069
            ],
            [
              116.35001311,
              39.93900021
            ],
            [
              116.3455119,
              39.9390002
            ]
          ]
        ]
      }
    },
    {
      "type": "Feature",
      "id": "LU-003",
      "properties": {
        "id": "LU-003",
        "source_type": "agent_generated_design",
        "confidence": "medium",
        "geometry_role": "design_proposal",
        "layer": "LAND_USE",
        "land_use_code": "1403",
        "name_zh": "公共停靠与交接广场",
        "name_en": "Public pause and handover plazas",
        "design_note": "Conceptual allocation only; statutory land use and development intensity remain pending official controls.",
        "area_sqm_declared": 2265926.816
      },
      "geometry": {
        "type": "Polygon",
        "coordinates": [
          [
            [
              116.35001311,
              39.93900021
            ],
            [
              116.34957377,
              39.98538069
            ],
            [
              116.35366783,
              39.98540359
            ],
            [
              116.3553,
              39.965
            ],
            [
              116.3553,
              39.939
            ],
            [
              116.35001311,
              39.93900021
            ]
          ]
        ]
      }
    },
    {
      "type": "Feature",
      "id": "LU-004",
      "properties": {
        "id": "LU-004",
        "source_type": "agent_generated_design",
        "confidence": "medium",
        "geometry_role": "design_proposal",
        "layer": "LAND_USE",
        "land_use_code": "1401",
        "name_zh": "连续停靠公园",
        "name_en": "Continuous pause park",
        "design_note": "Conceptual allocation only; statutory land use and development intensity remain pending official controls.",
        "area_sqm_declared": 1271768.356
      },
      "geometry": {
        "type": "Polygon",
        "coordinates": [
          [
            [
              116.34467646,
              40.02650009
            ],
            [
              116.34506976,
              39.98535533
            ],
            [
              116.34036618,
              39.98532865
            ],
            [
              116.3417,
              40.006
            ],
            [
              116.3427,
              40.0265
            ],
            [
              116.34467646,
              40.02650009
            ]
          ]
        ]
      }
    },
    {
      "type": "Feature",
      "id": "LU-005",
      "properties": {
        "id": "LU-005",
        "source_type": "agent_generated_design",
        "confidence": "medium",
        "geometry_role": "design_proposal",
        "layer": "LAND_USE",
        "land_use_code": "05",
        "name_zh": "创新商业与夜间服务",
        "name_en": "Innovation retail and night services",
        "design_note": "Conceptual allocation only; statutory land use and development intensity remain pending official controls.",
        "area_sqm_declared": 1757175.851
      },
      "geometry": {
        "type": "Polygon",
        "coordinates": [
          [
            [
              116.34918341,
              40.02650017
            ],
            [
              116.34957377,
              39.98538069
            ],
            [
              116.34506976,
              39.98535533
            ],
            [
              116.34467646,
              40.02650009
            ],
            [
              116.34918341,
              40.02650017
            ]
          ]
        ]
      }
    },
    {
      "type": "Feature",
      "id": "LU-006",
      "properties": {
        "id": "LU-006",
        "source_type": "agent_generated_design",
        "confidence": "medium",
        "geometry_role": "design_proposal",
        "layer": "LAND_USE",
        "land_use_code": "0702",
        "name_zh": "社区照护与人才服务",
        "name_en": "Community care and talent services",
        "design_note": "Conceptual allocation only; statutory land use and development intensity remain pending official controls.",
        "area_sqm_declared": 1882468.675
      },
      "geometry": {
        "type": "Polygon",
        "coordinates": [
          [
            [
              116.3533,
              39.99
            ],
            [
              116.35366783,
              39.98540359
            ],
            [
              116.34957377,
              39.98538069
            ],
            [
              116.34918341,
              40.02650017
            ],
            [
              116.3553,
              40.0265
            ],
            [
              116.3533,
              39.99
            ]
          ]
        ]
      }
    }
  ]
}
