{
  "type": "FeatureCollection",
  "name": "pause_line_phasing",
  "features": [
    {
      "type": "Feature",
      "id": "PHASE-001",
      "properties": {
        "id": "PHASE-001",
        "source_type": "agent_generated_design",
        "confidence": "medium",
        "geometry_role": "design_proposal",
        "layer": "PHASE",
        "phase": "phase_1",
        "name_zh": "轻量停靠试点",
        "name_en": "Lightweight pause pilots",
        "dependency": "Formal delivery depends on official geometry, controls, ownership, engineering review, public participation, and funding.",
        "area_sqm_declared": 4229811.537
      },
      "geometry": {
        "type": "Polygon",
        "coordinates": [
          [
            [
              116.3407,
              39.939
            ],
            [
              116.33987545,
              39.9686874
            ],
            [
              116.3549983,
              39.96877254
            ],
            [
              116.3553,
              39.965
            ],
            [
              116.3553,
              39.939
            ],
            [
              116.3407,
              39.939
            ]
          ]
        ]
      }
    },
    {
      "type": "Feature",
      "id": "PHASE-002",
      "properties": {
        "id": "PHASE-002",
        "source_type": "agent_generated_design",
        "confidence": "medium",
        "geometry_role": "design_proposal",
        "layer": "PHASE",
        "phase": "phase_2",
        "name_zh": "网络缝合与建筑适配",
        "name_en": "Network stitching and building adaptation",
        "dependency": "Formal delivery depends on official geometry, controls, ownership, engineering review, public participation, and funding.",
        "area_sqm_declared": 3856939.077
      },
      "geometry": {
        "type": "Polygon",
        "coordinates": [
          [
            [
              116.3533,
              39.99
            ],
            [
              116.3549983,
              39.96877254
            ],
            [
              116.33987545,
              39.9686874
            ],
            [
              116.3397,
              39.975
            ],
            [
              116.34121398,
              39.99846907
            ],
            [
              116.35376776,
              39.99853974
            ],
            [
              116.3533,
              39.99
            ]
          ]
        ]
      }
    },
    {
      "type": "Feature",
      "id": "PHASE-003",
      "properties": {
        "id": "PHASE-003",
        "source_type": "agent_generated_design",
        "confidence": "medium",
        "geometry_role": "design_proposal",
        "layer": "PHASE",
        "phase": "phase_3",
        "name_zh": "长期治理与年度运营",
        "name_en": "Long-term governance and annual operation",
        "dependency": "Formal delivery depends on official geometry, controls, ownership, engineering review, public participation, and funding.",
        "area_sqm_declared": 3326074.771
      },
      "geometry": {
        "type": "Polygon",
        "coordinates": [
          [
            [
              116.35376776,
              39.99853974
            ],
            [
              116.34121398,
              39.99846907
            ],
            [
              116.3417,
              40.006
            ],
            [
              116.3427,
              40.0265
            ],
            [
              116.3553,
              40.0265
            ],
            [
              116.35376776,
              39.99853974
            ]
          ]
        ]
      }
    }
  ]
}
