{
  "type": "FeatureCollection",
  "name": "pause_line_scenario_courts",
  "features": [
    {
      "type": "Feature",
      "id": "PUBLIC-001",
      "properties": {
        "id": "PUBLIC-001",
        "source_type": "agent_generated_design",
        "confidence": "medium",
        "geometry_role": "design_proposal",
        "layer": "PUBLIC_SPACE",
        "scenario_id": "SC-01",
        "name_zh": "停靠地图",
        "name_en": "Pause Map",
        "testing_scenario": false,
        "access_rule": "Public baseline remains available without AI; test functions require visible status, human supervision, consent, and an immediate exit path.",
        "area_sqm_declared": 17175.74
      },
      "geometry": {
        "type": "Polygon",
        "coordinates": [
          [
            [
              116.34916459,
              39.94455376
            ],
            [
              116.34915273,
              39.94448899
            ],
            [
              116.34913269,
              39.94442544
            ],
            [
              116.34910465,
              39.9443637
            ],
            [
              116.34906888,
              39.94430438
            ],
            [
              116.34902573,
              39.94424804
            ],
            [
              116.34897561,
              39.94419522
            ],
            [
              116.34891901,
              39.94414644
            ],
            [
              116.34885647,
              39.94410217
            ],
            [
              116.3487886,
              39.94406283
            ],
            [
              116.34871604,
              39.9440288
            ],
            [
              116.34863949,
              39.9440004
            ],
            [
              116.3485597,
              39.94397792
            ],
            [
              116.34847743,
              39.94396157
            ],
            [
              116.34839348,
              39.9439515
            ],
            [
              116.34830864,
              39.94394781
            ],
            [
              116.34822375,
              39.94395055
            ],
            [
              116.34813961,
              39.94395967
            ],
            [
              116.34805704,
              39.9439751
            ],
            [
              116.34797683,
              39.94399668
            ],
            [
              116.34789976,
              39.94402421
            ],
            [
              116.34782656,
              39.94405742
            ],
            [
              116.34775794,
              39.944096
            ],
            [
              116.34769457,
              39.94413956
            ],
            [
              116.34763705,
              39.9441877
            ],
            [
              116.34758594,
              39.94423994
            ],
            [
              116.34754172,
              39.94429579
            ],
            [
              116.34750483,
              39.94435471
            ],
            [
              116.34747562,
              39.94441612
            ],
            [
              116.34745438,
              39.94447945
            ],
            [
              116.34744129,
              39.94454407
            ],
            [
              116.3474365,
              39.94460937
            ],
            [
              116.34744005,
              39.94467471
            ],
            [
              116.34745191,
              39.94473947
            ],
            [
              116.34747195,
              39.94480303
            ],
            [
              116.34749999,
              39.94486477
            ],
            [
              116.34753575,
              39.94492409
            ],
            [
              116.3475789,
              39.94498043
            ],
            [
              116.34762902,
              39.94503325
            ],
            [
              116.34768562,
              39.94508202
            ],
            [
              116.34774816,
              39.9451263
            ],
            [
              116.34781604,
              39.94516564
            ],
            [
              116.3478886,
              39.94519967
            ],
            [
              116.34796514,
              39.94522807
            ],
            [
              116.34804493,
              39.94525055
            ],
            [
              116.34812721,
              39.9452669
            ],
            [
              116.34821116,
              39.94527697
            ],
            [
              116.348296,
              39.94528066
            ],
            [
              116.34838089,
              39.94527793
            ],
            [
              116.34846503,
              39.9452688
            ],
            [
              116.34854761,
              39.94525338
            ],
            [
              116.34862782,
              39.94523179
            ],
            [
              116.34870489,
              39.94520426
            ],
            [
              116.34877809,
              39.94517105
            ],
            [
              116.34884671,
              39.94513247
            ],
            [
              116.34891008,
              39.94508891
            ],
            [
              116.3489676,
              39.94504077
            ],
            [
              116.34901871,
              39.94498853
            ],
            [
              116.34906293,
              39.94493268
            ],
            [
              116.34909982,
              39.94487376
            ],
            [
              116.34912902,
              39.94481234
            ],
            [
              116.34915027,
              39.94474902
            ],
            [
              116.34916335,
              39.9446844
            ],
            [
              116.34916814,
              39.9446191
            ],
            [
              116.34916459,
              39.94455376
            ]
          ]
        ]
      }
    },
    {
      "type": "Feature",
      "id": "PUBLIC-002",
      "properties": {
        "id": "PUBLIC-002",
        "source_type": "agent_generated_design",
        "confidence": "medium",
        "geometry_role": "design_proposal",
        "layer": "PUBLIC_SPACE",
        "scenario_id": "SC-02",
        "name_zh": "基本补给",
        "name_en": "Essential Refill",
        "testing_scenario": false,
        "access_rule": "Public baseline remains available without AI; test functions require visible status, human supervision, consent, and an immediate exit path.",
        "area_sqm_declared": 32632.65
      },
      "geometry": {
        "type": "Polygon",
        "coordinates": [
          [
            [
              116.34978406,
              39.95146631
            ],
            [
              116.34976772,
              39.95137704
            ],
            [
              116.34974009,
              39.95128944
            ],
            [
              116.34970143,
              39.95120434
            ],
            [
              116.34965212,
              39.95112257
            ],
            [
              116.34959264,
              39.95104491
            ],
            [
              116.34952355,
              39.95097211
            ],
            [
              116.34944553,
              39.95090488
            ],
            [
              116.34935931,
              39.95084385
            ],
            [
              116.34926574,
              39.95078963
            ],
            [
              116.34916572,
              39.95074272
            ],
            [
              116.3490602,
              39.95070358
            ],
            [
              116.34895021,
              39.95067259
            ],
            [
              116.3488368,
              39.95065005
            ],
            [
              116.34872107,
              39.95063617
            ],
            [
              116.34860412,
              39.95063109
            ],
            [
              116.34848709,
              39.95063486
            ],
            [
              116.34837111,
              39.95064744
            ],
            [
              116.34825728,
              39.9506687
            ],
            [
              116.34814672,
              39.95069845
            ],
            [
              116.34804047,
              39.9507364
            ],
            [
              116.34793956,
              39.95078217
            ],
            [
              116.34784498,
              39.95083534
            ],
            [
              116.34775761,
              39.95089539
            ],
            [
              116.34767832,
              39.95096174
            ],
            [
              116.34760786,
              39.95103376
            ],
            [
              116.34754691,
              39.95111074
            ],
            [
              116.34749606,
              39.95119195
            ],
            [
              116.34745579,
              39.9512766
            ],
            [
              116.3474265,
              39.95136388
            ],
            [
              116.34740847,
              39.95145296
            ],
            [
              116.34740186,
              39.95154296
            ],
            [
              116.34740676,
              39.95163303
            ],
            [
              116.34742309,
              39.9517223
            ],
            [
              116.34745072,
              39.9518099
            ],
            [
              116.34748938,
              39.951895
            ],
            [
              116.34753868,
              39.95197677
            ],
            [
              116.34759816,
              39.95205443
            ],
            [
              116.34766725,
              39.95212723
            ],
            [
              116.34774528,
              39.95219446
            ],
            [
              116.34783149,
              39.95225549
            ],
            [
              116.34792506,
              39.95230972
            ],
            [
              116.34802508,
              39.95235663
            ],
            [
              116.3481306,
              39.95239576
            ],
            [
              116.3482406,
              39.95242675
            ],
            [
              116.34835401,
              39.9524493
            ],
            [
              116.34846975,
              39.95246317
            ],
            [
              116.34858669,
              39.95246825
            ],
            [
              116.34870373,
              39.95246449
            ],
            [
              116.34881971,
              39.95245191
            ],
            [
              116.34893354,
              39.95243065
            ],
            [
              116.34904411,
              39.9524009
            ],
            [
              116.34915036,
              39.95236295
            ],
            [
              116.34925127,
              39.95231717
            ],
            [
              116.34934586,
              39.952264
            ],
            [
              116.34943322,
              39.95220395
            ],
            [
              116.34951251,
              39.9521376
            ],
            [
              116.34958297,
              39.95206558
            ],
            [
              116.34964392,
              39.9519886
            ],
            [
              116.34969477,
              39.95190739
            ],
            [
              116.34973504,
              39.95182274
            ],
            [
              116.34976432,
              39.95173545
            ],
            [
              116.34978235,
              39.95164638
            ],
            [
              116.34978895,
              39.95155637
            ],
            [
              116.34978406,
              39.95146631
            ]
          ]
        ]
      }
    },
    {
      "type": "Feature",
      "id": "PUBLIC-003",
      "properties": {
        "id": "PUBLIC-003",
        "source_type": "agent_generated_design",
        "confidence": "medium",
        "geometry_role": "design_proposal",
        "layer": "PUBLIC_SPACE",
        "scenario_id": "SC-03",
        "name_zh": "无障碍共测",
        "name_en": "Accessible Co-test",
        "testing_scenario": true,
        "access_rule": "Public baseline remains available without AI; test functions require visible status, human supervision, consent, and an immediate exit path.",
        "area_sqm_declared": 17175.74
      },
      "geometry": {
        "type": "Polygon",
        "coordinates": [
          [
            [
              116.34932183,
              39.95842641
            ],
            [
              116.34930998,
              39.95836165
            ],
            [
              116.34928993,
              39.9582981
            ],
            [
              116.34926188,
              39.95823636
            ],
            [
              116.34922611,
              39.95817703
            ],
            [
              116.34918295,
              39.95812069
            ],
            [
              116.34913282,
              39.95806788
            ],
            [
              116.34907621,
              39.9580191
            ],
            [
              116.34901366,
              39.95797483
            ],
            [
              116.34894577,
              39.95793549
            ],
            [
              116.34887319,
              39.95790146
            ],
            [
              116.34879663,
              39.95787306
            ],
            [
              116.34871683,
              39.95785058
            ],
            [
              116.34863454,
              39.95783423
            ],
            [
              116.34855057,
              39.95782416
            ],
            [
              116.34846572,
              39.95782047
            ],
            [
              116.3483808,
              39.9578232
            ],
            [
              116.34829665,
              39.95783233
            ],
            [
              116.34821406,
              39.95784776
            ],
            [
              116.34813384,
              39.95786934
            ],
            [
              116.34805675,
              39.95789687
            ],
            [
              116.34798353,
              39.95793008
            ],
            [
              116.34791491,
              39.95796865
            ],
            [
              116.34785152,
              39.95801222
            ],
            [
              116.34779399,
              39.95806036
            ],
            [
              116.34774286,
              39.9581126
            ],
            [
              116.34769864,
              39.95816845
            ],
            [
              116.34766174,
              39.95822737
            ],
            [
              116.34763253,
              39.95828878
            ],
            [
              116.34761127,
              39.9583521
            ],
            [
              116.34759819,
              39.95841673
            ],
            [
              116.3475934,
              39.95848202
            ],
            [
              116.34759695,
              39.95854737
            ],
            [
              116.3476088,
              39.95861213
            ],
            [
              116.34762885,
              39.95867568
            ],
            [
              116.3476569,
              39.95873742
            ],
            [
              116.34769267,
              39.95879675
            ],
            [
              116.34773583,
              39.95885309
            ],
            [
              116.34778595,
              39.9589059
            ],
            [
              116.34784257,
              39.95895468
            ],
            [
              116.34790512,
              39.95899895
            ],
            [
              116.34797301,
              39.9590383
            ],
            [
              116.34804558,
              39.95907233
            ],
            [
              116.34812214,
              39.95910072
            ],
            [
              116.34820195,
              39.9591232
            ],
            [
              116.34828424,
              39.95913956
            ],
            [
              116.34836821,
              39.95914963
            ],
            [
              116.34845307,
              39.95915331
            ],
            [
              116.34853798,
              39.95915058
            ],
            [
              116.34862214,
              39.95914146
            ],
            [
              116.34870473,
              39.95912603
            ],
            [
              116.34878495,
              39.95910445
            ],
            [
              116.34886204,
              39.95907692
            ],
            [
              116.34893526,
              39.9590437
            ],
            [
              116.34900389,
              39.95900513
            ],
            [
              116.34906727,
              39.95896156
            ],
            [
              116.34912481,
              39.95891343
            ],
            [
              116.34917593,
              39.95886118
            ],
            [
              116.34922015,
              39.95880533
            ],
            [
              116.34925705,
              39.95874641
            ],
            [
              116.34928626,
              39.958685
            ],
            [
              116.34930751,
              39.95862168
            ],
            [
              116.3493206,
              39.95855705
            ],
            [
              116.34932538,
              39.95849176
            ],
            [
              116.34932183,
              39.95842641
            ]
          ]
        ]
      }
    },
    {
      "type": "Feature",
      "id": "PUBLIC-004",
      "properties": {
        "id": "PUBLIC-004",
        "source_type": "agent_generated_design",
        "confidence": "medium",
        "geometry_role": "design_proposal",
        "layer": "PUBLIC_SPACE",
        "scenario_id": "SC-04",
        "name_zh": "端侧维修实验",
        "name_en": "Edge-AI Repair Lab",
        "testing_scenario": true,
        "access_rule": "Public baseline remains available without AI; test functions require visible status, human supervision, consent, and an immediate exit path.",
        "area_sqm_declared": 17175.74
      },
      "geometry": {
        "type": "Polygon",
        "coordinates": [
          [
            [
              116.34880483,
              39.96535474
            ],
            [
              116.34879297,
              39.96528998
            ],
            [
              116.34877292,
              39.96522643
            ],
            [
              116.34874487,
              39.96516469
            ],
            [
              116.34870909,
              39.96510537
            ],
            [
              116.34866593,
              39.96504902
            ],
            [
              116.3486158,
              39.96499621
            ],
            [
              116.34855918,
              39.96494743
            ],
            [
              116.34849662,
              39.96490316
            ],
            [
              116.34842873,
              39.96486382
            ],
            [
              116.34835615,
              39.96482979
            ],
            [
              116.34827958,
              39.96480139
            ],
            [
              116.34819976,
              39.96477891
            ],
            [
              116.34811747,
              39.96476256
            ],
            [
              116.34803349,
              39.96475249
            ],
            [
              116.34794863,
              39.9647488
            ],
            [
              116.34786371,
              39.96475153
            ],
            [
              116.34777955,
              39.96476065
            ],
            [
              116.34769695,
              39.96477608
            ],
            [
              116.34761672,
              39.96479766
            ],
            [
              116.34753962,
              39.96482519
            ],
            [
              116.3474664,
              39.9648584
            ],
            [
              116.34739776,
              39.96489698
            ],
            [
              116.34733437,
              39.96494054
            ],
            [
              116.34727683,
              39.96498868
            ],
            [
              116.3472257,
              39.96504092
            ],
            [
              116.34718147,
              39.96509677
            ],
            [
              116.34714457,
              39.96515569
            ],
            [
              116.34711535,
              39.9652171
            ],
            [
              116.3470941,
              39.96528043
            ],
            [
              116.34708101,
              39.96534505
            ],
            [
              116.34707622,
              39.96541034
            ],
            [
              116.34707977,
              39.96547569
            ],
            [
              116.34709162,
              39.96554045
            ],
            [
              116.34711167,
              39.96560401
            ],
            [
              116.34713972,
              39.96566574
            ],
            [
              116.3471755,
              39.96572507
            ],
            [
              116.34721866,
              39.96578141
            ],
            [
              116.34726879,
              39.96583422
            ],
            [
              116.34732541,
              39.965883
            ],
            [
              116.34738796,
              39.96592728
            ],
            [
              116.34745586,
              39.96596662
            ],
            [
              116.34752844,
              39.96600065
            ],
            [
              116.34760501,
              39.96602905
            ],
            [
              116.34768483,
              39.96605153
            ],
            [
              116.34776712,
              39.96606788
            ],
            [
              116.34785111,
              39.96607795
            ],
            [
              116.34793597,
              39.96608164
            ],
            [
              116.34802089,
              39.96607891
            ],
            [
              116.34810505,
              39.96606978
            ],
            [
              116.34818765,
              39.96605436
            ],
            [
              116.34826789,
              39.96603277
            ],
            [
              116.34834499,
              39.96600524
            ],
            [
              116.34841821,
              39.96597203
            ],
            [
              116.34848684,
              39.96593346
            ],
            [
              116.34855024,
              39.96588989
            ],
            [
              116.34860777,
              39.96584176
            ],
            [
              116.3486589,
              39.96578951
            ],
            [
              116.34870313,
              39.96573366
            ],
            [
              116.34874003,
              39.96567475
            ],
            [
              116.34876925,
              39.96561333
            ],
            [
              116.3487905,
              39.96555001
            ],
            [
              116.34880359,
              39.96548538
            ],
            [
              116.34880838,
              39.96542009
            ],
            [
              116.34880483,
              39.96535474
            ]
          ]
        ]
      }
    },
    {
      "type": "Feature",
      "id": "PUBLIC-005",
      "properties": {
        "id": "PUBLIC-005",
        "source_type": "agent_generated_design",
        "confidence": "medium",
        "geometry_role": "design_proposal",
        "layer": "PUBLIC_SPACE",
        "scenario_id": "SC-05",
        "name_zh": "低速模型与机器人测试",
        "name_en": "Slow Model & Robot Test",
        "testing_scenario": true,
        "access_rule": "Public baseline remains available without AI; test functions require visible status, human supervision, consent, and an immediate exit path.",
        "area_sqm_declared": 17175.74
      },
      "geometry": {
        "type": "Polygon",
        "coordinates": [
          [
            [
              116.34821372,
              39.97228019
            ],
            [
              116.34820187,
              39.97221543
            ],
            [
              116.34818182,
              39.97215188
            ],
            [
              116.34815376,
              39.97209014
            ],
            [
              116.34811798,
              39.97203081
            ],
            [
              116.34807482,
              39.97197447
            ],
            [
              116.34802468,
              39.97192166
            ],
            [
              116.34796806,
              39.97187288
            ],
            [
              116.34790549,
              39.97182861
            ],
            [
              116.34783759,
              39.97178927
            ],
            [
              116.347765,
              39.97175523
            ],
            [
              116.34768843,
              39.97172684
            ],
            [
              116.34760861,
              39.97170436
            ],
            [
              116.3475263,
              39.971688
            ],
            [
              116.34744231,
              39.97167793
            ],
            [
              116.34735745,
              39.97167425
            ],
            [
              116.34727252,
              39.97167698
            ],
            [
              116.34718834,
              39.9716861
            ],
            [
              116.34710574,
              39.97170153
            ],
            [
              116.3470255,
              39.97172311
            ],
            [
              116.34694839,
              39.97175064
            ],
            [
              116.34687516,
              39.97178385
            ],
            [
              116.34680652,
              39.97182242
            ],
            [
              116.34674312,
              39.97186598
            ],
            [
              116.34668558,
              39.97191412
            ],
            [
              116.34663444,
              39.97196636
            ],
            [
              116.34659021,
              39.97202221
            ],
            [
              116.3465533,
              39.97208113
            ],
            [
              116.34652408,
              39.97214254
            ],
            [
              116.34650282,
              39.97220587
            ],
            [
              116.34648973,
              39.97227049
            ],
            [
              116.34648494,
              39.97233578
            ],
            [
              116.34648849,
              39.97240113
            ],
            [
              116.34650034,
              39.97246589
            ],
            [
              116.34652039,
              39.97252945
            ],
            [
              116.34654844,
              39.97259118
            ],
            [
              116.34658422,
              39.97265051
            ],
            [
              116.34662739,
              39.97270685
            ],
            [
              116.34667753,
              39.97275966
            ],
            [
              116.34673415,
              39.97280844
            ],
            [
              116.34679671,
              39.97285272
            ],
            [
              116.34686462,
              39.97289206
            ],
            [
              116.3469372,
              39.97292609
            ],
            [
              116.34701378,
              39.97295449
            ],
            [
              116.3470936,
              39.97297697
            ],
            [
              116.34717591,
              39.97299333
            ],
            [
              116.3472599,
              39.9730034
            ],
            [
              116.34734477,
              39.97300708
            ],
            [
              116.3474297,
              39.97300435
            ],
            [
              116.34751387,
              39.97299523
            ],
            [
              116.34759648,
              39.9729798
            ],
            [
              116.34767672,
              39.97295822
            ],
            [
              116.34775383,
              39.97293069
            ],
            [
              116.34782706,
              39.97289748
            ],
            [
              116.3478957,
              39.97285891
            ],
            [
              116.3479591,
              39.97281534
            ],
            [
              116.34801665,
              39.9727672
            ],
            [
              116.34806778,
              39.97271496
            ],
            [
              116.34811201,
              39.97265911
            ],
            [
              116.34814892,
              39.97260019
            ],
            [
              116.34817814,
              39.97253878
            ],
            [
              116.3481994,
              39.97247546
            ],
            [
              116.34821248,
              39.97241083
            ],
            [
              116.34821727,
              39.97234554
            ],
            [
              116.34821372,
              39.97228019
            ]
          ]
        ]
      }
    },
    {
      "type": "Feature",
      "id": "PUBLIC-006",
      "properties": {
        "id": "PUBLIC-006",
        "source_type": "agent_generated_design",
        "confidence": "medium",
        "geometry_role": "design_proposal",
        "layer": "PUBLIC_SPACE",
        "scenario_id": "SC-06",
        "name_zh": "人工交接台",
        "name_en": "Human Handover Desk",
        "testing_scenario": false,
        "access_rule": "Public baseline remains available without AI; test functions require visible status, human supervision, consent, and an immediate exit path.",
        "area_sqm_declared": 17175.74
      },
      "geometry": {
        "type": "Polygon",
        "coordinates": [
          [
            [
              116.34790516,
              39.97921459
            ],
            [
              116.3478933,
              39.97914983
            ],
            [
              116.34787325,
              39.97908627
            ],
            [
              116.3478452,
              39.97902454
            ],
            [
              116.34780941,
              39.97896521
            ],
            [
              116.34776624,
              39.97890887
            ],
            [
              116.3477161,
              39.97885606
            ],
            [
              116.34765947,
              39.97880728
            ],
            [
              116.3475969,
              39.978763
            ],
            [
              116.34752899,
              39.97872366
            ],
            [
              116.3474564,
              39.97868963
            ],
            [
              116.34737982,
              39.97866123
            ],
            [
              116.34729999,
              39.97863875
            ],
            [
              116.34721768,
              39.9786224
            ],
            [
              116.34713368,
              39.97861233
            ],
            [
              116.3470488,
              39.97860864
            ],
            [
              116.34696386,
              39.97861137
            ],
            [
              116.34687968,
              39.97862049
            ],
            [
              116.34679707,
              39.97863592
            ],
            [
              116.34671682,
              39.9786575
            ],
            [
              116.34663971,
              39.97868503
            ],
            [
              116.34656647,
              39.97871824
            ],
            [
              116.34649782,
              39.97875681
            ],
            [
              116.34643441,
              39.97880038
            ],
            [
              116.34637686,
              39.97884851
            ],
            [
              116.34632572,
              39.97890076
            ],
            [
              116.34628148,
              39.9789566
            ],
            [
              116.34624457,
              39.97901552
            ],
            [
              116.34621535,
              39.97907693
            ],
            [
              116.34619409,
              39.97914026
            ],
            [
              116.346181,
              39.97920488
            ],
            [
              116.3461762,
              39.97927017
            ],
            [
              116.34617975,
              39.97933552
            ],
            [
              116.34619161,
              39.97940028
            ],
            [
              116.34621166,
              39.97946383
            ],
            [
              116.34623971,
              39.97952557
            ],
            [
              116.3462755,
              39.9795849
            ],
            [
              116.34631867,
              39.97964124
            ],
            [
              116.34636881,
              39.97969405
            ],
            [
              116.34642543,
              39.97974283
            ],
            [
              116.346488,
              39.97978711
            ],
            [
              116.34655591,
              39.97982645
            ],
            [
              116.34662851,
              39.97986048
            ],
            [
              116.34670509,
              39.97988888
            ],
            [
              116.34678493,
              39.97991136
            ],
            [
              116.34686724,
              39.97992772
            ],
            [
              116.34695124,
              39.97993779
            ],
            [
              116.34703611,
              39.97994147
            ],
            [
              116.34712105,
              39.97993874
            ],
            [
              116.34720524,
              39.97992962
            ],
            [
              116.34728785,
              39.9799142
            ],
            [
              116.3473681,
              39.97989261
            ],
            [
              116.34744522,
              39.97986508
            ],
            [
              116.34751845,
              39.97983187
            ],
            [
              116.3475871,
              39.9797933
            ],
            [
              116.34765051,
              39.97974973
            ],
            [
              116.34770806,
              39.9797016
            ],
            [
              116.3477592,
              39.97964935
            ],
            [
              116.34780344,
              39.97959351
            ],
            [
              116.34784035,
              39.97953459
            ],
            [
              116.34786957,
              39.97947317
            ],
            [
              116.34789083,
              39.97940985
            ],
            [
              116.34790392,
              39.97934523
            ],
            [
              116.34790871,
              39.97927993
            ],
            [
              116.34790516,
              39.97921459
            ]
          ]
        ]
      }
    },
    {
      "type": "Feature",
      "id": "PUBLIC-007",
      "properties": {
        "id": "PUBLIC-007",
        "source_type": "agent_generated_design",
        "confidence": "medium",
        "geometry_role": "design_proposal",
        "layer": "PUBLIC_SPACE",
        "scenario_id": "SC-07",
        "name_zh": "安静学习与翻译",
        "name_en": "Quiet Learning & Translation",
        "testing_scenario": false,
        "access_rule": "Public baseline remains available without AI; test functions require visible status, human supervision, consent, and an immediate exit path.",
        "area_sqm_declared": 32632.65
      },
      "geometry": {
        "type": "Polygon",
        "coordinates": [
          [
            [
              116.34837162,
              39.98612918
            ],
            [
              116.34835527,
              39.98603991
            ],
            [
              116.34832763,
              39.98595231
            ],
            [
              116.34828895,
              39.98586721
            ],
            [
              116.34823962,
              39.98578544
            ],
            [
              116.34818011,
              39.98570778
            ],
            [
              116.34811099,
              39.98563498
            ],
            [
              116.34803293,
              39.98556775
            ],
            [
              116.34794667,
              39.98550672
            ],
            [
              116.34785306,
              39.98545249
            ],
            [
              116.34775299,
              39.98540558
            ],
            [
              116.34764742,
              39.98536645
            ],
            [
              116.34753737,
              39.98533546
            ],
            [
              116.3474239,
              39.98531291
            ],
            [
              116.34730811,
              39.98529903
            ],
            [
              116.34719111,
              39.98529395
            ],
            [
              116.34707402,
              39.98529771
            ],
            [
              116.34695798,
              39.98531029
            ],
            [
              116.34684409,
              39.98533155
            ],
            [
              116.34673347,
              39.9853613
            ],
            [
              116.34662717,
              39.98539924
            ],
            [
              116.34652621,
              39.98544502
            ],
            [
              116.34643157,
              39.98549819
            ],
            [
              116.34634417,
              39.98555824
            ],
            [
              116.34626483,
              39.98562458
            ],
            [
              116.34619433,
              39.9856966
            ],
            [
              116.34613335,
              39.98577358
            ],
            [
              116.34608247,
              39.98585478
            ],
            [
              116.34604218,
              39.98593944
            ],
            [
              116.34601287,
              39.98602672
            ],
            [
              116.34599483,
              39.98611579
            ],
            [
              116.34598822,
              39.98620579
            ],
            [
              116.34599311,
              39.98629586
            ],
            [
              116.34600945,
              39.98638513
            ],
            [
              116.34603709,
              39.98647273
            ],
            [
              116.34607576,
              39.98655783
            ],
            [
              116.34612509,
              39.9866396
            ],
            [
              116.3461846,
              39.98671726
            ],
            [
              116.34625372,
              39.98679006
            ],
            [
              116.34633178,
              39.9868573
            ],
            [
              116.34641804,
              39.98691832
            ],
            [
              116.34651165,
              39.98697255
            ],
            [
              116.34661173,
              39.98701946
            ],
            [
              116.3467173,
              39.9870586
            ],
            [
              116.34682735,
              39.98708959
            ],
            [
              116.34694082,
              39.98711214
            ],
            [
              116.34705661,
              39.98712602
            ],
            [
              116.34717362,
              39.9871311
            ],
            [
              116.34729071,
              39.98712734
            ],
            [
              116.34740676,
              39.98711476
            ],
            [
              116.34752064,
              39.9870935
            ],
            [
              116.34763127,
              39.98706375
            ],
            [
              116.34773758,
              39.9870258
            ],
            [
              116.34783853,
              39.98698003
            ],
            [
              116.34793317,
              39.98692686
            ],
            [
              116.34802058,
              39.98686681
            ],
            [
              116.34809991,
              39.98680046
            ],
            [
              116.34817041,
              39.98672845
            ],
            [
              116.34823139,
              39.98665147
            ],
            [
              116.34828227,
              39.98657026
            ],
            [
              116.34832256,
              39.9864856
            ],
            [
              116.34835186,
              39.98639832
            ],
            [
              116.34836991,
              39.98630925
            ],
            [
              116.34837651,
              39.98621924
            ],
            [
              116.34837162,
              39.98612918
            ]
          ]
        ]
      }
    },
    {
      "type": "Feature",
      "id": "PUBLIC-008",
      "properties": {
        "id": "PUBLIC-008",
        "source_type": "agent_generated_design",
        "confidence": "medium",
        "geometry_role": "design_proposal",
        "layer": "PUBLIC_SPACE",
        "scenario_id": "SC-08",
        "name_zh": "照护者与儿童共享",
        "name_en": "Caregiver & Child Commons",
        "testing_scenario": false,
        "access_rule": "Public baseline remains available without AI; test functions require visible status, human supervision, consent, and an immediate exit path.",
        "area_sqm_declared": 17175.74
      },
      "geometry": {
        "type": "Polygon",
        "coordinates": [
          [
            [
              116.34849309,
              39.99308374
            ],
            [
              116.34848123,
              39.99301897
            ],
            [
              116.34846117,
              39.99295542
            ],
            [
              116.34843311,
              39.99289368
            ],
            [
              116.34839732,
              39.99283436
            ],
            [
              116.34835414,
              39.99277802
            ],
            [
              116.34830399,
              39.9927252
            ],
            [
              116.34824735,
              39.99267643
            ],
            [
              116.34818477,
              39.99263215
            ],
            [
              116.34811684,
              39.99259281
            ],
            [
              116.34804423,
              39.99255878
            ],
            [
              116.34796764,
              39.99253038
            ],
            [
              116.34788779,
              39.9925079
            ],
            [
              116.34780546,
              39.99249155
            ],
            [
              116.34772145,
              39.99248148
            ],
            [
              116.34763655,
              39.99247779
            ],
            [
              116.3475516,
              39.99248052
            ],
            [
              116.3474674,
              39.99248964
            ],
            [
              116.34738477,
              39.99250507
            ],
            [
              116.3473045,
              39.99252665
            ],
            [
              116.34722737,
              39.99255418
            ],
            [
              116.34715413,
              39.99258739
            ],
            [
              116.34708546,
              39.99262596
            ],
            [
              116.34702204,
              39.99266953
            ],
            [
              116.34696448,
              39.99271766
            ],
            [
              116.34691333,
              39.99276991
            ],
            [
              116.34686908,
              39.99282576
            ],
            [
              116.34683216,
              39.99288467
            ],
            [
              116.34680293,
              39.99294609
            ],
            [
              116.34678167,
              39.99300941
            ],
            [
              116.34676858,
              39.99307403
            ],
            [
              116.34676378,
              39.99313933
            ],
            [
              116.34676733,
              39.99320467
            ],
            [
              116.34677919,
              39.99326943
            ],
            [
              116.34679925,
              39.99333299
            ],
            [
              116.34682731,
              39.99339472
            ],
            [
              116.3468631,
              39.99345405
            ],
            [
              116.34690628,
              39.99351039
            ],
            [
              116.34695643,
              39.9935632
            ],
            [
              116.34701307,
              39.99361198
            ],
            [
              116.34707565,
              39.99365626
            ],
            [
              116.34714357,
              39.9936956
            ],
            [
              116.34721618,
              39.99372963
            ],
            [
              116.34729278,
              39.99375803
            ],
            [
              116.34737263,
              39.99378051
            ],
            [
              116.34745496,
              39.99379687
            ],
            [
              116.34753898,
              39.99380694
            ],
            [
              116.34762387,
              39.99381062
            ],
            [
              116.34770883,
              39.99380789
            ],
            [
              116.34779303,
              39.99379877
            ],
            [
              116.34787566,
              39.99378334
            ],
            [
              116.34795593,
              39.99376176
            ],
            [
              116.34803306,
              39.99373423
            ],
            [
              116.34810631,
              39.99370102
            ],
            [
              116.34817497,
              39.99366245
            ],
            [
              116.34823839,
              39.99361888
            ],
            [
              116.34829595,
              39.99357074
            ],
            [
              116.3483471,
              39.9935185
            ],
            [
              116.34839135,
              39.99346265
            ],
            [
              116.34842827,
              39.99340374
            ],
            [
              116.3484575,
              39.99334232
            ],
            [
              116.34847876,
              39.993279
            ],
            [
              116.34849185,
              39.99321438
            ],
            [
              116.34849664,
              39.99314908
            ],
            [
              116.34849309,
              39.99308374
            ]
          ]
        ]
      }
    },
    {
      "type": "Feature",
      "id": "PUBLIC-009",
      "properties": {
        "id": "PUBLIC-009",
        "source_type": "agent_generated_design",
        "confidence": "medium",
        "geometry_role": "design_proposal",
        "layer": "PUBLIC_SPACE",
        "scenario_id": "SC-09",
        "name_zh": "夜间抵达伙伴",
        "name_en": "Night Arrival Companion",
        "testing_scenario": false,
        "access_rule": "Public baseline remains available without AI; test functions require visible status, human supervision, consent, and an immediate exit path.",
        "area_sqm_declared": 17175.74
      },
      "geometry": {
        "type": "Polygon",
        "coordinates": [
          [
            [
              116.34889993,
              40.00001655
            ],
            [
              116.34888807,
              39.99995179
            ],
            [
              116.34886801,
              39.99988824
            ],
            [
              116.34883994,
              39.9998265
            ],
            [
              116.34880415,
              39.99976718
            ],
            [
              116.34876096,
              39.99971084
            ],
            [
              116.34871081,
              39.99965802
            ],
            [
              116.34865416,
              39.99960924
            ],
            [
              116.34859157,
              39.99956497
            ],
            [
              116.34852364,
              39.99952563
            ],
            [
              116.34845102,
              39.9994916
            ],
            [
              116.34837442,
              39.9994632
            ],
            [
              116.34829456,
              39.99944072
            ],
            [
              116.34821223,
              39.99942437
            ],
            [
              116.3481282,
              39.9994143
            ],
            [
              116.3480433,
              39.99941061
            ],
            [
              116.34795834,
              39.99941334
            ],
            [
              116.34787413,
              39.99942246
            ],
            [
              116.34779149,
              39.99943789
            ],
            [
              116.34771122,
              39.99945947
            ],
            [
              116.34763408,
              39.999487
            ],
            [
              116.34756083,
              39.99952021
            ],
            [
              116.34749215,
              39.99955879
            ],
            [
              116.34742873,
              39.99960235
            ],
            [
              116.34737116,
              39.99965049
            ],
            [
              116.34732001,
              39.99970273
            ],
            [
              116.34727576,
              39.99975858
            ],
            [
              116.34723883,
              39.99981749
            ],
            [
              116.3472096,
              39.99987891
            ],
            [
              116.34718833,
              39.99994223
            ],
            [
              116.34717524,
              40.00000685
            ],
            [
              116.34717045,
              40.00007215
            ],
            [
              116.347174,
              40.00013749
            ],
            [
              116.34718586,
              40.00020225
            ],
            [
              116.34720592,
              40.00026581
            ],
            [
              116.34723398,
              40.00032754
            ],
            [
              116.34726977,
              40.00038687
            ],
            [
              116.34731296,
              40.00044321
            ],
            [
              116.34736311,
              40.00049602
            ],
            [
              116.34741976,
              40.0005448
            ],
            [
              116.34748235,
              40.00058908
            ],
            [
              116.34755028,
              40.00062842
            ],
            [
              116.3476229,
              40.00066245
            ],
            [
              116.3476995,
              40.00069085
            ],
            [
              116.34777936,
              40.00071333
            ],
            [
              116.3478617,
              40.00072968
            ],
            [
              116.34794572,
              40.00073975
            ],
            [
              116.34803063,
              40.00074344
            ],
            [
              116.34811559,
              40.00074071
            ],
            [
              116.3481998,
              40.00073159
            ],
            [
              116.34828244,
              40.00071616
            ],
            [
              116.34836271,
              40.00069458
            ],
            [
              116.34843985,
              40.00066705
            ],
            [
              116.34851311,
              40.00063384
            ],
            [
              116.34858178,
              40.00059526
            ],
            [
              116.34864521,
              40.0005517
            ],
            [
              116.34870277,
              40.00050356
            ],
            [
              116.34875393,
              40.00045132
            ],
            [
              116.34879818,
              40.00039547
            ],
            [
              116.3488351,
              40.00033655
            ],
            [
              116.34886433,
              40.00027514
            ],
            [
              116.3488856,
              40.00021181
            ],
            [
              116.34889869,
              40.00014719
            ],
            [
              116.34890348,
              40.0000819
            ],
            [
              116.34889993,
              40.00001655
            ]
          ]
        ]
      }
    },
    {
      "type": "Feature",
      "id": "PUBLIC-010",
      "properties": {
        "id": "PUBLIC-010",
        "source_type": "agent_generated_design",
        "confidence": "medium",
        "geometry_role": "design_proposal",
        "layer": "PUBLIC_SPACE",
        "scenario_id": "SC-10",
        "name_zh": "铁路记忆停靠",
        "name_en": "Rail-memory Pause",
        "testing_scenario": false,
        "access_rule": "Public baseline remains available without AI; test functions require visible status, human supervision, consent, and an immediate exit path.",
        "area_sqm_declared": 17175.74
      },
      "geometry": {
        "type": "Polygon",
        "coordinates": [
          [
            [
              116.3489441,
              40.00695448
            ],
            [
              116.34893224,
              40.00688972
            ],
            [
              116.34891217,
              40.00682617
            ],
            [
              116.34888411,
              40.00676443
            ],
            [
              116.34884831,
              40.00670511
            ],
            [
              116.34880512,
              40.00664877
            ],
            [
              116.34875496,
              40.00659595
            ],
            [
              116.34869831,
              40.00654718
            ],
            [
              116.34863571,
              40.0065029
            ],
            [
              116.34856777,
              40.00646356
            ],
            [
              116.34849515,
              40.00642953
            ],
            [
              116.34841854,
              40.00640113
            ],
            [
              116.34833867,
              40.00637865
            ],
            [
              116.34825633,
              40.0063623
            ],
            [
              116.3481723,
              40.00635223
            ],
            [
              116.34808739,
              40.00634854
            ],
            [
              116.34800241,
              40.00635127
            ],
            [
              116.3479182,
              40.0063604
            ],
            [
              116.34783555,
              40.00637582
            ],
            [
              116.34775527,
              40.0063974
            ],
            [
              116.34767813,
              40.00642493
            ],
            [
              116.34760486,
              40.00645814
            ],
            [
              116.34753618,
              40.00649672
            ],
            [
              116.34747275,
              40.00654028
            ],
            [
              116.34741518,
              40.00658842
            ],
            [
              116.34736402,
              40.00664066
            ],
            [
              116.34731976,
              40.00669651
            ],
            [
              116.34728284,
              40.00675542
            ],
            [
              116.3472536,
              40.00681684
            ],
            [
              116.34723233,
              40.00688016
            ],
            [
              116.34721924,
              40.00694478
            ],
            [
              116.34721444,
              40.00701008
            ],
            [
              116.34721799,
              40.00707542
            ],
            [
              116.34722985,
              40.00714018
            ],
            [
              116.34724991,
              40.00720374
            ],
            [
              116.34727798,
              40.00726548
            ],
            [
              116.34731378,
              40.0073248
            ],
            [
              116.34735696,
              40.00738114
            ],
            [
              116.34740713,
              40.00743396
            ],
            [
              116.34746378,
              40.00748273
            ],
            [
              116.34752637,
              40.00752701
            ],
            [
              116.34759431,
              40.00756635
            ],
            [
              116.34766694,
              40.00760038
            ],
            [
              116.34774355,
              40.00762878
            ],
            [
              116.34782342,
              40.00765126
            ],
            [
              116.34790576,
              40.00766761
            ],
            [
              116.34798979,
              40.00767768
            ],
            [
              116.34807471,
              40.00768137
            ],
            [
              116.34815968,
              40.00767864
            ],
            [
              116.3482439,
              40.00766952
            ],
            [
              116.34832654,
              40.00765409
            ],
            [
              116.34840683,
              40.00763251
            ],
            [
              116.34848397,
              40.00760498
            ],
            [
              116.34855724,
              40.00757177
            ],
            [
              116.34862592,
              40.00753319
            ],
            [
              116.34868935,
              40.00748963
            ],
            [
              116.34874692,
              40.00744149
            ],
            [
              116.34879808,
              40.00738925
            ],
            [
              116.34884234,
              40.0073334
            ],
            [
              116.34887926,
              40.00727448
            ],
            [
              116.3489085,
              40.00721307
            ],
            [
              116.34892977,
              40.00714975
            ],
            [
              116.34894286,
              40.00708512
            ],
            [
              116.34894765,
              40.00701983
            ],
            [
              116.3489441,
              40.00695448
            ]
          ]
        ]
      }
    },
    {
      "type": "Feature",
      "id": "PUBLIC-011",
      "properties": {
        "id": "PUBLIC-011",
        "source_type": "agent_generated_design",
        "confidence": "medium",
        "geometry_role": "design_proposal",
        "layer": "PUBLIC_SPACE",
        "scenario_id": "SC-11",
        "name_zh": "公共维护账本",
        "name_en": "Public Maintenance Ledger",
        "testing_scenario": false,
        "access_rule": "Public baseline remains available without AI; test functions require visible status, human supervision, consent, and an immediate exit path.",
        "area_sqm_declared": 17175.74
      },
      "geometry": {
        "type": "Polygon",
        "coordinates": [
          [
            [
              116.34855025,
              40.01388671
            ],
            [
              116.34853838,
              40.01382195
            ],
            [
              116.34851832,
              40.0137584
            ],
            [
              116.34849025,
              40.01369666
            ],
            [
              116.34845445,
              40.01363734
            ],
            [
              116.34841126,
              40.013581
            ],
            [
              116.34836109,
              40.01352818
            ],
            [
              116.34830443,
              40.0134794
            ],
            [
              116.34824183,
              40.01343513
            ],
            [
              116.34817389,
              40.01339579
            ],
            [
              116.34810126,
              40.01336176
            ],
            [
              116.34802464,
              40.01333336
            ],
            [
              116.34794476,
              40.01331088
            ],
            [
              116.34786241,
              40.01329452
            ],
            [
              116.34777837,
              40.01328445
            ],
            [
              116.34769345,
              40.01328077
            ],
            [
              116.34760847,
              40.0132835
            ],
            [
              116.34752425,
              40.01329262
            ],
            [
              116.34744159,
              40.01330805
            ],
            [
              116.3473613,
              40.01332963
            ],
            [
              116.34728415,
              40.01335716
            ],
            [
              116.34721088,
              40.01339037
            ],
            [
              116.34714219,
              40.01342894
            ],
            [
              116.34707875,
              40.0134725
            ],
            [
              116.34702117,
              40.01352064
            ],
            [
              116.34697001,
              40.01357288
            ],
            [
              116.34692575,
              40.01362873
            ],
            [
              116.34688882,
              40.01368765
            ],
            [
              116.34685958,
              40.01374906
            ],
            [
              116.34683831,
              40.01381238
            ],
            [
              116.34682521,
              40.013877
            ],
            [
              116.34682042,
              40.0139423
            ],
            [
              116.34682397,
              40.01400764
            ],
            [
              116.34683583,
              40.0140724
            ],
            [
              116.34685589,
              40.01413596
            ],
            [
              116.34688396,
              40.0141977
            ],
            [
              116.34691976,
              40.01425702
            ],
            [
              116.34696295,
              40.01431336
            ],
            [
              116.34701312,
              40.01436618
            ],
            [
              116.34706977,
              40.01441496
            ],
            [
              116.34713237,
              40.01445923
            ],
            [
              116.34720032,
              40.01449857
            ],
            [
              116.34727295,
              40.01453261
            ],
            [
              116.34734957,
              40.014561
            ],
            [
              116.34742945,
              40.01458348
            ],
            [
              116.3475118,
              40.01459984
            ],
            [
              116.34759584,
              40.01460991
            ],
            [
              116.34768076,
              40.0146136
            ],
            [
              116.34776575,
              40.01461086
            ],
            [
              116.34784997,
              40.01460174
            ],
            [
              116.34793263,
              40.01458632
            ],
            [
              116.34801292,
              40.01456473
            ],
            [
              116.34809007,
              40.01453721
            ],
            [
              116.34816335,
              40.01450399
            ],
            [
              116.34823203,
              40.01446542
            ],
            [
              116.34829547,
              40.01442186
            ],
            [
              116.34835305,
              40.01437372
            ],
            [
              116.34840422,
              40.01432148
            ],
            [
              116.34844848,
              40.01426563
            ],
            [
              116.3484854,
              40.01420671
            ],
            [
              116.34851464,
              40.0141453
            ],
            [
              116.34853591,
              40.01408197
            ],
            [
              116.34854901,
              40.01401735
            ],
            [
              116.3485538,
              40.01395206
            ],
            [
              116.34855025,
              40.01388671
            ]
          ]
        ]
      }
    },
    {
      "type": "Feature",
      "id": "PUBLIC-012",
      "properties": {
        "id": "PUBLIC-012",
        "source_type": "agent_generated_design",
        "confidence": "medium",
        "geometry_role": "design_proposal",
        "layer": "PUBLIC_SPACE",
        "scenario_id": "SC-12",
        "name_zh": "活动停靠协议",
        "name_en": "Event Pause Protocol",
        "testing_scenario": true,
        "access_rule": "Public baseline remains available without AI; test functions require visible status, human supervision, consent, and an immediate exit path.",
        "area_sqm_declared": 32632.65
      },
      "geometry": {
        "type": "Polygon",
        "coordinates": [
          [
            [
              116.34826874,
              40.02078853
            ],
            [
              116.34825239,
              40.02069926
            ],
            [
              116.34822473,
              40.02061166
            ],
            [
              116.34818604,
              40.02052656
            ],
            [
              116.34813668,
              40.02044479
            ],
            [
              116.34807714,
              40.02036713
            ],
            [
              116.34800799,
              40.02029434
            ],
            [
              116.34792989,
              40.0202271
            ],
            [
              116.34784359,
              40.02016608
            ],
            [
              116.34774993,
              40.02011185
            ],
            [
              116.3476498,
              40.02006494
            ],
            [
              116.34754418,
              40.0200258
            ],
            [
              116.34743408,
              40.01999481
            ],
            [
              116.34732055,
              40.01997227
            ],
            [
              116.3472047,
              40.01995839
            ],
            [
              116.34708764,
              40.0199533
            ],
            [
              116.34697049,
              40.01995707
            ],
            [
              116.34685439,
              40.01996964
            ],
            [
              116.34674045,
              40.0199909
            ],
            [
              116.34662977,
              40.02002065
            ],
            [
              116.34652341,
              40.02005859
            ],
            [
              116.3464224,
              40.02010437
            ],
            [
              116.34632772,
              40.02015753
            ],
            [
              116.34624027,
              40.02021758
            ],
            [
              116.34616089,
              40.02028393
            ],
            [
              116.34609036,
              40.02035594
            ],
            [
              116.34602934,
              40.02043292
            ],
            [
              116.34597844,
              40.02051413
            ],
            [
              116.34593813,
              40.02059878
            ],
            [
              116.3459088,
              40.02068606
            ],
            [
              116.34589075,
              40.02077513
            ],
            [
              116.34588413,
              40.02086513
            ],
            [
              116.34588903,
              40.0209552
            ],
            [
              116.34590538,
              40.02104447
            ],
            [
              116.34593303,
              40.02113207
            ],
            [
              116.34597172,
              40.02121717
            ],
            [
              116.34602108,
              40.02129894
            ],
            [
              116.34608061,
              40.0213766
            ],
            [
              116.34614977,
              40.0214494
            ],
            [
              116.34622787,
              40.02151663
            ],
            [
              116.34631417,
              40.02157766
            ],
            [
              116.34640783,
              40.02163189
            ],
            [
              116.34650796,
              40.0216788
            ],
            [
              116.34661358,
              40.02171794
            ],
            [
              116.34672368,
              40.02174893
            ],
            [
              116.34683721,
              40.02177148
            ],
            [
              116.34695306,
              40.02178536
            ],
            [
              116.34707013,
              40.02179044
            ],
            [
              116.34718728,
              40.02178668
            ],
            [
              116.34730339,
              40.0217741
            ],
            [
              116.34741733,
              40.02175284
            ],
            [
              116.34752801,
              40.02172309
            ],
            [
              116.34763437,
              40.02168515
            ],
            [
              116.34773538,
              40.02163937
            ],
            [
              116.34783007,
              40.0215862
            ],
            [
              116.34791752,
              40.02152616
            ],
            [
              116.34799689,
              40.02145981
            ],
            [
              116.34806743,
              40.02138779
            ],
            [
              116.34812844,
              40.02131081
            ],
            [
              116.34817935,
              40.02122961
            ],
            [
              116.34821965,
              40.02114495
            ],
            [
              116.34824898,
              40.02105767
            ],
            [
              116.34826703,
              40.0209686
            ],
            [
              116.34827364,
              40.0208786
            ],
            [
              116.34826874,
              40.02078853
            ]
          ]
        ]
      }
    }
  ]
}
