{
  "type": "FeatureCollection",
  "name": "p3_4_roads_v0_2",
  "metadata": {
    "schema_version": "p3.4-geometry-0.2.0",
    "generated_at": "2026-08-13T10:01:55+08:00",
    "baseline_upstream_main_sha": "b123180ca770aa78964d6ad40957bc26c816120b",
    "delivery_crs": "EPSG:4326",
    "calculation_crs": "EPSG:4548",
    "package_state": "scaffold",
    "precision_ceiling": "concept_design_within_provisional_constraints",
    "field_pass_claimed": false,
    "official_site_boundary_available": false,
    "official_key_area_polygons_available": false,
    "layer": "ROAD_CENTERLINE"
  },
  "features": [
    {
      "type": "Feature",
      "id": "ROAD-DZS-SHARED-PRIMARY-01",
      "properties": {
        "id": "ROAD-DZS-SHARED-PRIMARY-01",
        "layer": "ROAD_CENTERLINE",
        "source_type": "agent_generated_design",
        "confidence": "low",
        "geometry_role": "design_proposal",
        "design_status": "CONDITIONAL_ON_BINDING_PUBLIC_ACCESS",
        "action_ids": [
          "DZS-A01",
          "DZS-A04",
          "DZS-A05"
        ],
        "action_contracts": [
          {
            "action_id": "DZS-A01",
            "interface_from": "station exit threshold / IF-DZS-02",
            "interface_to": "four-quadrant municipal public realm / IF-DZS-03",
            "beneficiary": [
              "adult",
              "wheelchair",
              "elderly",
              "parent_child",
              "cyclist",
              "night_worker"
            ],
            "responsible_role": "municipal transport/public-realm delivery lead, jointly reviewed by the rail operator",
            "evidence": [
              "F-CTX-001",
              "IF-DZS-02",
              "IF-DZS-03",
              "U-DZS-003"
            ],
            "approval_dependency": [
              "traffic and signal review",
              "road-space approval",
              "rail-interface confirmation",
              "accessibility professional review"
            ],
            "maintenance_owner": "municipal public-realm maintainer coordinated with the rail operator",
            "stop_condition": "Stop fixing the alignment if traffic, rail-safety or accessibility review cannot confirm a safe continuous ground route; keep the action HOLD until an equivalent route is demonstrated.",
            "fallback": "A professional-approved temporary accessible route must open before the affected segment closes; otherwise the action remains HOLD.",
            "verification_method": "day/night/rain route audit with wheelchair user and older-person participation, plus traffic and accessibility professional review",
            "action_status": "SELECTED_FOR_DEVELOPMENT"
          },
          {
            "action_id": "DZS-A04",
            "interface_from": "park/public-space edge / IF-DZS-04",
            "interface_to": "HD00-1603-01/03A future parcel public edge",
            "beneficiary": [
              "adult",
              "wheelchair",
              "elderly",
              "parent_child",
              "cyclist",
              "night_worker"
            ],
            "responsible_role": "renewal/planning delivery lead conditions the interface; the future parcel developer delivers the parcel side",
            "evidence": [
              "F-DZS-005",
              "F-DZS-006",
              "IF-DZS-04",
              "U-DZS-001",
              "U-DZS-006"
            ],
            "approval_dependency": [
              "official parcel/redline",
              "statutory planning conditions",
              "building/fire/accessibility review",
              "binding public-access and property-management agreement"
            ],
            "maintenance_owner": "future parcel developer/property manager for the parcel side; public maintainer for the exterior bypass",
            "stop_condition": "Do not count the shared edge as a required Journey segment unless public rights, hours, fire/accessibility compliance and exterior bypass are secured in binding conditions.",
            "fallback": "The exterior public bypass remains the accepted Journey; the shared floor is removed from the required route.",
            "verification_method": "planning-condition audit, public/private line review, after-hours tabletop and on-site acceptance after delivery",
            "action_status": "SELECTED_FOR_DEVELOPMENT"
          },
          {
            "action_id": "DZS-A05",
            "interface_from": "future parcel public edge / IF-DZS-05",
            "interface_to": "shared ground floor and planned vertical connection layer / IF-DZS-06",
            "beneficiary": [
              "adult",
              "wheelchair",
              "elderly",
              "parent_child",
              "night_worker"
            ],
            "responsible_role": "future parcel developer and connection-facility delivery entity under joint rail/planning review",
            "evidence": [
              "F-DZS-007",
              "F-DZS-008",
              "F-DZS-009",
              "IF-DZS-05",
              "IF-DZS-06",
              "U-DZS-005",
              "U-DZS-006"
            ],
            "approval_dependency": [
              "rail-safety review",
              "utility and structural review",
              "fire/evacuation and accessibility review",
              "approved architecture",
              "public easement or equivalent agreement"
            ],
            "maintenance_owner": "future property/connection facility operator under a written interface agreement",
            "stop_condition": "Keep the link HOLD or kill it if any rail, utility, structure, fire, accessibility or public-access gate fails, or if it weakens the independent ground route.",
            "fallback": "Remove the vertical link from the required Journey and keep DZS-A01/DZS-A04 as the public route.",
            "verification_method": "multi-professional design review, failure-mode tabletop and joint acceptance before operation",
            "action_status": "CONCEPT_OPTION"
          }
        ],
        "interface_from": [
          "station exit threshold / IF-DZS-02",
          "park/public-space edge / IF-DZS-04",
          "future parcel public edge / IF-DZS-05"
        ],
        "interface_to": [
          "four-quadrant municipal public realm / IF-DZS-03",
          "HD00-1603-01/03A future parcel public edge",
          "shared ground floor and planned vertical connection layer / IF-DZS-06"
        ],
        "beneficiary": [
          "adult",
          "cyclist",
          "elderly",
          "night_worker",
          "parent_child",
          "wheelchair"
        ],
        "responsible_role": [
          "municipal transport/public-realm delivery lead, jointly reviewed by the rail operator",
          "renewal/planning delivery lead conditions the interface; the future parcel developer delivers the parcel side",
          "future parcel developer and connection-facility delivery entity under joint rail/planning review"
        ],
        "evidence": [
          "F-CTX-001",
          "F-DZS-005",
          "F-DZS-006",
          "F-DZS-007",
          "F-DZS-008",
          "F-DZS-009",
          "IF-DZS-02",
          "IF-DZS-03",
          "IF-DZS-04",
          "IF-DZS-05",
          "IF-DZS-06",
          "U-DZS-001",
          "U-DZS-003",
          "U-DZS-005",
          "U-DZS-006"
        ],
        "source": [
          "F-CTX-001",
          "F-DZS-005",
          "F-DZS-006",
          "F-DZS-007",
          "F-DZS-008",
          "F-DZS-009",
          "IF-DZS-02",
          "IF-DZS-03",
          "IF-DZS-04",
          "IF-DZS-05",
          "IF-DZS-06",
          "U-DZS-001",
          "U-DZS-003",
          "U-DZS-005",
          "U-DZS-006"
        ],
        "assumption": [
          "Geometry is a concept alignment inside an organizer-maintained provisional constraint.",
          "Physical interface, public rights, asset boundary and operational performance are not field-verified."
        ],
        "design_requirement": [
          "Reserve a legible, all-hours, step-free public ground route connecting the station-side threshold to all quadrant edges. Crossing form and alignment remain subject to survey and professional review.",
          "Set a future public-edge control: continuous exterior accessible path, canopy/arcade study, non-consumption rest, separated cycle parking, clear public/private threshold and an outside-property after-hours bypass.",
          "Study a public passage and vertical-link interface inside the future parcel without fixing bridge/tunnel geometry. Keep gates, service rooms and lobby control outside the required public line and pair every lift-dependent route with the ground equivalent."
        ],
        "approval_dependency": [
          "accessibility professional review",
          "approved architecture",
          "binding public-access and property-management agreement",
          "building/fire/accessibility review",
          "fire/evacuation and accessibility review",
          "official parcel/redline",
          "public easement or equivalent agreement",
          "rail-interface confirmation",
          "rail-safety review",
          "road-space approval",
          "statutory planning conditions",
          "traffic and signal review",
          "utility and structural review"
        ],
        "maintenance_owner": [
          "municipal public-realm maintainer coordinated with the rail operator",
          "future parcel developer/property manager for the parcel side; public maintainer for the exterior bypass",
          "future property/connection facility operator under a written interface agreement"
        ],
        "stop_condition": [
          "Stop fixing the alignment if traffic, rail-safety or accessibility review cannot confirm a safe continuous ground route; keep the action HOLD until an equivalent route is demonstrated.",
          "Do not count the shared edge as a required Journey segment unless public rights, hours, fire/accessibility compliance and exterior bypass are secured in binding conditions.",
          "Keep the link HOLD or kill it if any rail, utility, structure, fire, accessibility or public-access gate fails, or if it weakens the independent ground route."
        ],
        "fallback": [
          "A professional-approved temporary accessible route must open before the affected segment closes; otherwise the action remains HOLD.",
          "The exterior public bypass remains the accepted Journey; the shared floor is removed from the required route.",
          "Remove the vertical link from the required Journey and keep DZS-A01/DZS-A04 as the public route."
        ],
        "verification_method": [
          "day/night/rain route audit with wheelchair user and older-person participation, plus traffic and accessibility professional review",
          "planning-condition audit, public/private line review, after-hours tabletop and on-site acceptance after delivery",
          "multi-professional design review, failure-mode tabletop and joint acceptance before operation"
        ],
        "field_verified": false,
        "approved": false,
        "location_precision": "conceptual_within_provisional_constraint",
        "calculation_crs": "EPSG:4548",
        "name_zh": "条件性公共首层连续路径 C",
        "route_role": "CONDITIONAL_PRIMARY",
        "route_width_target_m": 3.0,
        "dimension_status": "CONCEPT_DESIGN_DIMENSION",
        "dimension_source_id": "GB55019",
        "dimension_scope_note": "Subject to public access, architecture, fire, evacuation, structure and maintenance review.",
        "official_alignment": false,
        "surveyed_alignment": false,
        "road_class": "pedestrian",
        "independent_from": null,
        "metric_ids": [
          "dazhongsi_ground_baseline_length_m",
          "dazhongsi_independent_public_route_count",
          "dazhongsi_shared_ground_floor_route_length_m",
          "public_ground_route_width_target_m",
          "shared_public_passage_width_target_m",
          "vertical_link_professional_feasibility"
        ],
        "figure_ids": [
          "03",
          "04",
          "05",
          "06",
          "07",
          "08",
          "12"
        ],
        "length_m_calculated": 730.707
      },
      "geometry": {
        "type": "LineString",
        "coordinates": [
          [
            116.34497821378164,
            39.94811613081356
          ],
          [
            116.3460351473177,
            39.947716819788326
          ],
          [
            116.34709378095927,
            39.9471373850971
          ],
          [
            116.34675047033039,
            39.94632489513069
          ],
          [
            116.34564578470166,
            39.94559817100813
          ],
          [
            116.34722533890076,
            39.94560707554751
          ],
          [
            116.34915590609698,
            39.94561792965114
          ]
        ]
      }
    },
    {
      "type": "Feature",
      "id": "ROAD-DZS-GROUND-BASELINE-01",
      "properties": {
        "id": "ROAD-DZS-GROUND-BASELINE-01",
        "layer": "ROAD_CENTERLINE",
        "source_type": "agent_generated_design",
        "confidence": "low",
        "geometry_role": "design_proposal",
        "design_status": "SELECTED_FOR_DEVELOPMENT",
        "action_ids": [
          "DZS-A01",
          "DZS-A04",
          "DZS-A06"
        ],
        "action_contracts": [
          {
            "action_id": "DZS-A01",
            "interface_from": "station exit threshold / IF-DZS-02",
            "interface_to": "four-quadrant municipal public realm / IF-DZS-03",
            "beneficiary": [
              "adult",
              "wheelchair",
              "elderly",
              "parent_child",
              "cyclist",
              "night_worker"
            ],
            "responsible_role": "municipal transport/public-realm delivery lead, jointly reviewed by the rail operator",
            "evidence": [
              "F-CTX-001",
              "IF-DZS-02",
              "IF-DZS-03",
              "U-DZS-003"
            ],
            "approval_dependency": [
              "traffic and signal review",
              "road-space approval",
              "rail-interface confirmation",
              "accessibility professional review"
            ],
            "maintenance_owner": "municipal public-realm maintainer coordinated with the rail operator",
            "stop_condition": "Stop fixing the alignment if traffic, rail-safety or accessibility review cannot confirm a safe continuous ground route; keep the action HOLD until an equivalent route is demonstrated.",
            "fallback": "A professional-approved temporary accessible route must open before the affected segment closes; otherwise the action remains HOLD.",
            "verification_method": "day/night/rain route audit with wheelchair user and older-person participation, plus traffic and accessibility professional review",
            "action_status": "SELECTED_FOR_DEVELOPMENT"
          },
          {
            "action_id": "DZS-A04",
            "interface_from": "park/public-space edge / IF-DZS-04",
            "interface_to": "HD00-1603-01/03A future parcel public edge",
            "beneficiary": [
              "adult",
              "wheelchair",
              "elderly",
              "parent_child",
              "cyclist",
              "night_worker"
            ],
            "responsible_role": "renewal/planning delivery lead conditions the interface; the future parcel developer delivers the parcel side",
            "evidence": [
              "F-DZS-005",
              "F-DZS-006",
              "IF-DZS-04",
              "U-DZS-001",
              "U-DZS-006"
            ],
            "approval_dependency": [
              "official parcel/redline",
              "statutory planning conditions",
              "building/fire/accessibility review",
              "binding public-access and property-management agreement"
            ],
            "maintenance_owner": "future parcel developer/property manager for the parcel side; public maintainer for the exterior bypass",
            "stop_condition": "Do not count the shared edge as a required Journey segment unless public rights, hours, fire/accessibility compliance and exterior bypass are secured in binding conditions.",
            "fallback": "The exterior public bypass remains the accepted Journey; the shared floor is removed from the required route.",
            "verification_method": "planning-condition audit, public/private line review, after-hours tabletop and on-site acceptance after delivery",
            "action_status": "SELECTED_FOR_DEVELOPMENT"
          },
          {
            "action_id": "DZS-A06",
            "interface_from": "station/road/park existing network",
            "interface_to": "future parcel and connection construction boundary",
            "beneficiary": [
              "wheelchair",
              "elderly",
              "parent_child",
              "cyclist",
              "night_worker"
            ],
            "responsible_role": "construction entity before occupation, overseen by the approving and receiving public-asset roles",
            "evidence": [
              "F-INF-001",
              "IF-DZS-04",
              "IF-DZS-05",
              "U-DZS-010"
            ],
            "approval_dependency": [
              "construction-organization review",
              "traffic-diversion approval",
              "temporary-facility inspection",
              "emergency/accessibility review"
            ],
            "maintenance_owner": "construction entity during occupation, with receiving public-asset maintainer identified before handback",
            "stop_condition": "Do not close or occupy the original route until the equivalent temporary route is inspected, operating, legible and assigned to a maintainer.",
            "fallback": "Do not close the original route; revise the construction phase or sequence.",
            "verification_method": "pre-closure walk-through with target users, daily inspection and post-phase restoration acceptance",
            "action_status": "SELECTED_FOR_DEVELOPMENT"
          }
        ],
        "interface_from": [
          "station exit threshold / IF-DZS-02",
          "park/public-space edge / IF-DZS-04",
          "station/road/park existing network"
        ],
        "interface_to": [
          "four-quadrant municipal public realm / IF-DZS-03",
          "HD00-1603-01/03A future parcel public edge",
          "future parcel and connection construction boundary"
        ],
        "beneficiary": [
          "adult",
          "cyclist",
          "elderly",
          "night_worker",
          "parent_child",
          "wheelchair"
        ],
        "responsible_role": [
          "municipal transport/public-realm delivery lead, jointly reviewed by the rail operator",
          "renewal/planning delivery lead conditions the interface; the future parcel developer delivers the parcel side",
          "construction entity before occupation, overseen by the approving and receiving public-asset roles"
        ],
        "evidence": [
          "F-CTX-001",
          "F-DZS-005",
          "F-DZS-006",
          "F-INF-001",
          "IF-DZS-02",
          "IF-DZS-03",
          "IF-DZS-04",
          "IF-DZS-05",
          "U-DZS-001",
          "U-DZS-003",
          "U-DZS-006",
          "U-DZS-010"
        ],
        "source": [
          "F-CTX-001",
          "F-DZS-005",
          "F-DZS-006",
          "F-INF-001",
          "IF-DZS-02",
          "IF-DZS-03",
          "IF-DZS-04",
          "IF-DZS-05",
          "U-DZS-001",
          "U-DZS-003",
          "U-DZS-006",
          "U-DZS-010"
        ],
        "assumption": [
          "Geometry is a concept alignment inside an organizer-maintained provisional constraint.",
          "Physical interface, public rights, asset boundary and operational performance are not field-verified."
        ],
        "design_requirement": [
          "Reserve a legible, all-hours, step-free public ground route connecting the station-side threshold to all quadrant edges. Crossing form and alignment remain subject to survey and professional review.",
          "Set a future public-edge control: continuous exterior accessible path, canopy/arcade study, non-consumption rest, separated cycle parking, clear public/private threshold and an outside-property after-hours bypass.",
          "Make temporary continuity a pre-construction spatial deliverable: accessible detour, protected crossings, lighting, weather recovery, cycle transition and visible responsibility at every phase boundary."
        ],
        "approval_dependency": [
          "accessibility professional review",
          "binding public-access and property-management agreement",
          "building/fire/accessibility review",
          "construction-organization review",
          "emergency/accessibility review",
          "official parcel/redline",
          "rail-interface confirmation",
          "road-space approval",
          "statutory planning conditions",
          "temporary-facility inspection",
          "traffic and signal review",
          "traffic-diversion approval"
        ],
        "maintenance_owner": [
          "municipal public-realm maintainer coordinated with the rail operator",
          "future parcel developer/property manager for the parcel side; public maintainer for the exterior bypass",
          "construction entity during occupation, with receiving public-asset maintainer identified before handback"
        ],
        "stop_condition": [
          "Stop fixing the alignment if traffic, rail-safety or accessibility review cannot confirm a safe continuous ground route; keep the action HOLD until an equivalent route is demonstrated.",
          "Do not count the shared edge as a required Journey segment unless public rights, hours, fire/accessibility compliance and exterior bypass are secured in binding conditions.",
          "Do not close or occupy the original route until the equivalent temporary route is inspected, operating, legible and assigned to a maintainer."
        ],
        "fallback": [
          "A professional-approved temporary accessible route must open before the affected segment closes; otherwise the action remains HOLD.",
          "The exterior public bypass remains the accepted Journey; the shared floor is removed from the required route.",
          "Do not close the original route; revise the construction phase or sequence."
        ],
        "verification_method": [
          "day/night/rain route audit with wheelchair user and older-person participation, plus traffic and accessibility professional review",
          "planning-condition audit, public/private line review, after-hours tabletop and on-site acceptance after delivery",
          "pre-closure walk-through with target users, daily inspection and post-phase restoration acceptance"
        ],
        "field_verified": false,
        "approved": false,
        "location_precision": "conceptual_within_provisional_constraint",
        "calculation_crs": "EPSG:4548",
        "name_zh": "全时独立地面基线路径 A",
        "route_role": "INDEPENDENT_PUBLIC_BASELINE",
        "route_width_target_m": 4.0,
        "dimension_status": "CONCEPT_DESIGN_DIMENSION",
        "dimension_source_id": "BEIJING-ROAD-SPACE-DB11",
        "dimension_scope_note": "Not an existing width and not a road redline.",
        "official_alignment": false,
        "surveyed_alignment": false,
        "road_class": "pedestrian",
        "independent_from": "ROAD-DZS-SHARED-PRIMARY-01",
        "metric_ids": [
          "dazhongsi_failure_scenarios_tested_count",
          "dazhongsi_ground_baseline_length_m",
          "dazhongsi_independent_public_route_count",
          "dazhongsi_shared_ground_floor_route_length_m",
          "dazhongsi_temporary_route_length_m",
          "public_ground_route_width_target_m"
        ],
        "figure_ids": [
          "03",
          "04",
          "05",
          "07",
          "08",
          "12"
        ],
        "length_m_calculated": 1210.877
      },
      "geometry": {
        "type": "LineString",
        "coordinates": [
          [
            116.34497821378164,
            39.94811613081356
          ],
          [
            116.34463750163624,
            39.9470334641565
          ],
          [
            116.34465812521644,
            39.944872097895754
          ],
          [
            116.35156129291924,
            39.94491091377845
          ],
          [
            116.35155704177281,
            39.94536119909919
          ],
          [
            116.34915590609698,
            39.94561792965114
          ]
        ]
      }
    },
    {
      "type": "Feature",
      "id": "ROAD-DZS-PARK-JOURNEY-01",
      "properties": {
        "id": "ROAD-DZS-PARK-JOURNEY-01",
        "layer": "ROAD_CENTERLINE",
        "source_type": "agent_generated_design",
        "confidence": "low",
        "geometry_role": "design_proposal",
        "design_status": "SELECTED_FOR_DEVELOPMENT",
        "action_ids": [
          "DZS-A01",
          "DZS-A03"
        ],
        "action_contracts": [
          {
            "action_id": "DZS-A01",
            "interface_from": "station exit threshold / IF-DZS-02",
            "interface_to": "four-quadrant municipal public realm / IF-DZS-03",
            "beneficiary": [
              "adult",
              "wheelchair",
              "elderly",
              "parent_child",
              "cyclist",
              "night_worker"
            ],
            "responsible_role": "municipal transport/public-realm delivery lead, jointly reviewed by the rail operator",
            "evidence": [
              "F-CTX-001",
              "IF-DZS-02",
              "IF-DZS-03",
              "U-DZS-003"
            ],
            "approval_dependency": [
              "traffic and signal review",
              "road-space approval",
              "rail-interface confirmation",
              "accessibility professional review"
            ],
            "maintenance_owner": "municipal public-realm maintainer coordinated with the rail operator",
            "stop_condition": "Stop fixing the alignment if traffic, rail-safety or accessibility review cannot confirm a safe continuous ground route; keep the action HOLD until an equivalent route is demonstrated.",
            "fallback": "A professional-approved temporary accessible route must open before the affected segment closes; otherwise the action remains HOLD.",
            "verification_method": "day/night/rain route audit with wheelchair user and older-person participation, plus traffic and accessibility professional review",
            "action_status": "SELECTED_FOR_DEVELOPMENT"
          },
          {
            "action_id": "DZS-A03",
            "interface_from": "municipal crossing edge / IF-DZS-03",
            "interface_to": "Shunxinyuan entrance and existing park route",
            "beneficiary": [
              "wheelchair",
              "elderly",
              "parent_child",
              "night_worker"
            ],
            "responsible_role": "park asset owner or authorized public-realm renewal delivery entity",
            "evidence": [
              "F-DZS-002",
              "F-DZS-003",
              "IF-DZS-03",
              "U-DZS-004",
              "U-DZS-008"
            ],
            "approval_dependency": [
              "park-asset consent",
              "tree/root and drainage review",
              "lighting/ecology review",
              "accessibility professional review"
            ],
            "maintenance_owner": "park maintainer at the park side and municipal maintainer at the sidewalk side",
            "stop_condition": "Kill or reduce the retrofit if it harms trees or drainage, narrows the clear route, causes unsafe glare or lacks an accepted maintenance owner.",
            "fallback": "Retain the existing park condition and deliver a smaller removable rest/help element outside the clear route.",
            "verification_method": "entrance measurement, rain observation, night audit, tree/drainage review and maintenance trial",
            "action_status": "CONCEPT_OPTION"
          }
        ],
        "interface_from": [
          "station exit threshold / IF-DZS-02",
          "municipal crossing edge / IF-DZS-03"
        ],
        "interface_to": [
          "four-quadrant municipal public realm / IF-DZS-03",
          "Shunxinyuan entrance and existing park route"
        ],
        "beneficiary": [
          "adult",
          "cyclist",
          "elderly",
          "night_worker",
          "parent_child",
          "wheelchair"
        ],
        "responsible_role": [
          "municipal transport/public-realm delivery lead, jointly reviewed by the rail operator",
          "park asset owner or authorized public-realm renewal delivery entity"
        ],
        "evidence": [
          "F-CTX-001",
          "F-DZS-002",
          "F-DZS-003",
          "IF-DZS-02",
          "IF-DZS-03",
          "U-DZS-003",
          "U-DZS-004",
          "U-DZS-008"
        ],
        "source": [
          "F-CTX-001",
          "F-DZS-002",
          "F-DZS-003",
          "IF-DZS-02",
          "IF-DZS-03",
          "U-DZS-003",
          "U-DZS-004",
          "U-DZS-008"
        ],
        "assumption": [
          "Geometry is a concept alignment inside an organizer-maintained provisional constraint.",
          "Physical interface, public rights, asset boundary and operational performance are not field-verified."
        ],
        "design_requirement": [
          "Reserve a legible, all-hours, step-free public ground route connecting the station-side threshold to all quadrant edges. Crossing form and alignment remain subject to survey and professional review.",
          "Preserve the built park and add only an interface recovery sequence: unobstructed entrance apron, shade/rain cover where professionally feasible, seating, drinking-water possibility, drained non-slip surface, low-level night guidance and a visible help location."
        ],
        "approval_dependency": [
          "accessibility professional review",
          "lighting/ecology review",
          "park-asset consent",
          "rail-interface confirmation",
          "road-space approval",
          "traffic and signal review",
          "tree/root and drainage review"
        ],
        "maintenance_owner": [
          "municipal public-realm maintainer coordinated with the rail operator",
          "park maintainer at the park side and municipal maintainer at the sidewalk side"
        ],
        "stop_condition": [
          "Stop fixing the alignment if traffic, rail-safety or accessibility review cannot confirm a safe continuous ground route; keep the action HOLD until an equivalent route is demonstrated.",
          "Kill or reduce the retrofit if it harms trees or drainage, narrows the clear route, causes unsafe glare or lacks an accepted maintenance owner."
        ],
        "fallback": [
          "A professional-approved temporary accessible route must open before the affected segment closes; otherwise the action remains HOLD.",
          "Retain the existing park condition and deliver a smaller removable rest/help element outside the clear route."
        ],
        "verification_method": [
          "day/night/rain route audit with wheelchair user and older-person participation, plus traffic and accessibility professional review",
          "entrance measurement, rain observation, night audit, tree/drainage review and maintenance trial"
        ],
        "field_verified": false,
        "approved": false,
        "location_precision": "conceptual_within_provisional_constraint",
        "calculation_crs": "EPSG:4548",
        "name_zh": "顺馨园公共地面支线",
        "route_role": "PUBLIC_GROUND_BRANCH",
        "route_width_target_m": 4.0,
        "dimension_status": "CONCEPT_DESIGN_DIMENSION",
        "dimension_source_id": "BEIJING-ROAD-SPACE-DB11",
        "dimension_scope_note": "Not an existing width and not a road redline.",
        "official_alignment": false,
        "surveyed_alignment": false,
        "road_class": "greenway",
        "independent_from": null,
        "metric_ids": [
          "dazhongsi_ground_baseline_length_m",
          "dazhongsi_independent_public_route_count",
          "dazhongsi_park_branch_length_m",
          "recovery_interval_design_target_m"
        ],
        "figure_ids": [
          "03",
          "04",
          "05",
          "07",
          "08"
        ],
        "length_m_calculated": 597.013
      },
      "geometry": {
        "type": "LineString",
        "coordinates": [
          [
            116.34497821378164,
            39.94811613081356
          ],
          [
            116.34709378095927,
            39.9471373850971
          ],
          [
            116.348728031336,
            39.947551855261665
          ],
          [
            116.35141367405417,
            39.948152312749244
          ]
        ]
      }
    },
    {
      "type": "Feature",
      "id": "ROAD-DZS-TEMPORARY-CONTINUITY-01",
      "properties": {
        "id": "ROAD-DZS-TEMPORARY-CONTINUITY-01",
        "layer": "ROAD_CENTERLINE",
        "source_type": "agent_generated_design",
        "confidence": "low",
        "geometry_role": "design_proposal",
        "design_status": "SELECTED_FOR_DEVELOPMENT",
        "action_ids": [
          "DZS-A06"
        ],
        "action_contracts": [
          {
            "action_id": "DZS-A06",
            "interface_from": "station/road/park existing network",
            "interface_to": "future parcel and connection construction boundary",
            "beneficiary": [
              "wheelchair",
              "elderly",
              "parent_child",
              "cyclist",
              "night_worker"
            ],
            "responsible_role": "construction entity before occupation, overseen by the approving and receiving public-asset roles",
            "evidence": [
              "F-INF-001",
              "IF-DZS-04",
              "IF-DZS-05",
              "U-DZS-010"
            ],
            "approval_dependency": [
              "construction-organization review",
              "traffic-diversion approval",
              "temporary-facility inspection",
              "emergency/accessibility review"
            ],
            "maintenance_owner": "construction entity during occupation, with receiving public-asset maintainer identified before handback",
            "stop_condition": "Do not close or occupy the original route until the equivalent temporary route is inspected, operating, legible and assigned to a maintainer.",
            "fallback": "Do not close the original route; revise the construction phase or sequence.",
            "verification_method": "pre-closure walk-through with target users, daily inspection and post-phase restoration acceptance",
            "action_status": "SELECTED_FOR_DEVELOPMENT"
          }
        ],
        "interface_from": [
          "station/road/park existing network"
        ],
        "interface_to": [
          "future parcel and connection construction boundary"
        ],
        "beneficiary": [
          "cyclist",
          "elderly",
          "night_worker",
          "parent_child",
          "wheelchair"
        ],
        "responsible_role": [
          "construction entity before occupation, overseen by the approving and receiving public-asset roles"
        ],
        "evidence": [
          "F-INF-001",
          "IF-DZS-04",
          "IF-DZS-05",
          "U-DZS-010"
        ],
        "source": [
          "F-INF-001",
          "IF-DZS-04",
          "IF-DZS-05",
          "U-DZS-010"
        ],
        "assumption": [
          "Geometry is a concept alignment inside an organizer-maintained provisional constraint.",
          "Physical interface, public rights, asset boundary and operational performance are not field-verified."
        ],
        "design_requirement": [
          "Make temporary continuity a pre-construction spatial deliverable: accessible detour, protected crossings, lighting, weather recovery, cycle transition and visible responsibility at every phase boundary."
        ],
        "approval_dependency": [
          "construction-organization review",
          "emergency/accessibility review",
          "temporary-facility inspection",
          "traffic-diversion approval"
        ],
        "maintenance_owner": [
          "construction entity during occupation, with receiving public-asset maintainer identified before handback"
        ],
        "stop_condition": [
          "Do not close or occupy the original route until the equivalent temporary route is inspected, operating, legible and assigned to a maintainer."
        ],
        "fallback": [
          "Do not close the original route; revise the construction phase or sequence."
        ],
        "verification_method": [
          "pre-closure walk-through with target users, daily inspection and post-phase restoration acceptance"
        ],
        "field_verified": false,
        "approved": false,
        "location_precision": "conceptual_within_provisional_constraint",
        "calculation_crs": "EPSG:4548",
        "name_zh": "施工期等效连续路径",
        "route_role": "TEMPORARY_EQUIVALENT_ROUTE",
        "route_width_target_m": 1.8,
        "dimension_status": "DESIGN_TARGET",
        "dimension_source_id": "GB55019",
        "dimension_scope_note": "Applied as a minimum clear line inside wider station-area public space; final applicability requires accessibility professional review.",
        "official_alignment": false,
        "surveyed_alignment": false,
        "road_class": "pedestrian",
        "independent_from": null,
        "metric_ids": [
          "dazhongsi_failure_scenarios_tested_count",
          "dazhongsi_temporary_route_length_m"
        ],
        "figure_ids": [
          "03",
          "07",
          "08",
          "12"
        ],
        "length_m_calculated": 560.397
      },
      "geometry": {
        "type": "LineString",
        "coordinates": [
          [
            116.34497563691902,
            39.9483863015065
          ],
          [
            116.34719537913928,
            39.94875906895331
          ],
          [
            116.34988744911335,
            39.94868413479096
          ],
          [
            116.3514119730248,
            39.94833242677552
          ]
        ]
      }
    },
    {
      "type": "Feature",
      "id": "ROAD-DZS-CYCLE-ARRIVAL-01",
      "properties": {
        "id": "ROAD-DZS-CYCLE-ARRIVAL-01",
        "layer": "ROAD_CENTERLINE",
        "source_type": "agent_generated_design",
        "confidence": "low",
        "geometry_role": "design_proposal",
        "design_status": "SELECTED_FOR_DEVELOPMENT",
        "action_ids": [
          "DZS-A02"
        ],
        "action_contracts": [
          {
            "action_id": "DZS-A02",
            "interface_from": "station exit threshold / IF-DZS-02",
            "interface_to": "municipal sidewalk, bicycle parking, bus/taxi/ride-hailing interfaces",
            "beneficiary": [
              "adult",
              "wheelchair",
              "elderly",
              "parent_child",
              "cyclist",
              "night_worker"
            ],
            "responsible_role": "station-area public-realm delivery lead with transport-operations representatives",
            "evidence": [
              "IF-DZS-02",
              "U-DZS-002",
              "U-DZS-003"
            ],
            "approval_dependency": [
              "station operator coordination",
              "transport-operations review",
              "emergency-access review",
              "accessibility professional review"
            ],
            "maintenance_owner": "station-area public-realm operator and transport facility maintainers by asset boundary",
            "stop_condition": "Stop permanent allocation if observed mode demand, turning paths or emergency access cannot be reconciled without occupying the accessible line.",
            "fallback": "Use removable channelization and staffed management while the permanent allocation is corrected.",
            "verification_method": "peak/off-peak conflict observation, turning-path review, accessible-route measurement and emergency access check",
            "action_status": "SELECTED_FOR_DEVELOPMENT"
          }
        ],
        "interface_from": [
          "station exit threshold / IF-DZS-02"
        ],
        "interface_to": [
          "municipal sidewalk, bicycle parking, bus/taxi/ride-hailing interfaces"
        ],
        "beneficiary": [
          "adult",
          "cyclist",
          "elderly",
          "night_worker",
          "parent_child",
          "wheelchair"
        ],
        "responsible_role": [
          "station-area public-realm delivery lead with transport-operations representatives"
        ],
        "evidence": [
          "IF-DZS-02",
          "U-DZS-002",
          "U-DZS-003"
        ],
        "source": [
          "IF-DZS-02",
          "U-DZS-002",
          "U-DZS-003"
        ],
        "assumption": [
          "Geometry is a concept alignment inside an organizer-maintained provisional constraint.",
          "Physical interface, public rights, asset boundary and operational performance are not field-verified."
        ],
        "design_requirement": [
          "Create a transfer clearing in which the continuous pedestrian/accessible line is physically protected from bicycle parking, short-stay pickup, delivery and service access; retain visible waiting and help space."
        ],
        "approval_dependency": [
          "accessibility professional review",
          "emergency-access review",
          "station operator coordination",
          "transport-operations review"
        ],
        "maintenance_owner": [
          "station-area public-realm operator and transport facility maintainers by asset boundary"
        ],
        "stop_condition": [
          "Stop permanent allocation if observed mode demand, turning paths or emergency access cannot be reconciled without occupying the accessible line."
        ],
        "fallback": [
          "Use removable channelization and staffed management while the permanent allocation is corrected."
        ],
        "verification_method": [
          "peak/off-peak conflict observation, turning-path review, accessible-route measurement and emergency access check"
        ],
        "field_verified": false,
        "approved": false,
        "location_precision": "conceptual_within_provisional_constraint",
        "calculation_crs": "EPSG:4548",
        "name_zh": "骑行到达预留线",
        "route_role": "CYCLE_ARRIVAL",
        "route_width_target_m": 3.5,
        "dimension_status": "CONCEPT_DESIGN_DIMENSION",
        "dimension_source_id": "BEIJING-ROAD-SPACE-DB11",
        "dimension_scope_note": "Not an approved lane width; traffic professionals must replace it after class, direction and demand are known.",
        "official_alignment": false,
        "surveyed_alignment": false,
        "road_class": "cycleway",
        "independent_from": null,
        "metric_ids": [
          "cycle_arrival_reservation_width_m",
          "dazhongsi_cycle_arrival_length_m"
        ],
        "figure_ids": [
          "03",
          "04",
          "08"
        ],
        "length_m_calculated": 323.839
      },
      "geometry": {
        "type": "LineString",
        "coordinates": [
          [
            116.34392987132571,
            39.947614863259744
          ],
          [
            116.34451361897915,
            39.9477532578897
          ],
          [
            116.34497821378164,
            39.94811613081356
          ],
          [
            116.34556711692026,
            39.94771417872994
          ],
          [
            116.34627302009649,
            39.94731288341325
          ],
          [
            116.34709378095927,
            39.9471373850971
          ]
        ]
      }
    },
    {
      "type": "Feature",
      "id": "ROAD-QH-ARRIVAL-CHAIN-01",
      "properties": {
        "id": "ROAD-QH-ARRIVAL-CHAIN-01",
        "layer": "ROAD_CENTERLINE",
        "source_type": "agent_generated_design",
        "confidence": "low",
        "geometry_role": "design_proposal",
        "design_status": "FUTURE_INTEGRATION_REQUIREMENT",
        "action_ids": [
          "QH-A01",
          "QH-A02",
          "QH-A03"
        ],
        "action_contracts": [
          {
            "action_id": "QH-A01",
            "interface_from": "station plaza/exit threshold / IF-QH-02",
            "interface_to": "under-construction station-scene project edge",
            "beneficiary": [
              "adult",
              "wheelchair",
              "elderly",
              "parent_child",
              "cyclist",
              "night_worker"
            ],
            "responsible_role": "station-scene project delivery entity with the receiving station-area public-realm maintainer",
            "evidence": [
              "IF-QH-01",
              "IF-QH-02",
              "QH-SCENE-PROGRESS"
            ],
            "approval_dependency": [
              "completion-drawing review",
              "handover-boundary confirmation",
              "station/municipal/accessibility acceptance",
              "temporary-route inspection"
            ],
            "maintenance_owner": "receiving station-area public-realm maintainer after construction handoff",
            "stop_condition": "Do not accept the endpoint as Journey-complete if the onward public edge, temporary route or receiving maintenance role remains unverified.",
            "fallback": "Keep the current public route and temporary handoff until the receiving interface passes field verification.",
            "verification_method": "post-completion route audit and joint boundary walk-through",
            "action_status": "SELECTED_FOR_DEVELOPMENT"
          },
          {
            "action_id": "QH-A02",
            "interface_from": "scene project endpoint / IF-QH-03",
            "interface_to": "municipal/river/park and renewal-group edge / IF-QH-04",
            "beneficiary": [
              "wheelchair",
              "elderly",
              "parent_child",
              "cyclist",
              "night_worker"
            ],
            "responsible_role": "renewal/planning delivery lead coordinating municipal and blue-green asset roles",
            "evidence": [
              "IF-QH-03",
              "IF-QH-04",
              "ZZY-UPDATE"
            ],
            "approval_dependency": [
              "river/park and road-boundary confirmation",
              "renewal-planning review",
              "flood/drainage and ecology review",
              "accessibility professional review"
            ],
            "maintenance_owner": "municipal/blue-green asset maintainers and future renewal public-realm maintainer by boundary",
            "stop_condition": "Hold permanent geometry until the public/blue-green boundaries, flood/drainage conditions and receiving maintenance roles are verified.",
            "fallback": "Hold permanent construction and retain a protected temporary public route to the verified network.",
            "verification_method": "boundary overlay, professional review and post-delivery Journey audit",
            "action_status": "CONCEPT_OPTION"
          },
          {
            "action_id": "QH-A03",
            "interface_from": "renewal-group public edge / IF-QH-05",
            "interface_to": "campus/property threshold and building entrance / IF-QH-06",
            "beneficiary": [
              "adult",
              "wheelchair",
              "elderly",
              "parent_child",
              "cyclist",
              "night_worker"
            ],
            "responsible_role": "future renewal/property developer with planning and public-realm interface review",
            "evidence": [
              "IF-QH-05",
              "IF-QH-06"
            ],
            "approval_dependency": [
              "destination/property plan",
              "fire and accessibility review",
              "binding access-hours condition",
              "maintenance agreement"
            ],
            "maintenance_owner": "future property manager with public-realm maintainer at the boundary",
            "stop_condition": "Do not count the destination as delivered until the exact entrance, public rights/hours, accessible threshold and receiving owner are confirmed.",
            "fallback": "Use the verified public-network endpoint as the Journey terminus until the property interface is delivered.",
            "verification_method": "approved-design review and actual entrance/open-hour audit",
            "action_status": "CONCEPT_OPTION"
          }
        ],
        "interface_from": [
          "station plaza/exit threshold / IF-QH-02",
          "scene project endpoint / IF-QH-03",
          "renewal-group public edge / IF-QH-05"
        ],
        "interface_to": [
          "under-construction station-scene project edge",
          "municipal/river/park and renewal-group edge / IF-QH-04",
          "campus/property threshold and building entrance / IF-QH-06"
        ],
        "beneficiary": [
          "adult",
          "cyclist",
          "elderly",
          "night_worker",
          "parent_child",
          "wheelchair"
        ],
        "responsible_role": [
          "station-scene project delivery entity with the receiving station-area public-realm maintainer",
          "renewal/planning delivery lead coordinating municipal and blue-green asset roles",
          "future renewal/property developer with planning and public-realm interface review"
        ],
        "evidence": [
          "IF-QH-01",
          "IF-QH-02",
          "IF-QH-03",
          "IF-QH-04",
          "IF-QH-05",
          "IF-QH-06",
          "QH-SCENE-PROGRESS",
          "ZZY-UPDATE"
        ],
        "source": [
          "IF-QH-01",
          "IF-QH-02",
          "IF-QH-03",
          "IF-QH-04",
          "IF-QH-05",
          "IF-QH-06",
          "QH-SCENE-PROGRESS",
          "ZZY-UPDATE"
        ],
        "assumption": [
          "Geometry is a concept alignment inside an organizer-maintained provisional constraint.",
          "Physical interface, public rights, asset boundary and operational performance are not field-verified."
        ],
        "design_requirement": [
          "Define a receiving apron at the station project endpoint: protected accessible line, cycle arrival/parking transition, shelter/rest sequence, legible project-boundary marker and temporary-route handoff.",
          "Carry one continuous arrival chain through the municipal/blue-green edge: accessible crossing requirement, shaded/rest recovery, water-edge safety, cycle continuity and a clearly receiving renewal-group public edge.",
          "Reserve a visible, step-free property threshold, bicycle arrival zone, sheltered waiting/rest point and building-entrance handoff with an outside-property after-hours fallback."
        ],
        "approval_dependency": [
          "accessibility professional review",
          "binding access-hours condition",
          "completion-drawing review",
          "destination/property plan",
          "fire and accessibility review",
          "flood/drainage and ecology review",
          "handover-boundary confirmation",
          "maintenance agreement",
          "renewal-planning review",
          "river/park and road-boundary confirmation",
          "station/municipal/accessibility acceptance",
          "temporary-route inspection"
        ],
        "maintenance_owner": [
          "receiving station-area public-realm maintainer after construction handoff",
          "municipal/blue-green asset maintainers and future renewal public-realm maintainer by boundary",
          "future property manager with public-realm maintainer at the boundary"
        ],
        "stop_condition": [
          "Do not accept the endpoint as Journey-complete if the onward public edge, temporary route or receiving maintenance role remains unverified.",
          "Hold permanent geometry until the public/blue-green boundaries, flood/drainage conditions and receiving maintenance roles are verified.",
          "Do not count the destination as delivered until the exact entrance, public rights/hours, accessible threshold and receiving owner are confirmed."
        ],
        "fallback": [
          "Keep the current public route and temporary handoff until the receiving interface passes field verification.",
          "Hold permanent construction and retain a protected temporary public route to the verified network.",
          "Use the verified public-network endpoint as the Journey terminus until the property interface is delivered."
        ],
        "verification_method": [
          "post-completion route audit and joint boundary walk-through",
          "boundary overlay, professional review and post-delivery Journey audit",
          "approved-design review and actual entrance/open-hour audit"
        ],
        "field_verified": false,
        "approved": false,
        "location_precision": "conceptual_within_provisional_constraint",
        "calculation_crs": "EPSG:4548",
        "name_zh": "清河站—众智园跨项目到达链",
        "route_role": "CROSS_PROJECT_ARRIVAL_CHAIN",
        "route_width_target_m": 4.0,
        "dimension_status": "CONCEPT_DESIGN_DIMENSION",
        "official_alignment": false,
        "surveyed_alignment": false,
        "road_class": "transit_connection",
        "metric_ids": [
          "qinghe_after_hours_fallback_length_m",
          "qinghe_arrival_chain_length_m",
          "qinghe_cycle_chain_length_m",
          "qinghe_interface_count",
          "recovery_interval_design_target_m"
        ],
        "figure_ids": [
          "09",
          "12"
        ],
        "length_m_calculated": 720.0
      },
      "geometry": {
        "type": "LineString",
        "coordinates": [
          [
            116.34428349083727,
            40.016725939632984
          ],
          [
            116.34568899517143,
            40.01673388398543
          ],
          [
            116.34744587637287,
            40.01674379045692
          ],
          [
            116.34931988394523,
            40.01675432800507
          ],
          [
            116.3511938925031,
            40.0167648352515
          ],
          [
            116.35271652518013,
            40.01677335007718
          ]
        ]
      }
    },
    {
      "type": "Feature",
      "id": "ROAD-QH-PROPERTY-FALLBACK-01",
      "properties": {
        "id": "ROAD-QH-PROPERTY-FALLBACK-01",
        "layer": "ROAD_CENTERLINE",
        "source_type": "agent_generated_design",
        "confidence": "low",
        "geometry_role": "design_proposal",
        "design_status": "FUTURE_INTEGRATION_REQUIREMENT",
        "action_ids": [
          "QH-A03"
        ],
        "action_contracts": [
          {
            "action_id": "QH-A03",
            "interface_from": "renewal-group public edge / IF-QH-05",
            "interface_to": "campus/property threshold and building entrance / IF-QH-06",
            "beneficiary": [
              "adult",
              "wheelchair",
              "elderly",
              "parent_child",
              "cyclist",
              "night_worker"
            ],
            "responsible_role": "future renewal/property developer with planning and public-realm interface review",
            "evidence": [
              "IF-QH-05",
              "IF-QH-06"
            ],
            "approval_dependency": [
              "destination/property plan",
              "fire and accessibility review",
              "binding access-hours condition",
              "maintenance agreement"
            ],
            "maintenance_owner": "future property manager with public-realm maintainer at the boundary",
            "stop_condition": "Do not count the destination as delivered until the exact entrance, public rights/hours, accessible threshold and receiving owner are confirmed.",
            "fallback": "Use the verified public-network endpoint as the Journey terminus until the property interface is delivered.",
            "verification_method": "approved-design review and actual entrance/open-hour audit",
            "action_status": "CONCEPT_OPTION"
          }
        ],
        "interface_from": [
          "renewal-group public edge / IF-QH-05"
        ],
        "interface_to": [
          "campus/property threshold and building entrance / IF-QH-06"
        ],
        "beneficiary": [
          "adult",
          "cyclist",
          "elderly",
          "night_worker",
          "parent_child",
          "wheelchair"
        ],
        "responsible_role": [
          "future renewal/property developer with planning and public-realm interface review"
        ],
        "evidence": [
          "IF-QH-05",
          "IF-QH-06"
        ],
        "source": [
          "IF-QH-05",
          "IF-QH-06"
        ],
        "assumption": [
          "Geometry is a concept alignment inside an organizer-maintained provisional constraint.",
          "Physical interface, public rights, asset boundary and operational performance are not field-verified."
        ],
        "design_requirement": [
          "Reserve a visible, step-free property threshold, bicycle arrival zone, sheltered waiting/rest point and building-entrance handoff with an outside-property after-hours fallback."
        ],
        "approval_dependency": [
          "binding access-hours condition",
          "destination/property plan",
          "fire and accessibility review",
          "maintenance agreement"
        ],
        "maintenance_owner": [
          "future property manager with public-realm maintainer at the boundary"
        ],
        "stop_condition": [
          "Do not count the destination as delivered until the exact entrance, public rights/hours, accessible threshold and receiving owner are confirmed."
        ],
        "fallback": [
          "Use the verified public-network endpoint as the Journey terminus until the property interface is delivered."
        ],
        "verification_method": [
          "approved-design review and actual entrance/open-hour audit"
        ],
        "field_verified": false,
        "approved": false,
        "location_precision": "conceptual_within_provisional_constraint",
        "calculation_crs": "EPSG:4548",
        "name_zh": "物业外全时备用路径",
        "route_role": "AFTER_HOURS_PROPERTY_FALLBACK",
        "route_width_target_m": 1.8,
        "dimension_status": "DESIGN_TARGET",
        "official_alignment": false,
        "surveyed_alignment": false,
        "road_class": "pedestrian",
        "metric_ids": [
          "qinghe_after_hours_fallback_length_m",
          "qinghe_cycle_chain_length_m",
          "qinghe_interface_count"
        ],
        "figure_ids": [
          "09",
          "12"
        ],
        "length_m_calculated": 226.35
      },
      "geometry": {
        "type": "LineString",
        "coordinates": [
          [
            116.3511938925031,
            40.0167648352515
          ],
          [
            116.35149224748558,
            40.01618111058881
          ],
          [
            116.35254636881253,
            40.016187004813986
          ],
          [
            116.35271652518013,
            40.01677335007718
          ]
        ]
      }
    },
    {
      "type": "Feature",
      "id": "ROAD-QH-CYCLE-ARRIVAL-01",
      "properties": {
        "id": "ROAD-QH-CYCLE-ARRIVAL-01",
        "layer": "ROAD_CENTERLINE",
        "source_type": "agent_generated_design",
        "confidence": "low",
        "geometry_role": "design_proposal",
        "design_status": "FUTURE_INTEGRATION_REQUIREMENT",
        "action_ids": [
          "QH-A01",
          "QH-A02",
          "QH-A03"
        ],
        "action_contracts": [
          {
            "action_id": "QH-A01",
            "interface_from": "station plaza/exit threshold / IF-QH-02",
            "interface_to": "under-construction station-scene project edge",
            "beneficiary": [
              "adult",
              "wheelchair",
              "elderly",
              "parent_child",
              "cyclist",
              "night_worker"
            ],
            "responsible_role": "station-scene project delivery entity with the receiving station-area public-realm maintainer",
            "evidence": [
              "IF-QH-01",
              "IF-QH-02",
              "QH-SCENE-PROGRESS"
            ],
            "approval_dependency": [
              "completion-drawing review",
              "handover-boundary confirmation",
              "station/municipal/accessibility acceptance",
              "temporary-route inspection"
            ],
            "maintenance_owner": "receiving station-area public-realm maintainer after construction handoff",
            "stop_condition": "Do not accept the endpoint as Journey-complete if the onward public edge, temporary route or receiving maintenance role remains unverified.",
            "fallback": "Keep the current public route and temporary handoff until the receiving interface passes field verification.",
            "verification_method": "post-completion route audit and joint boundary walk-through",
            "action_status": "SELECTED_FOR_DEVELOPMENT"
          },
          {
            "action_id": "QH-A02",
            "interface_from": "scene project endpoint / IF-QH-03",
            "interface_to": "municipal/river/park and renewal-group edge / IF-QH-04",
            "beneficiary": [
              "wheelchair",
              "elderly",
              "parent_child",
              "cyclist",
              "night_worker"
            ],
            "responsible_role": "renewal/planning delivery lead coordinating municipal and blue-green asset roles",
            "evidence": [
              "IF-QH-03",
              "IF-QH-04",
              "ZZY-UPDATE"
            ],
            "approval_dependency": [
              "river/park and road-boundary confirmation",
              "renewal-planning review",
              "flood/drainage and ecology review",
              "accessibility professional review"
            ],
            "maintenance_owner": "municipal/blue-green asset maintainers and future renewal public-realm maintainer by boundary",
            "stop_condition": "Hold permanent geometry until the public/blue-green boundaries, flood/drainage conditions and receiving maintenance roles are verified.",
            "fallback": "Hold permanent construction and retain a protected temporary public route to the verified network.",
            "verification_method": "boundary overlay, professional review and post-delivery Journey audit",
            "action_status": "CONCEPT_OPTION"
          },
          {
            "action_id": "QH-A03",
            "interface_from": "renewal-group public edge / IF-QH-05",
            "interface_to": "campus/property threshold and building entrance / IF-QH-06",
            "beneficiary": [
              "adult",
              "wheelchair",
              "elderly",
              "parent_child",
              "cyclist",
              "night_worker"
            ],
            "responsible_role": "future renewal/property developer with planning and public-realm interface review",
            "evidence": [
              "IF-QH-05",
              "IF-QH-06"
            ],
            "approval_dependency": [
              "destination/property plan",
              "fire and accessibility review",
              "binding access-hours condition",
              "maintenance agreement"
            ],
            "maintenance_owner": "future property manager with public-realm maintainer at the boundary",
            "stop_condition": "Do not count the destination as delivered until the exact entrance, public rights/hours, accessible threshold and receiving owner are confirmed.",
            "fallback": "Use the verified public-network endpoint as the Journey terminus until the property interface is delivered.",
            "verification_method": "approved-design review and actual entrance/open-hour audit",
            "action_status": "CONCEPT_OPTION"
          }
        ],
        "interface_from": [
          "station plaza/exit threshold / IF-QH-02",
          "scene project endpoint / IF-QH-03",
          "renewal-group public edge / IF-QH-05"
        ],
        "interface_to": [
          "under-construction station-scene project edge",
          "municipal/river/park and renewal-group edge / IF-QH-04",
          "campus/property threshold and building entrance / IF-QH-06"
        ],
        "beneficiary": [
          "adult",
          "cyclist",
          "elderly",
          "night_worker",
          "parent_child",
          "wheelchair"
        ],
        "responsible_role": [
          "station-scene project delivery entity with the receiving station-area public-realm maintainer",
          "renewal/planning delivery lead coordinating municipal and blue-green asset roles",
          "future renewal/property developer with planning and public-realm interface review"
        ],
        "evidence": [
          "IF-QH-01",
          "IF-QH-02",
          "IF-QH-03",
          "IF-QH-04",
          "IF-QH-05",
          "IF-QH-06",
          "QH-SCENE-PROGRESS",
          "ZZY-UPDATE"
        ],
        "source": [
          "IF-QH-01",
          "IF-QH-02",
          "IF-QH-03",
          "IF-QH-04",
          "IF-QH-05",
          "IF-QH-06",
          "QH-SCENE-PROGRESS",
          "ZZY-UPDATE"
        ],
        "assumption": [
          "Geometry is a concept alignment inside an organizer-maintained provisional constraint.",
          "Physical interface, public rights, asset boundary and operational performance are not field-verified."
        ],
        "design_requirement": [
          "Define a receiving apron at the station project endpoint: protected accessible line, cycle arrival/parking transition, shelter/rest sequence, legible project-boundary marker and temporary-route handoff.",
          "Carry one continuous arrival chain through the municipal/blue-green edge: accessible crossing requirement, shaded/rest recovery, water-edge safety, cycle continuity and a clearly receiving renewal-group public edge.",
          "Reserve a visible, step-free property threshold, bicycle arrival zone, sheltered waiting/rest point and building-entrance handoff with an outside-property after-hours fallback."
        ],
        "approval_dependency": [
          "accessibility professional review",
          "binding access-hours condition",
          "completion-drawing review",
          "destination/property plan",
          "fire and accessibility review",
          "flood/drainage and ecology review",
          "handover-boundary confirmation",
          "maintenance agreement",
          "renewal-planning review",
          "river/park and road-boundary confirmation",
          "station/municipal/accessibility acceptance",
          "temporary-route inspection"
        ],
        "maintenance_owner": [
          "receiving station-area public-realm maintainer after construction handoff",
          "municipal/blue-green asset maintainers and future renewal public-realm maintainer by boundary",
          "future property manager with public-realm maintainer at the boundary"
        ],
        "stop_condition": [
          "Do not accept the endpoint as Journey-complete if the onward public edge, temporary route or receiving maintenance role remains unverified.",
          "Hold permanent geometry until the public/blue-green boundaries, flood/drainage conditions and receiving maintenance roles are verified.",
          "Do not count the destination as delivered until the exact entrance, public rights/hours, accessible threshold and receiving owner are confirmed."
        ],
        "fallback": [
          "Keep the current public route and temporary handoff until the receiving interface passes field verification.",
          "Hold permanent construction and retain a protected temporary public route to the verified network.",
          "Use the verified public-network endpoint as the Journey terminus until the property interface is delivered."
        ],
        "verification_method": [
          "post-completion route audit and joint boundary walk-through",
          "boundary overlay, professional review and post-delivery Journey audit",
          "approved-design review and actual entrance/open-hour audit"
        ],
        "field_verified": false,
        "approved": false,
        "location_precision": "conceptual_within_provisional_constraint",
        "calculation_crs": "EPSG:4548",
        "name_zh": "跨项目连续骑行到达链",
        "route_role": "CROSS_PROJECT_CYCLE_CHAIN",
        "route_width_target_m": 3.5,
        "dimension_status": "CONCEPT_DESIGN_DIMENSION",
        "official_alignment": false,
        "surveyed_alignment": false,
        "road_class": "cycleway",
        "metric_ids": [
          "qinghe_after_hours_fallback_length_m",
          "qinghe_arrival_chain_length_m",
          "qinghe_cycle_chain_length_m",
          "qinghe_interface_count",
          "recovery_interval_design_target_m"
        ],
        "figure_ids": [
          "09",
          "12"
        ],
        "length_m_calculated": 744.721
      },
      "geometry": {
        "type": "LineString",
        "coordinates": [
          [
            116.34428349083727,
            40.016725939632984
          ],
          [
            116.34439889257763,
            40.016906713950846
          ],
          [
            116.34568727495852,
            40.01691399566908
          ],
          [
            116.3474441607781,
            40.01692390220338
          ],
          [
            116.34931817327646,
            40.016934439818364
          ],
          [
            116.35119218676036,
            40.016944947131435
          ],
          [
            116.35259769751835,
            40.01695280773058
          ],
          [
            116.35271652518013,
            40.01677335007718
          ]
        ]
      }
    },
    {
      "type": "Feature",
      "id": "ROAD-AIO-BASELINE-OD-01",
      "properties": {
        "id": "ROAD-AIO-BASELINE-OD-01",
        "layer": "ROAD_CENTERLINE",
        "source_type": "agent_generated_design",
        "confidence": "low",
        "geometry_role": "analysis_helper",
        "name_zh": "五道口—AI原点保留与复核基准OD",
        "route_role": "ORIENTATION_ONLY_REAUDIT_BASELINE",
        "design_status": "KEEP_AND_RE_AUDIT",
        "states": [
          "KEEP",
          "RE_AUDIT",
          "TRIGGER",
          "OPTIONAL_PATCH"
        ],
        "action_ids": [
          "AIO-A01"
        ],
        "action_contracts": [
          {
            "action_id": "AIO-A01",
            "interface_from": "Wudaokou station Exit A / IF-WDK-01",
            "interface_to": "AI Origin destination / IF-WDK-05",
            "beneficiary": [
              "adult",
              "wheelchair",
              "elderly",
              "parent_child",
              "cyclist",
              "night_worker"
            ],
            "responsible_role": "existing project/asset roles jointly conduct post-delivery Journey re-audit",
            "evidence": [
              "IF-WDK-01",
              "IF-WDK-02",
              "IF-WDK-03",
              "IF-WDK-04",
              "IF-WDK-05"
            ],
            "approval_dependency": [
              "approved-project delivery and acceptance",
              "post-completion accessibility/public-realm audit",
              "property operating-hours confirmation"
            ],
            "maintenance_owner": "existing station, municipal/project and property maintainers by current asset boundary",
            "stop_condition": "Stop new design production while residual failure remains unproven; preserve and re-audit instead.",
            "fallback": "Escalate only the confirmed interface to AIO-A02; do not redesign the full route.",
            "verification_method": "same six-profile day/night/rain/closure field audit after project delivery",
            "action_status": "SELECTED_FOR_DEVELOPMENT"
          }
        ],
        "major_intervention": false,
        "existing_route_geometry_verified": false,
        "usage_note": "只表达Journey复核顺序，不声称现状中心线、宽度、连续性或可达性。",
        "road_class": "pedestrian",
        "calculation_crs": "EPSG:4548",
        "metric_ids": [
          "ai_origin_major_intervention_count",
          "ai_origin_reaudit_trigger_count"
        ],
        "figure_ids": [
          "10",
          "12"
        ],
        "length_m_calculated": 690.0
      },
      "geometry": {
        "type": "LineString",
        "coordinates": [
          [
            116.34340230012839,
            39.98847687002911
          ],
          [
            116.3453926106705,
            39.98848812808367
          ],
          [
            116.34749999952184,
            39.988500011128586
          ],
          [
            116.34949031236205,
            39.98851119882549
          ],
          [
            116.35148062631326,
            39.98852235234859
          ]
        ]
      }
    }
  ]
}
