{
  "type": "FeatureCollection",
  "name": "phasing_qi_pulse",
  "features": [
    {
      "type": "Feature",
      "id": "PHASE-001",
      "properties": {
        "id": "PHASE-001",
        "layer": "PHASE",
        "source_type": "agent_generated_design",
        "confidence": "low",
        "geometry_role": "design_proposal",
        "phase": "phase_1",
        "name_zh": "一期·朱雀启明堂",
        "name_en": "Phase 1: Zhuque Awakens the Mingtang",
        "strategy_zh": "首开南部明堂与大钟寺展示界面，快速建立公众感知",
        "area_sqm_declared": 4697245.548
      },
      "geometry": {
        "type": "Polygon",
        "coordinates": [
          [
            [
              116.35473633445321,
              39.97204783326642
            ],
            [
              116.3553,
              39.965
            ],
            [
              116.3553,
              39.939
            ],
            [
              116.34070000000001,
              39.93899999999999
            ],
            [
              116.33978439421894,
              39.971963636414706
            ],
            [
              116.35473633445321,
              39.97204783326642
            ]
          ]
        ]
      }
    },
    {
      "type": "Feature",
      "id": "PHASE-002",
      "properties": {
        "id": "PHASE-002",
        "layer": "PHASE",
        "source_type": "agent_generated_design",
        "confidence": "low",
        "geometry_role": "design_proposal",
        "phase": "phase_2",
        "name_zh": "二期·气聚中原",
        "name_en": "Phase 2: Qi Gathers at the Origin",
        "strategy_zh": "中期成型原点社区与气脉中段，场景与运营闭环",
        "area_sqm_declared": 3449335.858
      },
      "geometry": {
        "type": "Polygon",
        "coordinates": [
          [
            [
              116.3537953093563,
              39.99904259804034
            ],
            [
              116.3533,
              39.989999999999995
            ],
            [
              116.35473633445321,
              39.97204783326642
            ],
            [
              116.33978439421894,
              39.971963636414706
            ],
            [
              116.3397,
              39.975
            ],
            [
              116.34124643462825,
              39.99897194989833
            ],
            [
              116.3537953093563,
              39.99904259804034
            ]
          ]
        ]
      }
    },
    {
      "type": "Feature",
      "id": "PHASE-003",
      "properties": {
        "id": "PHASE-003",
        "layer": "PHASE",
        "source_type": "agent_generated_design",
        "confidence": "low",
        "geometry_role": "design_proposal",
        "phase": "phase_3",
        "name_zh": "三期·玄武收官",
        "name_en": "Phase 3: Xuanwu Completion",
        "strategy_zh": "北部众智园与靠山绿心收官，形成完整创新生态",
        "area_sqm_declared": 3266243.98
      },
      "geometry": {
        "type": "Polygon",
        "coordinates": [
          [
            [
              116.34124643462825,
              39.99897194989833
            ],
            [
              116.34169999999999,
              40.00600000000001
            ],
            [
              116.34270000000001,
              40.0265
            ],
            [
              116.3553,
              40.0265
            ],
            [
              116.3537953093563,
              39.99904259804034
            ],
            [
              116.34124643462825,
              39.99897194989833
            ]
          ]
        ]
      }
    }
  ]
}