{
  "type": "FeatureCollection",
  "name": "roads_evolutionary_city_s03",
  "features": [
    {
      "type": "Feature",
      "id": "ROAD-001",
      "properties": {
        "id": "ROAD-001",
        "layer": "ROAD_CENTERLINE",
        "source_type": "agent_generated_design",
        "confidence": "medium",
        "geometry_role": "design_proposal",
        "road_class": "greenway",
        "name_zh": "慢行与创新服务廊道"
      },
      "geometry": {
        "type": "LineString",
        "coordinates": [
          [
            116.340948,
            39.9845
          ],
          [
            116.35374,
            39.9845
          ]
        ]
      }
    },
    {
      "type": "Feature",
      "id": "ROAD-S03-001",
      "properties": {
        "id": "ROAD-S03-001",
        "layer": "ROAD_CENTERLINE",
        "source_type": "agent_generated_design",
        "confidence": "medium",
        "geometry_role": "design_proposal",
        "road_class": "greenway",
        "name_zh": "S03 成府路横向公共适应路径（概念定位）",
        "name_en": "S03 Chengfu Road transverse public adaptation path (conceptual)",
        "generation": "R1",
        "reversibility": "high",
        "usage_note": "概念性连通关系，不代表道路中心线、红线、工程坐标或实施批准。"
      },
      "geometry": {
        "type": "LineString",
        "coordinates": [
          [116.3424, 39.9892],
          [116.3462, 39.9892],
          [116.3482, 39.9892],
          [116.3526, 39.9892]
        ]
      }
    },
    {
      "type": "Feature",
      "id": "ROAD-S03-002",
      "properties": {
        "id": "ROAD-S03-002",
        "layer": "ROAD_CENTERLINE",
        "source_type": "agent_generated_design",
        "confidence": "medium",
        "geometry_role": "design_proposal",
        "road_class": "greenway",
        "name_zh": "S03 京张遗产纵向慢行接口（概念定位）",
        "name_en": "S03 longitudinal Jingzhang heritage slow-mobility interface (conceptual)",
        "generation": "R1",
        "reversibility": "high",
        "usage_note": "只表达横纵关系和可逆接口，不修改铁路、轨道或文保对象。"
      },
      "geometry": {
        "type": "LineString",
        "coordinates": [
          [116.3482, 39.9840],
          [116.3482, 39.9892],
          [116.3482, 39.9930]
        ]
      }
    },
    {
      "type": "Feature",
      "id": "ROAD-S03-003",
      "properties": {
        "id": "ROAD-S03-003",
        "layer": "ROAD_CENTERLINE",
        "source_type": "agent_generated_design",
        "confidence": "low",
        "geometry_role": "design_proposal",
        "road_class": "greenway",
        "name_zh": "S03 站口—首层渗透支路（待核验概念定位）",
        "name_en": "S03 station-to-ground-floor permeability branch (provisional concept)",
        "generation": "R1",
        "reversibility": "high",
        "usage_note": "入口、权属、消防和轨道净空未知；仅进入可逆试验候选库。"
      },
      "geometry": {
        "type": "LineString",
        "coordinates": [
          [116.3462, 39.9892],
          [116.3462, 39.9913]
        ]
      }
    }
  ]
}
