{
  "type": "FeatureCollection",
  "features": [
    {
      "type": "Feature",
      "id": "BLD-001",
      "properties": {
        "id": "BLD-001",
        "layer": "BUILDING_FOOTPRINT",
        "name_zh": "众智园更新型创新大厅（共享设备/原型制造/成果发布核心）",
        "name_en": "Zhongzhiyuan Adaptive Innovation Hall",
        "geometry_role": "design_proposal",
        "source_type": "agent_inferred_from_public_data",
        "confidence": "medium",
        "official_boundary": false,
        "boundary_precision": "provisional_rough",
        "source_id": "DATA-SRC-PROVISIONAL-BOUNDARIES-20260605",
        "derived_from_source_ids": [
          "DATA-SRC-OFFICIAL-ANNOUNCEMENT-20260509"
        ],
        "usage_note": "概念性 provisional 几何，仅用于 AI agent 生成、展示和临时自检；不得作为 official redline、审批依据或精确面积复算依据；正式红线发布后须复算重绘。",
        "prototype": "A",
        "prototype_name_zh": "更新型创新大厅",
        "prototype_name_en": "Adaptive Innovation Hall",
        "renewal_mode": "功能转换",
        "height_min_m_concept": 12.0,
        "height_max_m_concept": 24.0,
        "floors_min_concept": 2,
        "floors_max_concept": 3,
        "footprint_area_sqm_concept": 4000.0,
        "gfa_sqm_concept": 10000.0,
        "land_use_ref": "LU-62",
        "area_sqm_declared": 3999.987,
        "area_sqm_calculated": 3999.987,
        "area_confidence": "low",
        "area_note": "EPSG:4548 复算的概念设计模型值，非官方面积。"
      },
      "geometry": {
        "type": "Polygon",
        "coordinates": [
          [
            [
              116.34407009,
              40.0125805
            ],
            [
              116.34406578,
              40.01303078
            ],
            [
              116.34500273,
              40.01303608
            ],
            [
              116.34500703,
              40.0125858
            ],
            [
              116.34407009,
              40.0125805
            ]
          ]
        ]
      }
    },
    {
      "type": "Feature",
      "id": "BLD-002",
      "properties": {
        "id": "BLD-002",
        "layer": "BUILDING_FOOTPRINT",
        "name_zh": "大钟寺未来公共生活厅（L3）",
        "name_en": "Dazhongsi Future Public Life Hall (L3)",
        "geometry_role": "design_proposal",
        "source_type": "agent_inferred_from_public_data",
        "confidence": "medium",
        "official_boundary": false,
        "boundary_precision": "provisional_rough",
        "source_id": "DATA-SRC-PROVISIONAL-BOUNDARIES-20260605",
        "derived_from_source_ids": [
          "DATA-SRC-OFFICIAL-ANNOUNCEMENT-20260509"
        ],
        "usage_note": "概念性 provisional 几何，仅用于 AI agent 生成、展示和临时自检；不得作为 official redline、审批依据或精确面积复算依据；正式红线发布后须复算重绘。",
        "prototype": "A",
        "prototype_name_zh": "更新型创新大厅",
        "prototype_name_en": "Adaptive Innovation Hall",
        "renewal_mode": "功能转换",
        "height_min_m_concept": 12.0,
        "height_max_m_concept": 24.0,
        "floors_min_concept": 2,
        "floors_max_concept": 3,
        "footprint_area_sqm_concept": 6000.0,
        "gfa_sqm_concept": 15000.0,
        "land_use_ref": "LU-14",
        "area_sqm_declared": 5999.978,
        "area_sqm_calculated": 5999.978,
        "area_confidence": "low",
        "area_note": "EPSG:4548 复算的概念设计模型值，非官方面积。"
      },
      "geometry": {
        "type": "Polygon",
        "coordinates": [
          [
            [
              116.35096912,
              39.94252021
            ],
            [
              116.35096402,
              39.94306055
            ],
            [
              116.35213402,
              39.94306709
            ],
            [
              116.35213911,
              39.94252675
            ],
            [
              116.35096912,
              39.94252021
            ]
          ]
        ]
      }
    },
    {
      "type": "Feature",
      "id": "BLD-003",
      "properties": {
        "id": "BLD-003",
        "layer": "BUILDING_FOOTPRINT",
        "name_zh": "院落式研发单元·众智园1组",
        "name_en": "Courtyard R&D Unit - Zhongzhiyuan 1",
        "geometry_role": "design_proposal",
        "source_type": "agent_inferred_from_public_data",
        "confidence": "medium",
        "official_boundary": false,
        "boundary_precision": "provisional_rough",
        "source_id": "DATA-SRC-PROVISIONAL-BOUNDARIES-20260605",
        "derived_from_source_ids": [
          "DATA-SRC-OFFICIAL-ANNOUNCEMENT-20260509"
        ],
        "usage_note": "概念性 provisional 几何，仅用于 AI agent 生成、展示和临时自检；不得作为 official redline、审批依据或精确面积复算依据；正式红线发布后须复算重绘。",
        "prototype": "B",
        "prototype_name_zh": "院落式研发单元",
        "prototype_name_en": "Courtyard R&D Unit",
        "renewal_mode": "概念新建",
        "height_min_m_concept": 18.0,
        "height_max_m_concept": 36.0,
        "floors_min_concept": 4,
        "floors_max_concept": 6,
        "footprint_area_sqm_concept": 2700.0,
        "gfa_sqm_concept": 13500.0,
        "land_use_ref": "LU-62",
        "area_sqm_declared": 2699.994,
        "area_sqm_calculated": 2699.994,
        "area_confidence": "low",
        "area_note": "EPSG:4548 复算的概念设计模型值，非官方面积。"
      },
      "geometry": {
        "type": "Polygon",
        "coordinates": [
          [
            [
              116.34411413,
              40.02021445
            ],
            [
              116.34411025,
              40.0206197
            ],
            [
              116.34481304,
              40.02062367
            ],
            [
              116.34481692,
              40.02021842
            ],
            [
              116.34411413,
              40.02021445
            ]
          ]
        ]
      }
    },
    {
      "type": "Feature",
      "id": "BLD-004",
      "properties": {
        "id": "BLD-004",
        "layer": "BUILDING_FOOTPRINT",
        "name_zh": "院落式研发单元·众智园2组（高校联合）",
        "name_en": "Courtyard R&D Unit - Zhongzhiyuan 2",
        "geometry_role": "design_proposal",
        "source_type": "agent_inferred_from_public_data",
        "confidence": "medium",
        "official_boundary": false,
        "boundary_precision": "provisional_rough",
        "source_id": "DATA-SRC-PROVISIONAL-BOUNDARIES-20260605",
        "derived_from_source_ids": [
          "DATA-SRC-OFFICIAL-ANNOUNCEMENT-20260509"
        ],
        "usage_note": "概念性 provisional 几何，仅用于 AI agent 生成、展示和临时自检；不得作为 official redline、审批依据或精确面积复算依据；正式红线发布后须复算重绘。",
        "prototype": "B",
        "prototype_name_zh": "院落式研发单元",
        "prototype_name_en": "Courtyard R&D Unit",
        "renewal_mode": "概念新建",
        "height_min_m_concept": 18.0,
        "height_max_m_concept": 36.0,
        "floors_min_concept": 4,
        "floors_max_concept": 6,
        "footprint_area_sqm_concept": 2700.0,
        "gfa_sqm_concept": 13500.0,
        "land_use_ref": "LU-65",
        "area_sqm_declared": 2700.015,
        "area_sqm_calculated": 2700.015,
        "area_confidence": "low",
        "area_note": "EPSG:4548 复算的概念设计模型值，非官方面积。"
      },
      "geometry": {
        "type": "Polygon",
        "coordinates": [
          [
            [
              116.35346596,
              40.01681471
            ],
            [
              116.35346213,
              40.01721996
            ],
            [
              116.35416489,
              40.01722388
            ],
            [
              116.35416871,
              40.01681862
            ],
            [
              116.35346596,
              40.01681471
            ]
          ]
        ]
      }
    },
    {
      "type": "Feature",
      "id": "BLD-005",
      "properties": {
        "id": "BLD-005",
        "layer": "BUILDING_FOOTPRINT",
        "name_zh": "院落式研发单元·五道口组",
        "name_en": "Courtyard R&D Unit - Wudaokou",
        "geometry_role": "design_proposal",
        "source_type": "agent_inferred_from_public_data",
        "confidence": "medium",
        "official_boundary": false,
        "boundary_precision": "provisional_rough",
        "source_id": "DATA-SRC-PROVISIONAL-BOUNDARIES-20260605",
        "derived_from_source_ids": [
          "DATA-SRC-OFFICIAL-ANNOUNCEMENT-20260509"
        ],
        "usage_note": "概念性 provisional 几何，仅用于 AI agent 生成、展示和临时自检；不得作为 official redline、审批依据或精确面积复算依据；正式红线发布后须复算重绘。",
        "prototype": "B",
        "prototype_name_zh": "院落式研发单元",
        "prototype_name_en": "Courtyard R&D Unit",
        "renewal_mode": "概念新建",
        "height_min_m_concept": 18.0,
        "height_max_m_concept": 36.0,
        "floors_min_concept": 4,
        "floors_max_concept": 6,
        "footprint_area_sqm_concept": 2700.0,
        "gfa_sqm_concept": 13500.0,
        "land_use_ref": "LU-52",
        "area_sqm_declared": 2699.998,
        "area_sqm_calculated": 2699.998,
        "area_confidence": "low",
        "area_note": "EPSG:4548 复算的概念设计模型值，非官方面积。"
      },
      "geometry": {
        "type": "Polygon",
        "coordinates": [
          [
            [
              116.34431833,
              39.9988766
            ],
            [
              116.34431445,
              39.99928185
            ],
            [
              116.34501703,
              39.99928582
            ],
            [
              116.3450209,
              39.99888057
            ],
            [
              116.34431833,
              39.9988766
            ]
          ]
        ]
      }
    },
    {
      "type": "Feature",
      "id": "BLD-006",
      "properties": {
        "id": "BLD-006",
        "layer": "BUILDING_FOOTPRINT",
        "name_zh": "院落式研发单元·五道口东组",
        "name_en": "Courtyard R&D Unit - Wudaokou East",
        "geometry_role": "design_proposal",
        "source_type": "agent_inferred_from_public_data",
        "confidence": "medium",
        "official_boundary": false,
        "boundary_precision": "provisional_rough",
        "source_id": "DATA-SRC-PROVISIONAL-BOUNDARIES-20260605",
        "derived_from_source_ids": [
          "DATA-SRC-OFFICIAL-ANNOUNCEMENT-20260509"
        ],
        "usage_note": "概念性 provisional 几何，仅用于 AI agent 生成、展示和临时自检；不得作为 official redline、审批依据或精确面积复算依据；正式红线发布后须复算重绘。",
        "prototype": "B",
        "prototype_name_zh": "院落式研发单元",
        "prototype_name_en": "Courtyard R&D Unit",
        "renewal_mode": "概念新建",
        "height_min_m_concept": 18.0,
        "height_max_m_concept": 36.0,
        "floors_min_concept": 4,
        "floors_max_concept": 6,
        "footprint_area_sqm_concept": 2700.0,
        "gfa_sqm_concept": 13500.0,
        "land_use_ref": "LU-54",
        "area_sqm_declared": 2700.0,
        "area_sqm_calculated": 2700.0,
        "area_confidence": "low",
        "area_note": "EPSG:4548 复算的概念设计模型值，非官方面积。"
      },
      "geometry": {
        "type": "Polygon",
        "coordinates": [
          [
            [
              116.35064985,
              40.00101224
            ],
            [
              116.35064601,
              40.0014175
            ],
            [
              116.3513486,
              40.00142143
            ],
            [
              116.35135244,
              40.00101618
            ],
            [
              116.35064985,
              40.00101224
            ]
          ]
        ]
      }
    },
    {
      "type": "Feature",
      "id": "BLD-007",
      "properties": {
        "id": "BLD-007",
        "layer": "BUILDING_FOOTPRINT",
        "name_zh": "院落式研发单元·AI原点校企共享平台（S10/E01）",
        "name_en": "Courtyard R&D Unit - AI Origin S10/E01",
        "geometry_role": "design_proposal",
        "source_type": "agent_inferred_from_public_data",
        "confidence": "medium",
        "official_boundary": false,
        "boundary_precision": "provisional_rough",
        "source_id": "DATA-SRC-PROVISIONAL-BOUNDARIES-20260605",
        "derived_from_source_ids": [
          "DATA-SRC-OFFICIAL-ANNOUNCEMENT-20260509"
        ],
        "usage_note": "概念性 provisional 几何，仅用于 AI agent 生成、展示和临时自检；不得作为 official redline、审批依据或精确面积复算依据；正式红线发布后须复算重绘。",
        "prototype": "B",
        "prototype_name_zh": "院落式研发单元",
        "prototype_name_en": "Courtyard R&D Unit",
        "renewal_mode": "功能转换",
        "height_min_m_concept": 18.0,
        "height_max_m_concept": 36.0,
        "floors_min_concept": 4,
        "floors_max_concept": 6,
        "footprint_area_sqm_concept": 2700.0,
        "gfa_sqm_concept": 13500.0,
        "land_use_ref": "LU-44",
        "area_sqm_declared": 2699.995,
        "area_sqm_calculated": 2699.995,
        "area_confidence": "low",
        "area_note": "EPSG:4548 复算的概念设计模型值，非官方面积。"
      },
      "geometry": {
        "type": "Polygon",
        "coordinates": [
          [
            [
              116.35078904,
              39.98631302
            ],
            [
              116.35078521,
              39.98671827
            ],
            [
              116.35148765,
              39.98672221
            ],
            [
              116.35149148,
              39.98631695
            ],
            [
              116.35078904,
              39.98631302
            ]
          ]
        ]
      }
    },
    {
      "type": "Feature",
      "id": "BLD-008",
      "properties": {
        "id": "BLD-008",
        "layer": "BUILDING_FOOTPRINT",
        "name_zh": "渗透型公共街区·大钟寺（保留菜场与便民商业）",
        "name_en": "Permeable Public Block - Dazhongsi",
        "geometry_role": "design_proposal",
        "source_type": "agent_inferred_from_public_data",
        "confidence": "medium",
        "official_boundary": false,
        "boundary_precision": "provisional_rough",
        "source_id": "DATA-SRC-PROVISIONAL-BOUNDARIES-20260605",
        "derived_from_source_ids": [
          "DATA-SRC-OFFICIAL-ANNOUNCEMENT-20260509"
        ],
        "usage_note": "概念性 provisional 几何，仅用于 AI agent 生成、展示和临时自检；不得作为 official redline、审批依据或精确面积复算依据；正式红线发布后须复算重绘。",
        "prototype": "C",
        "prototype_name_zh": "渗透型公共街区",
        "prototype_name_en": "Permeable Public Block",
        "renewal_mode": "保留提升",
        "height_min_m_concept": 12.0,
        "height_max_m_concept": 24.0,
        "floors_min_concept": 3,
        "floors_max_concept": 5,
        "footprint_area_sqm_concept": 3200.0,
        "gfa_sqm_concept": 12800.0,
        "land_use_ref": "LU-11",
        "area_sqm_declared": 3200.038,
        "area_sqm_calculated": 3200.038,
        "area_confidence": "low",
        "area_note": "EPSG:4548 复算的概念设计模型值，非官方面积。"
      },
      "geometry": {
        "type": "Polygon",
        "coordinates": [
          [
            [
              116.34172898,
              39.94421611
            ],
            [
              116.34172553,
              39.94457634
            ],
            [
              116.34266155,
              39.94458165
            ],
            [
              116.342665,
              39.94422142
            ],
            [
              116.34172898,
              39.94421611
            ]
          ]
        ]
      }
    },
    {
      "type": "Feature",
      "id": "BLD-009",
      "properties": {
        "id": "BLD-009",
        "layer": "BUILDING_FOOTPRINT",
        "name_zh": "渗透型公共街区·知春路南",
        "name_en": "Permeable Public Block - Zhichunlu South",
        "geometry_role": "design_proposal",
        "source_type": "agent_inferred_from_public_data",
        "confidence": "medium",
        "official_boundary": false,
        "boundary_precision": "provisional_rough",
        "source_id": "DATA-SRC-PROVISIONAL-BOUNDARIES-20260605",
        "derived_from_source_ids": [
          "DATA-SRC-OFFICIAL-ANNOUNCEMENT-20260509"
        ],
        "usage_note": "概念性 provisional 几何，仅用于 AI agent 生成、展示和临时自检；不得作为 official redline、审批依据或精确面积复算依据；正式红线发布后须复算重绘。",
        "prototype": "C",
        "prototype_name_zh": "渗透型公共街区",
        "prototype_name_en": "Permeable Public Block",
        "renewal_mode": "保留提升",
        "height_min_m_concept": 12.0,
        "height_max_m_concept": 24.0,
        "floors_min_concept": 3,
        "floors_max_concept": 5,
        "footprint_area_sqm_concept": 3200.0,
        "gfa_sqm_concept": 12800.0,
        "land_use_ref": "LU-22",
        "area_sqm_declared": 3199.947,
        "area_sqm_calculated": 3199.947,
        "area_confidence": "low",
        "area_note": "EPSG:4548 复算的概念设计模型值，非官方面积。"
      },
      "geometry": {
        "type": "Polygon",
        "coordinates": [
          [
            [
              116.34458194,
              39.95903981
            ],
            [
              116.3445785,
              39.95940003
            ],
            [
              116.34551472,
              39.95940532
            ],
            [
              116.34551816,
              39.9590451
            ],
            [
              116.34458194,
              39.95903981
            ]
          ]
        ]
      }
    },
    {
      "type": "Feature",
      "id": "BLD-010",
      "properties": {
        "id": "BLD-010",
        "layer": "BUILDING_FOOTPRINT",
        "name_zh": "轻量公共站·大钟寺站前（P2/S03/S05）",
        "name_en": "Lightweight Public Station - Dazhongsi (P2/S03/S05)",
        "geometry_role": "design_proposal",
        "source_type": "agent_inferred_from_public_data",
        "confidence": "medium",
        "official_boundary": false,
        "boundary_precision": "provisional_rough",
        "source_id": "DATA-SRC-PROVISIONAL-BOUNDARIES-20260605",
        "derived_from_source_ids": [
          "DATA-SRC-OFFICIAL-ANNOUNCEMENT-20260509"
        ],
        "usage_note": "概念性 provisional 几何，仅用于 AI agent 生成、展示和临时自检；不得作为 official redline、审批依据或精确面积复算依据；正式红线发布后须复算重绘。",
        "prototype": "D",
        "prototype_name_zh": "轻量公共站",
        "prototype_name_en": "Lightweight Public Station",
        "renewal_mode": "概念新建",
        "height_min_m_concept": 4.0,
        "height_max_m_concept": 8.0,
        "floors_min_concept": 1,
        "floors_max_concept": 2,
        "footprint_area_sqm_concept": 432.0,
        "gfa_sqm_concept": 648.0,
        "land_use_ref": "LU-12",
        "area_sqm_declared": 431.992,
        "area_sqm_calculated": 431.992,
        "area_confidence": "low",
        "area_note": "EPSG:4548 复算的概念设计模型值，非官方面积。"
      },
      "geometry": {
        "type": "Polygon",
        "coordinates": [
          [
            [
              116.34507064,
              39.94216015
            ],
            [
              116.3450691,
              39.94232225
            ],
            [
              116.34534989,
              39.94232383
            ],
            [
              116.34535144,
              39.94216173
            ],
            [
              116.34507064,
              39.94216015
            ]
          ]
        ]
      }
    },
    {
      "type": "Feature",
      "id": "BLD-011",
      "properties": {
        "id": "BLD-011",
        "layer": "BUILDING_FOOTPRINT",
        "name_zh": "轻量公共站·AI原点缝合节点",
        "name_en": "Lightweight Public Station - AI Origin",
        "geometry_role": "design_proposal",
        "source_type": "agent_inferred_from_public_data",
        "confidence": "medium",
        "official_boundary": false,
        "boundary_precision": "provisional_rough",
        "source_id": "DATA-SRC-PROVISIONAL-BOUNDARIES-20260605",
        "derived_from_source_ids": [
          "DATA-SRC-OFFICIAL-ANNOUNCEMENT-20260509"
        ],
        "usage_note": "概念性 provisional 几何，仅用于 AI agent 生成、展示和临时自检；不得作为 official redline、审批依据或精确面积复算依据；正式红线发布后须复算重绘。",
        "prototype": "D",
        "prototype_name_zh": "轻量公共站",
        "prototype_name_en": "Lightweight Public Station",
        "renewal_mode": "概念新建",
        "height_min_m_concept": 4.0,
        "height_max_m_concept": 8.0,
        "floors_min_concept": 1,
        "floors_max_concept": 2,
        "footprint_area_sqm_concept": 432.0,
        "gfa_sqm_concept": 648.0,
        "land_use_ref": "LU-42",
        "area_sqm_declared": 432.01,
        "area_sqm_calculated": 432.01,
        "area_confidence": "low",
        "area_note": "EPSG:4548 复算的概念设计模型值，非官方面积。"
      },
      "geometry": {
        "type": "Polygon",
        "coordinates": [
          [
            [
              116.34462926,
              39.98839994
            ],
            [
              116.34462771,
              39.98856204
            ],
            [
              116.3449087,
              39.98856363
            ],
            [
              116.34491024,
              39.98840152
            ],
            [
              116.34462926,
              39.98839994
            ]
          ]
        ]
      }
    },
    {
      "type": "Feature",
      "id": "BLD-012",
      "properties": {
        "id": "BLD-012",
        "layer": "BUILDING_FOOTPRINT",
        "name_zh": "轻量公共站·众智园发布广场（P3 构件应用点）",
        "name_en": "Lightweight Public Station - Zhongzhiyuan (P3)",
        "geometry_role": "design_proposal",
        "source_type": "agent_inferred_from_public_data",
        "confidence": "medium",
        "official_boundary": false,
        "boundary_precision": "provisional_rough",
        "source_id": "DATA-SRC-PROVISIONAL-BOUNDARIES-20260605",
        "derived_from_source_ids": [
          "DATA-SRC-OFFICIAL-ANNOUNCEMENT-20260509"
        ],
        "usage_note": "概念性 provisional 几何，仅用于 AI agent 生成、展示和临时自检；不得作为 official redline、审批依据或精确面积复算依据；正式红线发布后须复算重绘。",
        "prototype": "D",
        "prototype_name_zh": "轻量公共站",
        "prototype_name_en": "Lightweight Public Station",
        "renewal_mode": "概念新建",
        "height_min_m_concept": 4.0,
        "height_max_m_concept": 8.0,
        "floors_min_concept": 1,
        "floors_max_concept": 2,
        "footprint_area_sqm_concept": 432.0,
        "gfa_sqm_concept": 648.0,
        "land_use_ref": "LU-64",
        "area_sqm_declared": 431.995,
        "area_sqm_calculated": 431.995,
        "area_confidence": "low",
        "area_note": "EPSG:4548 复算的概念设计模型值，非官方面积。"
      },
      "geometry": {
        "type": "Polygon",
        "coordinates": [
          [
            [
              116.35070982,
              40.01693212
            ],
            [
              116.35070828,
              40.01709422
            ],
            [
              116.35098938,
              40.0170958
            ],
            [
              116.35099092,
              40.0169337
            ],
            [
              116.35070982,
              40.01693212
            ]
          ]
        ]
      }
    },
    {
      "type": "Feature",
      "id": "BLD-013",
      "properties": {
        "id": "BLD-013",
        "layer": "BUILDING_FOOTPRINT",
        "name_zh": "轻量公共站·知春路换乘",
        "name_en": "Lightweight Public Station - Zhichunlu",
        "geometry_role": "design_proposal",
        "source_type": "agent_inferred_from_public_data",
        "confidence": "medium",
        "official_boundary": false,
        "boundary_precision": "provisional_rough",
        "source_id": "DATA-SRC-PROVISIONAL-BOUNDARIES-20260605",
        "derived_from_source_ids": [
          "DATA-SRC-OFFICIAL-ANNOUNCEMENT-20260509"
        ],
        "usage_note": "概念性 provisional 几何，仅用于 AI agent 生成、展示和临时自检；不得作为 official redline、审批依据或精确面积复算依据；正式红线发布后须复算重绘。",
        "prototype": "D",
        "prototype_name_zh": "轻量公共站",
        "prototype_name_en": "Lightweight Public Station",
        "renewal_mode": "概念新建",
        "height_min_m_concept": 4.0,
        "height_max_m_concept": 8.0,
        "floors_min_concept": 1,
        "floors_max_concept": 2,
        "footprint_area_sqm_concept": 432.0,
        "gfa_sqm_concept": 648.0,
        "land_use_ref": "LU-34",
        "area_sqm_declared": 431.992,
        "area_sqm_calculated": 431.992,
        "area_confidence": "low",
        "area_note": "EPSG:4548 复算的概念设计模型值，非官方面积。"
      },
      "geometry": {
        "type": "Polygon",
        "coordinates": [
          [
            [
              116.35111451,
              39.97418643
            ],
            [
              116.35111297,
              39.97434853
            ],
            [
              116.3513939,
              39.9743501
            ],
            [
              116.35139543,
              39.974188
            ],
            [
              116.35111451,
              39.97418643
            ]
          ]
        ]
      }
    },
    {
      "type": "Feature",
      "id": "BLD-014",
      "properties": {
        "id": "BLD-014",
        "layer": "BUILDING_FOOTPRINT",
        "name_zh": "轻量公共站·五道口",
        "name_en": "Lightweight Public Station - Wudaokou",
        "geometry_role": "design_proposal",
        "source_type": "agent_inferred_from_public_data",
        "confidence": "medium",
        "official_boundary": false,
        "boundary_precision": "provisional_rough",
        "source_id": "DATA-SRC-PROVISIONAL-BOUNDARIES-20260605",
        "derived_from_source_ids": [
          "DATA-SRC-OFFICIAL-ANNOUNCEMENT-20260509"
        ],
        "usage_note": "概念性 provisional 几何，仅用于 AI agent 生成、展示和临时自检；不得作为 official redline、审批依据或精确面积复算依据；正式红线发布后须复算重绘。",
        "prototype": "D",
        "prototype_name_zh": "轻量公共站",
        "prototype_name_en": "Lightweight Public Station",
        "renewal_mode": "概念新建",
        "height_min_m_concept": 4.0,
        "height_max_m_concept": 8.0,
        "floors_min_concept": 1,
        "floors_max_concept": 2,
        "footprint_area_sqm_concept": 432.0,
        "gfa_sqm_concept": 648.0,
        "land_use_ref": "LU-54",
        "area_sqm_declared": 431.997,
        "area_sqm_calculated": 431.997,
        "area_confidence": "low",
        "area_note": "EPSG:4548 复算的概念设计模型值，非官方面积。"
      },
      "geometry": {
        "type": "Polygon",
        "coordinates": [
          [
            [
              116.3509125,
              39.9955353
            ],
            [
              116.35091096,
              39.9956974
            ],
            [
              116.35119198,
              39.99569897
            ],
            [
              116.35119351,
              39.99553687
            ],
            [
              116.3509125,
              39.9955353
            ]
          ]
        ]
      }
    }
  ]
}