{
  "type": "FeatureCollection",
  "features": [
    {
      "type": "Feature",
      "id": "PH-0",
      "properties": {
        "id": "PH-0",
        "layer": "PHASE",
        "name_zh": "阶段0·基线与共识（全域，非排他调查/临时开放层）",
        "name_en": "Phase 0 - Baseline & Consensus (whole-site non-exclusive survey overlay)",
        "geometry_role": "design_proposal",
        "source_type": "agent_inferred_from_public_data",
        "confidence": "medium",
        "official_boundary": false,
        "boundary_precision": "provisional_rough",
        "source_id": "DATA-SRC-PROVISIONAL-BOUNDARIES-20260605",
        "derived_from_source_ids": [
          "DATA-SRC-OFFICIAL-ANNOUNCEMENT-20260509"
        ],
        "usage_note": "概念性 provisional 几何，仅用于 AI agent 生成、展示和临时自检；不得作为 official redline、审批依据或精确面积复算依据；正式红线发布后须复算重绘。",
        "phase": 0,
        "phase_period": "0-12个月",
        "overlap_note": "全域调查与临时开放阶段，与 PH-1/2/3 空间重叠，不计入建设分区合计。",
        "area_sqm_declared": 11412825.386,
        "area_sqm_calculated": 11412825.386,
        "area_confidence": "low",
        "area_note": "EPSG:4548 复算的概念设计模型值，非官方面积。"
      },
      "geometry": {
        "type": "Polygon",
        "coordinates": [
          [
            [
              116.3407,
              39.939
            ],
            [
              116.3553,
              39.939
            ],
            [
              116.3553,
              39.965
            ],
            [
              116.3533,
              39.99
            ],
            [
              116.3553,
              40.0265
            ],
            [
              116.3427,
              40.0265
            ],
            [
              116.3417,
              40.006
            ],
            [
              116.3397,
              39.975
            ],
            [
              116.3407,
              39.939
            ]
          ]
        ]
      }
    },
    {
      "type": "Feature",
      "id": "PH-1",
      "properties": {
        "id": "PH-1",
        "layer": "PHASE",
        "name_zh": "阶段1·先行连接——主轴慢行与遗产公园首段",
        "name_en": "Phase 1 - First Connections: axis slow line & heritage park first sections",
        "geometry_role": "design_proposal",
        "source_type": "agent_inferred_from_public_data",
        "confidence": "medium",
        "official_boundary": false,
        "boundary_precision": "provisional_rough",
        "source_id": "DATA-SRC-PROVISIONAL-BOUNDARIES-20260605",
        "derived_from_source_ids": [
          "DATA-SRC-OFFICIAL-ANNOUNCEMENT-20260509"
        ],
        "usage_note": "概念性 provisional 几何，仅用于 AI agent 生成、展示和临时自检；不得作为 official redline、审批依据或精确面积复算依据；正式红线发布后须复算重绘。",
        "phase": 1,
        "phase_period": "1-2年",
        "construction_partition": true,
        "area_sqm_declared": 2489845.897,
        "area_sqm_calculated": 2489845.897,
        "area_confidence": "low",
        "area_note": "EPSG:4548 复算的概念设计模型值，非官方面积。"
      },
      "geometry": {
        "type": "Polygon",
        "coordinates": [
          [
            [
              116.346343,
              39.96499067
            ],
            [
              116.34616674,
              39.98348967
            ],
            [
              116.34607139,
              39.99348913
            ],
            [
              116.34593783,
              40.00748838
            ],
            [
              116.3457563,
              40.02650013
            ],
            [
              116.34875833,
              40.02650017
            ],
            [
              116.34893887,
              40.00750528
            ],
            [
              116.34907182,
              39.99350602
            ],
            [
              116.34916673,
              39.98350656
            ],
            [
              116.34934218,
              39.96500754
            ],
            [
              116.34948584,
              39.94984835
            ],
            [
              116.34958857,
              39.93900022
            ],
            [
              116.34659036,
              39.93900022
            ],
            [
              116.34648731,
              39.94983148
            ],
            [
              116.346343,
              39.96499067
            ]
          ]
        ]
      }
    },
    {
      "type": "Feature",
      "id": "PH-101",
      "properties": {
        "id": "PH-101",
        "layer": "PHASE",
        "name_zh": "阶段1·先行连接——大钟寺缝合节点先行区",
        "name_en": "Phase 1 - Dazhongsi stitch node",
        "geometry_role": "design_proposal",
        "source_type": "agent_inferred_from_public_data",
        "confidence": "medium",
        "official_boundary": false,
        "boundary_precision": "provisional_rough",
        "source_id": "DATA-SRC-PROVISIONAL-BOUNDARIES-20260605",
        "derived_from_source_ids": [
          "DATA-SRC-OFFICIAL-ANNOUNCEMENT-20260509"
        ],
        "usage_note": "概念性 provisional 几何，仅用于 AI agent 生成、展示和临时自检；不得作为 official redline、审批依据或精确面积复算依据；正式红线发布后须复算重绘。",
        "phase": 1,
        "phase_period": "1-2年",
        "construction_partition": true,
        "area_sqm_declared": 277190.871,
        "area_sqm_calculated": 277190.871,
        "area_confidence": "low",
        "area_note": "EPSG:4548 复算的概念设计模型值，非官方面积。"
      },
      "geometry": {
        "type": "Polygon",
        "coordinates": [
          [
            [
              116.34389197,
              39.93900016
            ],
            [
              116.34378865,
              39.94981624
            ],
            [
              116.34648731,
              39.94983148
            ],
            [
              116.34659036,
              39.93900022
            ],
            [
              116.34389197,
              39.93900016
            ]
          ]
        ]
      }
    },
    {
      "type": "Feature",
      "id": "PH-102",
      "properties": {
        "id": "PH-102",
        "layer": "PHASE",
        "name_zh": "阶段1·先行连接——AI原点缝合节点先行区",
        "name_en": "Phase 1 - AI Origin stitch node",
        "geometry_role": "design_proposal",
        "source_type": "agent_inferred_from_public_data",
        "confidence": "medium",
        "official_boundary": false,
        "boundary_precision": "provisional_rough",
        "source_id": "DATA-SRC-PROVISIONAL-BOUNDARIES-20260605",
        "derived_from_source_ids": [
          "DATA-SRC-OFFICIAL-ANNOUNCEMENT-20260509"
        ],
        "usage_note": "概念性 provisional 几何，仅用于 AI agent 生成、展示和临时自检；不得作为 official redline、审批依据或精确面积复算依据；正式红线发布后须复算重绘。",
        "phase": 1,
        "phase_period": "1-2年",
        "construction_partition": true,
        "area_sqm_declared": 256085.016,
        "area_sqm_calculated": 256085.016,
        "area_confidence": "low",
        "area_note": "EPSG:4548 复算的概念设计模型值，非官方面积。"
      },
      "geometry": {
        "type": "Polygon",
        "coordinates": [
          [
            [
              116.34346675,
              39.98347441
            ],
            [
              116.34337101,
              39.99347387
            ],
            [
              116.34607139,
              39.99348913
            ],
            [
              116.34616674,
              39.98348967
            ],
            [
              116.34346675,
              39.98347441
            ]
          ]
        ]
      }
    },
    {
      "type": "Feature",
      "id": "PH-103",
      "properties": {
        "id": "PH-103",
        "layer": "PHASE",
        "name_zh": "阶段1·先行连接——众智园缝合节点先行区",
        "name_en": "Phase 1 - Zhongzhiyuan stitch node",
        "geometry_role": "design_proposal",
        "source_type": "agent_inferred_from_public_data",
        "confidence": "medium",
        "official_boundary": false,
        "boundary_precision": "provisional_rough",
        "source_id": "DATA-SRC-PROVISIONAL-BOUNDARIES-20260605",
        "derived_from_source_ids": [
          "DATA-SRC-OFFICIAL-ANNOUNCEMENT-20260509"
        ],
        "usage_note": "概念性 provisional 几何，仅用于 AI agent 生成、展示和临时自检；不得作为 official redline、审批依据或精确面积复算依据；正式红线发布后须复算重绘。",
        "phase": 1,
        "phase_period": "1-2年",
        "construction_partition": true,
        "area_sqm_declared": 720255.047,
        "area_sqm_calculated": 720255.047,
        "area_confidence": "low",
        "area_note": "EPSG:4548 复算的概念设计模型值，非官方面积。"
      },
      "geometry": {
        "type": "Polygon",
        "coordinates": [
          [
            [
              116.35276105,
              40.02650011
            ],
            [
              116.35294027,
              40.00752769
            ],
            [
              116.34893887,
              40.00750528
            ],
            [
              116.34875833,
              40.02650017
            ],
            [
              116.35276105,
              40.02650011
            ]
          ]
        ]
      }
    },
    {
      "type": "Feature",
      "id": "PH-21",
      "properties": {
        "id": "PH-21",
        "layer": "PHASE",
        "name_zh": "阶段2·重点片区——众智园AI自主创新加速区（育）",
        "name_en": "Phase 2 - Zhongzhiyuan (cultivate)",
        "geometry_role": "design_proposal",
        "source_type": "agent_inferred_from_public_data",
        "confidence": "medium",
        "official_boundary": false,
        "boundary_precision": "provisional_rough",
        "source_id": "DATA-SRC-PROVISIONAL-BOUNDARIES-20260605",
        "derived_from_source_ids": [
          "DATA-SRC-OFFICIAL-ANNOUNCEMENT-20260509"
        ],
        "usage_note": "概念性 provisional 几何，仅用于 AI agent 生成、展示和临时自检；不得作为 official redline、审批依据或精确面积复算依据；正式红线发布后须复算重绘。",
        "phase": 2,
        "phase_period": "2-5年",
        "construction_partition": true,
        "key_area_ref": "PROV-KEY-001",
        "area_sqm_declared": 701491.742,
        "area_sqm_calculated": 701491.742,
        "area_confidence": "low",
        "area_note": "EPSG:4548 复算的概念设计模型值，非官方面积。"
      },
      "geometry": {
        "type": "MultiPolygon",
        "coordinates": [
          [
            [
              [
                116.343,
                40.0075
              ],
              [
                116.343,
                40.026
              ],
              [
                116.34576107,
                40.0260001
              ],
              [
                116.34593772,
                40.0075001
              ],
              [
                116.343,
                40.0075
              ]
            ]
          ],
          [
            [
              [
                116.354,
                40.026
              ],
              [
                116.354,
                40.0075
              ],
              [
                116.34893892,
                40.00750013
              ],
              [
                116.34893887,
                40.00750528
              ],
              [
                116.35294027,
                40.00752769
              ],
              [
                116.35276577,
                40.02600005
              ],
              [
                116.354,
                40.026
              ]
            ]
          ]
        ]
      }
    },
    {
      "type": "Feature",
      "id": "PH-22",
      "properties": {
        "id": "PH-22",
        "layer": "PHASE",
        "name_zh": "阶段2·重点片区——北京AI原点社区（传）",
        "name_en": "Phase 2 - AI Origin Community (share)",
        "geometry_role": "design_proposal",
        "source_type": "agent_inferred_from_public_data",
        "confidence": "medium",
        "official_boundary": false,
        "boundary_precision": "provisional_rough",
        "source_id": "DATA-SRC-PROVISIONAL-BOUNDARIES-20260605",
        "derived_from_source_ids": [
          "DATA-SRC-OFFICIAL-ANNOUNCEMENT-20260509"
        ],
        "usage_note": "概念性 provisional 几何，仅用于 AI agent 生成、展示和临时自检；不得作为 official redline、审批依据或精确面积复算依据；正式红线发布后须复算重绘。",
        "phase": 2,
        "phase_period": "2-5年",
        "construction_partition": true,
        "key_area_ref": "PROV-KEY-002",
        "area_sqm_declared": 503059.422,
        "area_sqm_calculated": 503059.422,
        "area_confidence": "low",
        "area_note": "EPSG:4548 复算的概念设计模型值，非官方面积。"
      },
      "geometry": {
        "type": "MultiPolygon",
        "coordinates": [
          [
            [
              [
                116.342,
                39.9835
              ],
              [
                116.342,
                39.9935
              ],
              [
                116.34607129,
                39.99350012
              ],
              [
                116.34607139,
                39.99348913
              ],
              [
                116.34337101,
                39.99347387
              ],
              [
                116.3434665,
                39.98350006
              ],
              [
                116.342,
                39.9835
              ]
            ]
          ],
          [
            [
              [
                116.353,
                39.9935
              ],
              [
                116.353,
                39.9835
              ],
              [
                116.34916679,
                39.98350012
              ],
              [
                116.34916673,
                39.98350656
              ],
              [
                116.34907188,
                39.99350012
              ],
              [
                116.353,
                39.9935
              ]
            ]
          ]
        ]
      }
    },
    {
      "type": "Feature",
      "id": "PH-23",
      "properties": {
        "id": "PH-23",
        "layer": "PHASE",
        "name_zh": "阶段2·重点片区——大钟寺AI产业聚集区（用）",
        "name_en": "Phase 2 - Dazhongsi (test-in-use)",
        "geometry_role": "design_proposal",
        "source_type": "agent_inferred_from_public_data",
        "confidence": "medium",
        "official_boundary": false,
        "boundary_precision": "provisional_rough",
        "source_id": "DATA-SRC-PROVISIONAL-BOUNDARIES-20260605",
        "derived_from_source_ids": [
          "DATA-SRC-OFFICIAL-ANNOUNCEMENT-20260509"
        ],
        "usage_note": "概念性 provisional 几何，仅用于 AI agent 生成、展示和临时自检；不得作为 official redline、审批依据或精确面积复算依据；正式红线发布后须复算重绘。",
        "phase": 2,
        "phase_period": "2-5年",
        "construction_partition": true,
        "key_area_ref": "PROV-KEY-003",
        "area_sqm_declared": 405131.514,
        "area_sqm_calculated": 405131.514,
        "area_confidence": "low",
        "area_note": "EPSG:4548 复算的概念设计模型值，非官方面积。"
      },
      "geometry": {
        "type": "MultiPolygon",
        "coordinates": [
          [
            [
              [
                116.342,
                39.944
              ],
              [
                116.342,
                39.94984
              ],
              [
                116.34648723,
                39.94984016
              ],
              [
                116.34648731,
                39.94983148
              ],
              [
                116.34378865,
                39.94981624
              ],
              [
                116.34384422,
                39.94400009
              ],
              [
                116.342,
                39.944
              ]
            ]
          ],
          [
            [
              [
                116.355,
                39.94984
              ],
              [
                116.355,
                39.944
              ],
              [
                116.34954123,
                39.94400018
              ],
              [
                116.34948591,
                39.94984018
              ],
              [
                116.355,
                39.94984
              ]
            ]
          ]
        ]
      }
    },
    {
      "type": "Feature",
      "id": "PH-3",
      "properties": {
        "id": "PH-3",
        "layer": "PHASE",
        "name_zh": "阶段3·网络扩展——其余片区依据评估复制节点、补齐网络",
        "name_en": "Phase 3 - Network Extension (remaining area)",
        "geometry_role": "design_proposal",
        "source_type": "agent_inferred_from_public_data",
        "confidence": "medium",
        "official_boundary": false,
        "boundary_precision": "provisional_rough",
        "source_id": "DATA-SRC-PROVISIONAL-BOUNDARIES-20260605",
        "derived_from_source_ids": [
          "DATA-SRC-OFFICIAL-ANNOUNCEMENT-20260509"
        ],
        "usage_note": "概念性 provisional 几何，仅用于 AI agent 生成、展示和临时自检；不得作为 official redline、审批依据或精确面积复算依据；正式红线发布后须复算重绘。",
        "phase": 3,
        "phase_period": "5年后",
        "construction_partition": true,
        "area_sqm_declared": 6059766.617,
        "area_sqm_calculated": 6059766.617,
        "area_confidence": "low",
        "area_note": "EPSG:4548 复算的概念设计模型值，非官方面积。"
      },
      "geometry": {
        "type": "MultiPolygon",
        "coordinates": [
          [
            [
              [
                116.3407,
                39.939
              ],
              [
                116.3397,
                39.975
              ],
              [
                116.3417,
                40.006
              ],
              [
                116.3427,
                40.0265
              ],
              [
                116.3457563,
                40.02650013
              ],
              [
                116.34576107,
                40.0260001
              ],
              [
                116.343,
                40.026
              ],
              [
                116.343,
                40.0075
              ],
              [
                116.34593772,
                40.0075001
              ],
              [
                116.34593783,
                40.00748838
              ],
              [
                116.34607129,
                39.99350012
              ],
              [
                116.342,
                39.9935
              ],
              [
                116.342,
                39.9835
              ],
              [
                116.3434665,
                39.98350006
              ],
              [
                116.34346675,
                39.98347441
              ],
              [
                116.34616674,
                39.98348967
              ],
              [
                116.346343,
                39.96499067
              ],
              [
                116.34648723,
                39.94984016
              ],
              [
                116.342,
                39.94984
              ],
              [
                116.342,
                39.944
              ],
              [
                116.34384422,
                39.94400009
              ],
              [
                116.34389197,
                39.93900016
              ],
              [
                116.34659036,
                39.93900022
              ],
              [
                116.34929757,
                39.93900022
              ],
              [
                116.3407,
                39.939
              ]
            ]
          ],
          [
            [
              [
                116.3553,
                40.0265
              ],
              [
                116.3533,
                39.99
              ],
              [
                116.3553,
                39.965
              ],
              [
                116.3553,
                39.939
              ],
              [
                116.34958857,
                39.93900022
              ],
              [
                116.34954123,
                39.94400018
              ],
              [
                116.355,
                39.944
              ],
              [
                116.355,
                39.94984
              ],
              [
                116.34948591,
                39.94984018
              ],
              [
                116.34948584,
                39.94984835
              ],
              [
                116.34934218,
                39.96500754
              ],
              [
                116.34916679,
                39.98350012
              ],
              [
                116.353,
                39.9835
              ],
              [
                116.353,
                39.9935
              ],
              [
                116.34907188,
                39.99350012
              ],
              [
                116.34907182,
                39.99350602
              ],
              [
                116.34893892,
                40.00750013
              ],
              [
                116.354,
                40.0075
              ],
              [
                116.354,
                40.026
              ],
              [
                116.35276577,
                40.02600005
              ],
              [
                116.35276105,
                40.02650011
              ],
              [
                116.3553,
                40.0265
              ]
            ]
          ],
          [
            [
              [
                116.35154206,
                40.02650014
              ],
              [
                116.34875833,
                40.02650017
              ],
              [
                116.34786285,
                40.02650017
              ],
              [
                116.35154206,
                40.02650014
              ]
            ]
          ]
        ]
      }
    }
  ]
}