{
  "type": "FeatureCollection",
  "features": [
    {
      "type": "Feature",
      "id": "PS-01",
      "properties": {
        "id": "PS-01",
        "layer": "PUBLIC_SPACE",
        "name_zh": "大钟寺城市到达广场与公共生活厅前区（L1/L2/L3 落位）",
        "name_en": "Dazhongsi Arrival Plaza & Public Life Hall Forecourt (L1/L2/L3)",
        "geometry_role": "design_proposal",
        "source_type": "agent_inferred_from_public_data",
        "confidence": "medium",
        "official_boundary": false,
        "boundary_precision": "provisional_rough",
        "source_id": "DATA-SRC-PROVISIONAL-BOUNDARIES-20260605",
        "derived_from_source_ids": [
          "DATA-SRC-OFFICIAL-ANNOUNCEMENT-20260509"
        ],
        "usage_note": "概念性 provisional 几何，仅用于 AI agent 生成、展示和临时自检；不得作为 official redline、审批依据或精确面积复算依据；正式红线发布后须复算重绘。",
        "space_kind": "node_plaza",
        "stitch_level": "city",
        "land_use_ref": "LU-12",
        "area_sqm_declared": 277190.871,
        "area_sqm_calculated": 277190.871,
        "area_confidence": "low",
        "area_note": "EPSG:4548 复算的概念设计模型值，非官方面积。"
      },
      "geometry": {
        "type": "Polygon",
        "coordinates": [
          [
            [
              116.34389197,
              39.93900016
            ],
            [
              116.34378865,
              39.94981624
            ],
            [
              116.34648731,
              39.94983148
            ],
            [
              116.34659036,
              39.93900022
            ],
            [
              116.34389197,
              39.93900016
            ]
          ]
        ]
      }
    },
    {
      "type": "Feature",
      "id": "PS-02",
      "properties": {
        "id": "PS-02",
        "layer": "PUBLIC_SPACE",
        "name_zh": "AI原点共享广场（S10 校企共享平台前区）",
        "name_en": "AI Origin Shared Plaza (S10 frontage)",
        "geometry_role": "design_proposal",
        "source_type": "agent_inferred_from_public_data",
        "confidence": "medium",
        "official_boundary": false,
        "boundary_precision": "provisional_rough",
        "source_id": "DATA-SRC-PROVISIONAL-BOUNDARIES-20260605",
        "derived_from_source_ids": [
          "DATA-SRC-OFFICIAL-ANNOUNCEMENT-20260509"
        ],
        "usage_note": "概念性 provisional 几何，仅用于 AI agent 生成、展示和临时自检；不得作为 official redline、审批依据或精确面积复算依据；正式红线发布后须复算重绘。",
        "space_kind": "node_plaza",
        "stitch_level": "city",
        "land_use_ref": "LU-42",
        "area_sqm_declared": 256085.016,
        "area_sqm_calculated": 256085.016,
        "area_confidence": "low",
        "area_note": "EPSG:4548 复算的概念设计模型值，非官方面积。"
      },
      "geometry": {
        "type": "Polygon",
        "coordinates": [
          [
            [
              116.34346675,
              39.98347441
            ],
            [
              116.34337101,
              39.99347387
            ],
            [
              116.34607139,
              39.99348913
            ],
            [
              116.34616674,
              39.98348967
            ],
            [
              116.34346675,
              39.98347441
            ]
          ]
        ]
      }
    },
    {
      "type": "Feature",
      "id": "PS-03",
      "properties": {
        "id": "PS-03",
        "layer": "PUBLIC_SPACE",
        "name_zh": "众智园原型发布广场",
        "name_en": "Zhongzhiyuan Prototype Release Plaza",
        "geometry_role": "design_proposal",
        "source_type": "agent_inferred_from_public_data",
        "confidence": "medium",
        "official_boundary": false,
        "boundary_precision": "provisional_rough",
        "source_id": "DATA-SRC-PROVISIONAL-BOUNDARIES-20260605",
        "derived_from_source_ids": [
          "DATA-SRC-OFFICIAL-ANNOUNCEMENT-20260509"
        ],
        "usage_note": "概念性 provisional 几何，仅用于 AI agent 生成、展示和临时自检；不得作为 official redline、审批依据或精确面积复算依据；正式红线发布后须复算重绘。",
        "space_kind": "node_plaza",
        "stitch_level": "city",
        "land_use_ref": "LU-64",
        "area_sqm_declared": 720255.047,
        "area_sqm_calculated": 720255.047,
        "area_confidence": "low",
        "area_note": "EPSG:4548 复算的概念设计模型值，非官方面积。"
      },
      "geometry": {
        "type": "Polygon",
        "coordinates": [
          [
            [
              116.35276105,
              40.02650011
            ],
            [
              116.35294027,
              40.00752769
            ],
            [
              116.34893887,
              40.00750528
            ],
            [
              116.34875833,
              40.02650017
            ],
            [
              116.35276105,
              40.02650011
            ]
          ]
        ]
      }
    },
    {
      "type": "Feature",
      "id": "PS-04",
      "properties": {
        "id": "PS-04",
        "layer": "PUBLIC_SPACE",
        "name_zh": "大钟寺商业地块临轴公共首层界面",
        "name_en": "Dazhongsi commercial axis-facing public ground floor",
        "geometry_role": "design_proposal",
        "source_type": "agent_inferred_from_public_data",
        "confidence": "medium",
        "official_boundary": false,
        "boundary_precision": "provisional_rough",
        "source_id": "DATA-SRC-PROVISIONAL-BOUNDARIES-20260605",
        "derived_from_source_ids": [
          "DATA-SRC-OFFICIAL-ANNOUNCEMENT-20260509"
        ],
        "usage_note": "概念性 provisional 几何，仅用于 AI agent 生成、展示和临时自检；不得作为 official redline、审批依据或精确面积复算依据；正式红线发布后须复算重绘。",
        "space_kind": "public_ground_floor",
        "depth_m_concept": 12,
        "land_use_ref": "LU-14",
        "area_sqm_declared": 3600.064,
        "area_sqm_calculated": 3600.064,
        "area_confidence": "low",
        "area_note": "EPSG:4548 复算的概念设计模型值，非官方面积。"
      },
      "geometry": {
        "type": "Polygon",
        "coordinates": [
          [
            [
              116.34952452,
              39.9457639
            ],
            [
              116.34966493,
              39.94576469
            ],
            [
              116.34969051,
              39.94306298
            ],
            [
              116.34955011,
              39.94306219
            ],
            [
              116.34952452,
              39.9457639
            ]
          ]
        ]
      }
    },
    {
      "type": "Feature",
      "id": "PS-05",
      "properties": {
        "id": "PS-05",
        "layer": "PUBLIC_SPACE",
        "name_zh": "知春路南商业地块临轴公共首层界面",
        "name_en": "Zhichunlu-south commercial axis-facing public ground floor",
        "geometry_role": "design_proposal",
        "source_type": "agent_inferred_from_public_data",
        "confidence": "medium",
        "official_boundary": false,
        "boundary_precision": "provisional_rough",
        "source_id": "DATA-SRC-PROVISIONAL-BOUNDARIES-20260605",
        "derived_from_source_ids": [
          "DATA-SRC-OFFICIAL-ANNOUNCEMENT-20260509"
        ],
        "usage_note": "概念性 provisional 几何，仅用于 AI agent 生成、展示和临时自检；不得作为 official redline、审批依据或精确面积复算依据；正式红线发布后须复算重绘。",
        "space_kind": "public_ground_floor",
        "depth_m_concept": 12,
        "land_use_ref": "LU-22",
        "area_sqm_declared": 3600.022,
        "area_sqm_calculated": 3600.022,
        "area_confidence": "low",
        "area_note": "EPSG:4548 复算的概念设计模型值，非官方面积。"
      },
      "geometry": {
        "type": "Polygon",
        "coordinates": [
          [
            [
              116.34642803,
              39.95606023
            ],
            [
              116.3462876,
              39.95605944
            ],
            [
              116.34626188,
              39.95876114
            ],
            [
              116.34640231,
              39.95876193
            ],
            [
              116.34642803,
              39.95606023
            ]
          ]
        ]
      }
    },
    {
      "type": "Feature",
      "id": "PS-06",
      "properties": {
        "id": "PS-06",
        "layer": "PUBLIC_SPACE",
        "name_zh": "AI原点校企共享实验平台公共首层界面（S10/E01）",
        "name_en": "AI Origin school-enterprise platform public ground floor (S10/E01)",
        "geometry_role": "design_proposal",
        "source_type": "agent_inferred_from_public_data",
        "confidence": "medium",
        "official_boundary": false,
        "boundary_precision": "provisional_rough",
        "source_id": "DATA-SRC-PROVISIONAL-BOUNDARIES-20260605",
        "derived_from_source_ids": [
          "DATA-SRC-OFFICIAL-ANNOUNCEMENT-20260509"
        ],
        "usage_note": "概念性 provisional 几何，仅用于 AI agent 生成、展示和临时自检；不得作为 official redline、审批依据或精确面积复算依据；正式红线发布后须复算重绘。",
        "space_kind": "public_ground_floor",
        "depth_m_concept": 12,
        "land_use_ref": "LU-44",
        "area_sqm_declared": 3600.059,
        "area_sqm_calculated": 3600.059,
        "area_confidence": "low",
        "area_note": "EPSG:4548 复算的概念设计模型值，非官方面积。"
      },
      "geometry": {
        "type": "Polygon",
        "coordinates": [
          [
            [
              116.34910646,
              39.98985714
            ],
            [
              116.34924696,
              39.98985793
            ],
            [
              116.34927259,
              39.98715624
            ],
            [
              116.3491321,
              39.98715545
            ],
            [
              116.34910646,
              39.98985714
            ]
          ]
        ]
      }
    },
    {
      "type": "Feature",
      "id": "PS-07",
      "properties": {
        "id": "PS-07",
        "layer": "PUBLIC_SPACE",
        "name_zh": "大钟寺居住地块社区服务公共首层界面（P2/S03）",
        "name_en": "Dazhongsi residential community-service ground floor (P2/S03)",
        "geometry_role": "design_proposal",
        "source_type": "agent_inferred_from_public_data",
        "confidence": "medium",
        "official_boundary": false,
        "boundary_precision": "provisional_rough",
        "source_id": "DATA-SRC-PROVISIONAL-BOUNDARIES-20260605",
        "derived_from_source_ids": [
          "DATA-SRC-OFFICIAL-ANNOUNCEMENT-20260509"
        ],
        "usage_note": "概念性 provisional 几何，仅用于 AI agent 生成、展示和临时自检；不得作为 official redline、审批依据或精确面积复算依据；正式红线发布后须复算重绘。",
        "space_kind": "public_ground_floor",
        "depth_m_concept": 12,
        "land_use_ref": "LU-11",
        "area_sqm_declared": 3599.937,
        "area_sqm_calculated": 3599.937,
        "area_confidence": "low",
        "area_note": "EPSG:4548 复算的概念设计模型值，非官方面积。"
      },
      "geometry": {
        "type": "Polygon",
        "coordinates": [
          [
            [
              116.34385322,
              39.94305735
            ],
            [
              116.34371282,
              39.94305655
            ],
            [
              116.34368701,
              39.94575826
            ],
            [
              116.34382741,
              39.94575905
            ],
            [
              116.34385322,
              39.94305735
            ]
          ]
        ]
      }
    }
  ]
}