{
  "type": "FeatureCollection",
  "features": [
    {
      "type": "Feature",
      "id": "RD-001",
      "properties": {
        "id": "RD-001",
        "layer": "ROAD_CENTERLINE",
        "name_zh": "京张公共创新主轴慢行主线（步行·骑行连续，示意线位）",
        "name_en": "Jingzhang Public Innovation Axis - Slow-mobility Main Line (concept alignment)",
        "geometry_role": "design_proposal",
        "source_type": "agent_inferred_from_public_data",
        "confidence": "medium",
        "official_boundary": false,
        "boundary_precision": "provisional_rough",
        "source_id": "DATA-SRC-PROVISIONAL-BOUNDARIES-20260605",
        "derived_from_source_ids": [
          "DATA-SRC-OFFICIAL-ANNOUNCEMENT-20260509"
        ],
        "usage_note": "概念性 provisional 几何，仅用于 AI agent 生成、展示和临时自检；不得作为 official redline、审批依据或精确面积复算依据；正式红线发布后须复算重绘。",
        "line_kind": "slow_main_axis",
        "alignment_status": "concept_only_not_engineering_alignment",
        "coord_source": "figures/scripts/common.py AXIS_LONLAT"
      },
      "geometry": {
        "type": "LineString",
        "coordinates": [
          [
            116.3455,
            40.0265
          ],
          [
            116.3475,
            40.0205
          ],
          [
            116.3485,
            40.0168
          ],
          [
            116.348,
            40.002
          ],
          [
            116.3475,
            39.9885
          ],
          [
            116.349,
            39.972
          ],
          [
            116.35,
            39.958
          ],
          [
            116.3485,
            39.9469
          ],
          [
            116.352,
            39.94
          ]
        ]
      }
    },
    {
      "type": "Feature",
      "id": "RD-101",
      "properties": {
        "id": "RD-101",
        "layer": "ROAD_CENTERLINE",
        "name_zh": "城市级缝合·40.0168°N 横向缝合通道（概念线位）",
        "name_en": "City-level Stitch at 40.0168N (concept alignment)",
        "geometry_role": "design_proposal",
        "source_type": "agent_inferred_from_public_data",
        "confidence": "medium",
        "official_boundary": false,
        "boundary_precision": "provisional_rough",
        "source_id": "DATA-SRC-PROVISIONAL-BOUNDARIES-20260605",
        "derived_from_source_ids": [
          "DATA-SRC-OFFICIAL-ANNOUNCEMENT-20260509"
        ],
        "usage_note": "概念性 provisional 几何，仅用于 AI agent 生成、展示和临时自检；不得作为 official redline、审批依据或精确面积复算依据；正式红线发布后须复算重绘。",
        "line_kind": "stitching_city",
        "stitch_lat": 40.0168,
        "alignment_status": "concept_only_not_engineering_alignment",
        "coord_source": "figures/scripts/fig04_mobility_bluegreen.py"
      },
      "geometry": {
        "type": "LineString",
        "coordinates": [
          [
            116.34222517,
            40.01676737
          ],
          [
            116.35477039,
            40.01683789
          ]
        ]
      }
    },
    {
      "type": "Feature",
      "id": "RD-102",
      "properties": {
        "id": "RD-102",
        "layer": "ROAD_CENTERLINE",
        "name_zh": "城市级缝合·39.9885°N 横向缝合通道（概念线位）",
        "name_en": "City-level Stitch at 39.9885N (concept alignment)",
        "geometry_role": "design_proposal",
        "source_type": "agent_inferred_from_public_data",
        "confidence": "medium",
        "official_boundary": false,
        "boundary_precision": "provisional_rough",
        "source_id": "DATA-SRC-PROVISIONAL-BOUNDARIES-20260605",
        "derived_from_source_ids": [
          "DATA-SRC-OFFICIAL-ANNOUNCEMENT-20260509"
        ],
        "usage_note": "概念性 provisional 几何，仅用于 AI agent 生成、展示和临时自检；不得作为 official redline、审批依据或精确面积复算依据；正式红线发布后须复算重绘。",
        "line_kind": "stitching_city",
        "stitch_lat": 39.9885,
        "alignment_status": "concept_only_not_engineering_alignment",
        "coord_source": "figures/scripts/fig04_mobility_bluegreen.py"
      },
      "geometry": {
        "type": "LineString",
        "coordinates": [
          [
            116.34056806,
            39.98845795
          ],
          [
            116.35341762,
            39.98853035
          ]
        ]
      }
    },
    {
      "type": "Feature",
      "id": "RD-103",
      "properties": {
        "id": "RD-103",
        "layer": "ROAD_CENTERLINE",
        "name_zh": "城市级缝合·39.9469°N 横向缝合通道（概念线位）",
        "name_en": "City-level Stitch at 39.9469N (concept alignment)",
        "geometry_role": "design_proposal",
        "source_type": "agent_inferred_from_public_data",
        "confidence": "medium",
        "official_boundary": false,
        "boundary_precision": "provisional_rough",
        "source_id": "DATA-SRC-PROVISIONAL-BOUNDARIES-20260605",
        "derived_from_source_ids": [
          "DATA-SRC-OFFICIAL-ANNOUNCEMENT-20260509"
        ],
        "usage_note": "概念性 provisional 几何，仅用于 AI agent 生成、展示和临时自检；不得作为 official redline、审批依据或精确面积复算依据；正式红线发布后须复算重绘。",
        "line_kind": "stitching_city",
        "stitch_lat": 39.9469,
        "alignment_status": "concept_only_not_engineering_alignment",
        "coord_source": "figures/scripts/fig04_mobility_bluegreen.py"
      },
      "geometry": {
        "type": "LineString",
        "coordinates": [
          [
            116.34048185,
            39.94685747
          ],
          [
            116.35530001,
            39.94694082
          ]
        ]
      }
    },
    {
      "type": "Feature",
      "id": "RD-201",
      "properties": {
        "id": "RD-201",
        "layer": "ROAD_CENTERLINE",
        "name_zh": "片区级缝合·40.003°N 横向缝合通道（概念线位）",
        "name_en": "District-level Stitch at 40.003N (concept alignment)",
        "geometry_role": "design_proposal",
        "source_type": "agent_inferred_from_public_data",
        "confidence": "medium",
        "official_boundary": false,
        "boundary_precision": "provisional_rough",
        "source_id": "DATA-SRC-PROVISIONAL-BOUNDARIES-20260605",
        "derived_from_source_ids": [
          "DATA-SRC-OFFICIAL-ANNOUNCEMENT-20260509"
        ],
        "usage_note": "概念性 provisional 几何，仅用于 AI agent 生成、展示和临时自检；不得作为 official redline、审批依据或精确面积复算依据；正式红线发布后须复算重绘。",
        "line_kind": "stitching_district",
        "stitch_lat": 40.003,
        "alignment_status": "concept_only_not_engineering_alignment",
        "coord_source": "figures/scripts/fig04_mobility_bluegreen.py"
      },
      "geometry": {
        "type": "LineString",
        "coordinates": [
          [
            116.34150401,
            40.00296327
          ],
          [
            116.35401396,
            40.00303368
          ]
        ]
      }
    },
    {
      "type": "Feature",
      "id": "RD-202",
      "properties": {
        "id": "RD-202",
        "layer": "ROAD_CENTERLINE",
        "name_zh": "片区级缝合·39.966°N 横向缝合通道（概念线位）",
        "name_en": "District-level Stitch at 39.966N (concept alignment)",
        "geometry_role": "design_proposal",
        "source_type": "agent_inferred_from_public_data",
        "confidence": "medium",
        "official_boundary": false,
        "boundary_precision": "provisional_rough",
        "source_id": "DATA-SRC-PROVISIONAL-BOUNDARIES-20260605",
        "derived_from_source_ids": [
          "DATA-SRC-OFFICIAL-ANNOUNCEMENT-20260509"
        ],
        "usage_note": "概念性 provisional 几何，仅用于 AI agent 生成、展示和临时自检；不得作为 official redline、审批依据或精确面积复算依据；正式红线发布后须复算重绘。",
        "line_kind": "stitching_district",
        "stitch_lat": 39.966,
        "alignment_status": "concept_only_not_engineering_alignment",
        "coord_source": "figures/scripts/fig04_mobility_bluegreen.py"
      },
      "geometry": {
        "type": "LineString",
        "coordinates": [
          [
            116.33995139,
            39.96595445
          ],
          [
            116.3552168,
            39.96604037
          ]
        ]
      }
    },
    {
      "type": "Feature",
      "id": "RD-301",
      "properties": {
        "id": "RD-301",
        "layer": "ROAD_CENTERLINE",
        "name_zh": "街坊级缝合·40.0105°N 横向缝合通道（概念线位）",
        "name_en": "Block-level Stitch at 40.0105N (concept alignment)",
        "geometry_role": "design_proposal",
        "source_type": "agent_inferred_from_public_data",
        "confidence": "medium",
        "official_boundary": false,
        "boundary_precision": "provisional_rough",
        "source_id": "DATA-SRC-PROVISIONAL-BOUNDARIES-20260605",
        "derived_from_source_ids": [
          "DATA-SRC-OFFICIAL-ANNOUNCEMENT-20260509"
        ],
        "usage_note": "概念性 provisional 几何，仅用于 AI agent 生成、展示和临时自检；不得作为 official redline、审批依据或精确面积复算依据；正式红线发布后须复算重绘。",
        "line_kind": "stitching_block",
        "stitch_lat": 40.0105,
        "alignment_status": "concept_only_not_engineering_alignment",
        "coord_source": "figures/scripts/fig04_mobility_bluegreen.py"
      },
      "geometry": {
        "type": "LineString",
        "coordinates": [
          [
            116.34191779,
            40.01046562
          ],
          [
            116.35442503,
            40.01053597
          ]
        ]
      }
    },
    {
      "type": "Feature",
      "id": "RD-302",
      "properties": {
        "id": "RD-302",
        "layer": "ROAD_CENTERLINE",
        "name_zh": "街坊级缝合·39.983°N 横向缝合通道（概念线位）",
        "name_en": "Block-level Stitch at 39.983N (concept alignment)",
        "geometry_role": "design_proposal",
        "source_type": "agent_inferred_from_public_data",
        "confidence": "medium",
        "official_boundary": false,
        "boundary_precision": "provisional_rough",
        "source_id": "DATA-SRC-PROVISIONAL-BOUNDARIES-20260605",
        "derived_from_source_ids": [
          "DATA-SRC-OFFICIAL-ANNOUNCEMENT-20260509"
        ],
        "usage_note": "概念性 provisional 几何，仅用于 AI agent 生成、展示和临时自检；不得作为 official redline、审批依据或精确面积复算依据；正式红线发布后须复算重绘。",
        "line_kind": "stitching_block",
        "stitch_lat": 39.983,
        "alignment_status": "concept_only_not_engineering_alignment",
        "coord_source": "figures/scripts/fig04_mobility_bluegreen.py"
      },
      "geometry": {
        "type": "LineString",
        "coordinates": [
          [
            116.34021313,
            39.98295594
          ],
          [
            116.35385754,
            39.9830328
          ]
        ]
      }
    },
    {
      "type": "Feature",
      "id": "RD-303",
      "properties": {
        "id": "RD-303",
        "layer": "ROAD_CENTERLINE",
        "name_zh": "街坊级缝合·39.9575°N 横向缝合通道（概念线位）",
        "name_en": "Block-level Stitch at 39.9575N (concept alignment)",
        "geometry_role": "design_proposal",
        "source_type": "agent_inferred_from_public_data",
        "confidence": "medium",
        "official_boundary": false,
        "boundary_precision": "provisional_rough",
        "source_id": "DATA-SRC-PROVISIONAL-BOUNDARIES-20260605",
        "derived_from_source_ids": [
          "DATA-SRC-OFFICIAL-ANNOUNCEMENT-20260509"
        ],
        "usage_note": "概念性 provisional 几何，仅用于 AI agent 生成、展示和临时自检；不得作为 official redline、审批依据或精确面积复算依据；正式红线发布后须复算重绘。",
        "line_kind": "stitching_block",
        "stitch_lat": 39.9575,
        "alignment_status": "concept_only_not_engineering_alignment",
        "coord_source": "figures/scripts/fig04_mobility_bluegreen.py"
      },
      "geometry": {
        "type": "LineString",
        "coordinates": [
          [
            116.3401875,
            39.9574558
          ],
          [
            116.35530001,
            39.95754083
          ]
        ]
      }
    },
    {
      "type": "Feature",
      "id": "RD-304",
      "properties": {
        "id": "RD-304",
        "layer": "ROAD_CENTERLINE",
        "name_zh": "街坊级缝合·39.9445°N 横向缝合通道（概念线位）",
        "name_en": "Block-level Stitch at 39.9445N (concept alignment)",
        "geometry_role": "design_proposal",
        "source_type": "agent_inferred_from_public_data",
        "confidence": "medium",
        "official_boundary": false,
        "boundary_precision": "provisional_rough",
        "source_id": "DATA-SRC-PROVISIONAL-BOUNDARIES-20260605",
        "derived_from_source_ids": [
          "DATA-SRC-OFFICIAL-ANNOUNCEMENT-20260509"
        ],
        "usage_note": "概念性 provisional 几何，仅用于 AI agent 生成、展示和临时自检；不得作为 official redline、审批依据或精确面积复算依据；正式红线发布后须复算重绘。",
        "line_kind": "stitching_block",
        "stitch_lat": 39.9445,
        "alignment_status": "concept_only_not_engineering_alignment",
        "coord_source": "figures/scripts/fig04_mobility_bluegreen.py"
      },
      "geometry": {
        "type": "LineString",
        "coordinates": [
          [
            116.34054848,
            39.94445785
          ],
          [
            116.35530001,
            39.94454082
          ]
        ]
      }
    },
    {
      "type": "Feature",
      "id": "RD-401",
      "properties": {
        "id": "RD-401",
        "layer": "ROAD_CENTERLINE",
        "name_zh": "轨道站点节点·清华园（历史站址）（位置示意）",
        "name_en": "Rail Station Node - Qinghuayuan (historic station site) (indicative)",
        "geometry_role": "design_proposal",
        "source_type": "agent_inferred_from_public_data",
        "confidence": "medium",
        "official_boundary": false,
        "boundary_precision": "provisional_rough",
        "source_id": "DATA-SRC-PROVISIONAL-BOUNDARIES-20260605",
        "derived_from_source_ids": [
          "DATA-SRC-OFFICIAL-ANNOUNCEMENT-20260509"
        ],
        "usage_note": "概念性 provisional 几何，仅用于 AI agent 生成、展示和临时自检；不得作为 official redline、审批依据或精确面积复算依据；正式红线发布后须复算重绘。",
        "line_kind": "rail_station_node",
        "coord_source": "figures/scripts/fig04_mobility_bluegreen.py"
      },
      "geometry": {
        "type": "Point",
        "coordinates": [
          116.3456,
          40.024
        ]
      }
    },
    {
      "type": "Feature",
      "id": "RD-402",
      "properties": {
        "id": "RD-402",
        "layer": "ROAD_CENTERLINE",
        "name_zh": "轨道站点节点·五道口（位置示意）",
        "name_en": "Rail Station Node - Wudaokou (indicative)",
        "geometry_role": "design_proposal",
        "source_type": "agent_inferred_from_public_data",
        "confidence": "medium",
        "official_boundary": false,
        "boundary_precision": "provisional_rough",
        "source_id": "DATA-SRC-PROVISIONAL-BOUNDARIES-20260605",
        "derived_from_source_ids": [
          "DATA-SRC-OFFICIAL-ANNOUNCEMENT-20260509"
        ],
        "usage_note": "概念性 provisional 几何，仅用于 AI agent 生成、展示和临时自检；不得作为 official redline、审批依据或精确面积复算依据；正式红线发布后须复算重绘。",
        "line_kind": "rail_station_node",
        "coord_source": "figures/scripts/fig04_mobility_bluegreen.py"
      },
      "geometry": {
        "type": "Point",
        "coordinates": [
          116.3474,
          39.9925
        ]
      }
    },
    {
      "type": "Feature",
      "id": "RD-403",
      "properties": {
        "id": "RD-403",
        "layer": "ROAD_CENTERLINE",
        "name_zh": "轨道站点节点·知春路（位置示意）",
        "name_en": "Rail Station Node - Zhichunlu (indicative)",
        "geometry_role": "design_proposal",
        "source_type": "agent_inferred_from_public_data",
        "confidence": "medium",
        "official_boundary": false,
        "boundary_precision": "provisional_rough",
        "source_id": "DATA-SRC-PROVISIONAL-BOUNDARIES-20260605",
        "derived_from_source_ids": [
          "DATA-SRC-OFFICIAL-ANNOUNCEMENT-20260509"
        ],
        "usage_note": "概念性 provisional 几何，仅用于 AI agent 生成、展示和临时自检；不得作为 official redline、审批依据或精确面积复算依据；正式红线发布后须复算重绘。",
        "line_kind": "rail_station_node",
        "coord_source": "figures/scripts/fig04_mobility_bluegreen.py"
      },
      "geometry": {
        "type": "Point",
        "coordinates": [
          116.3493,
          39.968
        ]
      }
    },
    {
      "type": "Feature",
      "id": "RD-404",
      "properties": {
        "id": "RD-404",
        "layer": "ROAD_CENTERLINE",
        "name_zh": "轨道站点节点·大钟寺（位置示意）",
        "name_en": "Rail Station Node - Dazhongsi (indicative)",
        "geometry_role": "design_proposal",
        "source_type": "agent_inferred_from_public_data",
        "confidence": "medium",
        "official_boundary": false,
        "boundary_precision": "provisional_rough",
        "source_id": "DATA-SRC-PROVISIONAL-BOUNDARIES-20260605",
        "derived_from_source_ids": [
          "DATA-SRC-OFFICIAL-ANNOUNCEMENT-20260509"
        ],
        "usage_note": "概念性 provisional 几何，仅用于 AI agent 生成、展示和临时自检；不得作为 official redline、审批依据或精确面积复算依据；正式红线发布后须复算重绘。",
        "line_kind": "rail_station_node",
        "coord_source": "figures/scripts/fig04_mobility_bluegreen.py"
      },
      "geometry": {
        "type": "Point",
        "coordinates": [
          116.3498,
          39.948
        ]
      }
    }
  ]
}