{
  "type": "FeatureCollection",
  "name": "jzit_buildings",
  "features": [
    {
      "type": "Feature",
      "id": "BLDG-001",
      "properties": {
        "id": "BLDG-001",
        "layer": "BUILDING_FOOTPRINT",
        "source_type": "agent_generated_design",
        "confidence": "medium",
        "geometry_role": "design_proposal",
        "building_type": "ai_r_and_d",
        "name_zh": "众智园AI研发总部基地",
        "area_sqm_declared": 491781.771
      },
      "geometry": {
        "type": "Polygon",
        "coordinates": [
          [
            [
              116.34906,
              40.0265
            ],
            [
              116.35062,
              40.0265
            ],
            [
              116.35062,
              39.99325
            ],
            [
              116.34906,
              39.99325
            ],
            [
              116.34906,
              40.0265
            ]
          ]
        ]
      }
    },
    {
      "type": "Feature",
      "id": "BLDG-002",
      "properties": {
        "id": "BLDG-002",
        "layer": "BUILDING_FOOTPRINT",
        "source_type": "agent_generated_design",
        "confidence": "medium",
        "geometry_role": "design_proposal",
        "building_type": "lab",
        "name_zh": "全栈自主创新实验室群",
        "area_sqm_declared": 196712.715
      },
      "geometry": {
        "type": "Polygon",
        "coordinates": [
          [
            [
              116.349372,
              40.0265
            ],
            [
              116.349996,
              40.0265
            ],
            [
              116.349996,
              39.99325
            ],
            [
              116.349372,
              39.99325
            ],
            [
              116.349372,
              40.0265
            ]
          ]
        ]
      }
    },
    {
      "type": "Feature",
      "id": "BLDG-003",
      "properties": {
        "id": "BLDG-003",
        "layer": "BUILDING_FOOTPRINT",
        "source_type": "agent_generated_design",
        "confidence": "medium",
        "geometry_role": "design_proposal",
        "building_type": "incubator",
        "name_zh": "原点社区开源孵化器",
        "area_sqm_declared": 177823.906
      },
      "geometry": {
        "type": "Polygon",
        "coordinates": [
          [
            [
              116.3445,
              39.985
            ],
            [
              116.347,
              39.985
            ],
            [
              116.347,
              39.9925
            ],
            [
              116.3445,
              39.9925
            ],
            [
              116.3445,
              39.985
            ]
          ]
        ]
      }
    },
    {
      "type": "Feature",
      "id": "BLDG-004",
      "properties": {
        "id": "BLDG-004",
        "layer": "BUILDING_FOOTPRINT",
        "source_type": "agent_generated_design",
        "confidence": "medium",
        "geometry_role": "design_proposal",
        "building_type": "mixed_use",
        "name_zh": "大钟寺智能经济综合体",
        "area_sqm_declared": 166068.789
      },
      "geometry": {
        "type": "Polygon",
        "coordinates": [
          [
            [
              116.344,
              39.9445
            ],
            [
              116.3475,
              39.9445
            ],
            [
              116.3475,
              39.9495
            ],
            [
              116.344,
              39.9495
            ],
            [
              116.344,
              39.9445
            ]
          ]
        ]
      }
    },
    {
      "type": "Feature",
      "id": "BLDG-005",
      "properties": {
        "id": "BLDG-005",
        "layer": "BUILDING_FOOTPRINT",
        "source_type": "agent_generated_design",
        "confidence": "medium",
        "geometry_role": "design_proposal",
        "building_type": "cultural",
        "name_zh": "智轨文化展示馆",
        "area_sqm_declared": 142344.551
      },
      "geometry": {
        "type": "Polygon",
        "coordinates": [
          [
            [
              116.348,
              39.9445
            ],
            [
              116.351,
              39.9445
            ],
            [
              116.351,
              39.9495
            ],
            [
              116.348,
              39.9495
            ],
            [
              116.348,
              39.9445
            ]
          ]
        ]
      }
    },
    {
      "type": "Feature",
      "id": "BLDG-006",
      "properties": {
        "id": "BLDG-006",
        "layer": "BUILDING_FOOTPRINT",
        "source_type": "agent_generated_design",
        "confidence": "medium",
        "geometry_role": "design_proposal",
        "building_type": "talent_apartment",
        "name_zh": "AI人才公寓与社区服务",
        "area_sqm_declared": 243814.458
      },
      "geometry": {
        "type": "Polygon",
        "coordinates": [
          [
            [
              116.34048,
              39.98709
            ],
            [
              116.3417,
              40.006
            ],
            [
              116.341728,
              40.006574
            ],
            [
              116.341728,
              39.9761657
            ],
            [
              116.34048,
              39.9761657
            ],
            [
              116.34048,
              39.98709
            ]
          ]
        ]
      }
    }
  ]
}
