{
  "type": "FeatureCollection",
  "name": "jzit_public_space",
  "features": [
    {
      "type": "Feature",
      "id": "PUBLIC-001",
      "properties": {
        "id": "PUBLIC-001",
        "layer": "PUBLIC_SPACE",
        "source_type": "agent_generated_design",
        "confidence": "medium",
        "geometry_role": "design_proposal",
        "name_zh": "智轨客厅·公共活动核心",
        "area_sqm_declared": 1219959.436
      },
      "geometry": {
        "type": "Polygon",
        "coordinates": [
          [
            [
              116.35409,
              39.980125
            ],
            [
              116.3400306,
              39.980125
            ],
            [
              116.3406516,
              39.98975
            ],
            [
              116.35332,
              39.98975
            ],
            [
              116.35409,
              39.980125
            ]
          ]
        ]
      }
    },
    {
      "type": "Feature",
      "id": "PUBLIC-002",
      "properties": {
        "id": "PUBLIC-002",
        "layer": "PUBLIC_SPACE",
        "source_type": "agent_generated_design",
        "confidence": "medium",
        "geometry_role": "design_proposal",
        "name_zh": "众智园创新交往广场",
        "area_sqm_declared": 265447.892
      },
      "geometry": {
        "type": "Polygon",
        "coordinates": [
          [
            [
              116.345,
              40.012
            ],
            [
              116.349,
              40.012
            ],
            [
              116.349,
              40.019
            ],
            [
              116.345,
              40.019
            ],
            [
              116.345,
              40.012
            ]
          ]
        ]
      }
    },
    {
      "type": "Feature",
      "id": "PUBLIC-003",
      "properties": {
        "id": "PUBLIC-003",
        "layer": "PUBLIC_SPACE",
        "source_type": "agent_generated_design",
        "confidence": "medium",
        "geometry_role": "design_proposal",
        "name_zh": "大钟寺国际路演客厅",
        "area_sqm_declared": 213516.939
      },
      "geometry": {
        "type": "Polygon",
        "coordinates": [
          [
            [
              116.345,
              39.9445
            ],
            [
              116.3495,
              39.9445
            ],
            [
              116.3495,
              39.9495
            ],
            [
              116.345,
              39.9495
            ],
            [
              116.345,
              39.9445
            ]
          ]
        ]
      }
    }
  ]
}
