{
  "type": "FeatureCollection",
  "name": "jingzhang_life_line_buildings",
  "features": [
    {
      "type": "Feature",
      "id": "BLDG-001",
      "properties": {
        "id": "BLDG-001",
        "layer": "BUILDING_FOOTPRINT",
        "source_type": "agent_generated_design",
        "confidence": "low",
        "geometry_role": "design_proposal",
        "building_type": "ai_r_and_d",
        "name_zh": "可逆适应性改造候选载体",
        "name_en": "Reversible adaptive-reuse candidate envelope",
        "existing_status": "not_verified",
        "retain_renovate_demolish": "pending_field_structure_ownership_review",
        "assumption_ids": [
          "A-SITE-VERIFY-001",
          "A-CONTROLS-001"
        ],
        "area_sqm_declared": 7854.0
      },
      "geometry": {
        "type": "Polygon",
        "coordinates": [
          [
            [
              116.346216492,
              39.944781925
            ],
            [
              116.346210834,
              39.945376301
            ],
            [
              116.344818491,
              39.945368441
            ],
            [
              116.344824161,
              39.944774065
            ],
            [
              116.346216492,
              39.944781925
            ]
          ]
        ]
      }
    },
    {
      "type": "Feature",
      "id": "BLDG-002",
      "properties": {
        "id": "BLDG-002",
        "layer": "BUILDING_FOOTPRINT",
        "source_type": "agent_generated_design",
        "confidence": "low",
        "geometry_role": "design_proposal",
        "building_type": "lab",
        "name_zh": "可逆适应性改造候选载体",
        "name_en": "Reversible adaptive-reuse candidate envelope",
        "existing_status": "not_verified",
        "retain_renovate_demolish": "pending_field_structure_ownership_review",
        "assumption_ids": [
          "A-SITE-VERIFY-001",
          "A-CONTROLS-001"
        ],
        "area_sqm_declared": 7854.0
      },
      "geometry": {
        "type": "Polygon",
        "coordinates": [
          [
            [
              116.351013602,
              39.944808878
            ],
            [
              116.351007986,
              39.945403255
            ],
            [
              116.349615641,
              39.945395452
            ],
            [
              116.34962127,
              39.944801076
            ],
            [
              116.351013602,
              39.944808878
            ]
          ]
        ]
      }
    },
    {
      "type": "Feature",
      "id": "BLDG-003",
      "properties": {
        "id": "BLDG-003",
        "layer": "BUILDING_FOOTPRINT",
        "source_type": "agent_generated_design",
        "confidence": "low",
        "geometry_role": "design_proposal",
        "building_type": "incubator",
        "name_zh": "可逆适应性改造候选载体",
        "name_en": "Reversible adaptive-reuse candidate envelope",
        "existing_status": "not_verified",
        "retain_renovate_demolish": "pending_field_structure_ownership_review",
        "assumption_ids": [
          "A-SITE-VERIFY-001",
          "A-CONTROLS-001"
        ],
        "area_sqm_declared": 9842.0
      },
      "geometry": {
        "type": "Polygon",
        "coordinates": [
          [
            [
              116.346256851,
              39.947758581
            ],
            [
              116.346250507,
              39.948425003
            ],
            [
              116.34469429,
              39.948416216
            ],
            [
              116.344700649,
              39.947749795
            ],
            [
              116.346256851,
              39.947758581
            ]
          ]
        ]
      }
    },
    {
      "type": "Feature",
      "id": "BLDG-004",
      "properties": {
        "id": "BLDG-004",
        "layer": "BUILDING_FOOTPRINT",
        "source_type": "agent_generated_design",
        "confidence": "low",
        "geometry_role": "design_proposal",
        "building_type": "community_service",
        "name_zh": "可逆适应性改造候选载体",
        "name_en": "Reversible adaptive-reuse candidate envelope",
        "existing_status": "not_verified",
        "retain_renovate_demolish": "pending_field_structure_ownership_review",
        "assumption_ids": [
          "A-SITE-VERIFY-001",
          "A-CONTROLS-001"
        ],
        "area_sqm_declared": 9842.0
      },
      "geometry": {
        "type": "Polygon",
        "coordinates": [
          [
            [
              116.351054169,
              39.947785534
            ],
            [
              116.351047872,
              39.948451956
            ],
            [
              116.349491653,
              39.948443234
            ],
            [
              116.349497965,
              39.947776813
            ],
            [
              116.351054169,
              39.947785534
            ]
          ]
        ]
      }
    },
    {
      "type": "Feature",
      "id": "BLDG-005",
      "properties": {
        "id": "BLDG-005",
        "layer": "BUILDING_FOOTPRINT",
        "source_type": "agent_generated_design",
        "confidence": "low",
        "geometry_role": "design_proposal",
        "building_type": "mixed_use",
        "name_zh": "可逆适应性改造候选载体",
        "name_en": "Reversible adaptive-reuse candidate envelope",
        "existing_status": "not_verified",
        "retain_renovate_demolish": "pending_field_structure_ownership_review",
        "assumption_ids": [
          "A-SITE-VERIFY-001",
          "A-CONTROLS-001"
        ],
        "area_sqm_declared": 8610.0
      },
      "geometry": {
        "type": "Polygon",
        "coordinates": [
          [
            [
              116.346051484,
              39.95073385
            ],
            [
              116.346044452,
              39.951472316
            ],
            [
              116.344815805,
              39.951465379
            ],
            [
              116.344822851,
              39.950726913
            ],
            [
              116.346051484,
              39.95073385
            ]
          ]
        ]
      }
    },
    {
      "type": "Feature",
      "id": "BLDG-006",
      "properties": {
        "id": "BLDG-006",
        "layer": "BUILDING_FOOTPRINT",
        "source_type": "agent_generated_design",
        "confidence": "low",
        "geometry_role": "design_proposal",
        "building_type": "cultural",
        "name_zh": "可逆适应性改造候选载体",
        "name_en": "Reversible adaptive-reuse candidate envelope",
        "existing_status": "not_verified",
        "retain_renovate_demolish": "pending_field_structure_ownership_review",
        "assumption_ids": [
          "A-SITE-VERIFY-001",
          "A-CONTROLS-001"
        ],
        "area_sqm_declared": 8610.0
      },
      "geometry": {
        "type": "Polygon",
        "coordinates": [
          [
            [
              116.35084901,
              39.950760813
            ],
            [
              116.350842029,
              39.95149928
            ],
            [
              116.349613381,
              39.951492393
            ],
            [
              116.349620375,
              39.950753926
            ],
            [
              116.35084901,
              39.950760813
            ]
          ]
        ]
      }
    },
    {
      "type": "Feature",
      "id": "BLDG-007",
      "properties": {
        "id": "BLDG-007",
        "layer": "BUILDING_FOOTPRINT",
        "source_type": "agent_generated_design",
        "confidence": "low",
        "geometry_role": "design_proposal",
        "building_type": "ai_r_and_d",
        "name_zh": "可逆适应性改造候选载体",
        "name_en": "Reversible adaptive-reuse candidate envelope",
        "existing_status": "not_verified",
        "retain_renovate_demolish": "pending_field_structure_ownership_review",
        "assumption_ids": [
          "A-SITE-VERIFY-001",
          "A-CONTROLS-001"
        ],
        "area_sqm_declared": 6902.0
      },
      "geometry": {
        "type": "Polygon",
        "coordinates": [
          [
            [
              116.346090463,
              39.953854593
            ],
            [
              116.346085489,
              39.954376923
            ],
            [
              116.344692964,
              39.95436906
            ],
            [
              116.344697949,
              39.95384673
            ],
            [
              116.346090463,
              39.953854593
            ]
          ]
        ]
      }
    },
    {
      "type": "Feature",
      "id": "BLDG-008",
      "properties": {
        "id": "BLDG-008",
        "layer": "BUILDING_FOOTPRINT",
        "source_type": "agent_generated_design",
        "confidence": "low",
        "geometry_role": "design_proposal",
        "building_type": "lab",
        "name_zh": "可逆适应性改造候选载体",
        "name_en": "Reversible adaptive-reuse candidate envelope",
        "existing_status": "not_verified",
        "retain_renovate_demolish": "pending_field_structure_ownership_review",
        "assumption_ids": [
          "A-SITE-VERIFY-001",
          "A-CONTROLS-001"
        ],
        "area_sqm_declared": 6902.0
      },
      "geometry": {
        "type": "Polygon",
        "coordinates": [
          [
            [
              116.350888207,
              39.953881556
            ],
            [
              116.350883269,
              39.954403887
            ],
            [
              116.349490742,
              39.954396081
            ],
            [
              116.349495691,
              39.953873751
            ],
            [
              116.350888207,
              39.953881556
            ]
          ]
        ]
      }
    },
    {
      "type": "Feature",
      "id": "BLDG-009",
      "properties": {
        "id": "BLDG-009",
        "layer": "BUILDING_FOOTPRINT",
        "source_type": "agent_generated_design",
        "confidence": "low",
        "geometry_role": "design_proposal",
        "building_type": "incubator",
        "name_zh": "可逆适应性改造候选载体",
        "name_en": "Reversible adaptive-reuse candidate envelope",
        "existing_status": "not_verified",
        "retain_renovate_demolish": "pending_field_structure_ownership_review",
        "assumption_ids": [
          "A-SITE-VERIFY-001",
          "A-CONTROLS-001"
        ],
        "area_sqm_declared": 8778.0
      },
      "geometry": {
        "type": "Polygon",
        "coordinates": [
          [
            [
              116.346130817,
              39.956831245
            ],
            [
              116.346125156,
              39.957425619
            ],
            [
              116.344568735,
              39.95741683
            ],
            [
              116.344574409,
              39.956822455
            ],
            [
              116.346130817,
              39.956831245
            ]
          ]
        ]
      }
    },
    {
      "type": "Feature",
      "id": "BLDG-010",
      "properties": {
        "id": "BLDG-010",
        "layer": "BUILDING_FOOTPRINT",
        "source_type": "agent_generated_design",
        "confidence": "low",
        "geometry_role": "design_proposal",
        "building_type": "community_service",
        "name_zh": "可逆适应性改造候选载体",
        "name_en": "Reversible adaptive-reuse candidate envelope",
        "existing_status": "not_verified",
        "retain_renovate_demolish": "pending_field_structure_ownership_review",
        "assumption_ids": [
          "A-SITE-VERIFY-001",
          "A-CONTROLS-001"
        ],
        "area_sqm_declared": 8778.0
      },
      "geometry": {
        "type": "Polygon",
        "coordinates": [
          [
            [
              116.350928769,
              39.956858208
            ],
            [
              116.350923149,
              39.957452583
            ],
            [
              116.349366726,
              39.957443858
            ],
            [
              116.349372359,
              39.956849483
            ],
            [
              116.350928769,
              39.956858208
            ]
          ]
        ]
      }
    },
    {
      "type": "Feature",
      "id": "BLDG-011",
      "properties": {
        "id": "BLDG-011",
        "layer": "BUILDING_FOOTPRINT",
        "source_type": "agent_generated_design",
        "confidence": "low",
        "geometry_role": "design_proposal",
        "building_type": "mixed_use",
        "name_zh": "可逆适应性改造候选载体",
        "name_en": "Reversible adaptive-reuse candidate envelope",
        "existing_status": "not_verified",
        "retain_renovate_demolish": "pending_field_structure_ownership_review",
        "assumption_ids": [
          "A-SITE-VERIFY-001",
          "A-CONTROLS-001"
        ],
        "area_sqm_declared": 7770.0
      },
      "geometry": {
        "type": "Polygon",
        "coordinates": [
          [
            [
              116.345925412,
              39.959806508
            ],
            [
              116.345919062,
              39.960472928
            ],
            [
              116.344690255,
              39.960465988
            ],
            [
              116.344696616,
              39.959799568
            ],
            [
              116.345925412,
              39.959806508
            ]
          ]
        ]
      }
    },
    {
      "type": "Feature",
      "id": "BLDG-012",
      "properties": {
        "id": "BLDG-012",
        "layer": "BUILDING_FOOTPRINT",
        "source_type": "agent_generated_design",
        "confidence": "low",
        "geometry_role": "design_proposal",
        "building_type": "cultural",
        "name_zh": "可逆适应性改造候选载体",
        "name_en": "Reversible adaptive-reuse candidate envelope",
        "existing_status": "not_verified",
        "retain_renovate_demolish": "pending_field_structure_ownership_review",
        "assumption_ids": [
          "A-SITE-VERIFY-001",
          "A-CONTROLS-001"
        ],
        "area_sqm_declared": 7770.0
      },
      "geometry": {
        "type": "Polygon",
        "coordinates": [
          [
            [
              116.350723572,
              39.959833481
            ],
            [
              116.350717269,
              39.960499901
            ],
            [
              116.349488459,
              39.960493012
            ],
            [
              116.349494774,
              39.959826592
            ],
            [
              116.350723572,
              39.959833481
            ]
          ]
        ]
      }
    },
    {
      "type": "Feature",
      "id": "BLDG-013",
      "properties": {
        "id": "BLDG-013",
        "layer": "BUILDING_FOOTPRINT",
        "source_type": "agent_generated_design",
        "confidence": "low",
        "geometry_role": "design_proposal",
        "building_type": "ai_r_and_d",
        "name_zh": "可逆适应性改造候选载体",
        "name_en": "Reversible adaptive-reuse candidate envelope",
        "existing_status": "not_verified",
        "retain_renovate_demolish": "pending_field_structure_ownership_review",
        "assumption_ids": [
          "A-SITE-VERIFY-001",
          "A-CONTROLS-001"
        ],
        "area_sqm_declared": 9758.0
      },
      "geometry": {
        "type": "Polygon",
        "coordinates": [
          [
            [
              116.345965758,
              39.962783156
            ],
            [
              116.345958722,
              39.963521621
            ],
            [
              116.344566011,
              39.963513755
            ],
            [
              116.344573062,
              39.96277529
            ],
            [
              116.345965758,
              39.962783156
            ]
          ]
        ]
      }
    },
    {
      "type": "Feature",
      "id": "BLDG-014",
      "properties": {
        "id": "BLDG-014",
        "layer": "BUILDING_FOOTPRINT",
        "source_type": "agent_generated_design",
        "confidence": "low",
        "geometry_role": "design_proposal",
        "building_type": "lab",
        "name_zh": "可逆适应性改造候选载体",
        "name_en": "Reversible adaptive-reuse candidate envelope",
        "existing_status": "not_verified",
        "retain_renovate_demolish": "pending_field_structure_ownership_review",
        "assumption_ids": [
          "A-SITE-VERIFY-001",
          "A-CONTROLS-001"
        ],
        "area_sqm_declared": 9758.0
      },
      "geometry": {
        "type": "Polygon",
        "coordinates": [
          [
            [
              116.350764126,
              39.962810129
            ],
            [
              116.350757141,
              39.963548595
            ],
            [
              116.349364428,
              39.963540786
            ],
            [
              116.349371428,
              39.962802321
            ],
            [
              116.350764126,
              39.962810129
            ]
          ]
        ]
      }
    },
    {
      "type": "Feature",
      "id": "BLDG-015",
      "properties": {
        "id": "BLDG-015",
        "layer": "BUILDING_FOOTPRINT",
        "source_type": "agent_generated_design",
        "confidence": "low",
        "geometry_role": "design_proposal",
        "building_type": "incubator",
        "name_zh": "可逆适应性改造候选载体",
        "name_en": "Reversible adaptive-reuse candidate envelope",
        "existing_status": "not_verified",
        "retain_renovate_demolish": "pending_field_structure_ownership_review",
        "assumption_ids": [
          "A-SITE-VERIFY-001",
          "A-CONTROLS-001"
        ],
        "area_sqm_declared": 7714.0
      },
      "geometry": {
        "type": "Polygon",
        "coordinates": [
          [
            [
              116.345956089,
              39.965903619
            ],
            [
              116.345951111,
              39.966425947
            ],
            [
              116.344394487,
              39.966417154
            ],
            [
              116.344399476,
              39.965894826
            ],
            [
              116.345956089,
              39.965903619
            ]
          ]
        ]
      }
    },
    {
      "type": "Feature",
      "id": "BLDG-016",
      "properties": {
        "id": "BLDG-016",
        "layer": "BUILDING_FOOTPRINT",
        "source_type": "agent_generated_design",
        "confidence": "low",
        "geometry_role": "design_proposal",
        "building_type": "community_service",
        "name_zh": "可逆适应性改造候选载体",
        "name_en": "Reversible adaptive-reuse candidate envelope",
        "existing_status": "not_verified",
        "retain_renovate_demolish": "pending_field_structure_ownership_review",
        "assumption_ids": [
          "A-SITE-VERIFY-001",
          "A-CONTROLS-001"
        ],
        "area_sqm_declared": 7714.0
      },
      "geometry": {
        "type": "Polygon",
        "coordinates": [
          [
            [
              116.350754675,
              39.965930594
            ],
            [
              116.350749734,
              39.966452923
            ],
            [
              116.349193107,
              39.966444194
            ],
            [
              116.34919806,
              39.965921865
            ],
            [
              116.350754675,
              39.965930594
            ]
          ]
        ]
      }
    },
    {
      "type": "Feature",
      "id": "BLDG-017",
      "properties": {
        "id": "BLDG-017",
        "layer": "BUILDING_FOOTPRINT",
        "source_type": "agent_generated_design",
        "confidence": "low",
        "geometry_role": "design_proposal",
        "building_type": "mixed_use",
        "name_zh": "可逆适应性改造候选载体",
        "name_en": "Reversible adaptive-reuse candidate envelope",
        "existing_status": "not_verified",
        "retain_renovate_demolish": "pending_field_structure_ownership_review",
        "assumption_ids": [
          "A-SITE-VERIFY-001",
          "A-CONTROLS-001"
        ],
        "area_sqm_declared": 6930.0
      },
      "geometry": {
        "type": "Polygon",
        "coordinates": [
          [
            [
              116.345630246,
              39.968878197
            ],
            [
              116.345624578,
              39.969472571
            ],
            [
              116.344395609,
              39.969465626
            ],
            [
              116.344401287,
              39.968871253
            ],
            [
              116.345630246,
              39.968878197
            ]
          ]
        ]
      }
    },
    {
      "type": "Feature",
      "id": "BLDG-018",
      "properties": {
        "id": "BLDG-018",
        "layer": "BUILDING_FOOTPRINT",
        "source_type": "agent_generated_design",
        "confidence": "low",
        "geometry_role": "design_proposal",
        "building_type": "cultural",
        "name_zh": "可逆适应性改造候选载体",
        "name_en": "Reversible adaptive-reuse candidate envelope",
        "existing_status": "not_verified",
        "retain_renovate_demolish": "pending_field_structure_ownership_review",
        "assumption_ids": [
          "A-SITE-VERIFY-001",
          "A-CONTROLS-001"
        ],
        "area_sqm_declared": 6930.0
      },
      "geometry": {
        "type": "Polygon",
        "coordinates": [
          [
            [
              116.350429039,
              39.968905188
            ],
            [
              116.350423413,
              39.969499562
            ],
            [
              116.349194443,
              39.969492668
            ],
            [
              116.349200079,
              39.968898294
            ],
            [
              116.350429039,
              39.968905188
            ]
          ]
        ]
      }
    },
    {
      "type": "Feature",
      "id": "BLDG-019",
      "properties": {
        "id": "BLDG-019",
        "layer": "BUILDING_FOOTPRINT",
        "source_type": "agent_generated_design",
        "confidence": "low",
        "geometry_role": "design_proposal",
        "building_type": "ai_r_and_d",
        "name_zh": "可逆适应性改造候选载体",
        "name_en": "Reversible adaptive-reuse candidate envelope",
        "existing_status": "not_verified",
        "retain_renovate_demolish": "pending_field_structure_ownership_review",
        "assumption_ids": [
          "A-SITE-VERIFY-001",
          "A-CONTROLS-001"
        ],
        "area_sqm_declared": 8806.0
      },
      "geometry": {
        "type": "Polygon",
        "coordinates": [
          [
            [
              116.345550175,
              39.971854161
            ],
            [
              116.345543818,
              39.972520579
            ],
            [
              116.344150925,
              39.972512707
            ],
            [
              116.344157295,
              39.971846289
            ],
            [
              116.345550175,
              39.971854161
            ]
          ]
        ]
      }
    },
    {
      "type": "Feature",
      "id": "BLDG-020",
      "properties": {
        "id": "BLDG-020",
        "layer": "BUILDING_FOOTPRINT",
        "source_type": "agent_generated_design",
        "confidence": "low",
        "geometry_role": "design_proposal",
        "building_type": "lab",
        "name_zh": "可逆适应性改造候选载体",
        "name_en": "Reversible adaptive-reuse candidate envelope",
        "existing_status": "not_verified",
        "retain_renovate_demolish": "pending_field_structure_ownership_review",
        "assumption_ids": [
          "A-SITE-VERIFY-001",
          "A-CONTROLS-001"
        ],
        "area_sqm_declared": 8806.0
      },
      "geometry": {
        "type": "Polygon",
        "coordinates": [
          [
            [
              116.350349176,
              39.971881157
            ],
            [
              116.350342867,
              39.972547576
            ],
            [
              116.348949972,
              39.972539761
            ],
            [
              116.348956295,
              39.971873342
            ],
            [
              116.350349176,
              39.971881157
            ]
          ]
        ]
      }
    },
    {
      "type": "Feature",
      "id": "BLDG-021",
      "properties": {
        "id": "BLDG-021",
        "layer": "BUILDING_FOOTPRINT",
        "source_type": "agent_generated_design",
        "confidence": "low",
        "geometry_role": "design_proposal",
        "building_type": "incubator",
        "name_zh": "可逆适应性改造候选载体",
        "name_en": "Reversible adaptive-reuse candidate envelope",
        "existing_status": "not_verified",
        "retain_renovate_demolish": "pending_field_structure_ownership_review",
        "assumption_ids": [
          "A-SITE-VERIFY-001",
          "A-CONTROLS-001"
        ],
        "area_sqm_declared": 10906.0
      },
      "geometry": {
        "type": "Polygon",
        "coordinates": [
          [
            [
              116.345477786,
              39.974830167
            ],
            [
              116.345470741,
              39.97556863
            ],
            [
              116.343913909,
              39.975559828
            ],
            [
              116.343920971,
              39.974821366
            ],
            [
              116.345477786,
              39.974830167
            ]
          ]
        ]
      }
    },
    {
      "type": "Feature",
      "id": "BLDG-022",
      "properties": {
        "id": "BLDG-022",
        "layer": "BUILDING_FOOTPRINT",
        "source_type": "agent_generated_design",
        "confidence": "low",
        "geometry_role": "design_proposal",
        "building_type": "community_service",
        "name_zh": "可逆适应性改造候选载体",
        "name_en": "Reversible adaptive-reuse candidate envelope",
        "existing_status": "not_verified",
        "retain_renovate_demolish": "pending_field_structure_ownership_review",
        "assumption_ids": [
          "A-SITE-VERIFY-001",
          "A-CONTROLS-001"
        ],
        "area_sqm_declared": 10906.0
      },
      "geometry": {
        "type": "Polygon",
        "coordinates": [
          [
            [
              116.350276996,
              39.974857167
            ],
            [
              116.350270003,
              39.975595631
            ],
            [
              116.348713168,
              39.975586894
            ],
            [
              116.348720178,
              39.97484843
            ],
            [
              116.350276996,
              39.974857167
            ]
          ]
        ]
      }
    },
    {
      "type": "Feature",
      "id": "BLDG-023",
      "properties": {
        "id": "BLDG-023",
        "layer": "BUILDING_FOOTPRINT",
        "source_type": "agent_generated_design",
        "confidence": "low",
        "geometry_role": "design_proposal",
        "building_type": "mixed_use",
        "name_zh": "可逆适应性改造候选载体",
        "name_en": "Reversible adaptive-reuse candidate envelope",
        "existing_status": "not_verified",
        "retain_renovate_demolish": "pending_field_structure_ownership_review",
        "assumption_ids": [
          "A-SITE-VERIFY-001",
          "A-CONTROLS-001"
        ],
        "area_sqm_declared": 6090.0
      },
      "geometry": {
        "type": "Polygon",
        "coordinates": [
          [
            [
              116.345289537,
              39.977949615
            ],
            [
              116.345284552,
              39.978471942
            ],
            [
              116.344055422,
              39.978464993
            ],
            [
              116.344060416,
              39.977942665
            ],
            [
              116.345289537,
              39.977949615
            ]
          ]
        ]
      }
    },
    {
      "type": "Feature",
      "id": "BLDG-024",
      "properties": {
        "id": "BLDG-024",
        "layer": "BUILDING_FOOTPRINT",
        "source_type": "agent_generated_design",
        "confidence": "low",
        "geometry_role": "design_proposal",
        "building_type": "cultural",
        "name_zh": "可逆适应性改造候选载体",
        "name_en": "Reversible adaptive-reuse candidate envelope",
        "existing_status": "not_verified",
        "retain_renovate_demolish": "pending_field_structure_ownership_review",
        "assumption_ids": [
          "A-SITE-VERIFY-001",
          "A-CONTROLS-001"
        ],
        "area_sqm_declared": 6090.0
      },
      "geometry": {
        "type": "Polygon",
        "coordinates": [
          [
            [
              116.350088964,
              39.977976624
            ],
            [
              116.350084016,
              39.978498952
            ],
            [
              116.348854884,
              39.978492054
            ],
            [
              116.348859842,
              39.977969726
            ],
            [
              116.350088964,
              39.977976624
            ]
          ]
        ]
      }
    },
    {
      "type": "Feature",
      "id": "BLDG-025",
      "properties": {
        "id": "BLDG-025",
        "layer": "BUILDING_FOOTPRINT",
        "source_type": "agent_generated_design",
        "confidence": "low",
        "geometry_role": "design_proposal",
        "building_type": "ai_r_and_d",
        "name_zh": "可逆适应性改造候选载体",
        "name_en": "Reversible adaptive-reuse candidate envelope",
        "existing_status": "not_verified",
        "retain_renovate_demolish": "pending_field_structure_ownership_review",
        "assumption_ids": [
          "A-SITE-VERIFY-001",
          "A-CONTROLS-001"
        ],
        "area_sqm_declared": 7854.0
      },
      "geometry": {
        "type": "Polygon",
        "coordinates": [
          [
            [
              116.345348479,
              39.980926359
            ],
            [
              116.345342806,
              39.981520731
            ],
            [
              116.34394973,
              39.981512854
            ],
            [
              116.343955415,
              39.980918482
            ],
            [
              116.345348479,
              39.980926359
            ]
          ]
        ]
      }
    },
    {
      "type": "Feature",
      "id": "BLDG-026",
      "properties": {
        "id": "BLDG-026",
        "layer": "BUILDING_FOOTPRINT",
        "source_type": "agent_generated_design",
        "confidence": "low",
        "geometry_role": "design_proposal",
        "building_type": "lab",
        "name_zh": "可逆适应性改造候选载体",
        "name_en": "Reversible adaptive-reuse candidate envelope",
        "existing_status": "not_verified",
        "retain_renovate_demolish": "pending_field_structure_ownership_review",
        "assumption_ids": [
          "A-SITE-VERIFY-001",
          "A-CONTROLS-001"
        ],
        "area_sqm_declared": 7854.0
      },
      "geometry": {
        "type": "Polygon",
        "coordinates": [
          [
            [
              116.350148115,
              39.980953367
            ],
            [
              116.350142484,
              39.98154774
            ],
            [
              116.348749406,
              39.981539921
            ],
            [
              116.348755049,
              39.980945549
            ],
            [
              116.350148115,
              39.980953367
            ]
          ]
        ]
      }
    },
    {
      "type": "Feature",
      "id": "BLDG-027",
      "properties": {
        "id": "BLDG-027",
        "layer": "BUILDING_FOOTPRINT",
        "source_type": "agent_generated_design",
        "confidence": "low",
        "geometry_role": "design_proposal",
        "building_type": "incubator",
        "name_zh": "可逆适应性改造候选载体",
        "name_en": "Reversible adaptive-reuse candidate envelope",
        "existing_status": "not_verified",
        "retain_renovate_demolish": "pending_field_structure_ownership_review",
        "assumption_ids": [
          "A-SITE-VERIFY-001",
          "A-CONTROLS-001"
        ],
        "area_sqm_declared": 9842.0
      },
      "geometry": {
        "type": "Polygon",
        "coordinates": [
          [
            [
              116.345407424,
              39.983903101
            ],
            [
              116.345401064,
              39.984569518
            ],
            [
              116.343844028,
              39.984560714
            ],
            [
              116.343850403,
              39.983894297
            ],
            [
              116.345407424,
              39.983903101
            ]
          ]
        ]
      }
    },
    {
      "type": "Feature",
      "id": "BLDG-028",
      "properties": {
        "id": "BLDG-028",
        "layer": "BUILDING_FOOTPRINT",
        "source_type": "agent_generated_design",
        "confidence": "low",
        "geometry_role": "design_proposal",
        "building_type": "community_service",
        "name_zh": "可逆适应性改造候选载体",
        "name_en": "Reversible adaptive-reuse candidate envelope",
        "existing_status": "not_verified",
        "retain_renovate_demolish": "pending_field_structure_ownership_review",
        "assumption_ids": [
          "A-SITE-VERIFY-001",
          "A-CONTROLS-001"
        ],
        "area_sqm_declared": 9842.0
      },
      "geometry": {
        "type": "Polygon",
        "coordinates": [
          [
            [
              116.350207269,
              39.983930109
            ],
            [
              116.350200955,
              39.984596527
            ],
            [
              116.348643917,
              39.984587787
            ],
            [
              116.348650245,
              39.98392137
            ],
            [
              116.350207269,
              39.983930109
            ]
          ]
        ]
      }
    },
    {
      "type": "Feature",
      "id": "BLDG-029",
      "properties": {
        "id": "BLDG-029",
        "layer": "BUILDING_FOOTPRINT",
        "source_type": "agent_generated_design",
        "confidence": "low",
        "geometry_role": "design_proposal",
        "building_type": "mixed_use",
        "name_zh": "可逆适应性改造候选载体",
        "name_en": "Reversible adaptive-reuse candidate envelope",
        "existing_status": "not_verified",
        "retain_renovate_demolish": "pending_field_structure_ownership_review",
        "assumption_ids": [
          "A-SITE-VERIFY-001",
          "A-CONTROLS-001"
        ],
        "area_sqm_declared": 8610.0
      },
      "geometry": {
        "type": "Polygon",
        "coordinates": [
          [
            [
              116.345220517,
              39.986878454
            ],
            [
              116.345213466,
              39.987616915
            ],
            [
              116.343984173,
              39.987609964
            ],
            [
              116.343991236,
              39.986871503
            ],
            [
              116.345220517,
              39.986878454
            ]
          ]
        ]
      }
    },
    {
      "type": "Feature",
      "id": "BLDG-030",
      "properties": {
        "id": "BLDG-030",
        "layer": "BUILDING_FOOTPRINT",
        "source_type": "agent_generated_design",
        "confidence": "low",
        "geometry_role": "design_proposal",
        "building_type": "cultural",
        "name_zh": "可逆适应性改造候选载体",
        "name_en": "Reversible adaptive-reuse candidate envelope",
        "existing_status": "not_verified",
        "retain_renovate_demolish": "pending_field_structure_ownership_review",
        "assumption_ids": [
          "A-SITE-VERIFY-001",
          "A-CONTROLS-001"
        ],
        "area_sqm_declared": 8610.0
      },
      "geometry": {
        "type": "Polygon",
        "coordinates": [
          [
            [
              116.35002057,
              39.986905471
            ],
            [
              116.350013571,
              39.987643934
            ],
            [
              116.348784275,
              39.987637033
            ],
            [
              116.348791287,
              39.986898571
            ],
            [
              116.35002057,
              39.986905471
            ]
          ]
        ]
      }
    },
    {
      "type": "Feature",
      "id": "BLDG-031",
      "properties": {
        "id": "BLDG-031",
        "layer": "BUILDING_FOOTPRINT",
        "source_type": "agent_generated_design",
        "confidence": "low",
        "geometry_role": "design_proposal",
        "building_type": "ai_r_and_d",
        "name_zh": "可逆适应性改造候选载体",
        "name_en": "Reversible adaptive-reuse candidate envelope",
        "existing_status": "not_verified",
        "retain_renovate_demolish": "pending_field_structure_ownership_review",
        "assumption_ids": [
          "A-SITE-VERIFY-001",
          "A-CONTROLS-001"
        ],
        "area_sqm_declared": 6902.0
      },
      "geometry": {
        "type": "Polygon",
        "coordinates": [
          [
            [
              116.345298671,
              39.9899994
            ],
            [
              116.345293684,
              39.990521726
            ],
            [
              116.343900425,
              39.990513847
            ],
            [
              116.343905422,
              39.989991521
            ],
            [
              116.345298671,
              39.9899994
            ]
          ]
        ]
      }
    },
    {
      "type": "Feature",
      "id": "BLDG-032",
      "properties": {
        "id": "BLDG-032",
        "layer": "BUILDING_FOOTPRINT",
        "source_type": "agent_generated_design",
        "confidence": "low",
        "geometry_role": "design_proposal",
        "building_type": "lab",
        "name_zh": "可逆适应性改造候选载体",
        "name_en": "Reversible adaptive-reuse candidate envelope",
        "existing_status": "not_verified",
        "retain_renovate_demolish": "pending_field_structure_ownership_review",
        "assumption_ids": [
          "A-SITE-VERIFY-001",
          "A-CONTROLS-001"
        ],
        "area_sqm_declared": 6902.0
      },
      "geometry": {
        "type": "Polygon",
        "coordinates": [
          [
            [
              116.350098942,
              39.990026416
            ],
            [
              116.350093991,
              39.990548742
            ],
            [
              116.348700731,
              39.990540922
            ],
            [
              116.348705692,
              39.990018595
            ],
            [
              116.350098942,
              39.990026416
            ]
          ]
        ]
      }
    },
    {
      "type": "Feature",
      "id": "BLDG-033",
      "properties": {
        "id": "BLDG-033",
        "layer": "BUILDING_FOOTPRINT",
        "source_type": "agent_generated_design",
        "confidence": "low",
        "geometry_role": "design_proposal",
        "building_type": "incubator",
        "name_zh": "可逆适应性改造候选载体",
        "name_en": "Reversible adaptive-reuse candidate envelope",
        "existing_status": "not_verified",
        "retain_renovate_demolish": "pending_field_structure_ownership_review",
        "assumption_ids": [
          "A-SITE-VERIFY-001",
          "A-CONTROLS-001"
        ],
        "area_sqm_declared": 8778.0
      },
      "geometry": {
        "type": "Polygon",
        "coordinates": [
          [
            [
              116.345560635,
              39.992977284
            ],
            [
              116.345554962,
              39.993571655
            ],
            [
              116.343997721,
              39.993562852
            ],
            [
              116.344003408,
              39.992968481
            ],
            [
              116.345560635,
              39.992977284
            ]
          ]
        ]
      }
    },
    {
      "type": "Feature",
      "id": "BLDG-034",
      "properties": {
        "id": "BLDG-034",
        "layer": "BUILDING_FOOTPRINT",
        "source_type": "agent_generated_design",
        "confidence": "low",
        "geometry_role": "design_proposal",
        "building_type": "community_service",
        "name_zh": "可逆适应性改造候选载体",
        "name_en": "Reversible adaptive-reuse candidate envelope",
        "existing_status": "not_verified",
        "retain_renovate_demolish": "pending_field_structure_ownership_review",
        "assumption_ids": [
          "A-SITE-VERIFY-001",
          "A-CONTROLS-001"
        ],
        "area_sqm_declared": 8778.0
      },
      "geometry": {
        "type": "Polygon",
        "coordinates": [
          [
            [
              116.350361115,
              39.993004291
            ],
            [
              116.350355483,
              39.993598663
            ],
            [
              116.34879824,
              39.993589923
            ],
            [
              116.348803885,
              39.992995552
            ],
            [
              116.350361115,
              39.993004291
            ]
          ]
        ]
      }
    },
    {
      "type": "Feature",
      "id": "BLDG-035",
      "properties": {
        "id": "BLDG-035",
        "layer": "BUILDING_FOOTPRINT",
        "source_type": "agent_generated_design",
        "confidence": "low",
        "geometry_role": "design_proposal",
        "building_type": "mixed_use",
        "name_zh": "可逆适应性改造候选载体",
        "name_en": "Reversible adaptive-reuse candidate envelope",
        "existing_status": "not_verified",
        "retain_renovate_demolish": "pending_field_structure_ownership_review",
        "assumption_ids": [
          "A-SITE-VERIFY-001",
          "A-CONTROLS-001"
        ],
        "area_sqm_declared": 7770.0
      },
      "geometry": {
        "type": "Polygon",
        "coordinates": [
          [
            [
              116.345576732,
              39.995953779
            ],
            [
              116.34557037,
              39.996620194
            ],
            [
              116.344340915,
              39.996613246
            ],
            [
              116.344347288,
              39.99594683
            ],
            [
              116.345576732,
              39.995953779
            ]
          ]
        ]
      }
    },
    {
      "type": "Feature",
      "id": "BLDG-036",
      "properties": {
        "id": "BLDG-036",
        "layer": "BUILDING_FOOTPRINT",
        "source_type": "agent_generated_design",
        "confidence": "low",
        "geometry_role": "design_proposal",
        "building_type": "cultural",
        "name_zh": "可逆适应性改造候选载体",
        "name_en": "Reversible adaptive-reuse candidate envelope",
        "existing_status": "not_verified",
        "retain_renovate_demolish": "pending_field_structure_ownership_review",
        "assumption_ids": [
          "A-SITE-VERIFY-001",
          "A-CONTROLS-001"
        ],
        "area_sqm_declared": 7770.0
      },
      "geometry": {
        "type": "Polygon",
        "coordinates": [
          [
            [
              116.35037742,
              39.995980787
            ],
            [
              116.350371105,
              39.996647203
            ],
            [
              116.349141648,
              39.996640305
            ],
            [
              116.349147975,
              39.995973889
            ],
            [
              116.35037742,
              39.995980787
            ]
          ]
        ]
      }
    },
    {
      "type": "Feature",
      "id": "BLDG-037",
      "properties": {
        "id": "BLDG-037",
        "layer": "BUILDING_FOOTPRINT",
        "source_type": "agent_generated_design",
        "confidence": "low",
        "geometry_role": "design_proposal",
        "building_type": "ai_r_and_d",
        "name_zh": "可逆适应性改造候选载体",
        "name_en": "Reversible adaptive-reuse candidate envelope",
        "existing_status": "not_verified",
        "retain_renovate_demolish": "pending_field_structure_ownership_review",
        "assumption_ids": [
          "A-SITE-VERIFY-001",
          "A-CONTROLS-001"
        ],
        "area_sqm_declared": 9758.0
      },
      "geometry": {
        "type": "Polygon",
        "coordinates": [
          [
            [
              116.345838727,
              39.99893166
            ],
            [
              116.34583168,
              39.99967012
            ],
            [
              116.344438236,
              39.999662247
            ],
            [
              116.344445298,
              39.998923787
            ],
            [
              116.345838727,
              39.99893166
            ]
          ]
        ]
      }
    },
    {
      "type": "Feature",
      "id": "BLDG-038",
      "properties": {
        "id": "BLDG-038",
        "layer": "BUILDING_FOOTPRINT",
        "source_type": "agent_generated_design",
        "confidence": "low",
        "geometry_role": "design_proposal",
        "building_type": "lab",
        "name_zh": "可逆适应性改造候选载体",
        "name_en": "Reversible adaptive-reuse candidate envelope",
        "existing_status": "not_verified",
        "retain_renovate_demolish": "pending_field_structure_ownership_review",
        "assumption_ids": [
          "A-SITE-VERIFY-001",
          "A-CONTROLS-001"
        ],
        "area_sqm_declared": 9758.0
      },
      "geometry": {
        "type": "Polygon",
        "coordinates": [
          [
            [
              116.350639624,
              39.998958659
            ],
            [
              116.350632629,
              39.999697119
            ],
            [
              116.349239182,
              39.999689304
            ],
            [
              116.349246193,
              39.998950843
            ],
            [
              116.350639624,
              39.998958659
            ]
          ]
        ]
      }
    },
    {
      "type": "Feature",
      "id": "BLDG-039",
      "properties": {
        "id": "BLDG-039",
        "layer": "BUILDING_FOOTPRINT",
        "source_type": "agent_generated_design",
        "confidence": "low",
        "geometry_role": "design_proposal",
        "building_type": "incubator",
        "name_zh": "可逆适应性改造候选载体",
        "name_en": "Reversible adaptive-reuse candidate envelope",
        "existing_status": "not_verified",
        "retain_renovate_demolish": "pending_field_structure_ownership_review",
        "assumption_ids": [
          "A-SITE-VERIFY-001",
          "A-CONTROLS-001"
        ],
        "area_sqm_declared": 7714.0
      },
      "geometry": {
        "type": "Polygon",
        "coordinates": [
          [
            [
              116.34609937,
              40.002053629
            ],
            [
              116.346094387,
              40.002575954
            ],
            [
              116.344536941,
              40.002567156
            ],
            [
              116.344541936,
              40.002044831
            ],
            [
              116.34609937,
              40.002053629
            ]
          ]
        ]
      }
    },
    {
      "type": "Feature",
      "id": "BLDG-040",
      "properties": {
        "id": "BLDG-040",
        "layer": "BUILDING_FOOTPRINT",
        "source_type": "agent_generated_design",
        "confidence": "low",
        "geometry_role": "design_proposal",
        "building_type": "community_service",
        "name_zh": "可逆适应性改造候选载体",
        "name_en": "Reversible adaptive-reuse candidate envelope",
        "existing_status": "not_verified",
        "retain_renovate_demolish": "pending_field_structure_ownership_review",
        "assumption_ids": [
          "A-SITE-VERIFY-001",
          "A-CONTROLS-001"
        ],
        "area_sqm_declared": 7714.0
      },
      "geometry": {
        "type": "Polygon",
        "coordinates": [
          [
            [
              116.350900485,
              40.002080618
            ],
            [
              116.350895539,
              40.002602944
            ],
            [
              116.349338091,
              40.002594211
            ],
            [
              116.34934305,
              40.002071885
            ],
            [
              116.350900485,
              40.002080618
            ]
          ]
        ]
      }
    },
    {
      "type": "Feature",
      "id": "BLDG-041",
      "properties": {
        "id": "BLDG-041",
        "layer": "BUILDING_FOOTPRINT",
        "source_type": "agent_generated_design",
        "confidence": "low",
        "geometry_role": "design_proposal",
        "building_type": "mixed_use",
        "name_zh": "可逆适应性改造候选载体",
        "name_en": "Reversible adaptive-reuse candidate envelope",
        "existing_status": "not_verified",
        "retain_renovate_demolish": "pending_field_structure_ownership_review",
        "assumption_ids": [
          "A-SITE-VERIFY-001",
          "A-CONTROLS-001"
        ],
        "area_sqm_declared": 6930.0
      },
      "geometry": {
        "type": "Polygon",
        "coordinates": [
          [
            [
              116.346115486,
              40.005030119
            ],
            [
              116.346109816,
              40.005624489
            ],
            [
              116.344880199,
              40.005617544
            ],
            [
              116.34488588,
              40.005023175
            ],
            [
              116.346115486,
              40.005030119
            ]
          ]
        ]
      }
    },
    {
      "type": "Feature",
      "id": "BLDG-042",
      "properties": {
        "id": "BLDG-042",
        "layer": "BUILDING_FOOTPRINT",
        "source_type": "agent_generated_design",
        "confidence": "low",
        "geometry_role": "design_proposal",
        "building_type": "cultural",
        "name_zh": "可逆适应性改造候选载体",
        "name_en": "Reversible adaptive-reuse candidate envelope",
        "existing_status": "not_verified",
        "retain_renovate_demolish": "pending_field_structure_ownership_review",
        "assumption_ids": [
          "A-SITE-VERIFY-001",
          "A-CONTROLS-001"
        ],
        "area_sqm_declared": 6930.0
      },
      "geometry": {
        "type": "Polygon",
        "coordinates": [
          [
            [
              116.350916811,
              40.005057109
            ],
            [
              116.350911182,
              40.00565148
            ],
            [
              116.349681563,
              40.005644586
            ],
            [
              116.349687203,
              40.005050216
            ],
            [
              116.350916811,
              40.005057109
            ]
          ]
        ]
      }
    },
    {
      "type": "Feature",
      "id": "BLDG-043",
      "properties": {
        "id": "BLDG-043",
        "layer": "BUILDING_FOOTPRINT",
        "source_type": "agent_generated_design",
        "confidence": "low",
        "geometry_role": "design_proposal",
        "building_type": "ai_r_and_d",
        "name_zh": "可逆适应性改造候选载体",
        "name_en": "Reversible adaptive-reuse candidate envelope",
        "existing_status": "not_verified",
        "retain_renovate_demolish": "pending_field_structure_ownership_review",
        "assumption_ids": [
          "A-SITE-VERIFY-001",
          "A-CONTROLS-001"
        ],
        "area_sqm_declared": 8806.0
      },
      "geometry": {
        "type": "Polygon",
        "coordinates": [
          [
            [
              116.346359266,
              40.008007892
            ],
            [
              116.346352909,
              40.008674306
            ],
            [
              116.344959281,
              40.008666437
            ],
            [
              116.344965651,
              40.008000023
            ],
            [
              116.346359266,
              40.008007892
            ]
          ]
        ]
      }
    },
    {
      "type": "Feature",
      "id": "BLDG-044",
      "properties": {
        "id": "BLDG-044",
        "layer": "BUILDING_FOOTPRINT",
        "source_type": "agent_generated_design",
        "confidence": "low",
        "geometry_role": "design_proposal",
        "building_type": "lab",
        "name_zh": "可逆适应性改造候选载体",
        "name_en": "Reversible adaptive-reuse candidate envelope",
        "existing_status": "not_verified",
        "retain_renovate_demolish": "pending_field_structure_ownership_review",
        "assumption_ids": [
          "A-SITE-VERIFY-001",
          "A-CONTROLS-001"
        ],
        "area_sqm_declared": 8806.0
      },
      "geometry": {
        "type": "Polygon",
        "coordinates": [
          [
            [
              116.351160799,
              40.008034874
            ],
            [
              116.351154489,
              40.008701289
            ],
            [
              116.349760859,
              40.008693478
            ],
            [
              116.349767182,
              40.008027063
            ],
            [
              116.351160799,
              40.008034874
            ]
          ]
        ]
      }
    },
    {
      "type": "Feature",
      "id": "BLDG-045",
      "properties": {
        "id": "BLDG-045",
        "layer": "BUILDING_FOOTPRINT",
        "source_type": "agent_generated_design",
        "confidence": "low",
        "geometry_role": "design_proposal",
        "building_type": "incubator",
        "name_zh": "可逆适应性改造候选载体",
        "name_en": "Reversible adaptive-reuse candidate envelope",
        "existing_status": "not_verified",
        "retain_renovate_demolish": "pending_field_structure_ownership_review",
        "assumption_ids": [
          "A-SITE-VERIFY-001",
          "A-CONTROLS-001"
        ],
        "area_sqm_declared": 10906.0
      },
      "geometry": {
        "type": "Polygon",
        "coordinates": [
          [
            [
              116.346597557,
              40.010985632
            ],
            [
              116.346590516,
              40.01172409
            ],
            [
              116.345032862,
              40.011715297
            ],
            [
              116.345039921,
              40.010976839
            ],
            [
              116.346597557,
              40.010985632
            ]
          ]
        ]
      }
    },
    {
      "type": "Feature",
      "id": "BLDG-046",
      "properties": {
        "id": "BLDG-046",
        "layer": "BUILDING_FOOTPRINT",
        "source_type": "agent_generated_design",
        "confidence": "low",
        "geometry_role": "design_proposal",
        "building_type": "community_service",
        "name_zh": "可逆适应性改造候选载体",
        "name_en": "Reversible adaptive-reuse candidate envelope",
        "existing_status": "not_verified",
        "retain_renovate_demolish": "pending_field_structure_ownership_review",
        "assumption_ids": [
          "A-SITE-VERIFY-001",
          "A-CONTROLS-001"
        ],
        "area_sqm_declared": 10906.0
      },
      "geometry": {
        "type": "Polygon",
        "coordinates": [
          [
            [
              116.351399299,
              40.011012605
            ],
            [
              116.351392309,
              40.011751065
            ],
            [
              116.349834654,
              40.011742336
            ],
            [
              116.34984166,
              40.011003877
            ],
            [
              116.351399299,
              40.011012605
            ]
          ]
        ]
      }
    },
    {
      "type": "Feature",
      "id": "BLDG-047",
      "properties": {
        "id": "BLDG-047",
        "layer": "BUILDING_FOOTPRINT",
        "source_type": "agent_generated_design",
        "confidence": "low",
        "geometry_role": "design_proposal",
        "building_type": "mixed_use",
        "name_zh": "可逆适应性改造候选载体",
        "name_en": "Reversible adaptive-reuse candidate envelope",
        "existing_status": "not_verified",
        "retain_renovate_demolish": "pending_field_structure_ownership_review",
        "assumption_ids": [
          "A-SITE-VERIFY-001",
          "A-CONTROLS-001"
        ],
        "area_sqm_declared": 6090.0
      },
      "geometry": {
        "type": "Polygon",
        "coordinates": [
          [
            [
              116.346588541,
              40.014106073
            ],
            [
              116.346583559,
              40.014628397
            ],
            [
              116.345353781,
              40.014621456
            ],
            [
              116.345358771,
              40.014099132
            ],
            [
              116.346588541,
              40.014106073
            ]
          ]
        ]
      }
    },
    {
      "type": "Feature",
      "id": "BLDG-048",
      "properties": {
        "id": "BLDG-048",
        "layer": "BUILDING_FOOTPRINT",
        "source_type": "agent_generated_design",
        "confidence": "low",
        "geometry_role": "design_proposal",
        "building_type": "cultural",
        "name_zh": "可逆适应性改造候选载体",
        "name_en": "Reversible adaptive-reuse candidate envelope",
        "existing_status": "not_verified",
        "retain_renovate_demolish": "pending_field_structure_ownership_review",
        "assumption_ids": [
          "A-SITE-VERIFY-001",
          "A-CONTROLS-001"
        ],
        "area_sqm_declared": 6090.0
      },
      "geometry": {
        "type": "Polygon",
        "coordinates": [
          [
            [
              116.351390501,
              40.014133048
            ],
            [
              116.351385557,
              40.014655373
            ],
            [
              116.350155776,
              40.014648483
            ],
            [
              116.35016073,
              40.014126159
            ],
            [
              116.351390501,
              40.014133048
            ]
          ]
        ]
      }
    },
    {
      "type": "Feature",
      "id": "BLDG-049",
      "properties": {
        "id": "BLDG-049",
        "layer": "BUILDING_FOOTPRINT",
        "source_type": "agent_generated_design",
        "confidence": "low",
        "geometry_role": "design_proposal",
        "building_type": "ai_r_and_d",
        "name_zh": "可逆适应性改造候选载体",
        "name_en": "Reversible adaptive-reuse candidate envelope",
        "existing_status": "not_verified",
        "retain_renovate_demolish": "pending_field_structure_ownership_review",
        "assumption_ids": [
          "A-SITE-VERIFY-001",
          "A-CONTROLS-001"
        ],
        "area_sqm_declared": 7854.0
      },
      "geometry": {
        "type": "Polygon",
        "coordinates": [
          [
            [
              116.34682686,
              40.017083809
            ],
            [
              116.346821193,
              40.017678178
            ],
            [
              116.345427382,
              40.017670313
            ],
            [
              116.345433061,
              40.017075945
            ],
            [
              116.34682686,
              40.017083809
            ]
          ]
        ]
      }
    },
    {
      "type": "Feature",
      "id": "BLDG-050",
      "properties": {
        "id": "BLDG-050",
        "layer": "BUILDING_FOOTPRINT",
        "source_type": "agent_generated_design",
        "confidence": "low",
        "geometry_role": "design_proposal",
        "building_type": "lab",
        "name_zh": "可逆适应性改造候选载体",
        "name_en": "Reversible adaptive-reuse candidate envelope",
        "existing_status": "not_verified",
        "retain_renovate_demolish": "pending_field_structure_ownership_review",
        "assumption_ids": [
          "A-SITE-VERIFY-001",
          "A-CONTROLS-001"
        ],
        "area_sqm_declared": 7854.0
      },
      "geometry": {
        "type": "Polygon",
        "coordinates": [
          [
            [
              116.35162903,
              40.017110777
            ],
            [
              116.351623404,
              40.017705146
            ],
            [
              116.350229591,
              40.017697339
            ],
            [
              116.350235229,
              40.01710297
            ],
            [
              116.35162903,
              40.017110777
            ]
          ]
        ]
      }
    },
    {
      "type": "Feature",
      "id": "BLDG-051",
      "properties": {
        "id": "BLDG-051",
        "layer": "BUILDING_FOOTPRINT",
        "source_type": "agent_generated_design",
        "confidence": "low",
        "geometry_role": "design_proposal",
        "building_type": "incubator",
        "name_zh": "可逆适应性改造候选载体",
        "name_en": "Reversible adaptive-reuse candidate envelope",
        "existing_status": "not_verified",
        "retain_renovate_demolish": "pending_field_structure_ownership_review",
        "assumption_ids": [
          "A-SITE-VERIFY-001",
          "A-CONTROLS-001"
        ],
        "area_sqm_declared": 9842.0
      },
      "geometry": {
        "type": "Polygon",
        "coordinates": [
          [
            [
              116.347065199,
              40.020061544
            ],
            [
              116.347058846,
              40.020727957
            ],
            [
              116.345500988,
              40.020719168
            ],
            [
              116.345507355,
              40.020052756
            ],
            [
              116.347065199,
              40.020061544
            ]
          ]
        ]
      }
    },
    {
      "type": "Feature",
      "id": "BLDG-052",
      "properties": {
        "id": "BLDG-052",
        "layer": "BUILDING_FOOTPRINT",
        "source_type": "agent_generated_design",
        "confidence": "low",
        "geometry_role": "design_proposal",
        "building_type": "community_service",
        "name_zh": "可逆适应性改造候选载体",
        "name_en": "Reversible adaptive-reuse candidate envelope",
        "existing_status": "not_verified",
        "retain_renovate_demolish": "pending_field_structure_ownership_review",
        "assumption_ids": [
          "A-SITE-VERIFY-001",
          "A-CONTROLS-001"
        ],
        "area_sqm_declared": 9842.0
      },
      "geometry": {
        "type": "Polygon",
        "coordinates": [
          [
            [
              116.351867577,
              40.020088503
            ],
            [
              116.351861272,
              40.020754917
            ],
            [
              116.350303411,
              40.020746193
            ],
            [
              116.350309732,
              40.02007978
            ],
            [
              116.351867577,
              40.020088503
            ]
          ]
        ]
      }
    },
    {
      "type": "Feature",
      "id": "BLDG-053",
      "properties": {
        "id": "BLDG-053",
        "layer": "BUILDING_FOOTPRINT",
        "source_type": "agent_generated_design",
        "confidence": "low",
        "geometry_role": "design_proposal",
        "building_type": "lab",
        "name_zh": "众智园 AI 自主创新加速区韧性试验场",
        "name_en": "Zhongzhiyuan Resilience Test Yard",
        "existing_status": "not_verified",
        "retain_renovate_demolish": "pending_field_structure_ownership_review",
        "assumption_ids": [
          "A-KEYAREA-001",
          "A-SITE-VERIFY-001"
        ],
        "area_sqm_declared": 14400.0
      },
      "geometry": {
        "type": "Polygon",
        "coordinates": [
          [
            [
              116.349382552,
              40.016322388
            ],
            [
              116.349374341,
              40.017186925
            ],
            [
              116.347617448,
              40.017177048
            ],
            [
              116.347625681,
              40.016312511
            ],
            [
              116.349382552,
              40.016322388
            ]
          ]
        ]
      }
    },
    {
      "type": "Feature",
      "id": "BLDG-054",
      "properties": {
        "id": "BLDG-054",
        "layer": "BUILDING_FOOTPRINT",
        "source_type": "agent_generated_design",
        "confidence": "low",
        "geometry_role": "design_proposal",
        "building_type": "community_service",
        "name_zh": "北京 AI 原点社区公共照护站",
        "name_en": "AI Origin Public Care Station",
        "existing_status": "not_verified",
        "retain_renovate_demolish": "pending_field_structure_ownership_review",
        "assumption_ids": [
          "A-KEYAREA-001",
          "A-SITE-VERIFY-001"
        ],
        "area_sqm_declared": 14400.0
      },
      "geometry": {
        "type": "Polygon",
        "coordinates": [
          [
            [
              116.348382186,
              39.988072681
            ],
            [
              116.348373971,
              39.988937221
            ],
            [
              116.346617802,
              39.988927335
            ],
            [
              116.346626039,
              39.988062794
            ],
            [
              116.348382186,
              39.988072681
            ]
          ]
        ]
      }
    },
    {
      "type": "Feature",
      "id": "BLDG-055",
      "properties": {
        "id": "BLDG-055",
        "layer": "BUILDING_FOOTPRINT",
        "source_type": "agent_generated_design",
        "confidence": "low",
        "geometry_role": "design_proposal",
        "building_type": "mixed_use",
        "name_zh": "大钟寺 AI 产业聚集区连续服务仓",
        "name_en": "Dazhongsi Continuity Depot",
        "existing_status": "not_verified",
        "retain_renovate_demolish": "pending_field_structure_ownership_review",
        "assumption_ids": [
          "A-KEYAREA-001",
          "A-SITE-VERIFY-001"
        ],
        "area_sqm_declared": 14400.0
      },
      "geometry": {
        "type": "Polygon",
        "coordinates": [
          [
            [
              116.349381639,
              39.946492796
            ],
            [
              116.349373449,
              39.947357343
            ],
            [
              116.347618343,
              39.94734748
            ],
            [
              116.347626556,
              39.946482933
            ],
            [
              116.349381639,
              39.946492796
            ]
          ]
        ]
      }
    }
  ],
  "metadata": {
    "existing_status": "not_verified"
  }
}
