{
  "type": "FeatureCollection",
  "name": "jingzhang_life_line_green_space",
  "features": [
    {
      "type": "Feature",
      "id": "GREEN-LIFELINE-001",
      "properties": {
        "id": "GREEN-LIFELINE-001",
        "layer": "GREEN_SPACE",
        "source_type": "agent_generated_design",
        "confidence": "low",
        "geometry_role": "design_proposal",
        "name_zh": "生命线蓝绿缓冲与降温滞蓄公地",
        "name_en": "Life-Line blue-green cooling and detention commons",
        "design_functions": [
          "shade",
          "heat_refuge",
          "stormwater_detention",
          "biodiversity",
          "low_speed_mobility"
        ],
        "status": "conceptual_design_model",
        "assumption_ids": [
          "A-BOUNDARY-001",
          "A-HYDROLOGY-001"
        ],
        "area_sqm_declared": 3373435.037
      },
      "geometry": {
        "type": "Polygon",
        "coordinates": [
          [
            [
              116.351626923,
              39.946335883
            ],
            [
              116.351585907,
              39.946218494
            ],
            [
              116.351537457,
              39.946102796
            ],
            [
              116.35148169,
              39.945989067
            ],
            [
              116.35141874,
              39.945877582
            ],
            [
              116.351348759,
              39.945768607
            ],
            [
              116.351271915,
              39.945662408
            ],
            [
              116.351188393,
              39.945559238
            ],
            [
              116.351098396,
              39.945459346
            ],
            [
              116.351002139,
              39.945362974
            ],
            [
              116.350899855,
              39.945270353
            ],
            [
              116.35079179,
              39.945181707
            ],
            [
              116.350678204,
              39.945097248
            ],
            [
              116.35055937,
              39.945017181
            ],
            [
              116.350435576,
              39.944941699
            ],
            [
              116.35030712,
              39.944870982
            ],
            [
              116.35017431,
              39.944805202
            ],
            [
              116.350037468,
              39.944744517
            ],
            [
              116.349896921,
              39.944689073
            ],
            [
              116.34975301,
              39.944639004
            ],
            [
              116.349619539,
              39.944598513
            ],
            [
              116.349655077,
              39.942033603
            ],
            [
              116.349661416,
              39.941576055
            ],
            [
              116.349667755,
              39.941118506
            ],
            [
              116.349693109,
              39.939288312
            ],
            [
              116.346300407,
              39.939260414
            ],
            [
              116.346274963,
              39.941090607
            ],
            [
              116.346268601,
              39.941548155
            ],
            [
              116.346262239,
              39.942005703
            ],
            [
              116.346218176,
              39.945174661
            ],
            [
              116.346131693,
              39.945243559
            ],
            [
              116.346027663,
              39.94533502
            ],
            [
              116.345929588,
              39.9454303
            ],
            [
              116.345837705,
              39.94552917
            ],
            [
              116.345752236,
              39.94563139
            ],
            [
              116.345673386,
              39.945736715
            ],
            [
              116.345601345,
              39.945844891
            ],
            [
              116.345536287,
              39.945955657
            ],
            [
              116.345478368,
              39.946068747
            ],
            [
              116.345427728,
              39.946183888
            ],
            [
              116.34538449,
              39.946300803
            ],
            [
              116.345348757,
              39.94641921
            ],
            [
              116.345325205,
              39.946519316
            ],
            [
              116.340491999,
              39.946491922
            ],
            [
              116.340483498,
              39.946798084
            ],
            [
              116.340480558,
              39.947104277
            ],
            [
              116.345294359,
              39.947131562
            ],
            [
              116.345295505,
              39.947144848
            ],
            [
              116.345313687,
              39.947265599
            ],
            [
              116.345339546,
              39.947385518
            ],
            [
              116.345373018,
              39.947504316
            ],
            [
              116.345414025,
              39.947621706
            ],
            [
              116.345462465,
              39.947737407
            ],
            [
              116.345518224,
              39.947851138
            ],
            [
              116.345581166,
              39.947962627
            ],
            [
              116.34565114,
              39.948071605
            ],
            [
              116.345727978,
              39.948177808
            ],
            [
              116.345811494,
              39.948280982
            ],
            [
              116.345901487,
              39.948380877
            ],
            [
              116.345997741,
              39.948477254
            ],
            [
              116.346100023,
              39.948569879
            ],
            [
              116.346170159,
              39.948627414
            ],
            [
              116.34613498,
              39.951156656
            ],
            [
              116.346128616,
              39.951614203
            ],
            [
              116.346090427,
              39.954359485
            ],
            [
              116.346084062,
              39.954817032
            ],
            [
              116.346077697,
              39.955274579
            ],
            [
              116.346064966,
              39.956189673
            ],
            [
              116.3460586,
              39.95664722
            ],
            [
              116.346052234,
              39.957104767
            ],
            [
              116.346045868,
              39.957562314
            ],
            [
              116.346004512,
              39.960534541
            ],
            [
              116.340102905,
              39.960501097
            ],
            [
              116.3400944,
              39.960807257
            ],
            [
              116.340091456,
              39.96111345
            ],
            [
              116.345995991,
              39.961146912
            ],
            [
              116.345982202,
              39.962137779
            ],
            [
              116.345975835,
              39.962595326
            ],
            [
              116.345956732,
              39.963967964
            ],
            [
              116.345950364,
              39.964425511
            ],
            [
              116.345944257,
              39.964864303
            ],
            [
              116.345921764,
              39.965303013
            ],
            [
              116.345898377,
              39.965759146
            ],
            [
              116.345849136,
              39.966672715
            ],
            [
              116.345824479,
              39.967130157
            ],
            [
              116.345799821,
              39.9675876
            ],
            [
              116.34560255,
              39.97124714
            ],
            [
              116.34557789,
              39.971704583
            ],
            [
              116.345553229,
              39.972162025
            ],
            [
              116.345528567,
              39.972619467
            ],
            [
              116.345503906,
              39.97307691
            ],
            [
              116.345424883,
              39.974542627
            ],
            [
              116.339713613,
              39.974510235
            ],
            [
              116.339705103,
              39.974816395
            ],
            [
              116.339702903,
              39.975045019
            ],
            [
              116.339707908,
              39.975122619
            ],
            [
              116.345401428,
              39.975154912
            ],
            [
              116.345393008,
              39.975866062
            ],
            [
              116.345385902,
              39.976783239
            ],
            [
              116.345382357,
              39.977240801
            ],
            [
              116.345378812,
              39.977698362
            ],
            [
              116.345375266,
              39.978155923
            ],
            [
              116.345371721,
              39.978613484
            ],
            [
              116.345364629,
              39.979528606
            ],
            [
              116.345361084,
              39.979986166
            ],
            [
              116.345353992,
              39.980901288
            ],
            [
              116.345350446,
              39.981358849
            ],
            [
              116.345343354,
              39.98227397
            ],
            [
              116.345339807,
              39.982731531
            ],
            [
              116.345336261,
              39.983189092
            ],
            [
              116.345329168,
              39.984104213
            ],
            [
              116.345309153,
              39.986686157
            ],
            [
              116.345240103,
              39.986735988
            ],
            [
              116.345130299,
              39.986823409
            ],
            [
              116.345026203,
              39.986914868
            ],
            [
              116.344928067,
              39.987010146
            ],
            [
              116.344836127,
              39.987109013
            ],
            [
              116.344750603,
              39.987211232
            ],
            [
              116.344671703,
              39.987316555
            ],
            [
              116.344599616,
              39.987424729
            ],
            [
              116.344534516,
              39.987535494
            ],
            [
              116.344476559,
              39.987648582
            ],
            [
              116.344425886,
              39.987763722
            ],
            [
              116.344382619,
              39.987880635
            ],
            [
              116.344346862,
              39.987999041
            ],
            [
              116.3443187,
              39.988118653
            ],
            [
              116.344298203,
              39.988239185
            ],
            [
              116.344285418,
              39.988360345
            ],
            [
              116.344280378,
              39.988481841
            ],
            [
              116.344281845,
              39.98854749
            ],
            [
              116.340595179,
              39.988526575
            ],
            [
              116.340592235,
              39.988832766
            ],
            [
              116.340611997,
              39.989139086
            ],
            [
              116.344397823,
              39.989160562
            ],
            [
              116.344412141,
              39.989201529
            ],
            [
              116.344460609,
              39.989317229
            ],
            [
              116.344516398,
              39.989430961
            ],
            [
              116.344579376,
              39.98954245
            ],
            [
              116.34464939,
              39.989651427
            ],
            [
              116.344726272,
              39.989757631
            ],
            [
              116.344809837,
              39.989860805
            ],
            [
              116.344899882,
              39.989960701
            ],
            [
              116.344996192,
              39.990057078
            ],
            [
              116.345098534,
              39.990149704
            ],
            [
              116.345206662,
              39.990238355
            ],
            [
              116.345309512,
              39.99031479
            ],
            [
              116.345317749,
              39.990564529
            ],
            [
              116.345427705,
              39.992408811
            ],
            [
              116.345454996,
              39.992866545
            ],
            [
              116.345482287,
              39.993324279
            ],
            [
              116.34553687,
              39.994239747
            ],
            [
              116.345564162,
              39.994697481
            ],
            [
              116.34578251,
              39.99835935
            ],
            [
              116.345809805,
              39.998817084
            ],
            [
              116.345864396,
              39.999732551
            ],
            [
              116.345891692,
              40.000190284
            ],
            [
              116.346028176,
              40.002478951
            ],
            [
              116.346033527,
              40.002568678
            ],
            [
              116.34149959,
              40.002543005
            ],
            [
              116.341496648,
              40.002849196
            ],
            [
              116.341516417,
              40.003155515
            ],
            [
              116.346070062,
              40.003181298
            ],
            [
              116.346082772,
              40.003394417
            ],
            [
              116.346191956,
              40.005225152
            ],
            [
              116.346245962,
              40.006136667
            ],
            [
              116.346269457,
              40.006590627
            ],
            [
              116.346316836,
              40.007506051
            ],
            [
              116.346364216,
              40.008421476
            ],
            [
              116.346387906,
              40.008879188
            ],
            [
              116.346411597,
              40.009336901
            ],
            [
              116.346435288,
              40.009794613
            ],
            [
              116.34648267,
              40.010710037
            ],
            [
              116.346530054,
              40.011625461
            ],
            [
              116.346577439,
              40.012540885
            ],
            [
              116.346624825,
              40.013456309
            ],
            [
              116.346648519,
              40.013914021
            ],
            [
              116.346689323,
              40.014702263
            ],
            [
              116.346600259,
              40.014749746
            ],
            [
              116.346474918,
              40.014823827
            ],
            [
              116.346354455,
              40.014902548
            ],
            [
              116.346239161,
              40.014985719
            ],
            [
              116.346129313,
              40.01507314
            ],
            [
              116.346025175,
              40.015164599
            ],
            [
              116.345926999,
              40.015259877
            ],
            [
              116.345835022,
              40.015358745
            ],
            [
              116.345749464,
              40.015460963
            ],
            [
              116.345670532,
              40.015566286
            ],
            [
              116.345598416,
              40.01567446
            ],
            [
              116.34553329,
              40.015785224
            ],
            [
              116.345475311,
              40.015898312
            ],
            [
              116.345424618,
              40.016013452
            ],
            [
              116.345381334,
              40.016130365
            ],
            [
              116.345345563,
              40.01624877
            ],
            [
              116.345317391,
              40.016368382
            ],
            [
              116.345296886,
              40.016488913
            ],
            [
              116.345287723,
              40.016575724
            ],
            [
              116.342232856,
              40.016558425
            ],
            [
              116.342229917,
              40.016864614
            ],
            [
              116.342244858,
              40.017170906
            ],
            [
              116.345330569,
              40.017188379
            ],
            [
              116.345336329,
              40.017215066
            ],
            [
              116.345369834,
              40.017333863
            ],
            [
              116.34541088,
              40.017451252
            ],
            [
              116.345459369,
              40.017566952
            ],
            [
              116.345515182,
              40.017680683
            ],
            [
              116.345578187,
              40.017792171
            ],
            [
              116.345648231,
              40.017901147
            ],
            [
              116.345725146,
              40.01800735
            ],
            [
              116.345808745,
              40.018110524
            ],
            [
              116.345898829,
              40.018210419
            ],
            [
              116.345995179,
              40.018306795
            ],
            [
              116.346097565,
              40.018399419
            ],
            [
              116.346205738,
              40.01848807
            ],
            [
              116.346319439,
              40.018572533
            ],
            [
              116.346438393,
              40.018652604
            ],
            [
              116.346562315,
              40.018728091
            ],
            [
              116.346690905,
              40.018798812
            ],
            [
              116.346823853,
              40.018864596
            ],
            [
              116.346906703,
              40.018901301
            ],
            [
              116.346909164,
              40.018948849
            ],
            [
              116.346956558,
              40.019864272
            ],
            [
              116.347003953,
              40.020779694
            ],
            [
              116.347051349,
              40.021695117
            ],
            [
              116.347098746,
              40.022610539
            ],
            [
              116.347146144,
              40.023525961
            ],
            [
              116.347169844,
              40.023983672
            ],
            [
              116.347240944,
              40.025356805
            ],
            [
              116.347264644,
              40.025814516
            ],
            [
              116.347288345,
              40.026272227
            ],
            [
              116.350682854,
              40.026168292
            ],
            [
              116.35065913,
              40.025710582
            ],
            [
              116.350635407,
              40.025252871
            ],
            [
              116.350564239,
              40.02387974
            ],
            [
              116.350540516,
              40.02342203
            ],
            [
              116.350493073,
              40.022506608
            ],
            [
              116.350445631,
              40.021591187
            ],
            [
              116.350398189,
              40.020675766
            ],
            [
              116.350350749,
              40.019760344
            ],
            [
              116.35030331,
              40.018844922
            ],
            [
              116.350301102,
              40.01880232
            ],
            [
              116.350399862,
              40.018749666
            ],
            [
              116.350525206,
              40.018675581
            ],
            [
              116.350645671,
              40.018596855
            ],
            [
              116.350760967,
              40.01851368
            ],
            [
              116.350870815,
              40.018426255
            ],
            [
              116.350974951,
              40.018334792
            ],
            [
              116.351073124,
              40.018239509
            ],
            [
              116.351165098,
              40.018140638
            ],
            [
              116.351250651,
              40.018038416
            ],
            [
              116.351329578,
              40.017933089
            ],
            [
              116.351401687,
              40.017824911
            ],
            [
              116.351466805,
              40.017714143
            ],
            [
              116.351524776,
              40.017601052
            ],
            [
              116.35157546,
              40.01748591
            ],
            [
              116.351618735,
              40.017368995
            ],
            [
              116.351654495,
              40.017250587
            ],
            [
              116.351660763,
              40.017223968
            ],
            [
              116.354772832,
              40.017241337
            ],
            [
              116.354775716,
              40.016935147
            ],
            [
              116.354758929,
              40.016628847
            ],
            [
              116.351715256,
              40.01661186
            ],
            [
              116.351707745,
              40.016524955
            ],
            [
              116.351689534,
              40.016404206
            ],
            [
              116.35166364,
              40.01628429
            ],
            [
              116.351630125,
              40.016165495
            ],
            [
              116.351589069,
              40.016048108
            ],
            [
              116.351540571,
              40.015932411
            ],
            [
              116.351484748,
              40.015818683
            ],
            [
              116.351421736,
              40.015707198
            ],
            [
              116.351351685,
              40.015598224
            ],
            [
              116.351274764,
              40.015492025
            ],
            [
              116.351191159,
              40.015388856
            ],
            [
              116.351101071,
              40.015288965
            ],
            [
              116.351004718,
              40.015192593
            ],
            [
              116.350902331,
              40.015099973
            ],
            [
              116.350794157,
              40.015011326
            ],
            [
              116.350680456,
              40.014926868
            ],
            [
              116.350561503,
              40.014846801
            ],
            [
              116.350437584,
              40.014771318
            ],
            [
              116.350308998,
              40.014700602
            ],
            [
              116.350176054,
              40.014634821
            ],
            [
              116.350083012,
              40.014593602
            ],
            [
              116.350042415,
              40.0138101
            ],
            [
              116.350018699,
              40.013352389
            ],
            [
              116.349971268,
              40.012436966
            ],
            [
              116.349923837,
              40.011521543
            ],
            [
              116.349876408,
              40.01060612
            ],
            [
              116.34982898,
              40.009690696
            ],
            [
              116.349805267,
              40.009232985
            ],
            [
              116.349781553,
              40.008775273
            ],
            [
              116.34975784,
              40.008317561
            ],
            [
              116.349710415,
              40.007402137
            ],
            [
              116.349662991,
              40.006486714
            ],
            [
              116.349639085,
              40.006025249
            ],
            [
              116.349584577,
              40.005106034
            ],
            [
              116.349475267,
              40.003274711
            ],
            [
              116.349470834,
              40.003200437
            ],
            [
              116.354004823,
              40.003225799
            ],
            [
              116.354007708,
              40.002919608
            ],
            [
              116.353990927,
              40.002613307
            ],
            [
              116.349434269,
              40.002587818
            ],
            [
              116.349420626,
              40.002359246
            ],
            [
              116.349284029,
              40.000070582
            ],
            [
              116.34925671,
              39.999612849
            ],
            [
              116.349202074,
              39.998697384
            ],
            [
              116.349174756,
              39.998239651
            ],
            [
              116.348956227,
              39.994577786
            ],
            [
              116.348928913,
              39.994120053
            ],
            [
              116.348874284,
              39.993204586
            ],
            [
              116.348846971,
              39.992746853
            ],
            [
              116.348819657,
              39.992289119
            ],
            [
              116.348730109,
              39.990788375
            ],
            [
              116.348855308,
              39.990746526
            ],
            [
              116.348996985,
              39.990692667
            ],
            [
              116.349135056,
              39.990633525
            ],
            [
              116.349269187,
              39.990569243
            ],
            [
              116.349399055,
              39.990499976
            ],
            [
              116.349524348,
              39.99042589
            ],
            [
              116.349644764,
              39.990347165
            ],
            [
              116.349760013,
              39.99026399
            ],
            [
              116.349869816,
              39.990176566
            ],
            [
              116.34997391,
              39.990085102
            ],
            [
              116.350072044,
              39.98998982
            ],
            [
              116.350163981,
              39.989890948
            ],
            [
              116.3502495,
              39.989788726
            ],
            [
              116.350328395,
              39.989683399
            ],
            [
              116.350400475,
              39.989575221
            ],
            [
              116.350465568,
              39.989464453
            ],
            [
              116.350523516,
              39.989351362
            ],
            [
              116.35057418,
              39.98923622
            ],
            [
              116.350589276,
              39.989195418
            ],
            [
              116.35336315,
              39.989210927
            ],
            [
              116.353387645,
              39.988904856
            ],
            [
              116.353390532,
              39.988598664
            ],
            [
              116.350716908,
              39.988583718
            ],
            [
              116.350719624,
              39.988518092
            ],
            [
              116.350716896,
              39.988396552
            ],
            [
              116.350706419,
              39.988275261
            ],
            [
              116.350688217,
              39.988154511
            ],
            [
              116.350662334,
              39.988034594
            ],
            [
              116.350628834,
              39.987915799
            ],
            [
              116.350587796,
              39.98779841
            ],
            [
              116.350539319,
              39.987682713
            ],
            [
              116.350483521,
              39.987568984
            ],
            [
              116.350420535,
              39.987457498
            ],
            [
              116.350350514,
              39.987348524
            ],
            [
              116.350273626,
              39.987242324
            ],
            [
              116.350190056,
              39.987139153
            ],
            [
              116.350100007,
              39.987039261
            ],
            [
              116.350003694,
              39.986942889
            ],
            [
              116.349901349,
              39.986850267
            ],
            [
              116.349793221,
              39.98676162
            ],
            [
              116.349679568,
              39.986677161
            ],
            [
              116.349560664,
              39.986597093
            ],
            [
              116.349436797,
              39.986521609
            ],
            [
              116.349308264,
              39.986450891
            ],
            [
              116.349175376,
              39.98638511
            ],
            [
              116.349038451,
              39.986324423
            ],
            [
              116.348897821,
              39.986268978
            ],
            [
              116.348753824,
              39.986218907
            ],
            [
              116.348708159,
              39.986205062
            ],
            [
              116.34872422,
              39.984119735
            ],
            [
              116.348731268,
              39.983204614
            ],
            [
              116.348734791,
              39.982747053
            ],
            [
              116.348738315,
              39.982289492
            ],
            [
              116.348745362,
              39.98137437
            ],
            [
              116.348748886,
              39.980916809
            ],
            [
              116.348755932,
              39.980001686
            ],
            [
              116.348759455,
              39.979544125
            ],
            [
              116.348766501,
              39.978629003
            ],
            [
              116.348770024,
              39.978171441
            ],
            [
              116.348773547,
              39.97771388
            ],
            [
              116.348777069,
              39.977256319
            ],
            [
              116.348780592,
              39.976798757
            ],
            [
              116.348787621,
              39.97588569
            ],
            [
              116.348796012,
              39.975174033
            ],
            [
              116.354483725,
              39.975205847
            ],
            [
              116.354508208,
              39.974899775
            ],
            [
              116.354511089,
              39.974593582
            ],
            [
              116.348821408,
              39.974561758
            ],
            [
              116.348895561,
              39.973185099
            ],
            [
              116.3489202,
              39.972727655
            ],
            [
              116.348944838,
              39.972270212
            ],
            [
              116.348969477,
              39.971812769
            ],
            [
              116.348994115,
              39.971355326
            ],
            [
              116.349191206,
              39.967695778
            ],
            [
              116.34921584,
              39.967238335
            ],
            [
              116.349240475,
              39.966780891
            ],
            [
              116.349289813,
              39.965864687
            ],
            [
              116.349313312,
              39.96540592
            ],
            [
              116.349337704,
              39.964929729
            ],
            [
              116.349344309,
              39.964453429
            ],
            [
              116.349350655,
              39.963995882
            ],
            [
              116.349369689,
              39.962623242
            ],
            [
              116.349376034,
              39.962165695
            ],
            [
              116.349389896,
              39.96116601
            ],
            [
              116.355297133,
              39.961199013
            ],
            [
              116.355300009,
              39.96089282
            ],
            [
              116.355300009,
              39.96058661
            ],
            [
              116.349398387,
              39.960553639
            ],
            [
              116.349439474,
              39.957590226
            ],
            [
              116.349445818,
              39.957132679
            ],
            [
              116.349452161,
              39.956675132
            ],
            [
              116.349458504,
              39.956217585
            ],
            [
              116.34947119,
              39.95530249
            ],
            [
              116.349477532,
              39.954844943
            ],
            [
              116.349483875,
              39.954387396
            ],
            [
              116.349521928,
              39.951642111
            ],
            [
              116.349528269,
              39.951184563
            ],
            [
              116.349554946,
              39.949259754
            ],
            [
              116.349561914,
              39.949258025
            ],
            [
              116.349709682,
              39.949215104
            ],
            [
              116.349854536,
              39.949166655
            ],
            [
              116.349996126,
              39.949112793
            ],
            [
              116.350134111,
              39.949053648
            ],
            [
              116.35026816,
              39.948989364
            ],
            [
              116.350397948,
              39.948920095
            ],
            [
              116.350523163,
              39.948846007
            ],
            [
              116.350643504,
              39.94876728
            ],
            [
              116.350758681,
              39.948684103
            ],
            [
              116.350868416,
              39.948596676
            ],
            [
              116.350972445,
              39.948505211
            ],
            [
              116.351070517,
              39.948409926
            ],
            [
              116.351162397,
              39.948311053
            ],
            [
              116.351247861,
              39.948208829
            ],
            [
              116.351326706,
              39.9481035
            ],
            [
              116.35139874,
              39.94799532
            ],
            [
              116.351463791,
              39.947884551
            ],
            [
              116.351521701,
              39.947771458
            ],
            [
              116.351572332,
              39.947656314
            ],
            [
              116.351615561,
              39.947539397
            ],
            [
              116.351651284,
              39.947420988
            ],
            [
              116.351679415,
              39.947301372
            ],
            [
              116.351699886,
              39.947180839
            ],
            [
              116.351701284,
              39.947167566
            ],
            [
              116.35529714,
              39.947187619
            ],
            [
              116.355300014,
              39.946881425
            ],
            [
              116.355300014,
              39.946575214
            ],
            [
              116.351682056,
              39.946555039
            ],
            [
              116.351660406,
              39.946454679
            ],
            [
              116.351626923,
              39.946335883
            ]
          ]
        ]
      }
    }
  ],
  "metadata": {
    "hydrology_status": "concept_only_pending_model"
  }
}
