{
  "type": "FeatureCollection",
  "name": "jingzhang_life_line_key_areas",
  "features": [
    {
      "type": "Feature",
      "id": "PROV-KEY-001",
      "properties": {
        "id": "PROV-KEY-001",
        "layer": "KEY_AREA",
        "source_type": "agent_inferred_from_public_data",
        "confidence": "medium",
        "geometry_role": "provisional_constraint",
        "area_id": "zhongzhiyuan_ai_acceleration_area",
        "name_zh": "众智园 AI 自主创新加速区韧性试验场",
        "name_en": "Zhongzhiyuan Resilience Test Yard",
        "official_boundary": false,
        "boundary_precision": "provisional_rough",
        "announced_area_sqm": 1921000,
        "source_id": "DATA-SRC-PROVISIONAL-BOUNDARIES-20260605",
        "usage_note": "方向性详细设计任务框架；不得解释为地块、道路红线或已批准实施范围。",
        "area_sqm_declared": 1929201.877
      },
      "geometry": {
        "type": "Polygon",
        "coordinates": [
          [
            [
              116.343,
              40.0075
            ],
            [
              116.354,
              40.0075
            ],
            [
              116.354,
              40.026
            ],
            [
              116.343,
              40.026
            ],
            [
              116.343,
              40.0075
            ]
          ]
        ]
      }
    },
    {
      "type": "Feature",
      "id": "PROV-KEY-002",
      "properties": {
        "id": "PROV-KEY-002",
        "layer": "KEY_AREA",
        "source_type": "agent_inferred_from_public_data",
        "confidence": "medium",
        "geometry_role": "provisional_constraint",
        "area_id": "beijing_ai_origin_community",
        "name_zh": "北京 AI 原点社区公共照护站",
        "name_en": "AI Origin Public Care Station",
        "official_boundary": false,
        "boundary_precision": "provisional_rough",
        "announced_area_sqm": 1043000,
        "source_id": "DATA-SRC-PROVISIONAL-BOUNDARIES-20260605",
        "usage_note": "方向性详细设计任务框架；不得解释为地块、道路红线或已批准实施范围。",
        "area_sqm_declared": 1043236.909
      },
      "geometry": {
        "type": "Polygon",
        "coordinates": [
          [
            [
              116.342,
              39.9835
            ],
            [
              116.353,
              39.9835
            ],
            [
              116.353,
              39.9935
            ],
            [
              116.342,
              39.9935
            ],
            [
              116.342,
              39.9835
            ]
          ]
        ]
      }
    },
    {
      "type": "Feature",
      "id": "PROV-KEY-003",
      "properties": {
        "id": "PROV-KEY-003",
        "layer": "KEY_AREA",
        "source_type": "agent_inferred_from_public_data",
        "confidence": "medium",
        "geometry_role": "provisional_constraint",
        "area_id": "dazhongsi_ai_industry_cluster",
        "name_zh": "大钟寺 AI 产业聚集区连续服务仓",
        "name_en": "Dazhongsi Continuity Depot",
        "official_boundary": false,
        "boundary_precision": "provisional_rough",
        "announced_area_sqm": 720000,
        "source_id": "DATA-SRC-PROVISIONAL-BOUNDARIES-20260605",
        "usage_note": "方向性详细设计任务框架；不得解释为地块、道路红线或已批准实施范围。",
        "area_sqm_declared": 720454.219
      },
      "geometry": {
        "type": "Polygon",
        "coordinates": [
          [
            [
              116.342,
              39.944
            ],
            [
              116.355,
              39.944
            ],
            [
              116.355,
              39.94984
            ],
            [
              116.342,
              39.94984
            ],
            [
              116.342,
              39.944
            ]
          ]
        ]
      }
    }
  ],
  "metadata": {
    "coordinate_reference_system": "EPSG:4326"
  }
}
