{
  "type": "FeatureCollection",
  "name": "jingzhang_life_line_phasing",
  "features": [
    {
      "type": "Feature",
      "id": "PHASE-01",
      "properties": {
        "id": "PHASE-01",
        "layer": "PHASE",
        "source_type": "agent_generated_design",
        "confidence": "low",
        "geometry_role": "design_proposal",
        "phase_id": "PHASE-01",
        "name_zh": "近期 0-18 个月：审计、桌面推演与可逆试点",
        "name_en": "Near term 0-18 months: audit, tabletop exercises and reversible pilots",
        "approval_status": "concept_only_pending_authorization",
        "stop_rule": "do_not_expand_without_audited_pilot_and_named_operator",
        "area_sqm_declared": 4480317.853
      },
      "geometry": {
        "type": "Polygon",
        "coordinates": [
          [
            [
              116.3407,
              39.939
            ],
            [
              116.33982678,
              39.970438543
            ],
            [
              116.354858283,
              39.970523177
            ],
            [
              116.3553,
              39.965
            ],
            [
              116.3553,
              39.939
            ],
            [
              116.3407,
              39.939
            ]
          ]
        ]
      }
    },
    {
      "type": "Feature",
      "id": "PHASE-02",
      "properties": {
        "id": "PHASE-02",
        "layer": "PHASE",
        "source_type": "agent_generated_design",
        "confidence": "low",
        "geometry_role": "design_proposal",
        "phase_id": "PHASE-02",
        "name_zh": "中期 18-36 个月：三站联调与公共空间微更新",
        "name_en": "Mid term 18-36 months: three-station integration and public-space micro-renewal",
        "approval_status": "concept_only_pending_authorization",
        "stop_rule": "do_not_expand_without_audited_pilot_and_named_operator",
        "area_sqm_declared": 3814780.539
      },
      "geometry": {
        "type": "Polygon",
        "coordinates": [
          [
            [
              116.3533,
              39.99
            ],
            [
              116.354858283,
              39.970523177
            ],
            [
              116.33982678,
              39.970438543
            ],
            [
              116.3397,
              39.975
            ],
            [
              116.341327045,
              40.000221118
            ],
            [
              116.353863738,
              40.00029169
            ],
            [
              116.3533,
              39.99
            ]
          ]
        ]
      }
    },
    {
      "type": "Feature",
      "id": "PHASE-03",
      "properties": {
        "id": "PHASE-03",
        "layer": "PHASE",
        "source_type": "agent_generated_design",
        "confidence": "low",
        "geometry_role": "design_proposal",
        "phase_id": "PHASE-03",
        "name_zh": "远期 36-72 个月：连续服务网络评估后扩展",
        "name_en": "Long term 36-72 months: evidence-gated continuity-network expansion",
        "approval_status": "concept_only_pending_authorization",
        "stop_rule": "do_not_expand_without_audited_pilot_and_named_operator",
        "area_sqm_declared": 3117726.994
      },
      "geometry": {
        "type": "Polygon",
        "coordinates": [
          [
            [
              116.3553,
              40.0265
            ],
            [
              116.353863738,
              40.00029169
            ],
            [
              116.341327045,
              40.000221118
            ],
            [
              116.3417,
              40.006
            ],
            [
              116.3427,
              40.0265
            ],
            [
              116.3553,
              40.0265
            ]
          ]
        ]
      }
    }
  ],
  "metadata": {
    "phase_status": "conceptual_and_evidence_gated"
  }
}
