{
  "type": "FeatureCollection",
  "name": "jingzhang_life_line_public_space",
  "features": [
    {
      "type": "Feature",
      "id": "PUBLIC-LIFELINE-001",
      "properties": {
        "id": "PUBLIC-LIFELINE-001",
        "layer": "PUBLIC_SPACE",
        "source_type": "agent_generated_design",
        "confidence": "low",
        "geometry_role": "design_proposal",
        "name_zh": "连续公共照护与人工接管空间",
        "name_en": "Continuous public-care and human-handover space",
        "design_functions": [
          "account_free_service",
          "manual_fallback",
          "cooling",
          "charging",
          "wayfinding",
          "public_rehearsal"
        ],
        "status": "conceptual_design_model",
        "assumption_ids": [
          "A-BOUNDARY-001",
          "A-SITE-VERIFY-001"
        ],
        "area_sqm_declared": 2022870.921
      },
      "geometry": {
        "type": "Polygon",
        "coordinates": [
          [
            [
              116.350603571,
              39.946527104
            ],
            [
              116.350575979,
              39.946448133
            ],
            [
              116.350543387,
              39.9463703
            ],
            [
              116.350505872,
              39.946293791
            ],
            [
              116.350463524,
              39.946218791
            ],
            [
              116.350416447,
              39.946145481
            ],
            [
              116.350364753,
              39.946074037
            ],
            [
              116.350308566,
              39.946004631
            ],
            [
              116.350248023,
              39.945937431
            ],
            [
              116.350183269,
              39.945872599
            ],
            [
              116.350114459,
              39.94581029
            ],
            [
              116.350041761,
              39.945750654
            ],
            [
              116.349965349,
              39.945693836
            ],
            [
              116.349885406,
              39.945639973
            ],
            [
              116.349802126,
              39.945589193
            ],
            [
              116.34971571,
              39.94554162
            ],
            [
              116.349626365,
              39.945497367
            ],
            [
              116.349534306,
              39.945456542
            ],
            [
              116.349439756,
              39.945419243
            ],
            [
              116.349342942,
              39.94538556
            ],
            [
              116.349244098,
              39.945355573
            ],
            [
              116.349143461,
              39.945329356
            ],
            [
              116.349041274,
              39.945306971
            ],
            [
              116.348937783,
              39.945288472
            ],
            [
              116.348919636,
              39.945285943
            ],
            [
              116.34896481,
              39.942027935
            ],
            [
              116.348971153,
              39.941570387
            ],
            [
              116.348977497,
              39.941112838
            ],
            [
              116.34900287,
              39.939282644
            ],
            [
              116.346990646,
              39.939266098
            ],
            [
              116.34696522,
              39.941096291
            ],
            [
              116.346958863,
              39.941553839
            ],
            [
              116.346952506,
              39.942011387
            ],
            [
              116.346899887,
              39.945798308
            ],
            [
              116.346836778,
              39.945853793
            ],
            [
              116.3467708,
              39.945917891
            ],
            [
              116.346708989,
              39.945984404
            ],
            [
              116.346651492,
              39.94605317
            ],
            [
              116.346598448,
              39.946124026
            ],
            [
              116.346549984,
              39.946196799
            ],
            [
              116.346506219,
              39.946271315
            ],
            [
              116.346467256,
              39.946347394
            ],
            [
              116.346433191,
              39.946424853
            ],
            [
              116.346404104,
              39.946503505
            ],
            [
              116.346380066,
              39.946583161
            ],
            [
              116.346364045,
              39.946651264
            ],
            [
              116.340488499,
              39.946617989
            ],
            [
              116.340483498,
              39.946798084
            ],
            [
              116.340481768,
              39.946978197
            ],
            [
              116.346339078,
              39.94701137
            ],
            [
              116.34634425,
              39.947071318
            ],
            [
              116.346356483,
              39.94715255
            ],
            [
              116.34637388,
              39.947233222
            ],
            [
              116.346396399,
              39.947313141
            ],
            [
              116.346423986,
              39.947392112
            ],
            [
              116.346456574,
              39.947469947
            ],
            [
              116.346494085,
              39.947546457
            ],
            [
              116.346536429,
              39.947621458
            ],
            [
              116.346583504,
              39.94769477
            ],
            [
              116.346635195,
              39.947766216
            ],
            [
              116.346691379,
              39.947835623
            ],
            [
              116.346751921,
              39.947902825
            ],
            [
              116.346816674,
              39.947967659
            ],
            [
              116.34686908,
              39.948015118
            ],
            [
              116.346825339,
              39.951162341
            ],
            [
              116.346818979,
              39.951619889
            ],
            [
              116.346780818,
              39.954365172
            ],
            [
              116.346774458,
              39.954822719
            ],
            [
              116.346768097,
              39.955280266
            ],
            [
              116.346755375,
              39.95619536
            ],
            [
              116.346749014,
              39.956652907
            ],
            [
              116.346742653,
              39.957110454
            ],
            [
              116.346736291,
              39.957568
            ],
            [
              116.346693237,
              39.960664511
            ],
            [
              116.340099403,
              39.960627163
            ],
            [
              116.3400944,
              39.960807257
            ],
            [
              116.340092668,
              39.960987371
            ],
            [
              116.346688228,
              39.961024729
            ],
            [
              116.346672671,
              39.962143467
            ],
            [
              116.346666308,
              39.962601013
            ],
            [
              116.346647219,
              39.963973652
            ],
            [
              116.346640856,
              39.964431199
            ],
            [
              116.346634647,
              39.964877622
            ],
            [
              116.346611768,
              39.965323957
            ],
            [
              116.346588358,
              39.965780626
            ],
            [
              116.346539097,
              39.966694731
            ],
            [
              116.346514444,
              39.967152174
            ],
            [
              116.346489792,
              39.967609617
            ],
            [
              116.346292557,
              39.971269159
            ],
            [
              116.346267901,
              39.971726601
            ],
            [
              116.346243245,
              39.972184044
            ],
            [
              116.346218588,
              39.972641486
            ],
            [
              116.346193931,
              39.973098928
            ],
            [
              116.346109105,
              39.974672575
            ],
            [
              116.339710109,
              39.974636301
            ],
            [
              116.339705103,
              39.974816395
            ],
            [
              116.33970337,
              39.974996507
            ],
            [
              116.346093542,
              39.975032733
            ],
            [
              116.346083636,
              39.975870063
            ],
            [
              116.346076546,
              39.976786405
            ],
            [
              116.346073005,
              39.977243966
            ],
            [
              116.346069464,
              39.977701527
            ],
            [
              116.346065924,
              39.978159088
            ],
            [
              116.346062383,
              39.978616649
            ],
            [
              116.346055301,
              39.979531771
            ],
            [
              116.34605176,
              39.979989332
            ],
            [
              116.346044677,
              39.980904454
            ],
            [
              116.346041136,
              39.981362015
            ],
            [
              116.346034052,
              39.982277136
            ],
            [
              116.346030511,
              39.982734697
            ],
            [
              116.346026969,
              39.983192258
            ],
            [
              116.346019885,
              39.984107379
            ],
            [
              116.345998631,
              39.986852742
            ],
            [
              116.345995152,
              39.987302153
            ],
            [
              116.345979692,
              39.98731331
            ],
            [
              116.345905824,
              39.98737212
            ],
            [
              116.345835797,
              39.987433648
            ],
            [
              116.345769778,
              39.987497744
            ],
            [
              116.345707928,
              39.987564256
            ],
            [
              116.345650394,
              39.987633021
            ],
            [
              116.345597316,
              39.987703875
            ],
            [
              116.345548822,
              39.987776647
            ],
            [
              116.345505028,
              39.987851162
            ],
            [
              116.34546604,
              39.98792724
            ],
            [
              116.345431952,
              39.988004698
            ],
            [
              116.345402846,
              39.988083349
            ],
            [
              116.345378792,
              39.988163004
            ],
            [
              116.345359849,
              39.988243471
            ],
            [
              116.345346061,
              39.988324556
            ],
            [
              116.345337461,
              39.988406063
            ],
            [
              116.345334072,
              39.988487797
            ],
            [
              116.345335901,
              39.988569561
            ],
            [
              116.345342943,
              39.988651157
            ],
            [
              116.345347228,
              39.988679598
            ],
            [
              116.340593967,
              39.988652653
            ],
            [
              116.340592235,
              39.988832766
            ],
            [
              116.34060386,
              39.989012954
            ],
            [
              116.345451408,
              39.989040431
            ],
            [
              116.345455326,
              39.989049785
            ],
            [
              116.345492858,
              39.989126295
            ],
            [
              116.345535226,
              39.989201296
            ],
            [
              116.345582327,
              39.989274608
            ],
            [
              116.345634049,
              39.989346054
            ],
            [
              116.345690265,
              39.989415462
            ],
            [
              116.345750842,
              39.989482664
            ],
            [
              116.345815632,
              39.989547499
            ],
            [
              116.345884481,
              39.98960981
            ],
            [
              116.345957222,
              39.989669448
            ],
            [
              116.345979788,
              39.989686218
            ],
            [
              116.346008142,
              39.990545617
            ],
            [
              116.346117793,
              39.992384468
            ],
            [
              116.346145088,
              39.992842202
            ],
            [
              116.346172384,
              39.993299936
            ],
            [
              116.346226976,
              39.994215404
            ],
            [
              116.346254273,
              39.994673137
            ],
            [
              116.346472657,
              39.998335006
            ],
            [
              116.346499957,
              39.998792739
            ],
            [
              116.346554557,
              39.999708206
            ],
            [
              116.346581858,
              40.000165939
            ],
            [
              116.346718365,
              40.002454605
            ],
            [
              116.346732925,
              40.002698708
            ],
            [
              116.341498378,
              40.002669084
            ],
            [
              116.341496648,
              40.002849196
            ],
            [
              116.341508277,
              40.003029383
            ],
            [
              116.34675442,
              40.003059073
            ],
            [
              116.34677297,
              40.003370071
            ],
            [
              116.346882178,
              40.005200886
            ],
            [
              116.346936288,
              40.006114007
            ],
            [
              116.346959866,
              40.006569494
            ],
            [
              116.347007254,
              40.007484918
            ],
            [
              116.347054643,
              40.008400343
            ],
            [
              116.347078338,
              40.008858055
            ],
            [
              116.347102034,
              40.009315767
            ],
            [
              116.347125729,
              40.009773479
            ],
            [
              116.347173121,
              40.010688903
            ],
            [
              116.347220514,
              40.011604327
            ],
            [
              116.347267908,
              40.012519751
            ],
            [
              116.347315304,
              40.013435175
            ],
            [
              116.347339002,
              40.013892886
            ],
            [
              116.347410097,
              40.015266022
            ],
            [
              116.347412324,
              40.015309022
            ],
            [
              116.347399649,
              40.015314449
            ],
            [
              116.347309382,
              40.015357691
            ],
            [
              116.347221982,
              40.015404287
            ],
            [
              116.347137662,
              40.015454124
            ],
            [
              116.347056623,
              40.015507082
            ],
            [
              116.346979061,
              40.015563034
            ],
            [
              116.346905163,
              40.015621844
            ],
            [
              116.346835107,
              40.015683372
            ],
            [
              116.346769062,
              40.015747469
            ],
            [
              116.346707186,
              40.01581398
            ],
            [
              116.34664963,
              40.015882746
            ],
            [
              116.346596531,
              40.0159536
            ],
            [
              116.346548017,
              40.016026372
            ],
            [
              116.346504206,
              40.016100886
            ],
            [
              116.346465203,
              40.016176964
            ],
            [
              116.346431101,
              40.016254422
            ],
            [
              116.346401984,
              40.016333073
            ],
            [
              116.346377921,
              40.016412727
            ],
            [
              116.34635897,
              40.016493194
            ],
            [
              116.346345177,
              40.016574278
            ],
            [
              116.346336575,
              40.016655786
            ],
            [
              116.346334421,
              40.016707718
            ],
            [
              116.342231646,
              40.016684503
            ],
            [
              116.342229917,
              40.016864614
            ],
            [
              116.342238706,
              40.017044786
            ],
            [
              116.346373241,
              40.01706818
            ],
            [
              116.34639426,
              40.017142699
            ],
            [
              116.346421874,
              40.01722167
            ],
            [
              116.346454494,
              40.017299504
            ],
            [
              116.346492042,
              40.017376013
            ],
            [
              116.346534428,
              40.017451014
            ],
            [
              116.34658155,
              40.017524325
            ],
            [
              116.346633293,
              40.01759577
            ],
            [
              116.346689533,
              40.017665177
            ],
            [
              116.346750135,
              40.017732379
            ],
            [
              116.346814953,
              40.017797213
            ],
            [
              116.346883831,
              40.017859524
            ],
            [
              116.346956602,
              40.017919161
            ],
            [
              116.347033092,
              40.017975981
            ],
            [
              116.347113115,
              40.018029847
            ],
            [
              116.34719648,
              40.018080628
            ],
            [
              116.347282986,
              40.018128204
            ],
            [
              116.347372424,
              40.018172458
            ],
            [
              116.347464578,
              40.018213285
            ],
            [
              116.347559227,
              40.018250586
            ],
            [
              116.347564735,
              40.0182525
            ],
            [
              116.347575997,
              40.018470002
            ],
            [
              116.347599698,
              40.018927713
            ],
            [
              116.347647101,
              40.019843136
            ],
            [
              116.347694505,
              40.020758558
            ],
            [
              116.34774191,
              40.021673981
            ],
            [
              116.347789317,
              40.022589403
            ],
            [
              116.347836724,
              40.023504825
            ],
            [
              116.347860428,
              40.023962535
            ],
            [
              116.347931542,
              40.025335668
            ],
            [
              116.347955247,
              40.025793379
            ],
            [
              116.347978953,
              40.026251089
            ],
            [
              116.349992247,
              40.026189445
            ],
            [
              116.349968528,
              40.025731735
            ],
            [
              116.34994481,
              40.025274025
            ],
            [
              116.349873656,
              40.023900893
            ],
            [
              116.349849938,
              40.023443182
            ],
            [
              116.349802504,
              40.022527761
            ],
            [
              116.349755071,
              40.02161234
            ],
            [
              116.349707639,
              40.020696918
            ],
            [
              116.349660208,
              40.019781496
            ],
            [
              116.349612778,
              40.018866074
            ],
            [
              116.349589063,
              40.018408363
            ],
            [
              116.349577987,
              40.018194584
            ],
            [
              116.349600408,
              40.018184984
            ],
            [
              116.349690678,
              40.01814174
            ],
            [
              116.349778079,
              40.018095142
            ],
            [
              116.349862401,
              40.018045303
            ],
            [
              116.349943441,
              40.017992343
            ],
            [
              116.350021003,
              40.017936389
            ],
            [
              116.350094901,
              40.017877577
            ],
            [
              116.350164956,
              40.017816047
            ],
            [
              116.350231,
              40.017751949
            ],
            [
              116.350292874,
              40.017685436
            ],
            [
              116.350350428,
              40.017616668
            ],
            [
              116.350403525,
              40.017545812
            ],
            [
              116.350452036,
              40.017473039
            ],
            [
              116.350495843,
              40.017398523
            ],
            [
              116.350534843,
              40.017322444
            ],
            [
              116.35056894,
              40.017244985
            ],
            [
              116.350598053,
              40.017166333
            ],
            [
              116.350620487,
              40.017092058
            ],
            [
              116.35477402,
              40.017115259
            ],
            [
              116.354775716,
              40.016935147
            ],
            [
              116.354765841,
              40.01675497
            ],
            [
              116.350666158,
              40.016732071
            ],
            [
              116.350664992,
              40.01668012
            ],
            [
              116.350657941,
              40.016598525
            ],
            [
              116.350645692,
              40.016517294
            ],
            [
              116.350628273,
              40.016436623
            ],
            [
              116.350605728,
              40.016356706
            ],
            [
              116.350578109,
              40.016277736
            ],
            [
              116.350545485,
              40.016199903
            ],
            [
              116.350507932,
              40.016123395
            ],
            [
              116.350465543,
              40.016048396
            ],
            [
              116.350418418,
              40.015975086
            ],
            [
              116.350366672,
              40.015903642
            ],
            [
              116.35031043,
              40.015834237
            ],
            [
              116.350249826,
              40.015767037
            ],
            [
              116.350185006,
              40.015702205
            ],
            [
              116.350116128,
              40.015639896
            ],
            [
              116.350043356,
              40.015580261
            ],
            [
              116.349966867,
              40.015523443
            ],
            [
              116.349886844,
              40.015469579
            ],
            [
              116.34980348,
              40.0154188
            ],
            [
              116.349716976,
              40.015371226
            ],
            [
              116.34962754,
              40.015326973
            ],
            [
              116.349535389,
              40.015286148
            ],
            [
              116.349440743,
              40.015248849
            ],
            [
              116.349425091,
              40.015243409
            ],
            [
              116.349423069,
              40.015204385
            ],
            [
              116.349351933,
              40.013831251
            ],
            [
              116.349328222,
              40.013373539
            ],
            [
              116.3492808,
              40.012458116
            ],
            [
              116.349233379,
              40.011542693
            ],
            [
              116.349185959,
              40.01062727
            ],
            [
              116.34913854,
              40.009711846
            ],
            [
              116.349114831,
              40.009254134
            ],
            [
              116.349091122,
              40.008796422
            ],
            [
              116.349067414,
              40.008338711
            ],
            [
              116.349019998,
              40.007423287
            ],
            [
              116.348972583,
              40.006507863
            ],
            [
              116.34894876,
              40.006047925
            ],
            [
              116.348894353,
              40.005130237
            ],
            [
              116.348785071,
              40.003299073
            ],
            [
              116.348771426,
              40.003070424
            ],
            [
              116.354006011,
              40.00309972
            ],
            [
              116.354007708,
              40.002919608
            ],
            [
              116.353997837,
              40.002739431
            ],
            [
              116.34874992,
              40.00271006
            ],
            [
              116.348730439,
              40.002383607
            ],
            [
              116.348593864,
              40.000094943
            ],
            [
              116.34856655,
              39.999637211
            ],
            [
              116.348511923,
              39.998721745
            ],
            [
              116.34848461,
              39.998264012
            ],
            [
              116.348266118,
              39.994602146
            ],
            [
              116.348238808,
              39.994144413
            ],
            [
              116.348184189,
              39.993228946
            ],
            [
              116.34815688,
              39.992771212
            ],
            [
              116.348129571,
              39.992313479
            ],
            [
              116.348020812,
              39.990490459
            ],
            [
              116.34800856,
              39.990119478
            ],
            [
              116.348010912,
              39.990119085
            ],
            [
              116.34811358,
              39.990097852
            ],
            [
              116.34821477,
              39.990072768
            ],
            [
              116.348314237,
              39.990043896
            ],
            [
              116.348411743,
              39.990011305
            ],
            [
              116.348507052,
              39.989975072
            ],
            [
              116.348599935,
              39.989935286
            ],
            [
              116.348690168,
              39.989892043
            ],
            [
              116.348777534,
              39.989845445
            ],
            [
              116.348861822,
              39.989795606
            ],
            [
              116.348942828,
              39.989742646
            ],
            [
              116.349020359,
              39.989686693
            ],
            [
              116.349094227,
              39.98962788
            ],
            [
              116.349164254,
              39.989566351
            ],
            [
              116.349230272,
              39.989502252
            ],
            [
              116.349292121,
              39.989435739
            ],
            [
              116.349349652,
              39.989366972
            ],
            [
              116.349402727,
              39.989296116
            ],
            [
              116.349451218,
              39.989223342
            ],
            [
              116.349495009,
              39.989148826
            ],
            [
              116.349533993,
              39.989072747
            ],
            [
              116.349538089,
              39.989063438
            ],
            [
              116.353373236,
              39.989084898
            ],
            [
              116.353387645,
              39.988904856
            ],
            [
              116.353389343,
              39.988724743
            ],
            [
              116.349649124,
              39.988703817
            ],
            [
              116.34965395,
              39.988675427
            ],
            [
              116.349662544,
              39.988593919
            ],
            [
              116.349665928,
              39.988512184
            ],
            [
              116.349664095,
              39.988430421
            ],
            [
              116.349657047,
              39.988348825
            ],
            [
              116.349644804,
              39.988267594
            ],
            [
              116.349627393,
              39.988186922
            ],
            [
              116.349604857,
              39.988107005
            ],
            [
              116.349577251,
              39.988028034
            ],
            [
              116.34954464,
              39.987950201
            ],
            [
              116.349507104,
              39.987873692
            ],
            [
              116.349464733,
              39.987798692
            ],
            [
              116.349417629,
              39.987725382
            ],
            [
              116.349365905,
              39.987653938
            ],
            [
              116.349309686,
              39.987584532
            ],
            [
              116.349249107,
              39.987517332
            ],
            [
              116.349184315,
              39.987452498
            ],
            [
              116.349115466,
              39.987390189
            ],
            [
              116.349042725,
              39.987330553
            ],
            [
              116.348966267,
              39.987273735
            ],
            [
              116.348886278,
              39.98721987
            ],
            [
              116.348802948,
              39.98716909
            ],
            [
              116.348716481,
              39.987121516
            ],
            [
              116.348627082,
              39.987077262
            ],
            [
              116.348534969,
              39.987036436
            ],
            [
              116.348440362,
              39.986999136
            ],
            [
              116.348343491,
              39.986965452
            ],
            [
              116.348244587,
              39.986935464
            ],
            [
              116.34814389,
              39.986909246
            ],
            [
              116.348041641,
              39.98688686
            ],
            [
              116.348012178,
              39.986881596
            ],
            [
              116.348012329,
              39.986861949
            ],
            [
              116.348033502,
              39.984116585
            ],
            [
              116.348040559,
              39.983201464
            ],
            [
              116.348044088,
              39.982743903
            ],
            [
              116.348047616,
              39.982286342
            ],
            [
              116.348054672,
              39.98137122
            ],
            [
              116.3480582,
              39.980913659
            ],
            [
              116.348065256,
              39.979998537
            ],
            [
              116.348068784,
              39.979540976
            ],
            [
              116.348075839,
              39.978625853
            ],
            [
              116.348079366,
              39.978168292
            ],
            [
              116.348082894,
              39.977710731
            ],
            [
              116.348086421,
              39.97725317
            ],
            [
              116.348089948,
              39.976795608
            ],
            [
              116.348096993,
              39.975881705
            ],
            [
              116.348106877,
              39.975044073
            ],
            [
              116.354493806,
              39.975079817
            ],
            [
              116.354508208,
              39.974899775
            ],
            [
              116.354509903,
              39.974719661
            ],
            [
              116.348123599,
              39.974683922
            ],
            [
              116.348205533,
              39.973163096
            ],
            [
              116.348230177,
              39.972705653
            ],
            [
              116.34825482,
              39.97224821
            ],
            [
              116.348279463,
              39.971790767
            ],
            [
              116.348304106,
              39.971333324
            ],
            [
              116.348501234,
              39.967673778
            ],
            [
              116.348525873,
              39.967216334
            ],
            [
              116.348550512,
              39.966758891
            ],
            [
              116.34859983,
              39.965843223
            ],
            [
              116.348623307,
              39.965384992
            ],
            [
              116.348647312,
              39.964916426
            ],
            [
              116.348653817,
              39.964447757
            ],
            [
              116.348660166,
              39.96399021
            ],
            [
              116.348679215,
              39.962617571
            ],
            [
              116.348685565,
              39.962160024
            ],
            [
              116.348701161,
              39.961036056
            ],
            [
              116.355298317,
              39.961072933
            ],
            [
              116.355300009,
              39.96089282
            ],
            [
              116.355300009,
              39.960712696
            ],
            [
              116.348706159,
              39.960675838
            ],
            [
              116.348749051,
              39.957584555
            ],
            [
              116.348755399,
              39.957127008
            ],
            [
              116.348761746,
              39.956669461
            ],
            [
              116.348768094,
              39.956211914
            ],
            [
              116.348780789,
              39.95529682
            ],
            [
              116.348787136,
              39.954839273
            ],
            [
              116.348793484,
              39.954381725
            ],
            [
              116.348831564,
              39.951636441
            ],
            [
              116.34883791,
              39.951178893
            ],
            [
              116.348874223,
              39.948560718
            ],
            [
              116.348906801,
              39.948556555
            ],
            [
              116.349010637,
              39.948539221
            ],
            [
              116.349113242,
              39.948517985
            ],
            [
              116.34921437,
              39.948492901
            ],
            [
              116.349313776,
              39.948464027
            ],
            [
              116.349411222,
              39.948431434
            ],
            [
              116.349506473,
              39.9483952
            ],
            [
              116.349599299,
              39.948355412
            ],
            [
              116.349689476,
              39.948312167
            ],
            [
              116.349776788,
              39.948265568
            ],
            [
              116.349861024,
              39.948215728
            ],
            [
              116.34994198,
              39.948162766
            ],
            [
              116.350019463,
              39.948106811
            ],
            [
              116.350093284,
              39.948047997
            ],
            [
              116.350163268,
              39.947986466
            ],
            [
              116.350229244,
              39.947922367
            ],
            [
              116.350291054,
              39.947855852
            ],
            [
              116.350348549,
              39.947787084
            ],
            [
              116.35040159,
              39.947716227
            ],
            [
              116.35045005,
              39.947643452
            ],
            [
              116.350493813,
              39.947568934
            ],
            [
              116.350532772,
              39.947492854
            ],
            [
              116.350566833,
              39.947415394
            ],
            [
              116.350595915,
              39.947336741
            ],
            [
              116.350619948,
              39.947257084
            ],
            [
              116.350638874,
              39.947176615
            ],
            [
              116.350652647,
              39.947095529
            ],
            [
              116.350658955,
              39.947035647
            ],
            [
              116.355298323,
              39.947061539
            ],
            [
              116.355300014,
              39.946881425
            ],
            [
              116.355300014,
              39.946701301
            ],
            [
              116.350640823,
              39.946675298
            ],
            [
              116.350626095,
              39.946607022
            ],
            [
              116.350603571,
              39.946527104
            ]
          ]
        ]
      }
    }
  ],
  "metadata": {
    "public_space_status": "concept_only"
  }
}
