{
  "type": "FeatureCollection",
  "name": "jingzhang_life_line_roads",
  "features": [
    {
      "type": "Feature",
      "id": "ROAD-LIFELINE-001",
      "properties": {
        "id": "ROAD-LIFELINE-001",
        "layer": "ROAD_CENTERLINE",
        "source_type": "agent_generated_design",
        "confidence": "low",
        "geometry_role": "design_proposal",
        "road_class": "greenway",
        "name_zh": "京张生命线连续服务慢行脊",
        "name_en": "Jingzhang Life-Line continuous-service slow-mobility spine",
        "transport_status": "concept_alignment_pending_field_access_and_rail_review",
        "assumption_ids": [
          "A-ACCESS-001",
          "A-PHASE2-ASBUILT-001"
        ]
      },
      "geometry": {
        "type": "LineString",
        "coordinates": [
          [
            116.347996758,
            39.939274376
          ],
          [
            116.347990408,
            39.939731924
          ],
          [
            116.347984058,
            39.940189472
          ],
          [
            116.347977708,
            39.940647021
          ],
          [
            116.347971358,
            39.941104569
          ],
          [
            116.347965008,
            39.941562117
          ],
          [
            116.347958658,
            39.942019665
          ],
          [
            116.347952307,
            39.942477214
          ],
          [
            116.347945957,
            39.942934762
          ],
          [
            116.347939606,
            39.94339231
          ],
          [
            116.347933255,
            39.943849858
          ],
          [
            116.347926904,
            39.944307406
          ],
          [
            116.347920553,
            39.944764954
          ],
          [
            116.347914202,
            39.945222502
          ],
          [
            116.34790785,
            39.94568005
          ],
          [
            116.347901499,
            39.946137598
          ],
          [
            116.347895147,
            39.946595145
          ],
          [
            116.347888796,
            39.947052693
          ],
          [
            116.347882444,
            39.947510241
          ],
          [
            116.347876092,
            39.947967789
          ],
          [
            116.34786974,
            39.948425336
          ],
          [
            116.347863387,
            39.948882884
          ],
          [
            116.347857035,
            39.949340432
          ],
          [
            116.347850682,
            39.949797979
          ],
          [
            116.34784433,
            39.950255527
          ],
          [
            116.347837977,
            39.950713074
          ],
          [
            116.347831624,
            39.951170622
          ],
          [
            116.347825271,
            39.951628169
          ],
          [
            116.347818918,
            39.952085717
          ],
          [
            116.347812565,
            39.952543264
          ],
          [
            116.347806212,
            39.953000811
          ],
          [
            116.347799858,
            39.953458358
          ],
          [
            116.347793504,
            39.953915906
          ],
          [
            116.347787151,
            39.954373453
          ],
          [
            116.347780797,
            39.954831
          ],
          [
            116.347774443,
            39.955288547
          ],
          [
            116.347768089,
            39.955746094
          ],
          [
            116.347761734,
            39.956203641
          ],
          [
            116.34775538,
            39.956661188
          ],
          [
            116.347749026,
            39.957118735
          ],
          [
            116.347742671,
            39.957576282
          ],
          [
            116.347736316,
            39.958033829
          ],
          [
            116.347729961,
            39.958491376
          ],
          [
            116.347723606,
            39.958948923
          ],
          [
            116.347717251,
            39.95940647
          ],
          [
            116.347710896,
            39.959864016
          ],
          [
            116.34770454,
            39.960321563
          ],
          [
            116.347698185,
            39.96077911
          ],
          [
            116.347691829,
            39.961236657
          ],
          [
            116.347685473,
            39.961694203
          ],
          [
            116.347679118,
            39.96215175
          ],
          [
            116.347672762,
            39.962609296
          ],
          [
            116.347666405,
            39.963066843
          ],
          [
            116.347660049,
            39.963524389
          ],
          [
            116.347653693,
            39.963981936
          ],
          [
            116.347647336,
            39.964439482
          ],
          [
            116.34764098,
            39.964897028
          ],
          [
            116.347617537,
            39.965354479
          ],
          [
            116.347594094,
            39.965811929
          ],
          [
            116.347569449,
            39.966269372
          ],
          [
            116.347544804,
            39.966726815
          ],
          [
            116.347520158,
            39.967184258
          ],
          [
            116.347495512,
            39.967641702
          ],
          [
            116.347470866,
            39.968099145
          ],
          [
            116.347446219,
            39.968556588
          ],
          [
            116.347421572,
            39.969014031
          ],
          [
            116.347396925,
            39.969471474
          ],
          [
            116.347372277,
            39.969928917
          ],
          [
            116.347347629,
            39.97038636
          ],
          [
            116.34732298,
            39.970843803
          ],
          [
            116.347298331,
            39.971301246
          ],
          [
            116.347273682,
            39.971758688
          ],
          [
            116.347249032,
            39.972216131
          ],
          [
            116.347224382,
            39.972673574
          ],
          [
            116.347199732,
            39.973131016
          ],
          [
            116.347175081,
            39.973588459
          ],
          [
            116.34715043,
            39.974045902
          ],
          [
            116.347125778,
            39.974503344
          ],
          [
            116.347101126,
            39.974960787
          ],
          [
            116.34709572,
            39.975418337
          ],
          [
            116.347090314,
            39.975875888
          ],
          [
            116.347086781,
            39.97633345
          ],
          [
            116.347083247,
            39.976791011
          ],
          [
            116.347079713,
            39.977248572
          ],
          [
            116.347076179,
            39.977706133
          ],
          [
            116.347072645,
            39.978163694
          ],
          [
            116.347069111,
            39.978621256
          ],
          [
            116.347065576,
            39.979078817
          ],
          [
            116.347062042,
            39.979536378
          ],
          [
            116.347058508,
            39.979993939
          ],
          [
            116.347054973,
            39.9804515
          ],
          [
            116.347051438,
            39.980909061
          ],
          [
            116.347047904,
            39.981366622
          ],
          [
            116.347044369,
            39.981824183
          ],
          [
            116.347040834,
            39.982281743
          ],
          [
            116.347037299,
            39.982739304
          ],
          [
            116.347033764,
            39.983196865
          ],
          [
            116.347030229,
            39.983654426
          ],
          [
            116.347026694,
            39.984111986
          ],
          [
            116.347023158,
            39.984569547
          ],
          [
            116.347019623,
            39.985027108
          ],
          [
            116.347016087,
            39.985484668
          ],
          [
            116.347012552,
            39.985942229
          ],
          [
            116.347009016,
            39.986399789
          ],
          [
            116.34700548,
            39.98685735
          ],
          [
            116.347001944,
            39.98731491
          ],
          [
            116.346998408,
            39.987772471
          ],
          [
            116.346994872,
            39.988230031
          ],
          [
            116.346991336,
            39.988687591
          ],
          [
            116.3469878,
            39.989145152
          ],
          [
            116.346984264,
            39.989602712
          ],
          [
            116.34699937,
            39.990060377
          ],
          [
            116.347014477,
            39.990518042
          ],
          [
            116.347041778,
            39.990975776
          ],
          [
            116.347069079,
            39.99143351
          ],
          [
            116.347096381,
            39.991891244
          ],
          [
            116.347123682,
            39.992348978
          ],
          [
            116.347150984,
            39.992806711
          ],
          [
            116.347178287,
            39.993264445
          ],
          [
            116.34720559,
            39.993722179
          ],
          [
            116.347232893,
            39.994179912
          ],
          [
            116.347260196,
            39.994637646
          ],
          [
            116.3472875,
            39.995095379
          ],
          [
            116.347314804,
            39.995553113
          ],
          [
            116.347342108,
            39.996010846
          ],
          [
            116.347369413,
            39.99646858
          ],
          [
            116.347396718,
            39.996926313
          ],
          [
            116.347424023,
            39.997384047
          ],
          [
            116.347451328,
            39.99784178
          ],
          [
            116.347478634,
            39.998299513
          ],
          [
            116.347505941,
            39.998757246
          ],
          [
            116.347533247,
            39.999214979
          ],
          [
            116.347560554,
            39.999672713
          ],
          [
            116.347587861,
            40.000130446
          ],
          [
            116.347615169,
            40.000588179
          ],
          [
            116.347642477,
            40.001045912
          ],
          [
            116.347669785,
            40.001503645
          ],
          [
            116.347697094,
            40.001961378
          ],
          [
            116.347724402,
            40.002419111
          ],
          [
            116.347751712,
            40.002876843
          ],
          [
            116.347779021,
            40.003334576
          ],
          [
            116.347806331,
            40.003792309
          ],
          [
            116.347833641,
            40.004250042
          ],
          [
            116.347860952,
            40.004707774
          ],
          [
            116.347888262,
            40.005165507
          ],
          [
            116.347915393,
            40.005623239
          ],
          [
            116.347942524,
            40.00608097
          ],
          [
            116.347966225,
            40.006538683
          ],
          [
            116.347989925,
            40.006996395
          ],
          [
            116.348013626,
            40.007454107
          ],
          [
            116.348037327,
            40.007911819
          ],
          [
            116.348061029,
            40.008369531
          ],
          [
            116.348084731,
            40.008827243
          ],
          [
            116.348108433,
            40.009284955
          ],
          [
            116.348132135,
            40.009742667
          ],
          [
            116.348155838,
            40.010200379
          ],
          [
            116.34817954,
            40.010658091
          ],
          [
            116.348203243,
            40.011115803
          ],
          [
            116.348226947,
            40.011573514
          ],
          [
            116.34825065,
            40.012031226
          ],
          [
            116.348274354,
            40.012488938
          ],
          [
            116.348298059,
            40.01294665
          ],
          [
            116.348321763,
            40.013404361
          ],
          [
            116.348345468,
            40.013862073
          ],
          [
            116.348369173,
            40.014319784
          ],
          [
            116.348392878,
            40.014777496
          ],
          [
            116.348416584,
            40.015235207
          ],
          [
            116.34844029,
            40.015692919
          ],
          [
            116.348463996,
            40.01615063
          ],
          [
            116.348487702,
            40.016608342
          ],
          [
            116.348511409,
            40.017066053
          ],
          [
            116.348535116,
            40.017523764
          ],
          [
            116.348558823,
            40.017981476
          ],
          [
            116.348582531,
            40.018439187
          ],
          [
            116.348606238,
            40.018896898
          ],
          [
            116.348629946,
            40.019354609
          ],
          [
            116.348653655,
            40.01981232
          ],
          [
            116.348677363,
            40.020270031
          ],
          [
            116.348701072,
            40.020727742
          ],
          [
            116.348724781,
            40.021185453
          ],
          [
            116.348748491,
            40.021643164
          ],
          [
            116.348772201,
            40.022100875
          ],
          [
            116.348795911,
            40.022558586
          ],
          [
            116.348819621,
            40.023016297
          ],
          [
            116.348843331,
            40.023474008
          ],
          [
            116.348867042,
            40.023931719
          ],
          [
            116.348890753,
            40.024389429
          ],
          [
            116.348914465,
            40.02484714
          ],
          [
            116.348938176,
            40.025304851
          ],
          [
            116.348961888,
            40.025762561
          ],
          [
            116.3489856,
            40.026220272
          ]
        ]
      }
    },
    {
      "type": "Feature",
      "id": "ROAD-SEAM-01",
      "properties": {
        "id": "ROAD-SEAM-01",
        "layer": "ROAD_CENTERLINE",
        "source_type": "agent_generated_design",
        "confidence": "low",
        "geometry_role": "design_proposal",
        "road_class": "pedestrian",
        "name_zh": "第 1 条无障碍核验缝",
        "name_en": "Accessible verification seam 1",
        "transport_status": "concept_audit_route_not_existing_or_approved_road",
        "assumption_ids": [
          "A-ACCESS-001"
        ]
      },
      "geometry": {
        "type": "LineString",
        "coordinates": [
          [
            116.340483498,
            39.946798084
          ],
          [
            116.341471264,
            39.946803699
          ],
          [
            116.34245903,
            39.946809305
          ],
          [
            116.343446796,
            39.946814903
          ],
          [
            116.344434563,
            39.946820493
          ],
          [
            116.34542233,
            39.946826074
          ],
          [
            116.346410097,
            39.946831647
          ],
          [
            116.347397864,
            39.946837212
          ],
          [
            116.348385632,
            39.946842768
          ],
          [
            116.3493734,
            39.946848315
          ],
          [
            116.350361168,
            39.946853855
          ],
          [
            116.351348937,
            39.946859385
          ],
          [
            116.352336706,
            39.946864908
          ],
          [
            116.353324475,
            39.946870422
          ],
          [
            116.354312244,
            39.946875927
          ],
          [
            116.355300014,
            39.946881425
          ]
        ]
      }
    },
    {
      "type": "Feature",
      "id": "ROAD-SEAM-02",
      "properties": {
        "id": "ROAD-SEAM-02",
        "layer": "ROAD_CENTERLINE",
        "source_type": "agent_generated_design",
        "confidence": "low",
        "geometry_role": "design_proposal",
        "road_class": "transit_connection",
        "name_zh": "第 2 条无障碍核验缝",
        "name_en": "Accessible verification seam 2",
        "transport_status": "concept_audit_route_not_existing_or_approved_road",
        "assumption_ids": [
          "A-ACCESS-001"
        ]
      },
      "geometry": {
        "type": "LineString",
        "coordinates": [
          [
            116.3400944,
            39.960807257
          ],
          [
            116.341108105,
            39.960813024
          ],
          [
            116.342121811,
            39.960818781
          ],
          [
            116.343135516,
            39.960824529
          ],
          [
            116.344149223,
            39.960830269
          ],
          [
            116.345162929,
            39.960836
          ],
          [
            116.346176636,
            39.960841722
          ],
          [
            116.347190343,
            39.960847435
          ],
          [
            116.34820405,
            39.960853139
          ],
          [
            116.349217757,
            39.960858834
          ],
          [
            116.350231465,
            39.96086452
          ],
          [
            116.351245173,
            39.960870198
          ],
          [
            116.352258882,
            39.960875867
          ],
          [
            116.353272591,
            39.960881527
          ],
          [
            116.3542863,
            39.960887178
          ],
          [
            116.355300009,
            39.96089282
          ]
        ]
      }
    },
    {
      "type": "Feature",
      "id": "ROAD-SEAM-03",
      "properties": {
        "id": "ROAD-SEAM-03",
        "layer": "ROAD_CENTERLINE",
        "source_type": "agent_generated_design",
        "confidence": "low",
        "geometry_role": "design_proposal",
        "road_class": "pedestrian",
        "name_zh": "第 3 条无障碍核验缝",
        "name_en": "Accessible verification seam 3",
        "transport_status": "concept_audit_route_not_existing_or_approved_road",
        "assumption_ids": [
          "A-ACCESS-001"
        ]
      },
      "geometry": {
        "type": "LineString",
        "coordinates": [
          [
            116.339705103,
            39.974816395
          ],
          [
            116.340691975,
            39.974822012
          ],
          [
            116.341678847,
            39.974827621
          ],
          [
            116.34266572,
            39.974833222
          ],
          [
            116.343652592,
            39.974838814
          ],
          [
            116.344639465,
            39.974844398
          ],
          [
            116.345626338,
            39.974849973
          ],
          [
            116.346613211,
            39.974855541
          ],
          [
            116.347600085,
            39.974861099
          ],
          [
            116.348586959,
            39.974866649
          ],
          [
            116.349573833,
            39.974872191
          ],
          [
            116.350560708,
            39.974877725
          ],
          [
            116.351547583,
            39.97488325
          ],
          [
            116.352534458,
            39.974888766
          ],
          [
            116.353521333,
            39.974894275
          ],
          [
            116.354508208,
            39.974899775
          ]
        ]
      }
    },
    {
      "type": "Feature",
      "id": "ROAD-SEAM-04",
      "properties": {
        "id": "ROAD-SEAM-04",
        "layer": "ROAD_CENTERLINE",
        "source_type": "agent_generated_design",
        "confidence": "low",
        "geometry_role": "design_proposal",
        "road_class": "transit_connection",
        "name_zh": "第 4 条无障碍核验缝",
        "name_en": "Accessible verification seam 4",
        "transport_status": "concept_audit_route_not_existing_or_approved_road",
        "assumption_ids": [
          "A-ACCESS-001"
        ]
      },
      "geometry": {
        "type": "LineString",
        "coordinates": [
          [
            116.340592235,
            39.988832766
          ],
          [
            116.341576496,
            39.988838361
          ],
          [
            116.342560757,
            39.988843949
          ],
          [
            116.343545018,
            39.988849527
          ],
          [
            116.344529279,
            39.988855098
          ],
          [
            116.345513541,
            39.98886066
          ],
          [
            116.346497803,
            39.988866214
          ],
          [
            116.347482065,
            39.988871759
          ],
          [
            116.348466328,
            39.988877296
          ],
          [
            116.349450591,
            39.988882825
          ],
          [
            116.350434854,
            39.988888345
          ],
          [
            116.351419117,
            39.988893857
          ],
          [
            116.352403381,
            39.988899361
          ],
          [
            116.353387645,
            39.988904856
          ]
        ]
      }
    },
    {
      "type": "Feature",
      "id": "ROAD-SEAM-05",
      "properties": {
        "id": "ROAD-SEAM-05",
        "layer": "ROAD_CENTERLINE",
        "source_type": "agent_generated_design",
        "confidence": "low",
        "geometry_role": "design_proposal",
        "road_class": "pedestrian",
        "name_zh": "第 5 条无障碍核验缝",
        "name_en": "Accessible verification seam 5",
        "transport_status": "concept_audit_route_not_existing_or_approved_road",
        "assumption_ids": [
          "A-ACCESS-001"
        ]
      },
      "geometry": {
        "type": "LineString",
        "coordinates": [
          [
            116.341496648,
            40.002849196
          ],
          [
            116.342539235,
            40.002855115
          ],
          [
            116.343581822,
            40.002861025
          ],
          [
            116.344624409,
            40.002866925
          ],
          [
            116.345666997,
            40.002872816
          ],
          [
            116.346709584,
            40.002878698
          ],
          [
            116.347752173,
            40.00288457
          ],
          [
            116.348794761,
            40.002890433
          ],
          [
            116.34983735,
            40.002896287
          ],
          [
            116.350879939,
            40.002902131
          ],
          [
            116.351922529,
            40.002907966
          ],
          [
            116.352965118,
            40.002913791
          ],
          [
            116.354007708,
            40.002919608
          ]
        ]
      }
    },
    {
      "type": "Feature",
      "id": "ROAD-SEAM-06",
      "properties": {
        "id": "ROAD-SEAM-06",
        "layer": "ROAD_CENTERLINE",
        "source_type": "agent_generated_design",
        "confidence": "low",
        "geometry_role": "design_proposal",
        "road_class": "transit_connection",
        "name_zh": "第 6 条无障碍核验缝",
        "name_en": "Accessible verification seam 6",
        "transport_status": "concept_audit_route_not_existing_or_approved_road",
        "assumption_ids": [
          "A-ACCESS-001"
        ]
      },
      "geometry": {
        "type": "LineString",
        "coordinates": [
          [
            116.342229917,
            40.016864614
          ],
          [
            116.343275398,
            40.016870544
          ],
          [
            116.34432088,
            40.016876464
          ],
          [
            116.345366362,
            40.016882375
          ],
          [
            116.346411845,
            40.016888276
          ],
          [
            116.347457328,
            40.016894168
          ],
          [
            116.348502811,
            40.01690005
          ],
          [
            116.349548294,
            40.016905923
          ],
          [
            116.350593778,
            40.016911787
          ],
          [
            116.351639262,
            40.016917641
          ],
          [
            116.352684747,
            40.016923485
          ],
          [
            116.353730231,
            40.016929321
          ],
          [
            116.354775716,
            40.016935147
          ]
        ]
      }
    }
  ],
  "metadata": {
    "alignment_status": "concept_only"
  }
}
