{
  "type": "FeatureCollection",
  "name": "jingzhang_life_line_site_boundary",
  "features": [
    {
      "type": "Feature",
      "id": "PROV-SITE-001",
      "properties": {
        "id": "PROV-SITE-001",
        "layer": "SITE_BOUNDARY",
        "source_type": "agent_inferred_from_public_data",
        "confidence": "medium",
        "geometry_role": "provisional_constraint",
        "scope_id": "overall_design_area",
        "name_zh": "总体设计范围粗略替代边界",
        "name_en": "Provisional rough overall-design boundary",
        "official_boundary": false,
        "boundary_precision": "provisional_rough",
        "source_id": "DATA-SRC-PROVISIONAL-BOUNDARIES-20260605",
        "usage_note": "仅用于概念生成、展示和复算；不得作为法定红线、审批或精确测绘依据。",
        "area_sqm_declared": 11412825.386
      },
      "geometry": {
        "type": "Polygon",
        "coordinates": [
          [
            [
              116.3407,
              39.939
            ],
            [
              116.3553,
              39.939
            ],
            [
              116.3553,
              39.965
            ],
            [
              116.3533,
              39.99
            ],
            [
              116.3553,
              40.0265
            ],
            [
              116.3427,
              40.0265
            ],
            [
              116.3417,
              40.006
            ],
            [
              116.3397,
              39.975
            ],
            [
              116.3407,
              39.939
            ]
          ]
        ]
      }
    }
  ],
  "metadata": {
    "coordinate_reference_system": "EPSG:4326",
    "area_check_crs": "EPSG:4548",
    "boundary_status": "maintainer_defined_provisional",
    "replacement_rule": "Replace and recompute every derived layer when cleared official geometry arrives."
  }
}
