{
  "type": "FeatureCollection",
  "name": "jingzhang_next_stop_buildings",
  "features": [
    {
      "type": "Feature",
      "id": "BLDG-001",
      "properties": {
        "id": "BLDG-001",
        "layer": "BUILDING_FOOTPRINT",
        "source_type": "agent_generated_design",
        "confidence": "medium",
        "geometry_role": "design_proposal",
        "building_type": "mixed_use",
        "name_zh": "大钟寺智能经济街区楼群",
        "building_status": "proposed",
        "area_sqm_declared": 11831.908
      },
      "geometry": {
        "type": "Polygon",
        "coordinates": [
          [
            [
              116.35009199999999,
              39.943737999999996
            ],
            [
              116.35009199999999,
              39.945762
            ],
            [
              116.350708,
              39.945762
            ],
            [
              116.350708,
              39.943737999999996
            ],
            [
              116.35009199999999,
              39.943737999999996
            ]
          ]
        ]
      }
    },
    {
      "type": "Feature",
      "id": "BLDG-002",
      "properties": {
        "id": "BLDG-002",
        "layer": "BUILDING_FOOTPRINT",
        "source_type": "agent_generated_design",
        "confidence": "medium",
        "geometry_role": "design_proposal",
        "building_type": "mixed_use",
        "name_zh": "大钟寺东商务楼群",
        "building_status": "proposed",
        "area_sqm_declared": 3677.387
      },
      "geometry": {
        "type": "Polygon",
        "coordinates": [
          [
            [
              116.35453299999999,
              39.943922
            ],
            [
              116.35453299999999,
              39.945578
            ],
            [
              116.354767,
              39.945578
            ],
            [
              116.354767,
              39.943922
            ],
            [
              116.35453299999999,
              39.943922
            ]
          ]
        ]
      }
    },
    {
      "type": "Feature",
      "id": "BLDG-003",
      "properties": {
        "id": "BLDG-003",
        "layer": "BUILDING_FOOTPRINT",
        "source_type": "agent_generated_design",
        "confidence": "medium",
        "geometry_role": "design_proposal",
        "building_type": "mixed_use",
        "name_zh": "原点发布厅集群",
        "building_status": "proposed",
        "area_sqm_declared": 23797.658
      },
      "geometry": {
        "type": "Polygon",
        "coordinates": [
          [
            [
              116.35011999999999,
              39.97376
            ],
            [
              116.35011999999999,
              39.97824
            ],
            [
              116.35068,
              39.97824
            ],
            [
              116.35068,
              39.97376
            ],
            [
              116.35011999999999,
              39.97376
            ]
          ]
        ]
      }
    },
    {
      "type": "Feature",
      "id": "BLDG-004",
      "properties": {
        "id": "BLDG-004",
        "layer": "BUILDING_FOOTPRINT",
        "source_type": "agent_generated_design",
        "confidence": "medium",
        "geometry_role": "design_proposal",
        "building_type": "mixed_use",
        "name_zh": "近校孵化楼群",
        "building_status": "proposed",
        "area_sqm_declared": 26109.609
      },
      "geometry": {
        "type": "Polygon",
        "coordinates": [
          [
            [
              116.34187969957104,
              39.9738663768277
            ],
            [
              116.34187969957104,
              39.977450376827704
            ],
            [
              116.34264769957103,
              39.977450376827704
            ],
            [
              116.34264769957103,
              39.9738663768277
            ],
            [
              116.34187969957104,
              39.9738663768277
            ]
          ]
        ]
      }
    },
    {
      "type": "Feature",
      "id": "BLDG-005",
      "properties": {
        "id": "BLDG-005",
        "layer": "BUILDING_FOOTPRINT",
        "source_type": "agent_generated_design",
        "confidence": "medium",
        "geometry_role": "design_proposal",
        "building_type": "mixed_use",
        "name_zh": "众智园全栈研发楼群",
        "building_status": "proposed",
        "area_sqm_declared": 23239.973
      },
      "geometry": {
        "type": "Polygon",
        "coordinates": [
          [
            [
              116.35006399999999,
              40.015176
            ],
            [
              116.35006399999999,
              40.018823999999995
            ],
            [
              116.350736,
              40.018823999999995
            ],
            [
              116.350736,
              40.015176
            ],
            [
              116.35006399999999,
              40.015176
            ]
          ]
        ]
      }
    },
    {
      "type": "Feature",
      "id": "BLDG-006",
      "properties": {
        "id": "BLDG-006",
        "layer": "BUILDING_FOOTPRINT",
        "source_type": "agent_generated_design",
        "confidence": "medium",
        "geometry_role": "design_proposal",
        "building_type": "mixed_use",
        "name_zh": "众智园西研发楼群",
        "building_status": "proposed",
        "area_sqm_declared": 17706.841
      },
      "geometry": {
        "type": "Polygon",
        "coordinates": [
          [
            [
              116.34296847932434,
              40.01513565229886
            ],
            [
              116.34296847932434,
              40.01756765229886
            ],
            [
              116.34373647932433,
              40.01756765229886
            ],
            [
              116.34373647932433,
              40.01513565229886
            ],
            [
              116.34296847932434,
              40.01513565229886
            ]
          ]
        ]
      }
    },
    {
      "type": "Feature",
      "id": "BLDG-007",
      "properties": {
        "id": "BLDG-007",
        "layer": "BUILDING_FOOTPRINT",
        "source_type": "agent_generated_design",
        "confidence": "medium",
        "geometry_role": "design_proposal",
        "building_type": "mixed_use",
        "name_zh": "智能经济街区楼群",
        "building_status": "proposed",
        "area_sqm_declared": 9776.818
      },
      "geometry": {
        "type": "Polygon",
        "coordinates": [
          [
            [
              116.35012,
              39.95533
            ],
            [
              116.35012,
              39.95717
            ],
            [
              116.35068000000001,
              39.95717
            ],
            [
              116.35068000000001,
              39.95533
            ],
            [
              116.35012,
              39.95533
            ]
          ]
        ]
      }
    },
    {
      "type": "Feature",
      "id": "BLDG-008",
      "properties": {
        "id": "BLDG-008",
        "layer": "BUILDING_FOOTPRINT",
        "source_type": "agent_generated_design",
        "confidence": "medium",
        "geometry_role": "design_proposal",
        "building_type": "mixed_use",
        "name_zh": "中区研发楼群",
        "building_status": "proposed",
        "area_sqm_declared": 12043.615
      },
      "geometry": {
        "type": "Polygon",
        "coordinates": [
          [
            [
              116.35014799999999,
              39.99749
            ],
            [
              116.35014799999999,
              40.00001
            ],
            [
              116.350652,
              40.00001
            ],
            [
              116.350652,
              39.99749
            ],
            [
              116.35014799999999,
              39.99749
            ]
          ]
        ]
      }
    },
    {
      "type": "Feature",
      "id": "BLDG-009",
      "properties": {
        "id": "BLDG-009",
        "layer": "BUILDING_FOOTPRINT",
        "source_type": "agent_generated_design",
        "confidence": "medium",
        "geometry_role": "design_proposal",
        "building_type": "mixed_use",
        "name_zh": "大钟寺西商务楼群",
        "building_status": "proposed",
        "area_sqm_declared": 10728.349
      },
      "geometry": {
        "type": "Polygon",
        "coordinates": [
          [
            [
              116.34213506511036,
              39.94409131205425
            ],
            [
              116.34213506511036,
              39.945563312054254
            ],
            [
              116.34290306511035,
              39.945563312054254
            ],
            [
              116.34290306511035,
              39.94409131205425
            ],
            [
              116.34213506511036,
              39.94409131205425
            ]
          ]
        ]
      }
    },
    {
      "type": "Feature",
      "id": "BLDG-010",
      "properties": {
        "id": "BLDG-010",
        "layer": "BUILDING_FOOTPRINT",
        "source_type": "agent_generated_design",
        "confidence": "medium",
        "geometry_role": "design_proposal",
        "building_type": "residential",
        "name_zh": "西区社区楼群",
        "building_status": "proposed",
        "area_sqm_declared": 5139.819
      },
      "geometry": {
        "type": "Polygon",
        "coordinates": [
          [
            [
              116.34546599999999,
              39.955514
            ],
            [
              116.34546599999999,
              39.95698600000001
            ],
            [
              116.345834,
              39.95698600000001
            ],
            [
              116.345834,
              39.955514
            ],
            [
              116.34546599999999,
              39.955514
            ]
          ]
        ]
      }
    },
    {
      "type": "Feature",
      "id": "BLDG-011",
      "properties": {
        "id": "BLDG-011",
        "layer": "BUILDING_FOOTPRINT",
        "source_type": "agent_generated_design",
        "confidence": "medium",
        "geometry_role": "design_proposal",
        "building_type": "residential",
        "name_zh": "东区社区楼群",
        "building_status": "proposed",
        "area_sqm_declared": 2224.224
      },
      "geometry": {
        "type": "Polygon",
        "coordinates": [
          [
            [
              116.35455900000001,
              39.955605999999996
            ],
            [
              116.35455900000001,
              39.956894
            ],
            [
              116.354741,
              39.956894
            ],
            [
              116.354741,
              39.955605999999996
            ],
            [
              116.35455900000001,
              39.955605999999996
            ]
          ]
        ]
      }
    },
    {
      "type": "Feature",
      "id": "BLDG-012",
      "properties": {
        "id": "BLDG-012",
        "layer": "BUILDING_FOOTPRINT",
        "source_type": "agent_generated_design",
        "confidence": "medium",
        "geometry_role": "design_proposal",
        "building_type": "residential",
        "name_zh": "近校配套楼群",
        "building_status": "proposed",
        "area_sqm_declared": 5414.543
      },
      "geometry": {
        "type": "Polygon",
        "coordinates": [
          [
            [
              116.3544007602996,
              39.966983498127355
            ],
            [
              116.3544007602996,
              39.97011949812735
            ],
            [
              116.35458276029959,
              39.97011949812735
            ],
            [
              116.35458276029959,
              39.966983498127355
            ],
            [
              116.3544007602996,
              39.966983498127355
            ]
          ]
        ]
      }
    }
  ]
}
