{
  "type": "FeatureCollection",
  "name": "jingzhang_next_stop_constraints",
  "features": [
    {
      "type": "Feature",
      "id": "CONSTR-001",
      "properties": {
        "id": "CONSTR-001",
        "layer": "EXISTING_RAIL",
        "source_type": "agent_inferred_from_public_data",
        "confidence": "low",
        "geometry_role": "existing_condition",
        "name_zh": "既有轨道示意（13号线/京张高铁）"
      },
      "geometry": {
        "type": "LineString",
        "coordinates": [
          [
            116.345,
            39.939
          ],
          [
            116.345,
            40.0265
          ]
        ]
      }
    },
    {
      "type": "Feature",
      "id": "CONSTR-002",
      "properties": {
        "id": "CONSTR-002",
        "layer": "HERITAGE_PROTECTION",
        "source_type": "agent_inferred_from_public_data",
        "confidence": "low",
        "geometry_role": "existing_condition",
        "name_zh": "京张铁路遗址保护廊道示意"
      },
      "geometry": {
        "type": "LineString",
        "coordinates": [
          [
            116.3473,
            39.939
          ],
          [
            116.3473,
            40.0265
          ]
        ]
      }
    },
    {
      "type": "Feature",
      "id": "CONSTR-003",
      "properties": {
        "id": "CONSTR-003",
        "layer": "EXISTING_WATER",
        "source_type": "agent_inferred_from_public_data",
        "confidence": "low",
        "geometry_role": "existing_condition",
        "name_zh": "清河/水系示意"
      },
      "geometry": {
        "type": "LineString",
        "coordinates": [
          [
            116.3402,
            39.9505
          ],
          [
            116.3548,
            39.9505
          ]
        ]
      }
    }
  ]
}
