{
  "type": "FeatureCollection",
  "name": "jingzhang_next_stop_green_space",
  "features": [
    {
      "type": "Feature",
      "id": "GREEN-001",
      "properties": {
        "id": "GREEN-001",
        "layer": "GREEN_SPACE",
        "source_type": "agent_generated_design",
        "confidence": "medium",
        "geometry_role": "design_proposal",
        "green_space_type": "park",
        "name_zh": "公园绿地",
        "area_sqm_declared": 3483655.897
      },
      "geometry": {
        "type": "Polygon",
        "coordinates": [
          [
            [
              116.3468,
              39.939
            ],
            [
              116.3445,
              39.939
            ],
            [
              116.3445,
              39.9505
            ],
            [
              116.3468,
              39.9505
            ],
            [
              116.3468,
              39.962
            ],
            [
              116.3445,
              39.962
            ],
            [
              116.3445,
              39.99
            ],
            [
              116.3445,
              40.0075
            ],
            [
              116.3445,
              40.0265
            ],
            [
              116.3468,
              40.0265
            ],
            [
              116.349,
              40.0265
            ],
            [
              116.349,
              40.0075
            ],
            [
              116.349,
              39.99
            ],
            [
              116.349,
              39.962
            ],
            [
              116.349,
              39.9505
            ],
            [
              116.349,
              39.939
            ],
            [
              116.3468,
              39.939
            ]
          ]
        ]
      }
    },
    {
      "type": "Feature",
      "id": "GREEN-002",
      "properties": {
        "id": "GREEN-002",
        "layer": "GREEN_SPACE",
        "source_type": "agent_generated_design",
        "confidence": "medium",
        "geometry_role": "design_proposal",
        "green_space_type": "park",
        "name_zh": "公园绿地",
        "area_sqm_declared": 396266.658
      },
      "geometry": {
        "type": "Polygon",
        "coordinates": [
          [
            [
              116.354,
              40.0075
            ],
            [
              116.3518,
              40.0075
            ],
            [
              116.3518,
              40.0265
            ],
            [
              116.354,
              40.0265
            ],
            [
              116.354,
              40.0075
            ]
          ]
        ]
      }
    }
  ]
}
