{
  "type": "FeatureCollection",
  "name": "jingzhang_next_stop_land_use",
  "features": [
    {
      "type": "Feature",
      "id": "LU-001",
      "properties": {
        "id": "LU-001",
        "layer": "LAND_USE",
        "source_type": "agent_generated_design",
        "confidence": "medium",
        "geometry_role": "design_proposal",
        "land_use_code": "05",
        "name_zh": "商业服务业用地·大钟寺西翼",
        "official_boundary": false,
        "design_station": "zhongguancun_wing",
        "area_sqm_declared": 432141.083
      },
      "geometry": {
        "type": "Polygon",
        "coordinates": [
          [
            [
              116.3445,
              39.9505
            ],
            [
              116.3445,
              39.939
            ],
            [
              116.3407,
              39.939
            ],
            [
              116.34038055555556,
              39.9505
            ],
            [
              116.3445,
              39.9505
            ]
          ]
        ]
      }
    },
    {
      "type": "Feature",
      "id": "LU-002",
      "properties": {
        "id": "LU-002",
        "layer": "LAND_USE",
        "source_type": "agent_generated_design",
        "confidence": "medium",
        "geometry_role": "design_proposal",
        "land_use_code": "0702",
        "name_zh": "社区服务设施用地·西区",
        "official_boundary": false,
        "design_station": "zhongguancun_wing",
        "area_sqm_declared": 466926.257
      },
      "geometry": {
        "type": "Polygon",
        "coordinates": [
          [
            [
              116.3445,
              39.962
            ],
            [
              116.3445,
              39.9505
            ],
            [
              116.34038055555556,
              39.9505
            ],
            [
              116.34006111111111,
              39.962
            ],
            [
              116.3445,
              39.962
            ]
          ]
        ]
      }
    },
    {
      "type": "Feature",
      "id": "LU-003",
      "properties": {
        "id": "LU-003",
        "layer": "LAND_USE",
        "source_type": "agent_generated_design",
        "confidence": "medium",
        "geometry_role": "design_proposal",
        "land_use_code": "0804",
        "name_zh": "教育用地·近校服务",
        "official_boundary": false,
        "design_station": "zhongguancun_wing",
        "area_sqm_declared": 1183775.99
      },
      "geometry": {
        "type": "Polygon",
        "coordinates": [
          [
            [
              116.3445,
              39.99
            ],
            [
              116.3445,
              39.962
            ],
            [
              116.34006111111111,
              39.962
            ],
            [
              116.3397,
              39.975
            ],
            [
              116.34066774193548,
              39.99
            ],
            [
              116.3445,
              39.99
            ]
          ]
        ]
      }
    },
    {
      "type": "Feature",
      "id": "LU-004",
      "properties": {
        "id": "LU-004",
        "layer": "LAND_USE",
        "source_type": "agent_generated_design",
        "confidence": "medium",
        "geometry_role": "design_proposal",
        "land_use_code": "0802",
        "name_zh": "科研用地·西部研发",
        "official_boundary": false,
        "design_station": "zhongguancun_wing",
        "area_sqm_declared": 542443.869
      },
      "geometry": {
        "type": "Polygon",
        "coordinates": [
          [
            [
              116.3445,
              40.0075
            ],
            [
              116.3445,
              39.99
            ],
            [
              116.34066774193548,
              39.99
            ],
            [
              116.3417,
              40.006
            ],
            [
              116.34177317073171,
              40.0075
            ],
            [
              116.3445,
              40.0075
            ]
          ]
        ]
      }
    },
    {
      "type": "Feature",
      "id": "LU-005",
      "properties": {
        "id": "LU-005",
        "layer": "LAND_USE",
        "source_type": "agent_generated_design",
        "confidence": "medium",
        "geometry_role": "design_proposal",
        "land_use_code": "0802",
        "name_zh": "科研用地·众智园西拓",
        "official_boundary": false,
        "design_station": "zhongguancun_wing",
        "area_sqm_declared": 407701.369
      },
      "geometry": {
        "type": "Polygon",
        "coordinates": [
          [
            [
              116.3445,
              40.0075
            ],
            [
              116.34177317073171,
              40.0075
            ],
            [
              116.3427,
              40.0265
            ],
            [
              116.3445,
              40.0265
            ],
            [
              116.3445,
              40.0075
            ]
          ]
        ]
      }
    },
    {
      "type": "Feature",
      "id": "LU-006",
      "properties": {
        "id": "LU-006",
        "layer": "LAND_USE",
        "source_type": "agent_generated_design",
        "confidence": "medium",
        "geometry_role": "design_proposal",
        "land_use_code": "1401",
        "name_zh": "公园绿地·南端绿楔",
        "official_boundary": false,
        "design_station": "west_green_wedge",
        "area_sqm_declared": 251009.243
      },
      "geometry": {
        "type": "Polygon",
        "coordinates": [
          [
            [
              116.3445,
              39.9505
            ],
            [
              116.3468,
              39.9505
            ],
            [
              116.3468,
              39.939
            ],
            [
              116.3445,
              39.939
            ],
            [
              116.3445,
              39.9505
            ]
          ]
        ]
      }
    },
    {
      "type": "Feature",
      "id": "LU-007",
      "properties": {
        "id": "LU-007",
        "layer": "LAND_USE",
        "source_type": "agent_generated_design",
        "confidence": "medium",
        "geometry_role": "design_proposal",
        "land_use_code": "0702",
        "name_zh": "社区服务设施用地·西区社区",
        "official_boundary": false,
        "design_station": "west_green_wedge",
        "area_sqm_declared": 250967.706
      },
      "geometry": {
        "type": "Polygon",
        "coordinates": [
          [
            [
              116.3445,
              39.9505
            ],
            [
              116.3445,
              39.962
            ],
            [
              116.3468,
              39.962
            ],
            [
              116.3468,
              39.9505
            ],
            [
              116.3445,
              39.9505
            ]
          ]
        ]
      }
    },
    {
      "type": "Feature",
      "id": "LU-008",
      "properties": {
        "id": "LU-008",
        "layer": "LAND_USE",
        "source_type": "agent_generated_design",
        "confidence": "medium",
        "geometry_role": "design_proposal",
        "land_use_code": "1401",
        "name_zh": "公园绿地·原点西绿楔",
        "official_boundary": false,
        "design_station": "west_green_wedge",
        "area_sqm_declared": 610878.043
      },
      "geometry": {
        "type": "Polygon",
        "coordinates": [
          [
            [
              116.3445,
              39.962
            ],
            [
              116.3445,
              39.99
            ],
            [
              116.3468,
              39.99
            ],
            [
              116.3468,
              39.962
            ],
            [
              116.3445,
              39.962
            ]
          ]
        ]
      }
    },
    {
      "type": "Feature",
      "id": "LU-009",
      "properties": {
        "id": "LU-009",
        "layer": "LAND_USE",
        "source_type": "agent_generated_design",
        "confidence": "medium",
        "geometry_role": "design_proposal",
        "land_use_code": "1401",
        "name_zh": "公园绿地·西绿楔",
        "official_boundary": false,
        "design_station": "west_green_wedge",
        "area_sqm_declared": 381673.64
      },
      "geometry": {
        "type": "Polygon",
        "coordinates": [
          [
            [
              116.3445,
              39.99
            ],
            [
              116.3445,
              40.0075
            ],
            [
              116.3468,
              40.0075
            ],
            [
              116.3468,
              39.99
            ],
            [
              116.3445,
              39.99
            ]
          ]
        ]
      }
    },
    {
      "type": "Feature",
      "id": "LU-010",
      "properties": {
        "id": "LU-010",
        "layer": "LAND_USE",
        "source_type": "agent_generated_design",
        "confidence": "medium",
        "geometry_role": "design_proposal",
        "land_use_code": "1401",
        "name_zh": "公园绿地·清河界面",
        "official_boundary": false,
        "design_station": "west_green_wedge",
        "area_sqm_declared": 414279.48
      },
      "geometry": {
        "type": "Polygon",
        "coordinates": [
          [
            [
              116.3468,
              40.0075
            ],
            [
              116.3445,
              40.0075
            ],
            [
              116.3445,
              40.0265
            ],
            [
              116.3468,
              40.0265
            ],
            [
              116.3468,
              40.0075
            ]
          ]
        ]
      }
    },
    {
      "type": "Feature",
      "id": "LU-011",
      "properties": {
        "id": "LU-011",
        "layer": "LAND_USE",
        "source_type": "agent_generated_design",
        "confidence": "medium",
        "geometry_role": "design_proposal",
        "land_use_code": "1401",
        "name_zh": "公园绿地·京张遗址公园南段",
        "official_boundary": false,
        "design_station": "park_spine",
        "area_sqm_declared": 240095.671
      },
      "geometry": {
        "type": "Polygon",
        "coordinates": [
          [
            [
              116.3468,
              39.9505
            ],
            [
              116.349,
              39.9505
            ],
            [
              116.349,
              39.939
            ],
            [
              116.3468,
              39.939
            ],
            [
              116.3468,
              39.9505
            ]
          ]
        ]
      }
    },
    {
      "type": "Feature",
      "id": "LU-012",
      "properties": {
        "id": "LU-012",
        "layer": "LAND_USE",
        "source_type": "agent_generated_design",
        "confidence": "medium",
        "geometry_role": "design_proposal",
        "land_use_code": "1401",
        "name_zh": "公园绿地·京张遗址公园",
        "official_boundary": false,
        "design_station": "park_spine",
        "area_sqm_declared": 240055.939
      },
      "geometry": {
        "type": "Polygon",
        "coordinates": [
          [
            [
              116.3468,
              39.9505
            ],
            [
              116.3468,
              39.962
            ],
            [
              116.349,
              39.962
            ],
            [
              116.349,
              39.9505
            ],
            [
              116.3468,
              39.9505
            ]
          ]
        ]
      }
    },
    {
      "type": "Feature",
      "id": "LU-013",
      "properties": {
        "id": "LU-013",
        "layer": "LAND_USE",
        "source_type": "agent_generated_design",
        "confidence": "medium",
        "geometry_role": "design_proposal",
        "land_use_code": "1401",
        "name_zh": "公园绿地·清华园火车站段",
        "official_boundary": false,
        "design_station": "park_spine",
        "area_sqm_declared": 584317.82
      },
      "geometry": {
        "type": "Polygon",
        "coordinates": [
          [
            [
              116.3468,
              39.962
            ],
            [
              116.3468,
              39.99
            ],
            [
              116.349,
              39.99
            ],
            [
              116.349,
              39.962
            ],
            [
              116.3468,
              39.962
            ]
          ]
        ]
      }
    },
    {
      "type": "Feature",
      "id": "LU-014",
      "properties": {
        "id": "LU-014",
        "layer": "LAND_USE",
        "source_type": "agent_generated_design",
        "confidence": "medium",
        "geometry_role": "design_proposal",
        "land_use_code": "1401",
        "name_zh": "公园绿地·京张遗址公园北段",
        "official_boundary": false,
        "design_station": "park_spine",
        "area_sqm_declared": 365078.941
      },
      "geometry": {
        "type": "Polygon",
        "coordinates": [
          [
            [
              116.3468,
              39.99
            ],
            [
              116.3468,
              40.0075
            ],
            [
              116.349,
              40.0075
            ],
            [
              116.349,
              39.99
            ],
            [
              116.3468,
              39.99
            ]
          ]
        ]
      }
    },
    {
      "type": "Feature",
      "id": "LU-015",
      "properties": {
        "id": "LU-015",
        "layer": "LAND_USE",
        "source_type": "agent_generated_design",
        "confidence": "medium",
        "geometry_role": "design_proposal",
        "land_use_code": "1401",
        "name_zh": "公园绿地·京张铁路遗址北段",
        "official_boundary": false,
        "design_station": "park_spine",
        "area_sqm_declared": 396267.12
      },
      "geometry": {
        "type": "Polygon",
        "coordinates": [
          [
            [
              116.349,
              40.0075
            ],
            [
              116.3468,
              40.0075
            ],
            [
              116.3468,
              40.0265
            ],
            [
              116.349,
              40.0265
            ],
            [
              116.349,
              40.0075
            ]
          ]
        ]
      }
    },
    {
      "type": "Feature",
      "id": "LU-016",
      "properties": {
        "id": "LU-016",
        "layer": "LAND_USE",
        "source_type": "agent_generated_design",
        "confidence": "medium",
        "geometry_role": "design_proposal",
        "land_use_code": "05",
        "name_zh": "商业服务业用地·大钟寺场景站核心",
        "official_boundary": false,
        "design_station": "station_spine",
        "area_sqm_declared": 305576.13
      },
      "geometry": {
        "type": "Polygon",
        "coordinates": [
          [
            [
              116.349,
              39.9505
            ],
            [
              116.3518,
              39.9505
            ],
            [
              116.3518,
              39.939
            ],
            [
              116.349,
              39.939
            ],
            [
              116.349,
              39.9505
            ]
          ]
        ]
      }
    },
    {
      "type": "Feature",
      "id": "LU-017",
      "properties": {
        "id": "LU-017",
        "layer": "LAND_USE",
        "source_type": "agent_generated_design",
        "confidence": "medium",
        "geometry_role": "design_proposal",
        "land_use_code": "05",
        "name_zh": "商业服务业用地·智能经济街区",
        "official_boundary": false,
        "design_station": "station_spine",
        "area_sqm_declared": 305525.562
      },
      "geometry": {
        "type": "Polygon",
        "coordinates": [
          [
            [
              116.349,
              39.9505
            ],
            [
              116.349,
              39.962
            ],
            [
              116.3518,
              39.962
            ],
            [
              116.3518,
              39.9505
            ],
            [
              116.349,
              39.9505
            ]
          ]
        ]
      }
    },
    {
      "type": "Feature",
      "id": "LU-018",
      "properties": {
        "id": "LU-018",
        "layer": "LAND_USE",
        "source_type": "agent_generated_design",
        "confidence": "medium",
        "geometry_role": "design_proposal",
        "land_use_code": "0803",
        "name_zh": "文化用地·AI原点发布与协作",
        "official_boundary": false,
        "design_station": "station_spine",
        "area_sqm_declared": 743676.79
      },
      "geometry": {
        "type": "Polygon",
        "coordinates": [
          [
            [
              116.349,
              39.962
            ],
            [
              116.349,
              39.99
            ],
            [
              116.3518,
              39.99
            ],
            [
              116.3518,
              39.962
            ],
            [
              116.349,
              39.962
            ]
          ]
        ]
      }
    },
    {
      "type": "Feature",
      "id": "LU-019",
      "properties": {
        "id": "LU-019",
        "layer": "LAND_USE",
        "source_type": "agent_generated_design",
        "confidence": "medium",
        "geometry_role": "design_proposal",
        "land_use_code": "0802",
        "name_zh": "科研用地·中区研发孵化",
        "official_boundary": false,
        "design_station": "station_spine",
        "area_sqm_declared": 464645.654
      },
      "geometry": {
        "type": "Polygon",
        "coordinates": [
          [
            [
              116.349,
              39.99
            ],
            [
              116.349,
              40.0075
            ],
            [
              116.3518,
              40.0075
            ],
            [
              116.3518,
              39.99
            ],
            [
              116.349,
              39.99
            ]
          ]
        ]
      }
    },
    {
      "type": "Feature",
      "id": "LU-020",
      "properties": {
        "id": "LU-020",
        "layer": "LAND_USE",
        "source_type": "agent_generated_design",
        "confidence": "medium",
        "geometry_role": "design_proposal",
        "land_use_code": "0802",
        "name_zh": "科研用地·众智园加速核心",
        "official_boundary": false,
        "design_station": "station_spine",
        "area_sqm_declared": 504339.676
      },
      "geometry": {
        "type": "Polygon",
        "coordinates": [
          [
            [
              116.3518,
              40.0075
            ],
            [
              116.349,
              40.0075
            ],
            [
              116.349,
              40.0265
            ],
            [
              116.3518,
              40.0265
            ],
            [
              116.3518,
              40.0075
            ]
          ]
        ]
      }
    },
    {
      "type": "Feature",
      "id": "LU-021",
      "properties": {
        "id": "LU-021",
        "layer": "LAND_USE",
        "source_type": "agent_generated_design",
        "confidence": "medium",
        "geometry_role": "design_proposal",
        "land_use_code": "05",
        "name_zh": "商业服务业用地·大钟寺东商务",
        "official_boundary": false,
        "design_station": "east_green_wedge",
        "area_sqm_declared": 240095.391
      },
      "geometry": {
        "type": "Polygon",
        "coordinates": [
          [
            [
              116.3518,
              39.9505
            ],
            [
              116.354,
              39.9505
            ],
            [
              116.354,
              39.939
            ],
            [
              116.3518,
              39.939
            ],
            [
              116.3518,
              39.9505
            ]
          ]
        ]
      }
    },
    {
      "type": "Feature",
      "id": "LU-022",
      "properties": {
        "id": "LU-022",
        "layer": "LAND_USE",
        "source_type": "agent_generated_design",
        "confidence": "medium",
        "geometry_role": "design_proposal",
        "land_use_code": "0702",
        "name_zh": "社区服务设施用地·东区",
        "official_boundary": false,
        "design_station": "east_green_wedge",
        "area_sqm_declared": 240055.659
      },
      "geometry": {
        "type": "Polygon",
        "coordinates": [
          [
            [
              116.3518,
              39.9505
            ],
            [
              116.3518,
              39.962
            ],
            [
              116.354,
              39.962
            ],
            [
              116.354,
              39.9505
            ],
            [
              116.3518,
              39.9505
            ]
          ]
        ]
      }
    },
    {
      "type": "Feature",
      "id": "LU-023",
      "properties": {
        "id": "LU-023",
        "layer": "LAND_USE",
        "source_type": "agent_generated_design",
        "confidence": "medium",
        "geometry_role": "design_proposal",
        "land_use_code": "0702",
        "name_zh": "社区服务设施用地·近校配套",
        "official_boundary": false,
        "design_station": "east_green_wedge",
        "area_sqm_declared": 555270.927
      },
      "geometry": {
        "type": "Polygon",
        "coordinates": [
          [
            [
              116.354,
              39.962
            ],
            [
              116.3518,
              39.962
            ],
            [
              116.3518,
              39.99
            ],
            [
              116.3533,
              39.99
            ],
            [
              116.354,
              39.981250000000045
            ],
            [
              116.354,
              39.962
            ]
          ]
        ]
      }
    },
    {
      "type": "Feature",
      "id": "LU-024",
      "properties": {
        "id": "LU-024",
        "layer": "LAND_USE",
        "source_type": "agent_generated_design",
        "confidence": "medium",
        "geometry_role": "design_proposal",
        "land_use_code": "0802",
        "name_zh": "科研用地·东区研发",
        "official_boundary": false,
        "design_station": "east_green_wedge",
        "area_sqm_declared": 322673.795
      },
      "geometry": {
        "type": "Polygon",
        "coordinates": [
          [
            [
              116.3518,
              39.99
            ],
            [
              116.3518,
              40.0075
            ],
            [
              116.354,
              40.0075
            ],
            [
              116.354,
              40.002774999999936
            ],
            [
              116.3533,
              39.99
            ],
            [
              116.3518,
              39.99
            ]
          ]
        ]
      }
    },
    {
      "type": "Feature",
      "id": "LU-025",
      "properties": {
        "id": "LU-025",
        "layer": "LAND_USE",
        "source_type": "agent_generated_design",
        "confidence": "medium",
        "geometry_role": "design_proposal",
        "land_use_code": "1401",
        "name_zh": "公园绿地·清河界面东段",
        "official_boundary": false,
        "design_station": "east_green_wedge",
        "area_sqm_declared": 396266.658
      },
      "geometry": {
        "type": "Polygon",
        "coordinates": [
          [
            [
              116.354,
              40.0075
            ],
            [
              116.3518,
              40.0075
            ],
            [
              116.3518,
              40.0265
            ],
            [
              116.354,
              40.0265
            ],
            [
              116.354,
              40.0075
            ]
          ]
        ]
      }
    },
    {
      "type": "Feature",
      "id": "LU-026",
      "properties": {
        "id": "LU-026",
        "layer": "LAND_USE",
        "source_type": "agent_generated_design",
        "confidence": "medium",
        "geometry_role": "design_proposal",
        "land_use_code": "05",
        "name_zh": "商业服务业用地·大钟寺东商务",
        "official_boundary": false,
        "design_station": "xiaoyuehe_wing",
        "area_sqm_declared": 141874.491
      },
      "geometry": {
        "type": "Polygon",
        "coordinates": [
          [
            [
              116.3553,
              39.939
            ],
            [
              116.354,
              39.939
            ],
            [
              116.354,
              39.9505
            ],
            [
              116.3553,
              39.9505
            ],
            [
              116.3553,
              39.939
            ]
          ]
        ]
      }
    },
    {
      "type": "Feature",
      "id": "LU-027",
      "properties": {
        "id": "LU-027",
        "layer": "LAND_USE",
        "source_type": "agent_generated_design",
        "confidence": "medium",
        "geometry_role": "design_proposal",
        "land_use_code": "0702",
        "name_zh": "社区服务设施用地·东区",
        "official_boundary": false,
        "design_station": "xiaoyuehe_wing",
        "area_sqm_declared": 141851.014
      },
      "geometry": {
        "type": "Polygon",
        "coordinates": [
          [
            [
              116.3553,
              39.9505
            ],
            [
              116.354,
              39.9505
            ],
            [
              116.354,
              39.962
            ],
            [
              116.3553,
              39.962
            ],
            [
              116.3553,
              39.9505
            ]
          ]
        ]
      }
    },
    {
      "type": "Feature",
      "id": "LU-028",
      "properties": {
        "id": "LU-028",
        "layer": "LAND_USE",
        "source_type": "agent_generated_design",
        "confidence": "medium",
        "geometry_role": "design_proposal",
        "land_use_code": "0702",
        "name_zh": "社区服务设施用地·东区",
        "official_boundary": false,
        "design_station": "xiaoyuehe_wing",
        "area_sqm_declared": 137208.664
      },
      "geometry": {
        "type": "Polygon",
        "coordinates": [
          [
            [
              116.3553,
              39.962
            ],
            [
              116.354,
              39.962
            ],
            [
              116.354,
              39.981250000000045
            ],
            [
              116.3553,
              39.965
            ],
            [
              116.3553,
              39.962
            ]
          ]
        ]
      }
    },
    {
      "type": "Feature",
      "id": "LU-029",
      "properties": {
        "id": "LU-029",
        "layer": "LAND_USE",
        "source_type": "agent_generated_design",
        "confidence": "medium",
        "geometry_role": "design_proposal",
        "land_use_code": "0702",
        "name_zh": "社区服务设施用地·东区",
        "official_boundary": false,
        "design_station": "xiaoyuehe_wing",
        "area_sqm_declared": 5799.375
      },
      "geometry": {
        "type": "Polygon",
        "coordinates": [
          [
            [
              116.354,
              40.0075
            ],
            [
              116.35425890410959,
              40.0075
            ],
            [
              116.354,
              40.002774999999936
            ],
            [
              116.354,
              40.0075
            ]
          ]
        ]
      }
    },
    {
      "type": "Feature",
      "id": "LU-030",
      "properties": {
        "id": "LU-030",
        "layer": "LAND_USE",
        "source_type": "agent_generated_design",
        "confidence": "medium",
        "geometry_role": "design_proposal",
        "land_use_code": "0802",
        "name_zh": "科研用地·众智园东拓",
        "official_boundary": false,
        "design_station": "xiaoyuehe_wing",
        "area_sqm_declared": 140382.802
      },
      "geometry": {
        "type": "Polygon",
        "coordinates": [
          [
            [
              116.3553,
              40.0265
            ],
            [
              116.35425890410959,
              40.0075
            ],
            [
              116.354,
              40.0075
            ],
            [
              116.354,
              40.0265
            ],
            [
              116.3553,
              40.0265
            ]
          ]
        ]
      }
    }
  ]
}
