{
  "type": "FeatureCollection",
  "name": "jingzhang_next_stop_public_space",
  "features": [
    {
      "type": "Feature",
      "id": "PUBLIC-001",
      "properties": {
        "id": "PUBLIC-001",
        "layer": "PUBLIC_SPACE",
        "source_type": "agent_generated_design",
        "confidence": "medium",
        "geometry_role": "design_proposal",
        "public_space_type": "plaza",
        "name_zh": "大钟寺场景广场",
        "area_sqm_declared": 45836.42
      },
      "geometry": {
        "type": "Polygon",
        "coordinates": [
          [
            [
              116.34956,
              39.9433125
            ],
            [
              116.34956,
              39.9461875
            ],
            [
              116.35123999999999,
              39.9461875
            ],
            [
              116.35123999999999,
              39.9433125
            ],
            [
              116.34956,
              39.9433125
            ]
          ]
        ]
      }
    },
    {
      "type": "Feature",
      "id": "PUBLIC-002",
      "properties": {
        "id": "PUBLIC-002",
        "layer": "PUBLIC_SPACE",
        "source_type": "agent_generated_design",
        "confidence": "medium",
        "geometry_role": "design_proposal",
        "public_space_type": "plaza",
        "name_zh": "原点发布广场",
        "area_sqm_declared": 133861.826
      },
      "geometry": {
        "type": "Polygon",
        "coordinates": [
          [
            [
              116.34956,
              39.9718
            ],
            [
              116.34956,
              39.980199999999996
            ],
            [
              116.35123999999999,
              39.980199999999996
            ],
            [
              116.35123999999999,
              39.9718
            ],
            [
              116.34956,
              39.9718
            ]
          ]
        ]
      }
    },
    {
      "type": "Feature",
      "id": "PUBLIC-003",
      "properties": {
        "id": "PUBLIC-003",
        "layer": "PUBLIC_SPACE",
        "source_type": "agent_generated_design",
        "confidence": "medium",
        "geometry_role": "design_proposal",
        "public_space_type": "plaza",
        "name_zh": "众智园加速广场",
        "area_sqm_declared": 90781.143
      },
      "geometry": {
        "type": "Polygon",
        "coordinates": [
          [
            [
              116.34956,
              40.014149999999994
            ],
            [
              116.34956,
              40.01985
            ],
            [
              116.35123999999999,
              40.01985
            ],
            [
              116.35123999999999,
              40.014149999999994
            ],
            [
              116.34956,
              40.014149999999994
            ]
          ]
        ]
      }
    },
    {
      "type": "Feature",
      "id": "PUBLIC-004",
      "properties": {
        "id": "PUBLIC-004",
        "layer": "PUBLIC_SPACE",
        "source_type": "agent_generated_design",
        "confidence": "medium",
        "geometry_role": "design_proposal",
        "public_space_type": "plaza",
        "name_zh": "遗址公园站台广场",
        "area_sqm_declared": 122706.745
      },
      "geometry": {
        "type": "Polygon",
        "coordinates": [
          [
            [
              116.34724,
              39.97110000000001
            ],
            [
              116.34724,
              39.980900000000005
            ],
            [
              116.34855999999999,
              39.980900000000005
            ],
            [
              116.34855999999999,
              39.97110000000001
            ],
            [
              116.34724,
              39.97110000000001
            ]
          ]
        ]
      }
    }
  ]
}
